Coordinates

Units are S.I. units (second, meters, Newtons, ...)
If the header above contains a line with 'inDegrees', this indicates whether rotational values are in degrees (yes) or radians (no).

inDegrees=yes
nColumns=34
nRows=52
DataType=double
version=3
OpenSimVersion=4.5-2023-11-26-efcdfd3eb
endheader
time	pelvis_tilt	pelvis_tx	pelvis_ty	hip_flexion_l	hip_flexion_r	knee_angle_l	knee_angle_r	ankle_angle_l	ankle_angle_r	mtp_angle_l	mtp_angle_r	lumbar_ext	shoulder_flexion_r	elbow_flexion_r	shoulder_flexion_l	elbow_flexion_l
0.15	-2.22132951	0.02670529	0.8458351	-9.84932706	26.92205333	-41.90291187	-22.41802851	-26.29905369	-7.41728457	-10.40762653	-17.26695561	-2.46873315	-12.8416055	27.97111833	6.42416304	52.64145278
0.16	-1.678433	0.04148533	0.84878042	-8.46095188	25.48079241	-45.10020125	-22.81651802	-26.85140932	-6.74301535	-10.33919112	-17.11499265	-3.28230746	-12.15759785	28.13189539	5.95824192	51.57045807
0.17	-2.33489547	0.05558078	0.85012223	-5.09251606	25.35731167	-48.96781074	-23.1553441	-26.0223037	-6.01524249	-13.28455236	-16.6274254	-2.47356534	-11.61457019	28.1297876	5.48397445	49.83989324
0.18	-2.05778016	0.06965705	0.85314892	-2.96081746	23.89342717	-52.11635255	-22.88373455	-25.05183756	-5.21148065	-13.63975476	-16.37096109	-2.87637725	-10.96240888	28.50002341	5.20471688	48.20978366
0.19	-2.1808259	0.08332703	0.85578424	-0.20774556	22.78685692	-55.19746223	-22.46350947	-23.48105071	-4.32959577	-14.6672971	-15.80688176	-2.79790602	-10.32807267	28.86180718	4.9176281	46.46263397
0.2	-2.08163525	0.09690022	0.85892588	2.14881647	21.28664135	-57.79671933	-21.79867339	-21.46378202	-3.48147239	-15.01231958	-15.39462553	-3.04062158	-9.666141959999999	29.44027968	4.68123578	44.69773933
0.21	-2.03087904	0.11049608	0.86212129	4.45540948	19.71820516	-59.94774301	-20.93908591	-19.23155415	-2.66325664	-15.05622374	-15.08399354	-3.2066221	-9.030737759999999	30.1300903	4.4166645	42.92488328
0.22	-2.21024263	0.12377783	0.86489635	7.12007181	18.38026625	-61.95528573	-19.9662631	-16.55147756	-2.02877288	-17.76999323	-13.12291235	-3.12142422	-8.925278260000001	31.52412816	4.68367954	40.49117938
0.23	-2.27439584	0.13715128	0.86794154	9.40394862	16.83866253	-63.26446206	-18.91205885	-14.25431224	-1.45848649	-17.50539849	-13.03467684	-3.18997254	-8.312614760000001	32.42863448	4.39512811	38.76510354
0.24	-2.41850806	0.15052252	0.87076474	11.62635813	15.36942863	-64.10375934	-17.84397068	-12.03013568	-0.9604401299999999	-17.39060413	-12.89889335	-3.17823828	-7.81710829	33.56762985	4.14840869	36.9856744
0.25	-2.59214569	0.16388202	0.87336342	13.73772182	13.92164748	-64.48240453	-16.75156009	-10.0000481	-0.49160587	-17.68890569	-12.60545866	-3.14315529	-7.56803935	35.09899627	4.11396876	35.00055188
0.26	-2.80064569	0.17730561	0.87579395	15.72658975	12.48565975	-64.35739006999999	-15.57269561	-8.57170277	-0.38223288	-17.59636105	-12.63024685	-3.09178843	-6.89896102	36.25557223	3.50197666	33.81826577
0.27	-2.73735936	0.19074007	0.87823935	17.1328362	10.82913837	-63.70728556	-14.58717907	-6.78948611	0.07728931	-19.35076518	-11.9426971	-3.35825484	-7.39608386	38.81857057	4.29954245	31.04967208
0.28	-3.02974807	0.20389945	0.8799292399999999	18.96947137	9.612107849999999	-62.75002771	-13.55866633	-5.63302089	0.13157451	-19.50932544	-11.92865595	-3.22935122	-6.90143405	40.24938773	3.87100404	29.69481789
0.29	-3.20328662	0.21721402	0.8814412	20.45000201	8.28976696	-61.33250968	-12.59187937	-4.7231954	0.32683273	-19.87554944	-11.86170122	-3.22405693	-6.41963404	41.84686523	3.39811051	28.5282618
0.3	-3.53101892	0.23058122	0.88228474	22.10744675	7.17478466	-59.66162155	-11.62790622	-4.12175836	0.44089249	-20.01805971	-11.88124023	-2.96609282	-5.7707586	43.28026939	2.59577935	27.63579232
0.31	-3.37265922	0.24377023	0.88359105	22.84301322	5.56736663	-57.35784924	-10.75858808	-3.43659599	0.80419828	-20.7847795	-11.6057772	-3.42195952	-5.41730536	45.10842311	2.35867941	26.61236502
0.32	-3.73096651	0.25699547	0.88356658	24.30028338	4.5330976	-55.0466874	-9.80854162	-2.86972389	0.95553182	-21.00510104	-11.56715279	-3.14331861	-4.84464173	46.72870457	1.58116116	25.81750386
0.33	-4.05577363	0.27001671	0.8831829	25.66415231	3.64203545	-52.41090931	-9.199696380000001	-2.51570312	1.26350198	-21.16976412	-11.53663367	-2.88927811	-4.13940932	48.04513572	0.7764427699999999	25.19840196
0.34	-3.96881619	0.28334622	0.88318794	26.11449387	2.0841292	-49.2281872	-8.1972991	-1.631411	1.66004994	-21.2943787	-11.28505265	-3.22627373	-3.60451685	49.85941579	0.11683822	24.6792039
0.35	-3.85221622	0.29660572	0.88275475	26.5697298	0.60472141	-45.81287815	-7.34021739	-1.09510373	1.92109603	-20.10583442	-8.974637209999999	-3.58977591	-1.93958137	50.59664515	-1.80145505	25.70531784
0.36	-3.93460833	0.3097398	0.88161151	27.1984583	-0.60931454	-42.21677078	-6.62736102	-0.39234278	2.40592627	-18.73464468	-9.32758443	-3.72535652	0.02734884	50.91047267	-4.07652956	27.15297261
0.37	-4.39977306	0.3225805	0.87954432	28.31380165	-1.30433064	-38.5961556	-6.09386634	0.2630562	2.81222549	-18.83880497	-9.30173377	-3.34333695	0.71929644	52.26779379	-4.85944423	26.68111288
0.38	-4.06110462	0.33594076	0.87848678	28.0576002	-2.97215127	-34.35753114	-5.4259299	1.49360497	3.44989246	-18.23114699	-8.996513200000001	-3.94306789	1.73637075	53.49546207	-5.86102831	26.82988089
0.39	-4.0745172	0.34901998	0.87627248	28.33587619	-4.17880428	-30.12901848	-4.89129821	2.05322977	3.98347555	-15.47024217	-7.70685995	-4.18110862	4.42063811	52.94213733	-8.70240785	29.11384722
0.4	-4.13277271	0.36220877	0.87399803	28.47692629	-5.27087409	-25.8059188	-4.54924579	2.84971704	4.60431975	-15.58835529	-7.63177437	-4.28010091	5.24322097	54.10418423	-9.463778319999999	28.92520042
0.41	-4.13656827	0.37553008	0.87149635	28.47870641	-6.39124419	-21.47756822	-4.30576597	3.41962379	5.25554795	-15.78292242	-7.39282298	-4.43746347	6.27359777	54.98936025	-10.42479179	29.05468009
0.42	-4.15175547	0.38895822	0.86879153	28.40926898	-7.44290547	-17.25453628	-4.21139213	3.70572491	5.95122106	-16.30542341	-7.15507695	-4.56479912	7.25707617	55.76328958	-11.30647515	29.15102009
0.43	-4.59333661	0.4024942	0.86520745	28.9538183	-8.01141578	-13.6092464	-4.23234807	3.96883547	6.45666703	-16.59955045	-7.07867651	-4.13916864	7.90619603	56.72275511	-11.97073737	28.7241622
0.44	-4.81603777	0.41632919	0.86197607	29.07647354	-8.753079169999999	-10.10771871	-4.41083239	3.85824153	6.9985819	-17.07093923	-6.98906188	-3.93885932	8.46943873	57.5541034	-12.47180026	28.31425433
0.45	-3.99453381	0.43033806	0.8600702099999999	27.95550849	-10.60089797	-7.02706186	-4.65677278	3.81637027	7.94926035	-21.17683255	-6.56157199	-5.07921967	10.27191858	57.28553092	-13.85288083	29.5708559
0.46	-3.98548326	0.44453462	0.85722021	27.86607458	-11.48123994	-4.75226903	-5.10747178	3.50415477	8.4845218	-22.2577846	-6.49234004	-5.14566832	10.7120431	57.99962546	-14.17676666	29.2383118
0.47	-3.83537821	0.45903543	0.85465684	27.69937547	-12.48861666	-3.23031756	-5.62872848	3.29817193	8.939096859999999	-23.75470267	-6.53536355	-5.36427212	11.13958036	58.58534742	-14.48936199	28.97072355
0.48	-3.80900176	0.4736547	0.85212308	27.79191302	-13.27978732	-2.52792236	-6.29744726	3.17994488	9.10980415	-24.14181118	-6.52296932	-5.38396675	11.43236132	58.98386459	-14.64537915	28.45465036
0.49	-3.56670561	0.48867374	0.85014344	27.64505658	-14.25500219	-2.45661092	-7.03202521	2.87355178	9.29012666	-24.85720203	-6.61149688	-5.64537672	11.51924827	59.48793448	-14.72879533	28.1424871
0.5	-3.36267941	0.50392674	0.84835636	27.66417107	-15.12363831	-3.13558889	-7.88302281	2.62366503	9.13688292	-25.34229887	-6.6909803	-5.81528792	11.48216641	59.86070461	-14.7104845	27.7240989
0.51	-3.1755081	0.51946676	0.84684771	27.75883943	-15.89312204	-4.4107495	-8.84957251	2.22195881	8.720409030000001	-25.56082297	-6.68412853	-5.92295136	11.23998184	60.20663328	-14.59014459	27.25800188
0.52	-2.96643496	0.53525784	0.845611	27.92573336	-16.63148617	-6.29288978	-9.887765610000001	1.88258896	7.85192112	-25.46759466	-6.65754689	-6.01012606	11.0557772	60.21608418	-14.56336855	26.9149097
0.53	-2.73634103	0.5512513	0.84473878	28.04705563	-17.28758054	-8.452030430000001	-11.06831383	1.31065041	6.62185467	-25.35085956	-6.63427814	-6.10807254	10.76110952	60.12853572	-14.50316406	26.69045692
0.54	-2.48896647	0.56764152	0.84418457	28.13192179	-17.85175282	-10.85442883	-12.4430525	0.62420717	5.14897508	-25.21238814	-6.57163137	-6.1596552	10.31742614	59.97013422	-14.4281869	26.52217042
0.55	-2.24322086	0.58422838	0.84392279	28.17439238	-18.27212906	-13.32914905	-14.0232616	-0.16005391	3.35879497	-25.0764811	-6.47751546	-6.19543917	9.756640709999999	59.71990057	-14.32113369	26.44040828
0.5600000000000001	-2.74841586	0.60098796	0.84292029	29.03083256	-17.65528481	-15.67960497	-16.07129124	-2.08177256	1.36329311	-24.74034537	-4.21161707	-5.30822958	8.34109587	60.16586894	-13.73363755	25.7292352
0.57	-2.47057025	0.6178599	0.84340864	28.83165086	-17.75847523	-17.95475777	-18.12771908	-2.69434422	-1.30018158	-24.6485619	-3.91308783	-5.33329289	7.69533014	59.62994471	-13.62371823	25.82349885
0.58	-2.73231964	0.63474745	0.84357431	29.10769199	-17.08589157	-19.97965469	-20.31325972	-3.48888369	-4.71131785	-24.79184559	1.92987117	-4.69295651	6.25701156	59.60490028	-12.84160204	25.0233388
0.59	-2.49827906	0.65143651	0.84466508	28.65581692	-16.67815791	-21.69511495	-22.96493565	-3.71230185	-7.70840593	-24.66903889	1.93982136	-4.71544935	5.5710772	58.84822112	-12.66907868	25.36652301
0.6	-2.49493367	0.66807163	0.8457819	28.29094523	-15.80284636	-23.0841246	-25.84308632	-3.7862381	-10.9698558	-24.50584389	1.98329852	-4.45152983	4.80801795	57.93050669	-12.47361991	25.80641118
0.61	-2.20133423	0.68413997	0.8475644	27.50134293	-15.00430374	-24.28159226	-28.90170254	-3.45273229	-13.6590028	-24.28756989	1.97545804	-4.62307737	4.13805003	56.94854251	-12.02546364	26.22168667
0.62	-2.61379223	0.70055236	0.84865655	27.20137645	-13.16965887	-24.96413816	-32.20240088	-3.00542429	-17.06256681	-23.92658232	1.65217058	-3.83845231	3.32741957	55.70359102	-11.88133523	26.80426314
0.63	-2.66264961	0.716218	0.85043875	26.41914213	-11.50389768	-25.48232326	-35.60894067	-2.17358217	-19.4352926	-23.46395829	1.1251803	-3.59759569	2.6685729	54.45270556	-11.43063871	27.28560675
0.64	-3.04218278	0.73143715	0.85209748	25.86697066	-9.15280798	-25.75227423	-39.34227246	-1.39006041	-20.76189558	-20.7954295	-5.70860376	-2.97680226	1.68836222	53.26300204	-10.54750633	27.27984751
0.65	-2.98974397	0.74680702	0.85438296	24.57117218	-7.28694172	-25.50447482	-42.62686553	-0.33061216	-22.07729129	-20.49988697	-6.2727184	-2.86349804	1.11827712	51.80077502	-10.0764158	28.0321999
0.66	-3.26942836	0.76151591	0.85639284	23.62360183	-4.78418184	-25.24012804	-46.07942023	0.75850439	-22.19979291	-19.17983771	-12.24796593	-2.41585311	0.5137405	50.28990437	-9.40293632	28.49382363
