Model Marker Errors from IK
version=1
nRows=52
nColumns=4
inDegrees=no
endheader
time	total_squared_error	marker_error_RMS	marker_error_max
      0.15000000	      0.01063968	      0.01630926	      0.04286476
      0.16000000	      0.01060763	      0.01628468	      0.04331178
      0.17000000	      0.01052888	      0.01622412	      0.04317979
      0.18000000	      0.01047104	      0.01617949	      0.04340734
      0.19000000	      0.01042015	      0.01614013	      0.04357999
      0.20000000	      0.01039024	      0.01611695	      0.04360243
      0.21000000	      0.01038792	      0.01611515	      0.04390381
      0.22000000	      0.01040212	      0.01612616	      0.04400041
      0.23000000	      0.01045166	      0.01616452	      0.04410992
      0.24000000	      0.01052608	      0.01622196	      0.04411782
      0.25000000	      0.01061845	      0.01629299	      0.04396542
      0.26000000	      0.01073511	      0.01638224	      0.04392708
      0.27000000	      0.01084576	      0.01646645	      0.04324889
      0.28000000	      0.01097873	      0.01656708	      0.04297356
      0.29000000	      0.01111497	      0.01666956	      0.04299949
      0.30000000	      0.01125220	      0.01677215	      0.04386294
      0.31000000	      0.01136416	      0.01685538	      0.04433791
      0.32000000	      0.01145511	      0.01692270	      0.04515750
      0.33000000	      0.01152530	      0.01697447	      0.04561264
      0.34000000	      0.01151944	      0.01697015	      0.04610555
      0.35000000	      0.01147638	      0.01693840	      0.04685460
      0.36000000	      0.01138648	      0.01687193	      0.04738673
      0.37000000	      0.01127751	      0.01679100	      0.04729087
      0.38000000	      0.01114065	      0.01668881	      0.04745225
      0.39000000	      0.01100023	      0.01658329	      0.04747738
      0.40000000	      0.01090157	      0.01650876	      0.04733680
      0.41000000	      0.01084013	      0.01646218	      0.04719290
      0.42000000	      0.01082071	      0.01644743	      0.04702956
      0.43000000	      0.01085179	      0.01647103	      0.04689295
      0.44000000	      0.01091278	      0.01651725	      0.04689158
      0.45000000	      0.01093906	      0.01653713	      0.04667595
      0.46000000	      0.01098408	      0.01657112	      0.04668256
      0.47000000	      0.01099544	      0.01657968	      0.04662394
      0.48000000	      0.01096613	      0.01655758	      0.04674354
      0.49000000	      0.01089088	      0.01650067	      0.04683313
      0.50000000	      0.01078828	      0.01642276	      0.04685741
      0.51000000	      0.01067618	      0.01633721	      0.04695471
      0.52000000	      0.01057269	      0.01625784	      0.04699319
      0.53000000	      0.01049183	      0.01619555	      0.04701032
      0.54000000	      0.01043730	      0.01615341	      0.04700661
      0.55000000	      0.01041671	      0.01613746	      0.04714106
      0.56000000	      0.01038341	      0.01611165	      0.04712694
      0.57000000	      0.01042242	      0.01614188	      0.04700564
      0.58000000	      0.01047293	      0.01618096	      0.04704494
      0.59000000	      0.01056910	      0.01625508	      0.04703317
      0.60000000	      0.01067514	      0.01633642	      0.04680681
      0.61000000	      0.01078918	      0.01642344	      0.04668200
      0.62000000	      0.01086608	      0.01648187	      0.04634726
      0.63000000	      0.01094176	      0.01653916	      0.04604752
      0.64000000	      0.01098403	      0.01657108	      0.04586697
      0.65000000	      0.01103991	      0.01661318	      0.04561946
      0.66000000	      0.01108586	      0.01664772	      0.04525691
