Coordinates
version=1
nRows=52
nColumns=34
inDegrees=yes

Units are S.I. units (second, meters, Newtons, ...)
If the header above contains a line with 'inDegrees', this indicates whether rotational values are in degrees (yes) or radians (no).

endheader
time	pelvis_tilt	pelvis_list	pelvis_rotation	pelvis_tx	pelvis_ty	pelvis_tz	hip_flexion_l	hip_adduction_l	hip_rotation_l	hip_flexion_r	hip_adduction_r	hip_rotation_r	knee_angle_l_beta	knee_angle_r_beta	knee_angle_l	knee_angle_r	ankle_angle_l	ankle_angle_r	subtalar_angle_l	subtalar_angle_r	mtp_angle_l	mtp_angle_r	lumbar_ext	lumbar_bend	lumbar_rota	shoulder_flexion_r	shoulder_adduction_r	shoulder_rotation_r	elbow_flexion_r	shoulder_flexion_l	shoulder_adduction_l	shoulder_rotation_l	elbow_flexion_l
      0.15000000	     -2.22132951	     -6.50187080	      5.64585322	      0.02670529	      0.84583510	     -0.30131954	     -9.84932706	    -12.44788841	    -11.29076941	     26.92205333	      6.36842053	    -11.60921633	      0.73134378	      0.39126841	    -41.90291187	    -22.41802851	    -26.29905369	     -7.41728457	     11.59391081	     -2.98695899	    -10.40762653	    -17.26695561	     -2.46873315	      9.04669541	     -1.99230994	    -12.84160550	     -1.00217400	    -10.26296609	     27.97111833	      6.42416304	     -1.46517896	      6.53989607	     52.64145278
      0.16000000	     -1.67843300	     -6.53819182	      5.36342966	      0.04148533	      0.84878042	     -0.29929779	     -8.46095188	    -12.73477672	    -10.53968629	     25.48079241	      6.97299596	    -10.80058665	      0.78714701	      0.39822336	    -45.10020125	    -22.81651802	    -26.85140932	     -6.74301535	     10.97023053	     -3.20754807	    -10.33919112	    -17.11499265	     -3.28230746	      8.97446480	     -1.40835250	    -12.15759785	     -1.05847600	    -10.03625713	     28.13189539	      5.95824192	     -1.40431359	      6.05223190	     51.57045807
      0.17000000	     -2.33489547	     -6.73325468	      5.65444057	      0.05558078	      0.85012223	     -0.29832355	     -5.09251606	    -12.90992307	     -8.70235184	     25.35731167	      7.28184539	    -10.75838083	      0.85464952	      0.40413699	    -48.96781074	    -23.15534410	    -26.02230370	     -6.01524249	      8.88291513	     -3.87665539	    -13.28455236	    -16.62742540	     -2.47356534	      8.97639307	     -1.52859011	    -11.61457019	     -1.27174742	     -9.22731225	     28.12978760	      5.48397445	     -1.31485976	      5.63617109	     49.83989324
      0.18000000	     -2.05778016	     -6.81786839	      5.85247860	      0.06965705	      0.85314892	     -0.29716616	     -2.96081746	    -13.01355467	     -7.32309254	     23.89342717	      7.67950488	    -10.65506021	      0.90960195	      0.39939651	    -52.11635255	    -22.88373455	    -25.05183756	     -5.21148065	      7.54820801	     -4.09908973	    -13.63975476	    -16.37096109	     -2.87637725	      8.94008840	     -1.35173374	    -10.96240888	     -1.40676474	     -8.80285964	     28.50002341	      5.20471688	     -1.28340163	      5.32758637	     48.20978366
      0.19000000	     -2.18082590	     -6.80469784	      6.18313301	      0.08332703	      0.85578424	     -0.29626481	     -0.20774556	    -12.85821430	     -5.68226040	     22.78685692	      7.84012485	    -10.71652278	      0.96337745	      0.39206220	    -55.19746223	    -22.46350947	    -23.48105071	     -4.32959577	      6.68065858	     -4.01249258	    -14.66729710	    -15.80688176	     -2.79790602	      8.75560835	     -1.34991271	    -10.32807267	     -1.52008809	     -8.51175024	     28.86180718	      4.91762810	     -1.33286369	      5.25048773	     46.46263397
      0.20000000	     -2.08163525	     -6.61657341	      6.36824815	      0.09690022	      0.85892588	     -0.29523259	      2.14881647	    -12.45575668	     -4.39488144	     21.28664135	      7.91848171	    -10.63779964	      1.00874305	      0.38045862	    -57.79671933	    -21.79867339	    -21.46378202	     -3.48147239	      5.75391870	     -3.89363267	    -15.01231958	    -15.39462553	     -3.04062158	      8.38749140	     -1.17271559	     -9.66614196	     -1.64682230	     -8.24732436	     29.44027968	      4.68123578	     -1.39842267	      4.98484997	     44.69773933
      0.21000000	     -2.03087904	     -6.31965482	      6.52726318	      0.11049608	      0.86212129	     -0.29432815	      4.45540948	    -11.87145541	     -3.30750908	     19.71820516	      7.87545330	    -10.53996539	      1.04628549	      0.36545599	    -59.94774301	    -20.93908591	    -19.23155415	     -2.66325664	      4.87832717	     -3.69364372	    -15.05622374	    -15.08399354	     -3.20662210	      7.92599077	     -1.01794219	     -9.03073776	     -1.75783329	     -8.04668848	     30.13009030	      4.41666450	     -1.47998335	      4.74626719	     42.92488328
      0.22000000	     -2.21024263	     -6.06608188	      6.79561985	      0.12377783	      0.86489635	     -0.29361810	      7.12007181	    -11.20661999	     -2.08504479	     18.38026625	      7.73556342	    -10.83067836	      1.08132373	      0.34847703	    -61.95528573	    -19.96626310	    -16.55147756	     -2.02877288	      4.41636571	     -2.98033215	    -17.76999323	    -13.12291235	     -3.12142422	      7.49236426	     -0.34867161	     -8.92527826	     -1.72231367	     -9.09328336	     31.52412816	      4.68367954	     -1.62693768	      5.83074425	     40.49117938
      0.23000000	     -2.27439584	     -5.68553607	      6.89022559	      0.13715128	      0.86794154	     -0.29270501	      9.40394862	    -10.44611609	     -1.30383800	     16.83866253	      7.56767806	    -10.87504231	      1.10417316	      0.33007770	    -63.26446206	    -18.91205885	    -14.25431224	     -1.45848649	      3.79532137	     -2.45214663	    -17.50539849	    -13.03467684	     -3.18997254	      6.91670692	     -0.16180721	     -8.31261476	     -1.86552479	     -8.91770542	     32.42863448	      4.39512811	     -1.81596148	      5.70705588	     38.76510354
      0.24000000	     -2.41850806	     -5.25386062	      6.86428396	      0.15052252	      0.87076474	     -0.29171569	     11.62635813	     -9.64056209	     -0.80860235	     15.36942863	      7.34420611	    -10.90047605	      1.11882166	      0.31143604	    -64.10375934	    -17.84397068	    -12.03013568	     -0.96044013	      3.27421597	     -1.80934241	    -17.39060413	    -12.89889335	     -3.17823828	      6.28056574	      0.21256984	     -7.81710829	     -1.99632664	     -8.98147907	     33.56762985	      4.14840869	     -2.01905916	      5.76728237	     36.98567440
      0.25000000	     -2.59214569	     -4.78267487	      6.70480947	      0.16388202	      0.87336342	     -0.29063428	     13.73772182	     -8.83263651	     -0.60072060	     13.92164748	      7.07748701	    -10.88435178	      1.12543027	      0.29236988	    -64.48240453	    -16.75156009	    -10.00004810	     -0.49160587	      2.97187369	     -0.91000586	    -17.68890569	    -12.60545866	     -3.14315529	      5.61434595	      0.97298632	     -7.56803935	     -2.08352415	     -9.59693504	     35.09899627	      4.11396876	     -2.26406576	      6.44373226	     35.00055188
      0.26000000	     -2.80064569	     -4.26463920	      6.39775403	      0.17730561	      0.87579395	     -0.28925386	     15.72658975	     -8.07260979	     -0.73106929	     12.48565975	      6.82831399	    -10.57496950	      1.12324835	      0.27179481	    -64.35739007	    -15.57269561	     -8.57170277	     -0.38223288	      2.46277708	     -0.58975683	    -17.59636105	    -12.63024685	     -3.09178843	      4.88666981	      1.28234462	     -6.89896102	     -2.22729689	     -9.50426370	     36.25557223	      3.50197666	     -2.62429324	      6.31731322	     33.81826577
      0.27000000	     -2.73735936	     -3.63140617	      5.84041956	      0.19074007	      0.87823935	     -0.28784232	     17.13283620	     -7.29033479	     -1.25453620	     10.82913837	      6.42839939	    -10.34483683	      1.11190189	      0.25459430	    -63.70728556	    -14.58717907	     -6.78948611	      0.07728931	      2.21496378	      0.52862706	    -19.35076518	    -11.94269710	     -3.35825484	      4.07805089	      3.39429679	     -7.39608386	     -2.18580892	    -11.56623941	     38.81857057	      4.29954245	     -2.85530980	      8.83119919	     31.04967208
      0.28000000	     -3.02974807	     -3.18875296	      5.37622328	      0.20389945	      0.87992924	     -0.28662044	     18.96947137	     -6.70520252	     -1.74310499	      9.61210785	      6.19757020	    -10.02586067	      1.09519459	      0.23664337	    -62.75002771	    -13.55866633	     -5.63302089	      0.13157451	      1.91157212	      0.82160462	    -19.50932544	    -11.92865595	     -3.22935122	      3.45513934	      4.03265213	     -6.90143405	     -2.47958571	    -11.36474402	     40.24938773	      3.87100404	     -3.08820222	      8.77895888	     29.69481789
      0.29000000	     -3.20328662	     -2.67122017	      4.68246091	      0.21721402	      0.88144120	     -0.28502320	     20.45000201	     -6.17678965	     -2.54203661	      8.28976696	      5.91461686	     -9.60024424	      1.07045423	      0.21976975	    -61.33250968	    -12.59187937	     -4.72319540	      0.32683273	      1.75188515	      1.34064484	    -19.87554944	    -11.86170122	     -3.22405693	      2.75939600	      4.89904343	     -6.41963404	     -2.73524216	    -11.39083423	     41.84686523	      3.39811051	     -3.41612858	      8.89087727	     28.52826180
      0.30000000	     -3.53101892	     -2.39822547	      4.20586989	      0.23058122	      0.88228474	     -0.28371555	     22.10744675	     -5.85591597	     -3.08216446	      7.17478466	      5.83626074	     -9.51448681	      1.04129173	      0.20294525	    -59.66162155	    -11.62790622	     -4.12175836	      0.44089249	      1.69226652	      1.61246942	    -20.01805971	    -11.88124023	     -2.96609282	      2.35097417	      5.23201509	     -5.77075860	     -3.01225147	    -11.25067977	     43.28026939	      2.59577935	     -3.80976617	      8.85100557	     27.63579232
      0.31000000	     -3.37265922	     -1.76684232	      3.25284010	      0.24377023	      0.88359105	     -0.28181490	     22.84301322	     -5.45608933	     -4.42537206	      5.56736663	      5.43245166	     -8.73483744	      1.00108332	      0.18777278	    -57.35784924	    -10.75858808	     -3.43659599	      0.80419828	      1.62570659	      2.28740234	    -20.78477950	    -11.60577720	     -3.42195952	      1.52539120	      6.60688488	     -5.41730536	     -3.28423679	    -11.39090161	     45.10842311	      2.35867941	     -4.13023486	      9.00998592	     26.61236502
      0.32000000	     -3.73096651	     -1.54761131	      2.73503835	      0.25699547	      0.88356658	     -0.28095543	     24.30028338	     -5.20259528	     -5.06173642	      4.53309760	      5.34868518	     -8.73562119	      0.96074594	      0.17119135	    -55.04668740	     -9.80854162	     -2.86972389	      0.95553182	      1.70765036	      2.51028647	    -21.00510104	    -11.56715279	     -3.14331861	      1.22813099	      7.03278908	     -4.84464173	     -3.71098744	    -11.10804052	     46.72870457	      1.58116116	     -4.40636685	      8.97116498	     25.81750386
      0.33000000	     -4.05577363	     -1.61569089	      2.32116055	      0.27001671	      0.88318290	     -0.27999859	     25.66415231	     -5.26125909	     -5.55016150	      3.64203545	      5.58019556	     -8.87484209	      0.91474293	      0.16056499	    -52.41090931	     -9.19969638	     -2.51570312	      1.26350198	      1.86512567	      2.57420520	    -21.16976412	    -11.53663367	     -2.88927811	      1.23078214	      7.31503920	     -4.13940932	     -4.10228720	    -10.93965395	     48.04513572	      0.77644277	     -4.71420204	      8.89052935	     25.19840196
      0.34000000	     -3.96881619	     -0.96655346	      1.36288141	      0.28334622	      0.88318794	     -0.27862163	     26.11449387	     -4.84701280	     -6.96839823	      2.08412920	      5.04989176	     -8.29707887	      0.85919395	      0.14306986	    -49.22818720	     -8.19729910	     -1.63141100	      1.66004994	      2.33342530	      3.13334572	    -21.29437870	    -11.28505265	     -3.22627373	      0.43400958	      8.25878269	     -3.60451685	     -4.56302318	    -10.31936071	     49.85941579	      0.11683822	     -4.98997240	      8.34395315	     24.67920390
      0.35000000	     -3.85221622	     -0.74752577	      0.74936973	      0.29660572	      0.88275475	     -0.27760071	     26.56972980	     -4.74797174	     -7.94373524	      0.60472141	      4.92781958	     -8.37025451	      0.79958556	      0.12811096	    -45.81287815	     -7.34021739	     -1.09510373	      1.92109603	      2.86664972	      3.62340013	    -20.10583442	     -8.97463721	     -3.58977591	      0.12027591	      7.53562750	     -1.93958137	     -5.02867905	     -8.57962452	     50.59664515	     -1.80145505	     -5.18781880	      5.08866641	     25.70531784
      0.36000000	     -3.93460833	     -0.62992935	      0.26349861	      0.30973980	      0.88161151	     -0.27677265	     27.19845830	     -4.66622996	     -8.70317761	     -0.60931454	      4.92358468	     -8.40948481	      0.73682165	      0.11566927	    -42.21677078	     -6.62736102	     -0.39234278	      2.40592627	      3.64669790	      3.85764093	    -18.73464468	     -9.32758443	     -3.72535652	     -0.10035868	      6.31887302	      0.02734884	     -5.47277201	     -6.19537134	     50.91047267	     -4.07652956	     -5.23737246	      1.06107819	     27.15297261
      0.37000000	     -4.39977306	     -0.87189865	     -0.00614098	      0.32258050	      0.87954432	     -0.27642229	     28.31380165	     -4.75416415	     -8.94838059	     -1.30433064	      5.28584366	     -8.59106007	      0.67362999	      0.10635803	    -38.59615560	     -6.09386634	      0.26305620	      2.81222549	      4.11735680	      3.87609723	    -18.83880497	     -9.30173377	     -3.34333695	      0.13045676	      6.41829806	      0.71929644	     -5.87631040	     -5.86901152	     52.26779379	     -4.85944423	     -5.41790658	      0.81273815	     26.68111288
      0.38000000	     -4.06110462	     -0.50910142	     -0.68285117	      0.33594076	      0.87848678	     -0.27555928	     28.05760020	     -4.50104114	    -10.08241069	     -2.97215127	      4.93671510	     -8.53777336	      0.59965204	      0.09470034	    -34.35753114	     -5.42592990	      1.49360497	      3.44989246	      5.91086366	      4.54905930	    -18.23114699	     -8.99651320	     -3.94306789	     -0.37123227	      6.59673219	      1.73637075	     -6.21726402	     -4.96911728	     53.49546207	     -5.86102831	     -5.52335284	     -0.81867630	     26.82988089
      0.39000000	     -4.07451720	     -0.57101308	     -0.89990695	      0.34901998	      0.87627248	     -0.27529455	     28.33587619	     -4.39237691	    -10.44201310	     -4.17880428	      5.05129807	     -8.94221366	      0.52585057	      0.08536926	    -30.12901848	     -4.89129821	      2.05322977	      3.98347555	      7.03713233	      5.00366353	    -15.47024217	     -7.70685995	     -4.18110862	     -0.42227863	      4.35923378	      4.42063811	     -6.45445265	     -1.52991643	     52.94213733	     -8.70240785	     -5.10540959	     -6.54557148	     29.11384722
      0.40000000	     -4.13277271	     -0.64090998	     -1.33702554	      0.36220877	      0.87399803	     -0.27494347	     28.47692629	     -4.34823773	    -10.93296668	     -5.27087409	      5.12705231	     -8.95984319	      0.45039825	      0.07939932	    -25.80591880	     -4.54924579	      2.84971704	      4.60431975	      8.43232089	      5.42501108	    -15.58835529	     -7.63177437	     -4.28010091	     -0.40907419	      4.49433798	      5.24322097	     -6.74448621	     -1.02167442	     54.10418423	     -9.46377832	     -5.12472791	     -7.52028436	     28.92520042
      0.41000000	     -4.13656827	     -0.76812540	     -1.70508880	      0.37553008	      0.87149635	     -0.27481234	     28.47870641	     -4.28883935	    -11.22251792	     -6.39124419	      5.21985965	     -9.06209621	      0.37485428	      0.07514979	    -21.47756822	     -4.30576597	      3.41962379	      5.25554795	      9.67883984	      5.99159938	    -15.78292242	     -7.39282298	     -4.43746347	     -0.32905409	      4.29958911	      6.27359777	     -6.99666014	     -0.17378681	     54.98936025	    -10.42479179	     -5.00635556	     -9.17277754	     29.05468009
      0.42000000	     -4.15175547	     -0.95361927	     -2.11315633	      0.38895822	      0.86879153	     -0.27473980	     28.40926898	     -4.28156028	    -11.38511831	     -7.44290547	      5.32904048	     -9.02930372	      0.30114847	      0.07350266	    -17.25453628	     -4.21139213	      3.70572491	      5.95122106	     10.64220389	      6.58647851	    -16.30542341	     -7.15507695	     -4.56479912	     -0.18160168	      4.19741139	      7.25707617	     -7.19745187	      0.48047772	     55.76328958	    -11.30647515	     -4.85578136	    -10.74599132	     29.15102009
      0.43000000	     -4.59333661	     -1.49043615	     -2.35443910	      0.40249420	      0.86520745	     -0.27485186	     28.95381830	     -4.58552700	    -11.11751462	     -8.01141578	      5.85252004	     -8.95893703	      0.23752616	      0.07386841	    -13.60924640	     -4.23234807	      3.96883547	      6.45666703	     11.28578045	      6.68715599	    -16.59955045	     -7.07867651	     -4.13916864	      0.42126084	      4.15551074	      7.90619603	     -7.39770172	      0.72858047	     56.72275511	    -11.97073737	     -4.81470843	    -11.18072889	     28.72416220
      0.44000000	     -4.81603777	     -1.83472389	     -2.71400720	      0.41632919	      0.86197607	     -0.27500267	     29.07647354	     -4.75076205	    -10.79212513	     -8.75307917	      6.07714023	     -8.72793011	      0.17641297	      0.07698355	    -10.10771871	     -4.41083239	      3.85824153	      6.99858190	     11.92147745	      7.04654641	    -17.07093923	     -6.98906188	     -3.93885932	      0.78933009	      4.35288427	      8.46943873	     -7.62203148	      1.05870845	     57.55410340	    -12.47180026	     -4.71642948	    -11.96824240	     28.31425433
      0.45000000	     -3.99453381	     -1.73107287	     -3.19949198	      0.43033806	      0.86007021	     -0.27511680	     27.95550849	     -4.47344713	    -10.88405637	    -10.60089797	      5.62895312	     -8.99669924	      0.12264537	      0.08127602	     -7.02706186	     -4.65677278	      3.81637027	      7.94926035	     11.69588724	      8.81350064	    -21.17683255	     -6.56157199	     -5.07921967	      0.52678615	      3.44532543	     10.27191858	     -7.50304021	      2.81475442	     57.28553092	    -13.85288083	     -4.08118382	    -16.08230180	     29.57085590
      0.46000000	     -3.98548326	     -1.90947482	     -3.71624475	      0.44453462	      0.85722021	     -0.27522756	     27.86607458	     -4.58797161	    -10.83966235	    -11.48123994	      5.52859350	     -8.56019262	      0.08294274	      0.08914220	     -4.75226903	     -5.10747178	      3.50415477	      8.48452180	     11.19820297	      9.32879731	    -22.25778460	     -6.49234004	     -5.14566832	      0.68979642	      3.84812139	     10.71204310	     -7.58091139	      2.77369480	     57.99962546	    -14.17676666	     -3.95567721	    -16.93983419	     29.23831180
      0.47000000	     -3.83537821	     -1.99608129	     -4.08347877	      0.45903543	      0.85465684	     -0.27555390	     27.69937547	     -4.57436280	    -10.72314326	    -12.48861666	      5.29841191	     -8.41981417	      0.05637968	      0.09823984	     -3.23031756	     -5.62872848	      3.29817193	      8.93909686	     10.52402090	     10.13894900	    -23.75470267	     -6.53536355	     -5.36427212	      0.74301356	      4.04884707	     11.13958036	     -7.55349223	      2.70692818	     58.58534742	    -14.48936199	     -3.86117142	    -17.78402510	     28.97072355
      0.48000000	     -3.80900176	     -2.11338635	     -4.37986353	      0.47365470	      0.85212308	     -0.27603091	     27.79191302	     -4.63124553	    -10.70279891	    -13.27978732	      5.10496047	     -8.15800418	      0.04412057	      0.10991119	     -2.52792236	     -6.29744726	      3.17994488	      9.10980415	     10.20567081	     10.51152469	    -24.14181118	     -6.52296932	     -5.38396675	      0.86218520	      4.26443240	     11.43236132	     -7.53207131	      2.63579356	     58.98386459	    -14.64537915	     -3.80193858	    -18.25112013	     28.45465036
      0.49000000	     -3.56670561	     -1.87392176	     -4.75588851	      0.48867374	      0.85014344	     -0.27649320	     27.64505658	     -4.34452834	    -10.89620835	    -14.25500219	      4.43856658	     -7.98878016	      0.04287595	      0.12273199	     -2.45661092	     -7.03202521	      2.87355178	      9.29012666	      9.02187576	     11.40930034	    -24.85720203	     -6.61149688	     -5.64537672	      0.53776486	      4.64017358	     11.51924827	     -7.39329266	      2.19614337	     59.48793448	    -14.72879533	     -3.78878179	    -18.82499537	     28.14248710
      0.50000000	     -3.36267941	     -1.58586949	     -4.95191156	      0.50392674	      0.84835636	     -0.27720372	     27.66417107	     -3.97797752	    -10.99240942	    -15.12363831	      3.74528909	     -7.98813991	      0.05472635	      0.13758470	     -3.13558889	     -7.88302281	      2.62366503	      9.13688292	      7.98585886	     12.09585431	    -25.34229887	     -6.69098030	     -5.81528792	      0.18029766	      4.88047533	     11.48216641	     -7.21394126	      1.70429561	     59.86070461	    -14.71048450	     -3.85335550	    -19.06747035	     27.72409890
      0.51000000	     -3.17550810	     -1.17191115	     -5.11090165	      0.51946676	      0.84684771	     -0.27804223	     27.75883943	     -3.49524709	    -11.10391889	    -15.89312204	      2.90841016	     -8.05894547	      0.07698210	      0.15445418	     -4.41074950	     -8.84957251	      2.22195881	      8.72040903	      6.83029388	     12.74502616	    -25.56082297	     -6.68412853	     -5.92295136	     -0.30561737	      5.17187162	     11.23998184	     -6.99548942	      1.04280005	     60.20663328	    -14.59014459	     -3.96470738	    -19.05181265	     27.25800188
      0.52000000	     -2.96643496	     -0.73426281	     -5.18080069	      0.53525784	      0.84561100	     -0.27896261	     27.92573336	     -3.00353732	    -11.30637374	    -16.63148617	      2.08106834	     -8.07172838	      0.10983165	      0.17257407	     -6.29288978	     -9.88776561	      1.88258896	      7.85192112	      6.04732921	     12.94148882	    -25.46759466	     -6.65754689	     -6.01012606	     -0.81958996	      5.20824502	     11.05577720	     -6.70881253	      0.64774400	     60.21608418	    -14.56336855	     -4.05849508	    -19.08611686	     26.91490970
      0.53000000	     -2.73634103	     -0.19209544	     -5.24220935	      0.55125130	      0.84473878	     -0.27990582	     28.04705563	     -2.42612385	    -11.29043852	    -17.28758054	      1.13377593	     -7.99664215	      0.14751576	      0.19317852	     -8.45203043	    -11.06831383	      1.31065041	      6.62185467	      5.40238882	     13.19772120	    -25.35085956	     -6.63427814	     -6.10807254	     -1.47039943	      5.23946456	     10.76110952	     -6.40212226	      0.29074237	     60.12853572	    -14.50316406	     -4.16876248	    -19.10079837	     26.69045692
      0.54000000	     -2.48896647	      0.40558983	     -5.26413875	      0.56764152	      0.84418457	     -0.28097363	     28.13192179	     -1.77345917	    -11.29412847	    -17.85175282	      0.11845764	     -8.10789834	      0.18944552	      0.21717224	    -10.85442883	    -12.44305250	      0.62420717	      5.14897508	      4.63555044	     13.43236686	    -25.21238814	     -6.57163137	     -6.15965520	     -2.16507312	      5.24675319	     10.31742614	     -6.05440232	     -0.15667240	     59.97013422	    -14.42818690	     -4.27653255	    -19.06734466	     26.52217042
      0.55000000	     -2.24322086	      1.03785128	     -5.24302990	      0.58422838	      0.84392279	     -0.28218829	     28.17439238	     -1.05384241	    -11.14492567	    -18.27212906	     -0.93536391	     -8.26505416	      0.23263754	      0.24475209	    -13.32914905	    -14.02326160	     -0.16005391	      3.35879497	      3.92349823	     13.66529615	    -25.07648110	     -6.47751546	     -6.19543917	     -2.90128501	      5.22353522	      9.75664071	     -5.68934940	     -0.61606603	     59.71990057	    -14.32113369	     -4.36785754	    -18.97894822	     26.44040828
      0.56000000	     -2.74841586	      1.63223613	     -4.77238893	      0.60098796	      0.84292029	     -0.28444607	     29.03083256	     -0.02744600	    -10.01432510	    -17.65528481	     -1.91045847	     -9.49854249	      0.27366073	      0.28049695	    -15.67960497	    -16.07129124	     -2.08177256	      1.36329311	      0.87825281	     14.44862031	    -24.74034537	     -4.21161707	     -5.30822958	     -3.40015383	      5.49411453	      8.34109587	     -5.35539067	     -2.38881119	     60.16586894	    -13.73363755	     -4.67957209	    -17.56801168	     25.72923520
      0.57000000	     -2.47057025	      2.21063968	     -4.69231094	      0.61785990	      0.84340864	     -0.28587977	     28.83165086	      0.68904796	     -9.97502948	    -17.75847523	     -2.95167159	     -9.83040183	      0.31336964	      0.31638838	    -17.95475777	    -18.12771908	     -2.69434422	     -1.30018158	      0.70415174	     14.35026416	    -24.64856190	     -3.91308783	     -5.33329289	     -4.03903266	      5.36358420	      7.69533014	     -4.96941239	     -2.79065540	     59.62994471	    -13.62371823	     -4.75240468	    -17.23976661	     25.82349885
      0.58000000	     -2.73231964	      2.75300446	     -4.39098063	      0.63474745	      0.84357431	     -0.28789598	     29.10769199	      1.53969488	     -9.33975876	    -17.08589157	     -3.93558424	    -10.39112181	      0.34871076	      0.35453326	    -19.97965469	    -20.31325972	     -3.48888369	     -4.71131785	     -0.00416954	     14.01197792	    -24.79184559	      1.92987117	     -4.69295651	     -4.52541708	      5.83815880	      6.25701156	     -4.67671879	     -4.20268430	     59.60490028	    -12.84160204	     -5.10590373	    -14.97968099	     25.02333880
      0.59000000	     -2.49827906	      3.23144436	     -4.21054963	      0.65143651	      0.84466508	     -0.28975433	     28.65581692	      2.29412049	     -9.08122758	    -16.67815791	     -4.93038022	    -10.81722233	      0.37865119	      0.40081374	    -21.69511495	    -22.96493565	     -3.71230185	     -7.70840593	     -0.15349329	     13.78641593	    -24.66903889	      1.93982136	     -4.71544935	     -5.01878493	      5.58299809	      5.57107720	     -4.33599790	     -4.50209561	     58.84822112	    -12.66907868	     -5.04709464	    -14.82058959	     25.36652301
      0.60000000	     -2.49493367	      3.72141275	     -3.93981637	      0.66807163	      0.84578190	     -0.29183722	     28.29094523	      3.12353962	     -8.72154875	    -15.80284636	     -5.92987900	    -11.27816392	      0.40289398	      0.45104695	    -23.08412460	    -25.84308632	     -3.78623810	    -10.96985580	     -0.33533278	     13.05704853	    -24.50584389	      1.98329852	     -4.45152983	     -5.49645606	      5.29107046	      4.80801795	     -3.99718914	     -4.81949553	     57.93050669	    -12.47361991	     -5.00237720	    -14.54883960	     25.80641118
      0.61000000	     -2.20133423	      4.04068633	     -3.74192880	      0.68413997	      0.84756440	     -0.29398570	     27.50134293	      3.83228421	     -8.12862647	    -15.00430374	     -6.81777098	    -11.51039200	      0.42379373	      0.50442987	    -24.28159226	    -28.90170254	     -3.45273229	    -13.65900280	     -0.41300297	     12.61601995	    -24.28756989	      1.97545804	     -4.62307737	     -5.79054596	      5.11094519	      4.13805003	     -3.78011744	     -5.06025860	     56.94854251	    -12.02546364	     -4.87784442	    -14.29639945	     26.22168667
      0.62000000	     -2.61379223	      4.56816140	     -3.53341796	      0.70055236	      0.84865655	     -0.29600760	     27.20137645	      4.64802836	     -8.07435286	    -13.16965887	     -7.88720857	    -11.85448856	      0.43570641	      0.56203792	    -24.96413816	    -32.20240088	     -3.00542429	    -17.06256681	     -0.47925277	     10.54776414	    -23.92658232	      1.65217058	     -3.83845231	     -6.26451247	      4.86790850	      3.32741957	     -3.45380320	     -5.26276102	     55.70359102	    -11.88133523	     -4.83498317	    -13.70088077	     26.80426314
      0.63000000	     -2.66264961	      4.82978936	     -3.41371910	      0.71621800	      0.85043875	     -0.29806814	     26.41914213	      5.23247079	     -7.78516423	    -11.50389768	     -8.72891979	    -11.88255859	      0.44475044	      0.62149326	    -25.48232326	    -35.60894067	     -2.17358217	    -19.43529260	     -0.46973970	      8.98594855	    -23.46395829	      1.12518030	     -3.59759569	     -6.43876100	      4.73870899	      2.66857290	     -3.26625346	     -5.38250378	     54.45270556	    -11.43063871	     -4.69751014	    -13.12596017	     27.28560675
      0.64000000	     -3.04218278	      4.82208244	     -3.43051471	      0.73143715	      0.85209748	     -0.29975917	     25.86697066	      5.37920928	     -7.75379252	     -9.15280798	     -9.19639217	    -11.59924644	      0.44946198	      0.68665219	    -25.75227423	    -39.34227246	     -1.39006041	    -20.76189558	     -0.03863737	      6.80306332	    -20.79542950	     -5.70860376	     -2.97680226	     -6.30533400	      5.23352272	      1.68836222	     -3.18538782	     -5.84604549	     53.26300204	    -10.54750633	     -4.65802070	    -11.50671297	     27.27984751
      0.65000000	     -2.98974397	      5.14247698	     -3.47800593	      0.74680702	      0.85438296	     -0.30157983	     24.57117218	      5.97265891	     -7.79004263	     -7.28694172	    -10.14866156	    -11.58313336	      0.44513706	      0.74397915	    -25.50447482	    -42.62686553	     -0.33061216	    -22.07729129	     -0.00642826	      4.95653328	    -20.49988697	     -6.27271840	     -2.86349804	     -6.55628745	      5.21182173	      1.11827712	     -3.06561686	     -5.78062658	     51.80077502	    -10.07641580	     -4.49523989	    -10.86259213	     28.03219990
      0.66000000	     -3.26942836	      5.08971808	     -3.58648062	      0.76151591	      0.85639284	     -0.30304980	     23.62360183	      6.05951455	     -7.85406401	     -4.78418184	    -10.51462191	    -11.14405420	      0.44052334	      0.80423760	    -25.24012804	    -46.07942023	      0.75850439	    -22.19979291	      0.51185373	      2.91273934	    -19.17983771	    -12.24796593	     -2.41585311	     -6.37489254	      5.38316296	      0.51374050	     -3.03372764	     -5.65913549	     50.28990437	     -9.40293632	     -4.33408210	     -9.88017043	     28.49382363
