Coordinates

Units are S.I. units (second, meters, Newtons, ...)
If the header above contains a line with 'inDegrees', this indicates whether rotational values are in degrees (yes) or radians (no).

inDegrees=yes
nColumns=34
nRows=64
DataType=double
version=3
OpenSimVersion=4.5-2023-11-26-efcdfd3eb
endheader
time	pelvis_tilt	pelvis_tx	pelvis_ty	hip_flexion_l	hip_flexion_r	knee_angle_l	knee_angle_r	ankle_angle_l	ankle_angle_r	mtp_angle_l	mtp_angle_r	lumbar_ext	shoulder_flexion_r	elbow_flexion_r	shoulder_flexion_l	elbow_flexion_l
0.21	47.75117333	-1.01365839	1.08068749	-59.06867795	-36.62208302	-37.82819922	-5.17943896	-9.510199099999999	-4.52059846	-6.07810768	-19.38402371	-58.53566672	1.66764797	22.73444325	4.97285916	42.82675853
0.22	47.70518478	-1.00329028	1.08232695	-57.25892039	-37.26022399	-40.48822078	-5.16672065	-10.1454	-4.10450592	-6.11193414	-19.39351354	-58.56050963	1.71902147	23.00461398	4.94561556	42.07955643
0.23	47.7371296	-0.99299347	1.08400537	-55.5829651	-38.06967595	-42.90704351	-5.0334557	-10.32932388	-3.68691993	-6.1983721	-19.40169505	-58.66532099	1.75419092	23.33527492	4.91570729	41.3532696
0.24	47.76561532	-0.98308347	1.08571974	-53.86122325	-38.8736144	-45.14826742	-4.88574574	-10.02092802	-3.239687	-6.43452446	-19.43518518	-58.79598814	1.81813711	23.62418139	4.98591146	40.56672737
0.25	47.85992324	-0.9733396600000001	1.0875527	-52.28055438	-39.80956703	-47.09418146	-4.64089543	-9.368944620000001	-2.8156193	-6.78756694	-19.46787822	-59.03399603	1.91226506	23.93844444	5.04461503	39.78641232
0.26	48.03820297	-0.96403774	1.08963182	-50.76450631	-40.83765344	-48.78657704	-4.39033567	-8.651969879999999	-2.31449738	-7.95210439	-19.50060567	-59.38414873	2.05258926	24.12120914	5.18346905	39.0468316
0.27	48.24957745	-0.95453775	1.09170981	-49.44239852	-41.98268575	-50.16137719	-4.01050415	-7.40141351	-1.83402612	-10.05248908	-19.4421099	-59.74013981	2.15663734	24.41463005	5.24678093	38.31299558
0.28	48.34186379	-0.94500745	1.09349023	-48.12073485	-42.94786161	-51.23462065	-3.66014691	-5.91646618	-1.59977431	-10.17421178	-19.44045485	-60.00278512	2.27520046	24.77290779	5.27665176	37.5323175
0.29	48.43527749	-0.9356882	1.09541932	-46.8009596	-43.91233427	-52.02788914	-3.34429845	-4.57972266	-1.24545476	-10.63545218	-19.4600257	-60.24904759	2.45579206	24.99033643	5.37633479	36.71773648
0.3	48.5313706	-0.9262149	1.09720761	-45.59947707	-44.91969055	-52.51718627	-2.88890811	-3.17802263	-1.1259649	-10.80362699	-19.48832199	-60.48852509	2.62254917	25.19185778	5.35501717	36.09026985
0.31	48.74808461	-0.91722795	1.09952182	-44.54309151	-46.04047446	-52.60826585	-2.53622105	-2.24552178	-0.49807924	-12.39743098	-19.48038953	-60.89623997	2.82664288	25.31824945	5.45765772	35.36027027
0.32	48.82523509	-0.90783657	1.10130574	-43.42696478	-46.99048973	-52.63334786	-2.13010834	-0.502564	-0.00642409	-17.10697348	-18.97040717	-61.11428424	3.00182964	25.53439928	5.44713639	34.66575489
0.33	48.75874889	-0.8983598	1.10273149	-42.23011548	-47.76676634	-52.3502178	-1.69629903	0.81360349	0.08480032	-17.0289779	-19.01343335	-61.18498774	3.17064223	25.71265471	5.40531439	34.00638869
0.34	48.88840557	-0.88917732	1.10454755	-41.35404591	-48.78989726	-51.60518878	-1.24613758	1.48241805	0.52399863	-17.41878607	-19.06604899	-61.46059158	3.37136992	25.85495899	5.39971705	33.43039806
0.35	48.71030105	-0.8796232	1.10555977	-40.12215441	-49.4316056	-50.92683586	-0.77283508	2.65788078	0.61925956	-17.41675089	-19.10098995	-61.38758601	3.55544007	26.04182927	5.30977144	32.84156542
0.36	48.8556078	-0.87045317	1.10712131	-39.38473065	-50.46543769	-49.71468685	-0.29169436	3.13444667	1.25656252	-18.12601772	-19.05726798	-61.68486378	3.71657381	26.20462422	5.28602231	32.32256179
0.37	48.7366166	-0.86111349	1.10802911	-38.35572853	-51.16745526	-48.53377234	0.17862557	3.96577808	1.6036904	-18.41539003	-19.01613569	-61.69558441	3.8954252	26.36348743	5.27891528	31.69739043
0.38	48.52766243	-0.85172307	1.10859093	-37.2417668	-51.80803855	-47.27649149	0.7643244	4.82890606	1.79206054	-18.55315453	-19.02057763	-61.62742261	4.08443559	26.55278282	5.18888057	31.25309344
0.39	48.57045657	-0.84237589	1.10942567	-36.54999203	-52.74324755	-45.57700679	1.34218001	5.06375299	2.34417861	-19.19901103	-18.85334306	-61.80882358	4.19483287	26.7813845	5.1030279	30.91360746
0.4	48.41359172	-0.83308572	1.10973376	-35.63514705	-53.43481633	-43.92151419	1.92386752	5.63693156	2.66453529	-19.46546618	-18.76043401	-61.79901516	4.3608931	26.96933175	5.07989395	30.44870409
0.41	48.08956755	-0.82435186	1.10967975	-34.43111275	-53.78887938	-42.38728748	2.29133946	5.97384094	2.81768198	-19.53820788	-18.75982631	-61.73424604	4.67005413	27.18577445	5.00095724	30.2600705
0.42	48.13895415	-0.81445437	1.10984153	-34.04806904	-54.91496137	-40.14009851	3.20210999	6.35495239	3.29048027	-19.77006918	-18.69242526	-61.84267293	4.63860713	27.42027975	4.98029588	29.76995561
0.43	47.95139678	-0.80514167	1.10956424	-33.28154567	-55.58496235	-38.10307692	3.81750919	6.63472024	3.59255402	-19.87824976	-18.64565317	-61.81886665	4.77650663	27.63978783	4.99046177	29.34730205
0.44	47.79146913	-0.79580478	1.10914206	-32.6267016	-56.29401185	-35.92366282	4.44080251	6.75894028	3.92757159	-19.93618562	-18.60818138	-61.82676104	4.89205958	27.87719107	4.96675721	29.04963218
0.45	47.61168965	-0.78641952	1.10852869	-32.01691094	-56.97117714	-33.66453325	5.047586	6.86054057	4.21946446	-19.92869233	-18.62719935	-61.80292328	5.02306432	28.10077	4.95765247	28.6967398
0.46	47.44122065	-0.77704538	1.10777196	-31.49074036	-57.64068551	-31.30312429	5.60987797	6.85645511	4.51487205	-19.89519932	-18.68524514	-61.7948509	5.13892497	28.31989957	4.96751469	28.36569981
0.47	47.28178115	-0.7676632	1.10690783	-31.05068231	-58.28248048	-28.86597234	6.10382401	6.77804125	4.82696709	-19.85125962	-18.76924928	-61.7958976	5.26452681	28.51874401	4.96924935	28.04166075
0.48	47.13333185	-0.75821626	1.10594764	-30.71346369	-58.91138363	-26.31943176	6.53979523	6.56842924	5.15707478	-19.80212208	-18.88379175	-61.79904609	5.37909518	28.71667362	4.96761713	27.7470949
0.49	46.69508974	-0.7489431600000001	1.10462699	-29.99338525	-59.11762501	-24.00181221	6.79419957	6.48171427	5.45593877	-19.88736663	-18.90837516	-61.57421229	5.57396525	28.92540285	4.89365748	27.59574437
0.5	46.8954028	-0.73911458	1.10376699	-30.34056523	-60.14370314	-21.02057573	7.2260942	5.91792765	5.83446703	-19.80372153	-19.15821851	-61.82814875	5.58672471	29.08790926	4.9355914	27.19414708
0.51	46.72058914	-0.72960848	1.1025307	-30.17954	-60.59048827	-18.36953298	7.36119429	5.63004499	6.25936142	-19.80688876	-19.29455903	-61.79361096	5.70801876	29.23194908	4.93120494	26.91549719
0.52	46.68451367	-0.71988338	1.10133834	-30.29220687	-61.18928543	-15.58423676	7.48307342	5.15981053	6.68478409	-19.83889985	-19.48407717	-61.85643022	5.78525425	29.37565873	4.92339642	26.62280914
0.53	46.62148769	-0.71000604	1.10004727	-30.44034251	-61.72644393	-12.81635302	7.55282475	4.6211879	7.12034321	-19.87056614	-19.76475355	-61.87506738	5.82232954	29.55944001	4.87559414	26.38829059
0.54	46.56972043	-0.70020742	1.09874224	-30.63948268	-62.18568435	-10.13795401	7.43982409	4.19778305	7.62282696	-20.00968764	-19.94203594	-61.89973697	5.91877163	29.65417303	4.85466528	26.09922354
0.55	46.41891242	-0.69032833	1.09730361	-30.75422106	-62.49683973	-7.60934821	7.23922635	3.91986649	8.11855235	-20.21057296	-20.01827312	-61.83138162	6.00965617	29.69383813	4.83540058	25.89861173
0.5600000000000001	46.42795503	-0.68014262	1.09590493	-31.12991817	-62.97229288	-5.09122094	7.00666956	3.2990902	8.769115859999999	-20.74485583	-20.38376089	-61.88031104	5.99806757	29.86668245	4.77112372	25.63869387
0.57	46.37417704	-0.67011352	1.09448558	-31.40689242	-63.29621699	-2.88131837	6.6419896	3.04112359	9.25906606	-21.11095855	-20.39696462	-61.86033013	6.10976562	29.87287202	4.71708395	25.40116662
0.58	46.3250411	-0.65989166	1.09301833	-31.70456939	-63.60710395	-0.88792271	6.21647646	2.77863868	9.80231513	-21.54347397	-20.37206422	-61.82558207	6.17219918	29.88961909	4.65139002	25.19822057
0.59	46.30963383	-0.64950452	1.09154264	-32.04037195	-63.92666109	0.83344969	5.71566047	2.48312449	10.46164558	-22.4674681	-20.306536	-61.81456578	6.15111823	29.97665591	4.61007593	24.99780516
0.6	46.18512595	-0.63912946	1.09000218	-32.20617557	-64.07709984	2.11584092	5.08798903	2.52867655	11.18411211	-24.48180733	-20.00865771	-61.72275958	6.18433556	29.92620599	4.60105801	24.81042388
0.61	46.162836	-0.6286941700000001	1.08853407	-32.45210493	-64.34476311	3.12026041	4.49569639	2.50770496	11.67345496	-24.82842065	-19.87121781	-61.68342427	6.28116712	29.90805543	4.49285577	24.60880766
0.62	46.08465969	-0.61809134	1.08705702	-32.59457672	-64.55160671	3.72163786	3.87622323	2.6999979	11.98949304	-24.96420161	-19.78555443	-61.61613377	6.33690786	29.86023946	4.38336952	24.48748833
0.63	46.1242317	-0.60744603	1.08566342	-32.89346632	-64.81078376000001	4.17200014	3.08363776	2.46922015	12.80363866	-25.36844584	-19.54660531	-61.59124501	6.3484064	29.78480059	4.35146133	24.27817256
0.64	46.07633777	-0.59639366	1.08420739	-33.07248014	-65.03365024999999	4.25202921	2.34123689	2.48514007	13.45595482	-25.89474874	-19.24146975	-61.48279804	6.28076735	29.78520261	4.30551344	24.07050155
0.65	46.08363547	-0.58545995	1.0829391	-33.29637704	-65.32209435	4.09733012	1.63985598	2.51208148	13.5313912	-25.93372821	-19.17853168	-61.43983719	6.31791312	29.70367164	4.16734647	23.96596493
0.66	46.13153608	-0.57444921	1.08179414	-33.56077762	-65.59558994	3.78138793	0.80010738	2.26412491	13.86085472	-25.99859572	-19.06576968	-61.41727599	6.32456736	29.59531337	4.07860359	23.82286347
0.67	46.14219125	-0.56254128	1.08053004	-33.9132743	-65.88226090000001	3.55919358	-0.06567007	1.74346153	14.60242556	-26.0630829	-18.85112169	-61.2245017	6.12144443	29.55681864	3.99795406	23.5224444
0.68	46.20397045	-0.55094641	1.07960805	-34.29401114	-66.1755675	3.17903417	-0.97553117	1.16051962	14.76365069	-25.99717644	-18.73453542	-61.14267955	6.03719233	29.4661652	3.88207156	23.33062827
0.6899999999999999	46.25375673	-0.5392720600000001	1.07893608	-34.70428987	-66.45084269	2.75459142	-1.86844083	0.77887401	14.36388365	-25.98200186	-18.72640862	-61.04471049	5.96575398	29.35111729	3.7055555	23.21880127
0.7	46.41534875	-0.52707137	1.07840735	-35.35083779	-66.76700887	2.61228736	-3.03484361	-0.39064296	14.53655802	-25.76193983	-18.55775872	-60.95657334	5.74516281	29.25851383	3.62086425	22.90673671
0.71	46.53099749	-0.5149780900000001	1.07821347	-35.96864189	-66.96837822000001	2.4417332	-4.27718783	-1.33168494	14.15303312	-25.6142707	-18.35202238	-60.84659947	5.57857995	29.13310792	3.49282769	22.68727746
0.72	46.58866638	-0.50286762	1.07834189	-36.53125235	-67.04054368	2.19116071	-5.60734794	-1.7196867	13.22424909	-25.60325756	-18.33664097	-60.70683359	5.45233959	29.00126502	3.28644077	22.56763439
0.73	46.79755891	-0.49045909	1.07874799	-37.39464553	-67.12255374	2.32916975	-7.30490178	-3.09144803	12.6491297	-25.58608208	-17.68499569	-60.62722559	5.19751035	28.84770377	3.21696214	22.25817842
0.74	46.86654733	-0.47817903	1.07944133	-38.07808808	-66.97066846	2.29943512	-9.049584680000001	-3.88879839	11.14924456	-25.80038949	-13.87800498	-60.4977379	4.98226215	28.73334502	3.1232228	22.01391683
0.75	46.97157342	-0.46595145	1.08047222	-38.82927057	-66.70437738	2.27188511	-11.06436899	-3.99420655	9.59914354	-25.78416341	-13.85488903	-60.3818538	4.81806771	28.5821929	2.9368764	21.9063958
0.76	47.03110311	-0.45397697	1.0817641	-39.52348958	-66.14427366	2.30190045	-13.51911302	-4.71078757	8.122867859999999	-25.89030725	-13.34755013	-60.25164847	4.65540098	28.40595038	2.8806263	21.71818432
0.77	47.04918622	-0.44193497	1.08317634	-40.21423855	-65.44857263	2.32246048	-16.07517812	-4.90999326	6.27047122	-25.94484607	-12.69526746	-60.09928487	4.46766685	28.27072512	2.78594578	21.60458037
0.78	47.18991845	-0.42991224	1.08476814	-41.12321498	-64.78121744000001	2.44332336	-18.71160821	-4.68952525	4.27055003	-25.90884333	-12.44890395	-60.04365921	4.31409195	28.17322663	2.62508069	21.53370851
0.79	47.26499727	-0.41822601	1.08645778	-41.9311056	-63.84186842	2.51651702	-21.60549504	-4.54196025	2.16112168	-25.89002315	-12.14704914	-59.99058698	4.16664278	28.08625736	2.52629112	21.51042389
0.8	46.87164807	-0.40696707	1.08778736	-42.10124233	-62.19268845	2.36130823	-24.49786516	-4.55275259	-0.79513892	-26.99566863	-2.82701274	-59.57662501	4.05004965	27.9960545	2.61156927	21.49480117
0.8100000000000001	46.79839043	-0.39575711	1.08938847	-42.7164814	-60.81117394	2.360019	-27.54555494	-4.26300928	-2.94945813	-26.94698819	-2.70242094	-59.44997465	3.92642911	27.98189996	2.57228564	21.62021281
0.82	46.67143809	-0.38492172	1.0908175	-43.25894606	-59.20268445	2.33069374	-30.6916696	-3.71854379	-4.69891891	-26.8712838	-2.4631408	-59.29089459	3.88950116	27.96742866	2.56553171	21.71084984
0.83	46.56870565	-0.37447194	1.09227073	-43.84361466	-57.52520561	2.3576166	-33.71667144	-3.13984693	-6.28619001	-26.77552508	-2.19205659	-59.20469615	3.88636156	27.97587476	2.60505397	21.88325771
0.84	46.51534307	-0.36411384	1.0936088	-44.49750144	-55.8808524	2.41693714	-36.62269826	-2.58349688	-7.5686811	-26.6454553	-2.05930045	-59.1652499	3.87940067	28.02157837	2.62986136	22.12337315
