Coordinates
version=1
nRows=64
nColumns=34
inDegrees=yes

Units are S.I. units (second, meters, Newtons, ...)
If the header above contains a line with 'inDegrees', this indicates whether rotational values are in degrees (yes) or radians (no).

endheader
time	pelvis_tilt	pelvis_list	pelvis_rotation	pelvis_tx	pelvis_ty	pelvis_tz	hip_flexion_l	hip_adduction_l	hip_rotation_l	hip_flexion_r	hip_adduction_r	hip_rotation_r	knee_angle_l_beta	knee_angle_r_beta	knee_angle_l	knee_angle_r	ankle_angle_l	ankle_angle_r	subtalar_angle_l	subtalar_angle_r	mtp_angle_l	mtp_angle_r	lumbar_ext	lumbar_bend	lumbar_rota	shoulder_flexion_r	shoulder_adduction_r	shoulder_rotation_r	elbow_flexion_r	shoulder_flexion_l	shoulder_adduction_l	shoulder_rotation_l	elbow_flexion_l
      0.21000000	     47.75117333	    -11.86614579	     11.03692287	     -1.01365839	      1.08068749	      0.24928950	    -59.06867795	    -21.46421027	    -16.78378373	    -36.62208302	     19.37304539	     -3.67823449	      0.66022663	      0.09039826	    -37.82819922	     -5.17943896	     -9.51019910	     -4.52059846	     19.14860634	     -5.98696445	     -6.07810768	    -19.38402371	    -58.53566672	     16.47414344	      3.06253132	      1.66764797	     -8.61690589	     13.89423916	     22.73444325	      4.97285916	     -6.61022262	      6.85720098	     42.82675853
      0.22000000	     47.70518478	    -11.53606841	     10.93778353	     -1.00329028	      1.08232695	      0.25121259	    -57.25892039	    -21.57723424	    -15.21840863	    -37.26022399	     19.19389284	     -3.45815043	      0.70665276	      0.09017629	    -40.48822078	     -5.16672065	    -10.14540000	     -4.10450592	     18.05856676	     -6.37705694	     -6.11193414	    -19.39351354	    -58.56050963	     16.04984997	      3.03383937	      1.71902147	     -8.67425926	     13.99901392	     23.00461398	      4.94561556	     -6.73343270	      7.11396871	     42.07955643
      0.23000000	     47.73712960	    -11.18638254	     10.77637280	     -0.99299347	      1.08400537	      0.25311715	    -55.58296510	    -21.54436679	    -13.79756328	    -38.06967595	     18.94977687	     -3.16446736	      0.74886918	      0.08785037	    -42.90704351	     -5.03345570	    -10.32932388	     -3.68691993	     17.11463125	     -6.51683646	     -6.19837210	    -19.40169505	    -58.66532099	     15.56340933	      3.05858721	      1.75419092	     -8.75480024	     14.07413412	     23.33527492	      4.91570729	     -6.81602343	      7.35239319	     41.35326960
      0.24000000	     47.76561532	    -10.64053673	     10.55922854	     -0.98308347	      1.08571974	      0.25508555	    -53.86122325	    -21.25892669	    -12.31210824	    -38.87361440	     18.51176187	     -3.06689570	      0.78798592	      0.08527235	    -45.14826742	     -4.88574574	    -10.02092802	     -3.23968700	     16.01103668	     -6.66187365	     -6.43452446	    -19.43518518	    -58.79598814	     14.89673481	      2.99516114	      1.81813711	     -8.80529804	     14.10875812	     23.62418139	      4.98591146	     -6.94662081	      7.69287567	     40.56672737
      0.25000000	     47.85992324	    -10.04831046	     10.25491310	     -0.97333966	      1.08755270	      0.25700971	    -52.28055438	    -20.78450000	    -10.96382470	    -39.80956703	     17.97123493	     -2.97275010	      0.82194852	      0.08099891	    -47.09418146	     -4.64089543	     -9.36894462	     -2.81561930	     15.04629176	     -6.65814199	     -6.78756694	    -19.46787822	    -59.03399603	     14.15332623	      2.94954689	      1.91226506	     -8.89552568	     14.15102941	     23.93844444	      5.04461503	     -7.07497994	      8.00674888	     39.78641232
      0.26000000	     48.03820297	     -9.15511772	      9.89354244	     -0.96403774	      1.08963182	      0.25896169	    -50.76450631	    -19.96072551	     -9.47981423	    -40.83765344	     17.13345077	     -3.13054371	      0.85148640	      0.07662581	    -48.78657704	     -4.39033567	     -8.65196988	     -2.31449738	     13.97247473	     -6.40933785	     -7.95210439	    -19.50060567	    -59.38414873	     13.15248250	      2.76621594	      2.05258926	     -8.90899728	     14.09774198	     24.12120914	      5.18346905	     -7.27629380	      8.50457131	     39.04683160
      0.27000000	     48.24957745	     -8.30276753	      9.43338820	     -0.95453775	      1.09170981	      0.26095469	    -49.44239852	    -19.04212182	     -8.33007944	    -41.98268575	     16.25734161	     -3.30081567	      0.87548119	      0.06999650	    -50.16137719	     -4.01050415	     -7.40141351	     -1.83402612	     13.05054634	     -5.89778881	    -10.05248908	    -19.44210990	    -59.74013981	     12.11558944	      2.62239056	      2.15663734	     -8.97974454	     14.13641493	     24.41463005	      5.24678093	     -7.40008313	      8.80950472	     38.31299558
      0.28000000	     48.34186379	     -7.84383513	      8.94264263	     -0.94500745	      1.09349023	      0.26309646	    -48.12073485	    -18.44880671	     -7.73348364	    -42.94786161	     15.69327513	     -3.05790872	      0.89421282	      0.06388161	    -51.23462065	     -3.66014691	     -5.91646618	     -1.59977431	     12.55223745	     -5.84160387	    -10.17421178	    -19.44045485	    -60.00278512	     11.31011220	      2.77793903	      2.27520046	     -9.13032577	     14.32316335	     24.77290779	      5.27665176	     -7.37644332	      8.75409876	     37.53231750
      0.29000000	     48.43527749	     -6.99306452	      8.33920608	     -0.93568820	      1.09541932	      0.26525672	    -46.80095960	    -17.38359353	     -6.92879918	    -43.91233427	     14.72528964	     -3.10254137	      0.90805797	      0.05836902	    -52.02788914	     -3.34429845	     -4.57972266	     -1.24545476	     11.88721735	     -5.78657045	    -10.63545218	    -19.46002570	    -60.24904759	     10.16537243	      2.66700854	      2.45579206	     -9.23181666	     14.47323045	     24.99033643	      5.37633479	     -7.46343592	      8.93190481	     36.71773648
      0.30000000	     48.53137060	     -6.48135378	      7.79814253	     -0.92621490	      1.09720761	      0.26733119	    -45.59947707	    -16.61818982	     -6.45601990	    -44.91969055	     14.05367047	     -2.89730201	      0.91659781	      0.05042096	    -52.51718627	     -2.88890811	     -3.17802263	     -1.12596490	     11.35632673	     -5.52453462	    -10.80362699	    -19.48832199	    -60.48852509	      9.28815234	      2.81813036	      2.62254917	     -9.37418869	     14.57017814	     25.19185778	      5.35501717	     -7.46375493	      8.90687038	     36.09026985
      0.31000000	     48.74808461	     -5.01599651	      6.96221527	     -0.91722795	      1.09952182	      0.26977994	    -44.54309151	    -14.76494778	     -5.53423802	    -46.04047446	     12.43348040	     -3.47512437	      0.91818745	      0.04426541	    -52.60826585	     -2.53622105	     -2.24552178	     -0.49807924	     10.42421940	     -4.97209017	    -12.39743098	    -19.48038953	    -60.89623997	      7.56359667	      2.30304522	      2.82664288	     -9.33115707	     14.62000172	     25.31824945	      5.45765772	     -7.67444647	      9.23227840	     35.36027027
      0.32000000	     48.82523509	     -4.16332424	      6.31780543	     -0.90783657	      1.10130574	      0.27188528	    -43.42696478	    -13.55067831	     -5.07968038	    -46.99048973	     11.40008236	     -3.97114701	      0.91862522	      0.03717740	    -52.63334786	     -2.13010834	     -0.50256400	     -0.00642409	     10.00748643	     -4.01803394	    -17.10697348	    -18.97040717	    -61.11428424	      6.40042865	      2.15118057	      3.00182964	     -9.39952825	     14.64708246	     25.53439928	      5.44713639	     -7.70545898	      9.09968895	     34.66575489
      0.33000000	     48.75874889	     -3.72479802	      5.74561545	     -0.89835980	      1.10273149	      0.27398124	    -42.23011548	    -12.76769250	     -4.94607095	    -47.76676634	     10.75639709	     -3.80982478	      0.91368366	      0.02960600	    -52.35021780	     -1.69629903	      0.81360349	      0.08480032	      9.71615313	     -3.95690526	    -17.02897790	    -19.01343335	    -61.18498774	      5.54873761	      2.31475609	      3.17064223	     -9.51368210	     14.68082461	     25.71265471	      5.40531439	     -7.67985380	      8.93004299	     34.00638869
      0.34000000	     48.88840557	     -2.53547766	      4.84896792	     -0.88917732	      1.10454755	      0.27654557	    -41.35404591	    -11.04756421	     -4.52595180	    -48.78989726	      9.31966319	     -4.13696618	      0.90068046	      0.02174920	    -51.60518878	     -1.24613758	      1.48241805	      0.52399863	      9.18594276	     -3.65991569	    -17.41878607	    -19.06604899	    -61.46059158	      3.94850721	      1.98744365	      3.37136992	     -9.48998362	     14.57735574	     25.85495899	      5.39971705	     -7.82424170	      8.93657222	     33.43039806
      0.35000000	     48.71030105	     -2.22866987	      4.40391630	     -0.87962320	      1.10555977	      0.27843641	    -40.12215441	    -10.42072792	     -4.49231194	    -49.43160560	      8.86117785	     -4.12868156	      0.88884096	      0.01348852	    -50.92683586	     -0.77283508	      2.65788078	      0.61925956	      8.90902132	     -3.47843086	    -17.41675089	    -19.10098995	    -61.38758601	      3.27975837	      2.13749775	      3.55544007	     -9.59396177	     14.55374259	     26.04182927	      5.30977144	     -7.82436753	      8.73592239	     32.84156542
      0.36000000	     48.85560780	     -0.92057681	      3.53632342	     -0.87045317	      1.10712131	      0.28080565	    -39.38473065	     -8.53117912	     -4.03796371	    -50.46543769	      7.34453082	     -4.83859916	      0.86768497	      0.00509103	    -49.71468685	     -0.29169436	      3.13444667	      1.25656252	      8.38652134	     -2.66478866	    -18.12601772	    -19.05726798	    -61.68486378	      1.64467322	      1.68527981	      3.71657381	     -9.52268258	     14.27063974	     26.20462422	      5.28602231	     -7.97806645	      8.66768931	     32.32256179
      0.37000000	     48.73661660	     -0.26326506	      2.95009464	     -0.86111349	      1.10802911	      0.28279528	    -38.35572853	     -7.43511428	     -3.90908909	    -51.16745526	      6.52097803	     -5.09235083	      0.84707413	     -0.00311760	    -48.53377234	      0.17862557	      3.96577808	      1.60369040	      8.36154938	     -2.31830582	    -18.41539003	    -19.01613569	    -61.69558441	      0.64563290	      1.62293173	      3.89542520	     -9.55658176	     14.11369850	     26.36348743	      5.27891528	     -8.01761373	      8.47250170	     31.69739043
      0.38000000	     48.52766243	      0.19373632	      2.52504041	     -0.85172307	      1.10859093	      0.28453297	    -37.24176680	     -6.60305096	     -3.84531090	    -51.80803855	      5.96845569	     -5.29324886	      0.82513044	     -0.01333998	    -47.27649149	      0.76432440	      4.82890606	      1.79206054	      8.19866309	     -2.03956818	    -18.55315453	    -19.02057763	    -61.62742261	     -0.10656966	      1.62031468	      4.08443559	     -9.59571441	     13.97146998	     26.55278282	      5.18888057	     -8.08553825	      8.35275383	     31.25309344
      0.39000000	     48.57045657	      1.28249151	      1.89841035	     -0.84237589	      1.10942567	      0.28640746	    -36.54999203	     -4.98677781	     -3.44569037	    -52.74324755	      4.81048588	     -6.19670909	      0.79546883	     -0.02342546	    -45.57700679	      1.34218001	      5.06375299	      2.34417861	      7.83516484	     -1.07230461	    -19.19901103	    -18.85334306	    -61.80882358	     -1.38818129	      1.19606735	      4.19483287	     -9.52819768	     13.52285782	     26.78138450	      5.10302790	     -8.31705680	      8.42633665	     30.91360746
      0.40000000	     48.41359172	      1.91600703	      1.46816734	     -0.83308572	      1.10973376	      0.28799962	    -35.63514705	     -3.95209638	     -3.32763264	    -53.43481633	      4.13514650	     -6.60841226	      0.76657504	     -0.03357782	    -43.92151419	      1.92386752	      5.63693156	      2.66453529	      8.05013752	     -0.69729106	    -19.46546618	    -18.76043401	    -61.79901516	     -2.23072675	      1.05858583	      4.36089310	     -9.54617650	     13.28449721	     26.96933175	      5.07989395	     -8.42788123	      8.39033984	     30.44870409
      0.41000000	     48.08956755	      1.94602170	      1.46619646	     -0.82435186	      1.10967975	      0.28892691	    -34.43111275	     -3.69893021	     -3.24124198	    -53.78887938	      4.19897063	     -6.68052121	      0.73979773	     -0.03999142	    -42.38728748	      2.29133946	      5.97384094	      2.81768198	      8.10858995	     -0.63936309	    -19.53820788	    -18.75982631	    -61.73424604	     -2.34681987	      1.16889632	      4.67005413	     -9.63549715	     13.21428288	     27.18577445	      5.00095724	     -8.53434799	      8.35000107	     30.26007050
      0.42000000	     48.13895415	      3.25029224	      0.70359071	     -0.81445437	      1.10984153	      0.29083069	    -34.04806904	     -1.79642315	     -2.98141048	    -54.91496137	      2.83041654	     -7.58632114	      0.70057688	     -0.05588736	    -40.14009851	      3.20210999	      6.35495239	      3.29048027	      8.39847545	      0.13822646	    -19.77006918	    -18.69242526	    -61.84267293	     -3.87095791	      0.67525656	      4.63860713	     -9.55408323	     12.68749630	     27.42027975	      4.98029588	     -8.77042044	      8.60883205	     29.76995561
      0.43000000	     47.95139678	      3.83705019	      0.42450476	     -0.80514167	      1.10956424	      0.29199360	    -33.28154567	     -0.83907914	     -2.81610624	    -55.58496235	      2.31769489	     -8.06037105	      0.66502415	     -0.06662810	    -38.10307692	      3.81750919	      6.63472024	      3.59255402	      8.87079357	      0.49475931	    -19.87824976	    -18.64565317	    -61.81886665	     -4.54757338	      0.51530651	      4.77650663	     -9.57308918	     12.43538171	     27.63978783	      4.99046177	     -8.91736499	      8.72257100	     29.34730205
      0.44000000	     47.79146913	      4.44086743	      0.13973858	     -0.79580478	      1.10914206	      0.29301720	    -32.62670160	      0.15828766	     -2.64454580	    -56.29401185	      1.78899804	     -8.53972299	      0.62698620	     -0.07750663	    -35.92366282	      4.44080251	      6.75894028	      3.92757159	      9.29146219	      0.89861260	    -19.93618562	    -18.60818138	    -61.82676104	     -5.22228509	      0.34049470	      4.89205958	     -9.60071460	     12.14026450	     27.87719107	      4.96675721	     -9.09712952	      8.97362868	     29.04963218
      0.45000000	     47.61168965	      4.98333750	     -0.10722737	     -0.78641952	      1.10852869	      0.29387583	    -32.01691094	      1.07235087	     -2.52358551	    -56.97117714	      1.33212165	     -8.92238006	      0.58755695	     -0.08809700	    -33.66453325	      5.04758600	      6.86054057	      4.21946446	      9.91118267	      1.11758136	    -19.92869233	    -18.62719935	    -61.80292328	     -5.81578237	      0.18760311	      5.02306432	     -9.64947936	     11.91096945	     28.10077000	      4.95765247	     -9.22469314	      9.17214834	     28.69673980
      0.46000000	     47.44122065	      5.49174699	     -0.33215409	     -0.77704538	      1.10777196	      0.29480121	    -31.49074036	      1.93126924	     -2.42562231	    -57.64068551	      0.92377213	     -9.23698460	      0.54634258	     -0.09791084	    -31.30312429	      5.60987797	      6.85645511	      4.51487205	     10.56926482	      1.26306522	    -19.89519932	    -18.68524514	    -61.79485090	     -6.39175664	      0.05187112	      5.13892497	     -9.67830180	     11.71206068	     28.31989957	      4.96751469	     -9.38682430	      9.36830927	     28.36569981
      0.47000000	     47.28178115	      5.95774270	     -0.54724053	     -0.76766320	      1.10690783	      0.29555663	    -31.05068231	      2.75529311	     -2.31300979	    -58.28248048	      0.54592458	     -9.48636375	      0.50380626	     -0.10653183	    -28.86597234	      6.10382401	      6.77804125	      4.82696709	     11.22330765	      1.35370948	    -19.85125962	    -18.76924928	    -61.79589760	     -6.90726495	     -0.04843855	      5.26452681	     -9.73949111	     11.52758477	     28.51874401	      4.96924935	     -9.51183372	      9.55614190	     28.04166075
      0.48000000	     47.13333185	      6.40225695	     -0.77183579	     -0.75821626	      1.10594764	      0.29626327	    -30.71346369	      3.56048661	     -2.24219875	    -58.91138363	      0.16805807	     -9.71029436	      0.45936074	     -0.11414096	    -26.31943176	      6.53979523	      6.56842924	      5.15707478	     11.83802675	      1.41714972	    -19.80212208	    -18.88379175	    -61.79904609	     -7.41538726	     -0.13811130	      5.37909518	     -9.78274989	     11.34626840	     28.71667362	      4.96761713	     -9.63675819	      9.75661178	     27.74709490
      0.49000000	     46.69508974	      6.43525622	     -0.63697655	     -0.74894316	      1.10462699	      0.29644473	    -29.99338525	      3.80696774	     -2.13023685	    -59.11762501	      0.31246398	     -9.73695472	      0.41891065	     -0.11858115	    -24.00181221	      6.79419957	      6.48171427	      5.45593877	     12.20046525	      1.38880289	    -19.88736663	    -18.90837516	    -61.57421229	     -7.39758086	     -0.11695529	      5.57396525	     -9.85766681	     11.27372276	     28.92540285	      4.89365748	     -9.73012886	      9.79414974	     27.59574437
      0.50000000	     46.89540280	      7.20962520	     -1.29346528	     -0.73911458	      1.10376699	      0.29772740	    -30.34056523	      5.09345034	     -2.29146525	    -60.14370314	     -0.58393237	    -10.05512123	      0.36687826	     -0.12611914	    -21.02057573	      7.22609420	      5.91792765	      5.83446703	     12.79372196	      1.44197701	    -19.80372153	    -19.15821851	    -61.82814875	     -8.43966445	     -0.25243096	      5.58672471	     -9.87984116	     11.01684044	     29.08790926	      4.93559140	     -9.85820861	     10.07435349	     27.19414708
      0.51000000	     46.72058914	      7.44933960	     -1.42244533	     -0.72960848	      1.10253070	      0.29815188	    -30.17954000	      5.64925535	     -2.20318557	    -60.59048827	     -0.76968546	    -10.15952245	      0.32060883	     -0.12847708	    -18.36953298	      7.36119429	      5.63004499	      6.25936142	     13.05526109	      1.44284902	    -19.80688876	    -19.29455903	    -61.79361096	     -8.74006084	     -0.23591774	      5.70801876	     -9.92760655	     10.85378534	     29.23194908	      4.93120494	     -9.92395821	     10.17173245	     26.91549719
      0.52000000	     46.68451367	      7.78163013	     -1.73534949	     -0.71988338	      1.10133834	      0.29884728	    -30.29220687	      6.35699074	     -2.29056809	    -61.18928543	     -1.14621588	    -10.31029017	      0.27199624	     -0.13060427	    -15.58423676	      7.48307342	      5.15981053	      6.68478409	     13.15319188	      1.46975228	    -19.83889985	    -19.48407717	    -61.85643022	     -9.22855502	     -0.22288562	      5.78525425	     -9.96970948	     10.66647584	     29.37565873	      4.92339642	     -9.99636758	     10.27297758	     26.62280914
      0.53000000	     46.62148769	      8.09151390	     -2.07937451	     -0.71000604	      1.10004727	      0.29952872	    -30.44034251	      7.06420073	     -2.43840575	    -61.72644393	     -1.53278206	    -10.53507669	      0.22368756	     -0.13182166	    -12.81635302	      7.55282475	      4.62118790	      7.12034321	     12.94149362	      1.59391503	    -19.87056614	    -19.76475355	    -61.87506738	     -9.72819335	     -0.18425889	      5.82232954	     -9.99039280	     10.45023938	     29.55944001	      4.87559414	    -10.06696398	     10.40131287	     26.38829059
      0.54000000	     46.56972043	      8.25103413	     -2.29245653	     -0.70020742	      1.09874224	      0.29996142	    -30.63948268	      7.55531068	     -2.50906581	    -62.18568435	     -1.73321402	    -10.68099333	      0.17694068	     -0.12984943	    -10.13795401	      7.43982409	      4.19778305	      7.62282696	     12.73319046	      1.65491566	    -20.00968764	    -19.94203594	    -61.89973697	    -10.02412213	     -0.10168683	      5.91877163	    -10.01319593	     10.27397565	     29.65417303	      4.85466528	    -10.09846788	     10.41989417	     26.09922354
      0.55000000	     46.41891242	      8.32750396	     -2.40444810	     -0.69032833	      1.09730361	      0.30024215	    -30.75422106	      7.90590554	     -2.50044699	    -62.49683973	     -1.81158457	    -10.79559810	      0.13280818	     -0.12634834	     -7.60934821	      7.23922635	      3.91986649	      8.11855235	     12.59076086	      1.66664641	    -20.21057296	    -20.01827312	    -61.83138162	    -10.20556018	      0.04784076	      6.00965617	    -10.04222061	     10.14183115	     29.69383813	      4.83540058	    -10.10976916	     10.39976644	     25.89861173
      0.56000000	     46.42795503	      8.57682461	     -2.74806773	     -0.68014262	      1.09590493	      0.30074249	    -31.12991817	      8.56558156	     -2.48964458	    -62.97229288	     -2.15969431	    -11.32135493	      0.08885857	     -0.12228945	     -5.09122094	      7.00666956	      3.29909020	      8.76911586	     11.45329230	      2.22327382	    -20.74485583	    -20.38376089	    -61.88031104	    -10.65062904	      0.10673138	      5.99806757	    -10.04260753	      9.83496472	     29.86668245	      4.77112372	    -10.16873955	     10.52519197	     25.63869387
      0.57000000	     46.37417704	      8.50908187	     -2.90763176	     -0.67011352	      1.09448558	      0.30100518	    -31.40689242	      8.78917266	     -2.69262588	    -63.29621699	     -2.19331649	    -11.45751668	      0.05028849	     -0.11592459	     -2.88131837	      6.64198960	      3.04112359	      9.25906606	     11.12903391	      2.30259800	    -21.11095855	    -20.39696462	    -61.86033013	    -10.75533603	      0.32589503	      6.10976562	    -10.07096743	      9.73180568	     29.87287202	      4.71708395	    -10.16730820	     10.47731917	     25.40116662
      0.58000000	     46.32504110	      8.47837708	     -3.09449740	     -0.65989166	      1.09301833	      0.30122850	    -31.70456939	      9.06488826	     -2.85215654	    -63.60710395	     -2.27522628	    -11.70495150	      0.01549717	     -0.10849798	     -0.88792271	      6.21647646	      2.77863868	      9.80231513	     10.59053783	      2.52076695	    -21.54347397	    -20.37206422	    -61.82558207	    -10.90953175	      0.54899651	      6.17219918	    -10.09907498	      9.60248639	     29.88961909	      4.65139002	    -10.15817699	     10.46127138	     25.19822057
      0.59000000	     46.30963383	      8.50012993	     -3.35023359	     -0.64950452	      1.09154264	      0.30149051	    -32.04037195	      9.43678427	     -2.83941464	    -63.92666109	     -2.44999831	    -12.30956076	     -0.01454644	     -0.09975709	      0.83344969	      5.71566047	      2.48312449	     10.46164558	      9.39671078	      3.34818205	    -22.46746810	    -20.30653600	    -61.81456578	    -11.14607445	      0.78878217	      6.15111823	    -10.12111876	      9.39516757	     29.97665591	      4.61007593	    -10.16056083	     10.55190186	     24.99780516
      0.60000000	     46.18512595	      8.54936791	     -3.38442172	     -0.63912946	      1.09000218	      0.30142711	    -32.20617557	      9.69982257	     -2.52781214	    -64.07709984	     -2.47106557	    -13.13067698	     -0.03692839	     -0.08880216	      2.11584092	      5.08798903	      2.52867655	     11.18411211	      8.47921091	      4.29967099	    -24.48180733	    -20.00865771	    -61.72275958	    -11.22963119	      0.92230326	      6.18433556	    -10.08445960	      9.15442656	     29.92620599	      4.60105801	    -10.21354326	     10.74111328	     24.81042388
      0.61000000	     46.16283600	      8.39102401	     -3.57532694	     -0.62869417	      1.08853407	      0.30150082	    -32.45210493	      9.83331495	     -2.90087709	    -64.34476311	     -2.52028533	    -13.29523655	     -0.05445882	     -0.07846470	      3.12026041	      4.49569639	      2.50770496	     11.67345496	      8.18047269	      4.43730365	    -24.82842065	    -19.87121781	    -61.68342427	    -11.29613944	      1.15350011	      6.28116712	    -10.10247273	      9.09655697	     29.90805543	      4.49285577	    -10.19380292	     10.73161054	     24.60880766
      0.62000000	     46.08465969	      8.31264530	     -3.67191983	     -0.61809134	      1.08705702	      0.30147204	    -32.59457672	      9.97911724	     -3.09824180	    -64.55160671	     -2.53392185	    -13.65360313	     -0.06495483	     -0.06765286	      3.72163786	      3.87622323	      2.69999790	     11.98949304	      7.94899840	      4.47943251	    -24.96420161	    -19.78555443	    -61.61613377	    -11.34369354	      1.33343063	      6.33690786	    -10.08623474	      9.04169877	     29.86023946	      4.38336952	    -10.21265776	     10.75185285	     24.48748833
      0.63000000	     46.12423170	      8.19290717	     -4.02330703	     -0.60744603	      1.08566342	      0.30162631	    -32.89346632	     10.22225973	     -3.39078366	    -64.81078376	     -2.80370344	    -14.09622608	     -0.07281514	     -0.05381963	      4.17200014	      3.08363776	      2.46922015	     12.80363866	      7.39091608	      5.54051505	    -25.36844584	    -19.54660531	    -61.59124501	    -11.54991253	      1.70888254	      6.34840640	    -10.12373329	      8.91953890	     29.78480059	      4.35146133	    -10.17836730	     10.89378981	     24.27817256
      0.64000000	     46.07633777	      8.24449456	     -4.23094245	     -0.59639366	      1.08420739	      0.30161518	    -33.07248014	     10.53044460	     -3.43019882	    -65.03365025	     -3.04190804	    -15.18451190	     -0.07421191	     -0.04086229	      4.25202921	      2.34123689	      2.48514007	     13.45595482	      6.89574760	      7.15895348	    -25.89474874	    -19.24146975	    -61.48279804	    -11.76658984	      1.87691523	      6.28076735	    -10.09082010	      8.73519100	     29.78520261	      4.30551344	    -10.23444610	     11.24129850	     24.07050155
      0.65000000	     46.08363547	      8.17106449	     -4.37659065	     -0.58545995	      1.08293910	      0.30139212	    -33.29637704	     10.67491204	     -3.53326594	    -65.32209435	     -3.16156605	    -15.48190985	     -0.07151190	     -0.02862089	      4.09733012	      1.63985598	      2.51208148	     13.53139120	      6.76302703	      7.20397167	    -25.93372821	    -19.17853168	    -61.43983719	    -11.83217652	      2.00534926	      6.31791312	    -10.06594199	      8.68857108	     29.70367164	      4.16734647	    -10.24913151	     11.29237714	     23.96596493
      0.66000000	     46.13153608	      8.10270378	     -4.68583937	     -0.57444921	      1.08179414	      0.30133123	    -33.56077762	     10.90172504	     -3.74798521	    -65.59558994	     -3.47361080	    -15.81756863	     -0.06599767	     -0.01396451	      3.78138793	      0.80010738	      2.26412491	     13.86085472	      6.55653227	      7.73210549	    -25.99859572	    -19.06576968	    -61.41727599	    -12.02727683	      2.22844900	      6.32456736	    -10.05434554	      8.63388853	     29.59531337	      4.07860359	    -10.24884410	     11.42305768	     23.82286347
      0.67000000	     46.14219125	      8.23677046	     -5.17003108	     -0.56254128	      1.08053004	      0.30149033	    -33.91327430	     11.40163237	     -3.86767029	    -65.88226090	     -4.10117384	    -17.01736425	     -0.06211965	      0.00114616	      3.55919358	     -0.06567007	      1.74346153	     14.60242556	      6.21345548	     10.12466383	    -26.06308290	    -18.85112169	    -61.22450170	    -12.51356102	      2.48978035	      6.12144443	    -10.02592220	      8.48136935	     29.55681864	      3.99795406	    -10.27817802	     11.99181808	     23.52244440
      0.68000000	     46.20397045	      8.27982928	     -5.52268615	     -0.55094641	      1.07960805	      0.30138265	    -34.29401114	     11.72906234	     -3.86181320	    -66.17556750	     -4.57202183	    -17.63296210	     -0.05548461	      0.01702623	      3.17903417	     -0.97553117	      1.16051962	     14.76365069	      5.94733033	     11.14292768	    -25.99717644	    -18.73453542	    -61.14267955	    -12.81169818	      2.63040682	      6.03719233	     -9.96765887	      8.37091812	     29.46616520	      3.88207156	    -10.30730243	     12.31464766	     23.33062827
      0.69000000	     46.25375673	      8.20315413	     -5.75643471	     -0.53927206	      1.07893608	      0.30106334	    -34.70428987	     11.86285285	     -3.71901210	    -66.45084269	     -4.88452174	    -17.77338317	     -0.04807669	      0.03261044	      2.75459142	     -1.86844083	      0.77887401	     14.36388365	      5.94499105	     11.32487903	    -25.98200186	    -18.72640862	    -61.04471049	    -12.93070352	      2.77679558	      5.96575398	     -9.91546329	      8.35385351	     29.35111729	      3.70555550	    -10.32466961	     12.37186835	     23.21880127
      0.70000000	     46.41534875	      8.41557113	     -6.32555010	     -0.52707137	      1.07840735	      0.30108380	    -35.35083779	     12.46525275	     -3.58616483	    -66.76700887	     -5.73952611	    -18.85371873	     -0.04559302	      0.05296801	      2.61228736	     -3.03484361	     -0.39064296	     14.53655802	      5.15924708	     13.35233981	    -25.76193983	    -18.55775872	    -60.95657334	    -13.50959799	      2.91998541	      5.74516281	     -9.86315479	      8.24449706	     29.25851383	      3.62086425	    -10.33559653	     12.96259608	     22.90673671
      0.71000000	     46.53099749	      8.49284902	     -6.72213789	     -0.51497809	      1.07821347	      0.30081269	    -35.96864189	     12.83416260	     -3.33242309	    -66.96837822	     -6.39365878	    -19.37429448	     -0.04261628	      0.07465101	      2.44173320	     -4.27718783	     -1.33168494	     14.15303312	      4.66409230	     14.37966474	    -25.61427070	    -18.35202238	    -60.84659947	    -13.85325966	      3.02621589	      5.57857995	     -9.77736093	      8.17163321	     29.13310792	      3.49282769	    -10.33435877	     13.28823114	     22.68727746
      0.72000000	     46.58866638	      8.45723084	     -6.95022875	     -0.50286762	      1.07834189	      0.30018572	    -36.53125235	     12.98926131	     -3.02173154	    -67.04054368	     -6.86819288	    -19.37536726	     -0.03824297	      0.09786668	      2.19116071	     -5.60734794	     -1.71968670	     13.22424909	      4.72075463	     14.61784294	    -25.60325756	    -18.33664097	    -60.70683359	    -13.97244066	      3.06802521	      5.45233959	     -9.70248579	      8.15203848	     29.00126502	      3.28644077	    -10.30861472	     13.35349994	     22.56763439
      0.73000000	     46.79755891	      8.67130874	     -7.47353866	     -0.49045909	      1.07874799	      0.29983004	    -37.39464553	     13.57614646	     -2.60021127	    -67.12255374	     -7.86080419	    -20.25884642	     -0.04065168	      0.12749459	      2.32916975	     -7.30490178	     -3.09144803	     12.64912970	      3.54511728	     16.36619201	    -25.58608208	    -17.68499569	    -60.62722559	    -14.47824124	      3.14568953	      5.19751035	     -9.63346050	      8.09995915	     28.84770377	      3.21696214	    -10.28884986	     13.84285370	     22.25817842
      0.74000000	     46.86654733	      8.87622931	     -7.62725598	     -0.47817903	      1.07944133	      0.29886239	    -38.07808808	     13.91676466	     -1.83506498	    -66.97066846	     -8.56893495	    -20.84731944	     -0.04013271	      0.15794505	      2.29943512	     -9.04958468	     -3.88879839	     11.14924456	      2.72474193	     17.27452757	    -25.80038949	    -13.87800498	    -60.49773790	    -14.67241997	      2.97576228	      4.98226215	     -9.50031707	      7.92904288	     28.73334502	      3.12322280	    -10.30374254	     14.28287163	     22.01391683
      0.75000000	     46.97157342	      8.88847269	     -7.79797843	     -0.46595145	      1.08047222	      0.29794639	    -38.82927057	     14.08299009	     -1.47772393	    -66.70437738	     -9.19451766	    -20.70360200	     -0.03965188	      0.19310967	      2.27188511	    -11.06436899	     -3.99420655	      9.59914354	      2.77126461	     17.56315148	    -25.78416341	    -13.85488903	    -60.38185380	    -14.76328926	      2.90026094	      4.81806771	     -9.39351647	      7.91389817	     28.58219290	      2.93687640	    -10.27081355	     14.33355697	     21.90639580
      0.76000000	     47.03110311	      8.90958068	     -7.97088184	     -0.45397697	      1.08176410	      0.29676103	    -39.52348958	     14.29755672	     -1.19281153	    -66.14427366	     -9.97155871	    -20.79053838	     -0.04017574	      0.23595303	      2.30190045	    -13.51911302	     -4.71078757	      8.12286786	      2.18949797	     18.41245901	    -25.89030725	    -13.34755013	    -60.25164847	    -14.83644295	      2.88093321	      4.65540098	     -9.33529248	      7.91511608	     28.40595038	      2.88062630	    -10.16174227	     14.46620677	     21.71818432
      0.77000000	     47.04918622	      8.99116143	     -8.00766193	     -0.44193497	      1.08317634	      0.29536235	    -40.21423855	     14.46890730	     -0.65010453	    -65.44857263	    -10.67506538	    -20.69098544	     -0.04053458	      0.28056479	      2.32246048	    -16.07517812	     -4.90999326	      6.27047122	      1.69670071	     19.00365394	    -25.94484607	    -12.69526746	    -60.09928487	    -14.83072543	      2.70409473	      4.46766685	     -9.25920134	      7.87838326	     28.27072512	      2.78594578	    -10.12934295	     14.60252731	     21.60458037
      0.78000000	     47.18991845	      9.02643080	     -8.03439947	     -0.42991224	      1.08476814	      0.29398783	    -41.12321498	     14.57708678	     -0.12592121	    -64.78121744	    -11.32938305	    -20.32576002	     -0.04264404	      0.32657917	      2.44332336	    -18.71160821	     -4.68952525	      4.27055003	      1.65441098	     19.33472174	    -25.90884333	    -12.44890395	    -60.04365921	    -14.78434715	      2.44014532	      4.31409195	     -9.13766475	      7.83776805	     28.17322663	      2.62508069	    -10.09362884	     14.68778915	     21.53370851
      0.79000000	     47.26499727	      9.02809165	     -7.96922661	     -0.41822601	      1.08645778	      0.29232455	    -41.93110560	     14.61810589	      0.29506121	    -63.84186842	    -11.94205540	    -19.86348623	     -0.04392151	      0.37708703	      2.51651702	    -21.60549504	     -4.54196025	      2.16112168	      1.56802907	     19.65972636	    -25.89002315	    -12.14704914	    -59.99058698	    -14.62229467	      2.17431244	      4.16664278	     -9.05628643	      7.80004491	     28.08625736	      2.52629112	    -10.04842676	     14.76229495	     21.51042389
      0.80000000	     46.87164807	      9.05731424	     -7.78349397	     -0.40696707	      1.08778736	      0.29032647	    -42.10124233	     14.64580748	      1.16112310	    -62.19268845	    -12.56275179	    -19.30409556	     -0.04121260	      0.42756841	      2.36130823	    -24.49786516	     -4.55275259	     -0.79513892	      0.12023003	     19.46420438	    -26.99566863	     -2.82701274	    -59.57662501	    -14.41070141	      2.02091596	      4.05004965	     -9.02775248	      7.73507036	     27.99605450	      2.61156927	     -9.94207088	     14.84864215	     21.49480117
      0.81000000	     46.79839043	      8.97307477	     -7.62080014	     -0.39575711	      1.08938847	      0.28860538	    -42.71648140	     14.54788757	      1.43820005	    -60.81117394	    -13.01140046	    -18.43131779	     -0.04119010	      0.48076063	      2.36001900	    -27.54555494	     -4.26300928	     -2.94945813	      0.17222194	     19.54903993	    -26.94698819	     -2.70242094	    -59.44997465	    -14.13515012	      1.79421469	      3.92642911	     -8.95646792	      7.73779684	     27.98189996	      2.57228564	     -9.89457694	     14.87504931	     21.62021281
      0.82000000	     46.67143809	      8.71136888	     -7.43934525	     -0.38492172	      1.09081750	      0.28691949	    -43.25894606	     14.29597482	      1.60311458	    -59.20268445	    -13.27633641	    -17.22504681	     -0.04067828	      0.53567069	      2.33069374	    -30.69166960	     -3.71854379	     -4.69891891	      0.13628338	     19.23533397	    -26.87128380	     -2.46314080	    -59.29089459	    -13.72878738	      1.66423223	      3.88950116	     -8.93742838	      7.75318231	     27.96742866	      2.56553171	     -9.84554731	     14.81851847	     21.71084984
      0.83000000	     46.56870565	      8.29263052	     -7.24280945	     -0.37447194	      1.09227073	      0.28520735	    -43.84361466	     13.90937616	      1.58773120	    -57.52520561	    -13.33735323	    -15.79141526	     -0.04114817	      0.58846693	      2.35761660	    -33.71667144	     -3.13984693	     -6.28619001	      0.29976285	     18.67818890	    -26.77552508	     -2.19205659	    -59.20469615	    -13.19071878	      1.66680943	      3.88636156	     -8.97776950	      7.83266860	     27.97587476	      2.60505397	     -9.75678034	     14.69193299	     21.88325771
      0.84000000	     46.51534307	      7.88008461	     -7.03532098	     -0.36411384	      1.09360880	      0.28357340	    -44.49750144	     13.51304402	      1.50745442	    -55.88085240	    -13.33845984	    -14.49463369	     -0.04218351	      0.63918667	      2.41693714	    -36.62269826	     -2.58349688	     -7.56868110	      0.61268137	     18.24878659	    -26.64545530	     -2.05930045	    -59.16524990	    -12.65062175	      1.62384507	      3.87940067	     -9.00746936	      7.94008664	     28.02157837	      2.62986136	     -9.70636607	     14.61424206	     22.12337315
