Model Marker Errors from IK
version=1
nRows=64
nColumns=4
inDegrees=no
endheader
time	total_squared_error	marker_error_RMS	marker_error_max
      0.21000000	      0.07669323	      0.04492486	      0.13325060
      0.22000000	      0.07650084	      0.04486848	      0.13269167
      0.23000000	      0.07636601	      0.04482892	      0.13230486
      0.24000000	      0.07628461	      0.04480502	      0.13178562
      0.25000000	      0.07625011	      0.04479489	      0.13135564
      0.26000000	      0.07624544	      0.04479352	      0.13085276
      0.27000000	      0.07625693	      0.04479689	      0.13054112
      0.28000000	      0.07627543	      0.04480232	      0.13028711
      0.29000000	      0.07627568	      0.04480240	      0.12984763
      0.30000000	      0.07625344	      0.04479586	      0.12966229
      0.31000000	      0.07617286	      0.04477219	      0.12904881
      0.32000000	      0.07605363	      0.04473714	      0.12869745
      0.33000000	      0.07591539	      0.04469646	      0.12836811
      0.34000000	      0.07574287	      0.04464564	      0.12785485
      0.35000000	      0.07557112	      0.04459500	      0.12750586
      0.36000000	      0.07538118	      0.04453892	      0.12694621
      0.37000000	      0.07521410	      0.04448953	      0.12639677
      0.38000000	      0.07507382	      0.04444803	      0.12588157
      0.39000000	      0.07495102	      0.04441166	      0.12656806
      0.40000000	      0.07486637	      0.04438657	      0.12692391
      0.41000000	      0.07483150	      0.04437623	      0.12641694
      0.42000000	      0.07478059	      0.04436113	      0.12773148
      0.43000000	      0.07476782	      0.04435735	      0.12796679
      0.44000000	      0.07476469	      0.04435642	      0.12825158
      0.45000000	      0.07476603	      0.04435682	      0.12845069
      0.46000000	      0.07476686	      0.04435706	      0.12864027
      0.47000000	      0.07476624	      0.04435688	      0.12878698
      0.48000000	      0.07476564	      0.04435670	      0.12892155
      0.49000000	      0.07478272	      0.04436177	      0.12820883
      0.50000000	      0.07478240	      0.04436167	      0.12926881
      0.51000000	      0.07481075	      0.04437008	      0.12920155
      0.52000000	      0.07485443	      0.04438303	      0.12948960
      0.53000000	      0.07491462	      0.04440087	      0.12973285
      0.54000000	      0.07499089	      0.04442347	      0.12989418
      0.55000000	      0.07507876	      0.04444949	      0.12983619
      0.56000000	      0.07516378	      0.04447465	      0.13024286
      0.57000000	      0.07524995	      0.04450013	      0.13030696
      0.58000000	      0.07532843	      0.04452333	      0.13043114
      0.59000000	      0.07539239	      0.04454223	      0.13066412
      0.60000000	      0.07544492	      0.04455775	      0.13067323
      0.61000000	      0.07549364	      0.04457213	      0.13078050
      0.62000000	      0.07554754	      0.04458804	      0.13080820
      0.63000000	      0.07560475	      0.04460492	      0.13105202
      0.64000000	      0.07568041	      0.04462723	      0.13127299
      0.65000000	      0.07579677	      0.04466153	      0.13146946
      0.66000000	      0.07595542	      0.04470824	      0.13172370
      0.67000000	      0.07614853	      0.04476504	      0.13221195
      0.68000000	      0.07639820	      0.04483836	      0.13261038
      0.69000000	      0.07669619	      0.04492573	      0.13288643
      0.70000000	      0.07700910	      0.04501728	      0.13360836
      0.71000000	      0.07733671	      0.04511293	      0.13407331
      0.72000000	      0.07765649	      0.04520611	      0.13430534
      0.73000000	      0.07791734	      0.04528196	      0.13497715
      0.74000000	      0.07811328	      0.04533886	      0.13530343
      0.75000000	      0.07823069	      0.04537293	      0.13558608
      0.76000000	      0.07824444	      0.04537691	      0.13566449
      0.77000000	      0.07816146	      0.04535284	      0.13574703
      0.78000000	      0.07799439	      0.04530435	      0.13613463
      0.79000000	      0.07775396	      0.04523447	      0.13628480
      0.80000000	      0.07739499	      0.04512993	      0.13540755
      0.81000000	      0.07706032	      0.04503225	      0.13512128
      0.82000000	      0.07672431	      0.04493396	      0.13465999
      0.83000000	      0.07641478	      0.04484323	      0.13401906
      0.84000000	      0.07615464	      0.04476683	      0.13346185
