Coordinates

Units are S.I. units (second, meters, Newtons, ...)
If the header above contains a line with 'inDegrees', this indicates whether rotational values are in degrees (yes) or radians (no).

inDegrees=yes
nColumns=34
nRows=58
DataType=double
version=3
OpenSimVersion=4.5-2023-11-26-efcdfd3eb
endheader
time	pelvis_tilt	pelvis_tx	pelvis_ty	hip_flexion_l	hip_flexion_r	knee_angle_l	knee_angle_r	ankle_angle_l	ankle_angle_r	mtp_angle_l	mtp_angle_r	lumbar_ext	shoulder_flexion_r	elbow_flexion_r	shoulder_flexion_l	elbow_flexion_l
0.19	14.68656182	0.17209161	1.04777881	2.38193711	-18.16007817	-17.7441558	-50.09360558	6.20538389	-9.78816174	-9.931861039999999	2.29534646	-33.2947865	-1.14278349	61.18144746	-6.43734386	25.54437648
0.2	14.61536298	0.18471121	1.04893404	1.71525624	-16.39358757	-17.75445458	-52.68286525	6.87243822	-9.97280334	-10.01218195	1.89713004	-33.2513527	-1.46085471	60.2332147	-5.8772192	25.83096711
0.21	14.39356544	0.19705572	1.04983745	1.2263642	-14.38952544	-17.82117658	-55.12474417	7.80347201	-9.3090464	-10.55278624	-0.46936593	-33.04628861	-1.83862925	59.33672904	-5.16579827	25.92036605
0.22	14.52346192	0.20942144	1.05142573	0.20635414	-12.81271923	-17.53706739	-57.09401729	8.30980784	-8.607209770000001	-10.6492415	-0.98210158	-33.19183436	-2.13411909	58.31635298	-4.48951863	26.16614502
0.23	14.51789823	0.2216332	1.05276466	-0.68206208	-11.05019193	-17.22635324	-58.81441843	8.939224019999999	-7.35323493	-10.82798191	-2.13396714	-33.16075747	-2.46889828	57.28685695	-3.76153856	26.39841968
0.24	14.82392912	0.23350177	1.05476968	-1.9129171	-9.82167877	-16.8954932	-59.99895247	9.314697929999999	-6.20306928	-10.82658574	-2.0779318	-33.59296062	-2.82296834	56.51117426	-2.93124674	26.71132167
0.25	14.88426392	0.2457603	1.05621642	-3.00363917	-8.142511750000001	-16.32877478	-61.13170456	9.917522849999999	-3.81548093	-11.22288815	-5.86799165	-33.55260919	-3.10622637	55.25417563	-2.26966494	27.0770037
0.26	15.07607583	0.25778164	1.05800112	-4.23727249	-6.85810961	-15.74526655	-61.63079417	10.21877351	-2.08355907	-11.24621239	-5.71513084	-33.77911579	-3.48911019	54.28902059	-1.48132769	27.48220404
0.27	15.25686129	0.26966001	1.05970107	-5.46401523	-5.56290776	-15.13531934	-61.86563643	10.42057293	-0.45657193	-11.28650394	-5.60944681	-33.99394523	-3.86931712	53.31616517	-0.69308625	27.92037725
0.28	15.5552962	0.28169188	1.06157979	-6.89297105	-4.47040898	-14.38906237	-61.71619652	10.63816836	1.42469229	-11.34301143	-5.63634709	-34.26859789	-4.1697147	52.17437876	0.01335464	28.43023778
0.29	15.72831802	0.29366937	1.0631739	-8.1965992	-3.34116687	-13.60774709	-61.26227927	10.78998662	2.96776933	-11.37769345	-5.64541689	-34.47069772	-4.60660554	51.20759949	0.76392715	29.03314391
0.3	16.48844085	0.30590359	1.06569267	-10.25999738	-3.01931732	-12.63297524	-60.36184402	10.91978916	4.65807949	-11.29716925	-6.03558206	-35.26036541	-4.89194327	50.14150153	1.20543039	30.07868862
0.31	16.93310683	0.31803832	1.06761892	-11.9537578	-2.46787732	-11.68190275	-59.21170895	11.03450728	5.92929468	-10.84744924	-6.81344817	-35.75116418	-5.05590666	48.90488681	1.49143654	31.37637011
0.32	16.85006743	0.32994933	1.06835129	-12.96807253	-1.28822074	-10.89199607	-58.02488371	11.15762546	6.88820512	-10.88176913	-6.80939269	-35.6773952	-5.62302386	48.01649612	2.30956636	31.98846903
0.33	17.4413266	0.34220597	1.070235	-14.91222404	-1.14839755	-9.80772666	-56.2481826	11.192457	8.11607261	-10.86839107	-6.91234412	-36.25941461	-5.95737643	46.91653282	2.86930692	32.8078147
0.34	18.03114545	0.35458134	1.07186104	-16.87858348	-1.11060901	-8.64277937	-54.26956762	11.24846351	8.799385880000001	-10.65245429	-7.27930095	-36.88127909	-6.41175483	46.02452542	3.3339503	34.02956272
0.35	17.97156839	0.36667565	1.07208992	-18.02671481	-0.25620036	-7.65457495	-52.35494523	11.37943182	9.49753445	-10.63149719	-7.43746236	-36.78649653	-6.85767945	44.96133558	4.01121996	34.76469379
0.36	18.50166362	0.3790937	1.07322964	-19.91840623	-0.3473439	-6.54094602	-49.90504383	11.44489035	9.876469220000001	-10.50554598	-7.85794533	-37.30477955	-7.32661194	44.0505563	4.5560902	35.78913461
0.37	18.67639628	0.39140932	1.07344661	-21.35980807	-0.02112367	-5.52031481	-47.44886068	11.58328666	10.1745427	-10.39228102	-8.27189699	-37.44495627	-7.79470876	43.12348321	5.16575643	36.66451654
0.38	18.92129978	0.40380836	1.07353731	-22.92352128	0.12473676	-4.41575595	-44.788556	11.75669789	10.39016859	-10.24360937	-8.80729023	-37.65916039	-8.307371509999999	42.30742298	5.78898422	37.56434761
0.39	18.64238807	0.41599299	1.07239744	-23.78751143	0.95670751	-3.51767111	-42.26720311	11.97797349	10.77329047	-10.26301092	-9.04776719	-37.32212814	-8.746210939999999	41.3316698	6.46878903	38.27641734
0.4	19.08080092	0.42849412	1.07238409	-25.53089559	0.64645838	-2.53164238	-39.14770968	12.18388404	10.56060067	-10.19793898	-9.649284010000001	-37.71839984	-9.324397859999999	40.70497734	7.19535007	39.03782901
0.41	18.68396992	0.44039214	1.07053669	-26.06697111	1.58022443	-1.99212856	-36.50735889	12.52473704	10.66228685	-10.19953477	-9.85609771	-37.28808241	-9.8417323	40.07071016	7.98545623	39.69072059
0.42	19.09757819	0.45312104	1.07004663	-27.81766918	1.09080102	-0.99396048	-33.06986064	12.75550157	10.43089061	-10.23201194	-10.25784091	-37.62953434	-10.33546354	39.24696925	8.74945726	40.26454503
0.43	19.10498115	0.46538516	1.06854131	-28.87833983	1.22544522	-0.38893077	-29.89717881	13.09826332	10.30922404	-10.19818867	-10.41428616	-37.58310664	-10.86614589	38.62501582	9.626823740000001	40.73122453
0.44	18.6793278	0.4772331	1.06604669	-29.27415024	2.00228224	-0.06988551	-26.99950827	13.49703717	10.34469198	-10.17910155	-10.58326196	-37.12867473	-11.33427002	38.07912081	10.4514104	41.34689661
0.45	18.64534311	0.48962195	1.06428976	-30.21130085	1.97640151	0.33119964	-23.58664476	13.82358123	10.24770764	-10.21928386	-10.62439258	-37.0027438	-11.54242923	36.94490981	11.15191053	41.81527765
0.46	19.01262084	0.50202991	1.06291191	-31.57863338	1.38322612	0.72924866	-19.99376917	14.23393192	9.711583170000001	-10.20880517	-10.45289899	-37.33396452	-12.10941764	36.48803272	12.15131337	42.14724334
0.47	18.98573366	0.51412948	1.0607584	-32.30794671	1.33627779	0.78501296	-16.67171997	14.64934142	9.51463146	-10.11491836	-10.29987606	-37.24242235	-12.53618583	35.99607965	13.06117541	42.4516611
0.48	18.73662282	0.52620761	1.05810062	-32.73937771	1.55908459	0.73861875	-13.51283654	15.07124365	9.47191308	-10.0308891	-10.35479321	-36.9315219	-12.9365217	35.59454538	13.88548796	42.84426314
0.49	19.51305916	0.53886378	1.05697317	-34.39979292	0.25391876	0.8117246299999999	-9.83256697	15.62417183	8.661269580000001	-9.49791911	-9.00674794	-37.61312634	-13.63258185	35.40715408	15.17304651	42.60409151
0.5	19.6150632	0.55127211	1.05481236	-35.12923457	-0.13465541	0.57441517	-6.6579293	16.0337407	8.24275929	-9.2444188	-8.886133279999999	-37.60559085	-13.95686258	34.86442372	15.96393903	42.88532166
0.51	19.81746342	0.56383385	1.05273737	-35.94870691	-0.65182711	0.25655387	-3.70798223	16.49765601	7.7825105	-8.8837774	-8.758561350000001	-37.69886767	-14.35349993	34.48213492	16.80591752	43.06594979
0.52	19.95586932	0.57641389	1.05062347	-36.61533493	-1.07060245	-0.19998538	-1.10710106	16.91581084	7.40901985	-8.60190147	-8.89693503	-37.71914261	-14.68473772	34.0537773	17.58224067	43.23822312
0.53	19.91137068	0.58912583	1.04824008	-37.05187947	-1.1997955	-0.77117419	1.01487754	17.29773485	7.16580276	-8.438166020000001	-9.093842090000001	-37.54979455	-14.97939036	33.71551538	18.23008062	43.43179485
0.54	20.37269703	0.60223286	1.04674901	-38.03720538	-1.99459902	-1.38062958	2.90676265	17.74910808	6.68058584	-7.85197254	-9.545932860000001	-37.88237986	-15.39790921	33.51170278	18.96604242	43.5183458
0.55	20.49826973	0.61516127	1.04495671	-38.54612592	-2.25932366	-2.18405901	4.16270353	18.02775628	6.34078094	-7.61613843	-9.810386429999999	-37.9164263	-15.66689654	33.26220456	19.52596366	43.72881974
0.5600000000000001	20.46889001	0.6283347500000001	1.04306459	-38.92371327	-2.22216413	-2.9678415	4.76761769	17.98375167	6.3317001	-7.52310592	-9.87743135	-37.81378593	-15.9514601	33.10785282	19.9937721	43.96814848
0.57	20.8238469	0.6417361700000001	1.04208925	-39.58114026	-2.7115086	-4.02283465	5.15897455	18.41072585	5.70983783	-7.13474748	-10.18935015	-38.09836452	-16.17302573	33.01640723	20.28275908	44.31612504
0.58	20.9154272	0.65498631	1.04091576	-39.92179988	-2.68618788	-5.12223922	4.79428786	18.36837405	5.41939542	-6.95212175	-10.19231305	-38.18839115	-16.3875931	33.02815688	20.61372216	44.56499361
0.59	20.98315209	0.66872811	1.04001852	-40.19932547	-2.64838246	-6.34173218	4.08905061	18.26186068	4.9699309	-6.62161697	-10.03659009	-38.25000118	-16.55969902	33.06753198	20.6644455	45.03857508
0.6	21.10381846	0.68239593	1.03948468	-40.48495537	-2.55169457	-7.62040411	2.89129416	17.67239675	4.5186471	-6.48679671	-9.91117064	-38.40062289	-16.71174359	33.09338026	20.78648107	45.31943331
0.61	21.20880405	0.69612512	1.039194	-40.64165411	-2.37950025	-9.10461469	1.34073407	17.02836371	3.93332099	-6.29038608	-9.729109469999999	-38.5655384	-16.84624499	33.23225188	20.81087593	45.68093832
0.62	20.77425312	0.71062219	1.03846956	-40.12344868	-1.62004747	-10.82549241	-0.43119765	16.57977822	3.10019368	-4.96336229	-8.58193736	-38.18925852	-16.71510001	33.23546275	20.04809495	46.83814221
0.63	20.66961047	0.72473824	1.03841736	-39.85433484	-1.16748809	-12.6572277	-2.42521419	15.51912377	2.31833275	-4.08893221	-7.96707611	-38.19512143	-16.77735448	33.44597047	19.77554732	47.33009847
0.64	20.3364277	0.7389722	1.03836965	-39.22180249	-0.45058187	-14.6711015	-4.54828456	14.15642252	1.47763918	-2.36532905	-7.30158527	-37.96715397	-16.62089286	33.45624684	19.23099957	48.00515411
0.65	20.05120669	0.75322533	1.03860588	-38.51330365	0.17523115	-16.87270297	-6.67461078	12.50821896	0.72569354	-0.34301647	-7.12790725	-37.82041808	-16.51416065	33.57859775	18.71182636	48.57245533
0.66	20.28025332	0.76756337	1.03982984	-38.251959	0.09369833	-19.21137475	-8.582318669999999	10.58210852	0.22792863	-0.07276887999999999	-7.03936688	-38.14924221	-16.47959845	33.76629352	18.38796044	48.76859361
0.67	19.32256657	0.7816475000000001	1.03947699	-36.48194551	1.46355203	-21.98501433	-10.7890671	8.552915520000001	-0.22235329	3.24258992	-7.63629208	-37.39035814	-16.12766443	33.778341	17.58088842	49.44405131
0.68	19.62239247	0.79592907	1.04115789	-35.99393853	1.12986145	-24.73338009	-12.39431592	6.21232561	-0.31904011	3.60946897	-7.58777514	-37.78396658	-16.00793639	33.97584961	17.18330635	49.57181163
0.6899999999999999	18.66885583	0.81002846	1.04107911	-33.98548855	2.27858313	-27.72221279	-14.26873713	3.28302663	-0.17156714	9.577503099999999	-9.908800400000001	-37.01242373	-15.62121041	34.00878466	16.34339193	50.05672801
0.7	18.31521678	0.82384865	1.04196828	-32.45910925	2.58803543	-30.95768371	-15.71340801	0.55096105	0.10608413	10.46702675	-10.03723	-36.79598884	-15.34543579	34.20386659	15.84664906	50.06755421
0.71	17.90099196	0.83748796	1.04282184	-30.74376044	2.87952208	-34.22818343	-17.01152528	-2.46776816	0.62514531	12.31984707	-10.72467451	-36.48664038	-14.8898409	34.21277762	15.21592718	50.18488969
0.72	18.00491665	0.8511370700000001	1.04452194	-29.50794159	2.38540181	-37.45372689	-17.85474844	-5.67722244	1.28219315	12.69298785	-10.73445581	-36.69035706	-14.59120849	34.50596916	14.76602378	50.11365172
0.73	17.31728906	0.86433183	1.04502417	-27.24712897	2.82489989	-40.82505431	-18.87140914	-8.774459889999999	2.17842997	14.83047161	-12.5334658	-36.05774239	-13.90039821	34.33936796	14.00255638	50.19026043
0.74	17.3851624	0.87747172	1.04661453	-25.76978581	2.19920445	-44.02045164	-19.32818362	-11.70536763	3.00251565	14.81515821	-12.45841454	-36.18762451	-13.53722556	34.69994416	13.66172182	49.85546867
0.75	16.95413893	0.8901841700000001	1.04737747	-23.55881757	2.15676159	-47.33341145	-19.84265097	-14.07067835	3.88508127	14.42045961	-12.72461881	-35.76375008	-12.97580249	34.78543324	13.26867037	49.39138438
0.76	17.05577979	0.90297049	1.04904924	-22.02086879	1.36188673	-50.20594742	-20.01877009	-16.36366714	4.75086703	14.18641099	-12.78471377	-35.8845924	-12.46432749	35.1681029	12.82913334	49.05790455
