Coordinates
version=1
nRows=58
nColumns=34
inDegrees=yes

Units are S.I. units (second, meters, Newtons, ...)
If the header above contains a line with 'inDegrees', this indicates whether rotational values are in degrees (yes) or radians (no).

endheader
time	pelvis_tilt	pelvis_list	pelvis_rotation	pelvis_tx	pelvis_ty	pelvis_tz	hip_flexion_l	hip_adduction_l	hip_rotation_l	hip_flexion_r	hip_adduction_r	hip_rotation_r	knee_angle_l_beta	knee_angle_r_beta	knee_angle_l	knee_angle_r	ankle_angle_l	ankle_angle_r	subtalar_angle_l	subtalar_angle_r	mtp_angle_l	mtp_angle_r	lumbar_ext	lumbar_bend	lumbar_rota	shoulder_flexion_r	shoulder_adduction_r	shoulder_rotation_r	elbow_flexion_r	shoulder_flexion_l	shoulder_adduction_l	shoulder_rotation_l	elbow_flexion_l
      0.19000000	     14.68656182	      4.83494497	     -0.19383938	      0.17209161	      1.04777881	     -0.25530958	      2.38193711	      6.05058212	      2.78382324	    -18.16007817	     -9.26337300	     -9.37800897	      0.30969394	      0.87429835	    -17.74415580	    -50.09360558	      6.20538389	     -9.78816174	      7.20315845	     10.66543108	     -9.93186104	      2.29534646	    -33.29478650	     -8.89376816	      0.76501111	     -1.14278349	      3.65472609	    -25.81917391	     61.18144746	     -6.43734386	     -1.35728075	      0.08838137	     25.54437648
      0.20000000	     14.61536298	      5.11729909	     -0.57397900	      0.18471121	      1.04893404	     -0.25666978	      1.71525624	      6.48971370	      2.56856134	    -16.39358757	    -10.12268808	     -9.26463179	      0.30987369	      0.91948946	    -17.75445458	    -52.68286525	      6.87243822	     -9.97280334	      7.07497144	      8.91302113	    -10.01218195	      1.89713004	    -33.25135270	     -9.18605490	      0.54167151	     -1.46085471	      3.62591420	    -25.35184222	     60.23321470	     -5.87721920	     -1.44191022	      0.49561504	     25.83096711
      0.21000000	     14.39356544	      5.08259472	     -0.95114927	      0.19705572	      1.04983745	     -0.25760914	      1.22636420	      6.56935304	      2.48873064	    -14.38952544	    -10.57576387	     -9.03454199	      0.31103821	      0.96210829	    -17.82117658	    -55.12474417	      7.80347201	     -9.30904640	      7.12693654	      7.58260817	    -10.55278624	     -0.46936593	    -33.04628861	     -9.21464869	      0.60957386	     -1.83862925	      3.66034860	    -25.07372638	     59.33672904	     -5.16579827	     -1.53862528	      0.98328540	     25.92036605
      0.22000000	     14.52346192	      5.17025007	     -1.40750271	      0.20942144	      1.05142573	     -0.25847797	      0.20635414	      6.77793871	      2.21186985	    -12.81271923	    -11.12071078	     -8.77974550	      0.30607957	      0.99647858	    -17.53706739	    -57.09401729	      8.30980784	     -8.60720977	      7.11667249	      6.02267553	    -10.64924150	     -0.98210158	    -33.19183436	     -9.34881113	      0.54421787	     -2.13411909	      3.67643546	    -24.70086737	     58.31635298	     -4.48951863	     -1.63188932	      1.36027466	     26.16614502
      0.23000000	     14.51789823	      5.09171151	     -1.89611958	      0.22163320	      1.05276466	     -0.25923921	     -0.68206208	      6.80139781	      1.84374243	    -11.05019193	    -11.42746541	     -8.40971730	      0.30065658	      1.02650525	    -17.22635324	    -58.81441843	      8.93922402	     -7.35323493	      7.30199110	      4.71568697	    -10.82798191	     -2.13396714	    -33.16075747	     -9.33439010	      0.67049202	     -2.46889828	      3.67110883	    -24.41769437	     57.28685695	     -3.76153856	     -1.67947222	      1.66640516	     26.39841968
      0.24000000	     14.82392912	      4.83202908	     -1.96609128	      0.23350177	      1.05476968	     -0.26083415	     -1.91291710	      6.67510789	      2.00576700	     -9.82167877	    -11.48912813	     -8.53499629	      0.29488199	      1.04717927	    -16.89549320	    -59.99895247	      9.31469793	     -6.20306928	      7.33655346	      4.08681748	    -10.82658574	     -2.07793180	    -33.59296062	     -8.89074368	      0.54540405	     -2.82296834	      3.68136249	    -24.34060446	     56.51117426	     -2.93124674	     -1.69076712	      1.74345577	     26.71132167
      0.25000000	     14.88426392	      4.64856888	     -2.67345921	      0.24576030	      1.05621642	     -0.26079691	     -3.00363917	      6.56402980	      1.27029994	     -8.14251175	    -11.47773082	     -7.83581887	      0.28499088	      1.06694952	    -16.32877478	    -61.13170456	      9.91752285	     -3.81548093	      7.81747855	      3.11708235	    -11.22288815	     -5.86799165	    -33.55260919	     -8.90237371	      0.80463734	     -3.10622637	      3.69795796	    -23.97687877	     55.25417563	     -2.26966494	     -1.75414732	      1.88946958	     27.07700370
      0.26000000	     15.07607583	      4.36935317	     -2.87961884	      0.25778164	      1.05800112	     -0.26168785	     -4.23727249	      6.39616475	      1.29516351	     -6.85810961	    -11.33982087	     -7.75477565	      0.27480674	      1.07566028	    -15.74526655	    -61.63079417	     10.21877351	     -2.08355907	      7.82846647	      2.55217177	    -11.24621239	     -5.71513084	    -33.77911579	     -8.53812127	      0.80757132	     -3.48911019	      3.75754518	    -23.91543736	     54.28902059	     -1.48132769	     -1.80684230	      1.88887589	     27.48220404
      0.27000000	     15.25686129	      4.06985329	     -3.11889284	      0.26966001	      1.05970107	     -0.26262571	     -5.46401523	      6.21608215	      1.23770900	     -5.56290776	    -11.16126723	     -7.66385654	      0.26416116	      1.07975905	    -15.13531934	    -61.86563643	     10.42057293	     -0.45657193	      7.89726394	      2.25247975	    -11.28650394	     -5.60944681	    -33.99394523	     -8.14176510	      0.85354160	     -3.86931712	      3.79320797	    -23.85934185	     53.31616517	     -0.69308625	     -1.79519649	      1.81090750	     27.92037725
      0.28000000	     15.55529620	      3.69200542	     -3.53673657	      0.28169188	      1.06157979	     -0.26306519	     -6.89297105	      5.95347174	      0.69859313	     -4.47040898	    -10.82946128	     -7.32333181	      0.25113651	      1.07715083	    -14.38906237	    -61.71619652	     10.63816836	      1.42469229	      8.01922691	      2.57473863	    -11.34301143	     -5.63634709	    -34.26859789	     -7.79167282	      0.94686630	     -4.16971470	      3.82121274	    -23.74362085	     52.17437876	      0.01335464	     -1.79359488	      1.46093590	     28.43023778
      0.29000000	     15.72831802	      3.37568021	     -3.75110847	      0.29366937	      1.06317390	     -0.26374644	     -8.19659920	      5.74940504	      0.56652145	     -3.34116687	    -10.50715367	     -7.23220074	      0.23749999	      1.06922848	    -13.60774709	    -61.26227927	     10.78998662	      2.96776933	      8.19623214	      2.83693820	    -11.37769345	     -5.64541689	    -34.47069772	     -7.39006438	      1.00687505	     -4.60660554	      3.89011563	    -23.75296276	     51.20759949	      0.76392715	     -1.79964496	      1.07527222	     29.03314391
      0.30000000	     16.48844085	      2.84954257	     -4.09953609	      0.30590359	      1.06569267	     -0.26416304	    -10.25999738	      5.36188137	     -0.15700484	     -3.01931732	     -9.98528541	     -7.03925708	      0.22048701	      1.05351292	    -12.63297524	    -60.36184402	     10.91978916	      4.65807949	      8.70942314	      4.25376312	    -11.29716925	     -6.03558206	    -35.26036541	     -6.87230980	      0.91208379	     -4.89194327	      3.87982653	    -23.43464809	     50.14150153	      1.20543039	     -1.70091883	     -0.28586698	     30.07868862
      0.31000000	     16.93310683	      2.37270229	     -4.17779213	      0.31803832	      1.06761892	     -0.26485309	    -11.95375780	      4.98363516	     -0.48194568	     -2.46787732	     -9.41841205	     -7.15641678	      0.20388767	      1.03343928	    -11.68190275	    -59.21170895	     11.03450728	      5.92929468	      9.11171821	      4.72658769	    -10.84744924	     -6.81344817	    -35.75116418	     -6.26650094	      0.44551497	     -5.05590666	      3.92358039	    -23.10582692	     48.90488681	      1.49143654	     -1.64091638	     -1.91380370	     31.37637011
      0.32000000	     16.85006743	      2.18426017	     -4.22324582	      0.32994933	      1.06835129	     -0.26558452	    -12.96807253	      4.90626985	     -0.46382059	     -1.28822074	     -9.10784370	     -7.25325006	      0.19010119	      1.01272527	    -10.89199607	    -58.02488371	     11.15762546	      6.88820512	      9.05922372	      5.03835670	    -10.88176913	     -6.80939269	    -35.67739520	     -5.89075190	      0.48124483	     -5.62302386	      4.04679812	    -23.34164215	     48.01649612	      2.30956636	     -1.67361961	     -2.18652846	     31.98846903
      0.33000000	     17.44132660	      1.54020099	     -4.29905448	      0.34220597	      1.07023500	     -0.26616911	    -14.91222404	      4.40988957	     -0.78483196	     -1.14839755	     -8.32165719	     -7.29767405	      0.17117712	      0.98171598	     -9.80772666	    -56.24818260	     11.19245700	      8.11607261	      8.89697364	      6.44235352	    -10.86839107	     -6.91234412	    -36.25941461	     -5.12712852	      0.41905559	     -5.95737643	      4.13864099	    -23.57470864	     46.91653282	      2.86930692	     -1.61019856	     -3.20063223	     32.80781470
      0.34000000	     18.03114545	      1.03555494	     -4.18601477	      0.35458134	      1.07186104	     -0.26697887	    -16.87858348	      4.00705841	     -1.00424974	     -1.11060901	     -7.68230264	     -7.66433705	      0.15084496	      0.94718264	     -8.64277937	    -54.26956762	     11.24846351	      8.79938588	      9.13407357	      6.94269752	    -10.65245429	     -7.27930095	    -36.88127909	     -4.40943036	      0.18317815	     -6.41175483	      4.20840348	    -23.55973477	     46.02452542	      3.33395030	     -1.56941285	     -4.37235466	     34.02956272
      0.35000000	     17.97156839	      0.76580338	     -4.18547560	      0.36667565	      1.07208992	     -0.26757144	    -18.02671481	      3.85252083	     -1.12989555	     -0.25620036	     -7.19636663	     -7.77360401	      0.13359754	      0.91376617	     -7.65457495	    -52.35494523	     11.37943182	      9.49753445	      9.03176987	      7.23869778	    -10.63149719	     -7.43746236	    -36.78649653	     -3.92599672	      0.10548491	     -6.85767945	      4.35842364	    -24.02099822	     44.96133558	      4.01121996	     -1.62149347	     -4.81800467	     34.76469379
      0.36000000	     18.50166362	      0.15037466	     -4.06304884	      0.37909370	      1.07322964	     -0.26824223	    -19.91840623	      3.35432571	     -1.40602706	     -0.34734390	     -6.38025672	     -8.11100508	      0.11416104	      0.87100733	     -6.54094602	    -49.90504383	     11.44489035	      9.87646922	      8.93373963	      7.65176007	    -10.50554598	     -7.85794533	    -37.30477955	     -3.10642282	      0.04364646	     -7.32661194	      4.45394567	    -24.26063694	     44.05055630	      4.55609020	     -1.58728305	     -5.71927668	     35.78913461
      0.37000000	     18.67639628	     -0.25198306	     -3.97343146	      0.39140932	      1.07344661	     -0.26882946	    -21.35980807	      3.06748172	     -1.65020707	     -0.02112367	     -5.73329886	     -8.33159555	      0.09634767	      0.82813885	     -5.52031481	    -47.44886068	     11.58328666	     10.17454270	      8.88332355	      7.69146329	    -10.39228102	     -8.27189699	    -37.44495627	     -2.45997314	     -0.04210372	     -7.79470876	      4.59153193	    -24.69970067	     43.12348321	      5.16575643	     -1.64094516	     -6.22486767	     36.66451654
      0.38000000	     18.92129978	     -0.73495959	     -3.85668043	      0.40380836	      1.07353731	     -0.26933138	    -22.92352128	      2.69531536	     -1.91673927	      0.12473676	     -4.98860911	     -8.61756645	      0.07706948	      0.78170777	     -4.41575595	    -44.78855600	     11.75669789	     10.39016859	      8.85758309	      7.56552689	    -10.24360937	     -8.80729023	    -37.65916039	     -1.76017070	     -0.03995553	     -8.30737151	      4.72543235	    -25.17807019	     42.30742298	      5.78898422	     -1.70398314	     -6.63256303	     37.56434761
      0.39000000	     18.64238807	     -0.84738189	     -3.88980845	      0.41599299	      1.07239744	     -0.26959987	    -23.78751143	      2.72222533	     -2.08952231	      0.95670751	     -4.60773850	     -8.68259345	      0.06139494	      0.73770186	     -3.51767111	    -42.26720311	     11.97797349	     10.77329047	      8.68818442	      7.52508612	    -10.26301092	     -9.04776719	    -37.32212814	     -1.43455050	     -0.10886688	     -8.74621094	      4.91792555	    -25.86231670	     41.33166980	      6.46878903	     -1.87095370	     -6.66502767	     38.27641734
      0.40000000	     19.08080092	     -1.50635409	     -3.68979020	      0.42849412	      1.07238409	     -0.27002579	    -25.53089559	      2.17465527	     -2.44000826	      0.64645838	     -3.62906195	     -8.95344068	      0.04418550	      0.68325643	     -2.53164238	    -39.14770968	     12.18388404	     10.56060067	      8.54796041	      7.20426874	    -10.19793898	     -9.64928401	    -37.71839984	     -0.54597055	      0.06464235	     -9.32439786	      5.06952499	    -26.51438776	     40.70497734	      7.19535007	     -1.96203051	     -6.81379678	     39.03782901
      0.41000000	     18.68396992	     -1.29906810	     -3.82103708	      0.44039214	      1.07053669	     -0.27017689	    -26.06697111	      2.55762154	     -2.57352430	      1.58022443	     -3.59052162	     -8.86917003	      0.03476920	      0.63717361	     -1.99212856	    -36.50735889	     12.52473704	     10.66228685	      8.40645874	      7.30417339	    -10.19953477	     -9.85609771	    -37.28808241	     -0.55473656	     -0.00955401	     -9.84173230	      5.25028338	    -26.96858616	     40.07071016	      7.98545623	     -2.15594701	     -6.74981602	     39.69072059
      0.42000000	     19.09757819	     -2.15768473	     -3.58159566	      0.45312104	      1.07004663	     -0.27032267	    -27.81766918	      1.79660507	     -3.02846324	      1.09080102	     -2.33428338	     -9.04520711	      0.01734788	      0.57717795	     -0.99396048	    -33.06986064	     12.75550157	     10.43089061	      8.21852672	      6.90805502	    -10.23201194	    -10.25784091	    -37.62953434	      0.51345887	      0.31543677	    -10.33546354	      5.45388963	    -28.12414088	     39.24696925	      8.74945726	     -2.33528410	     -6.43542903	     40.26454503
      0.43000000	     19.10498115	     -2.42435607	     -3.55621147	      0.46538516	      1.06854131	     -0.27033541	    -28.87833983	      1.67602909	     -3.39124371	      1.22544522	     -1.73776991	     -8.97191117	      0.00678812	      0.52180421	     -0.38893077	    -29.89717881	     13.09826332	     10.30922404	      8.17647599	      6.87830391	    -10.19818867	    -10.41428616	    -37.58310664	      0.96458461	      0.53834423	    -10.86614589	      5.66354998	    -29.03548370	     38.62501582	      9.62682374	     -2.54449195	     -5.99321535	     40.73122453
      0.44000000	     18.67932780	     -2.12197915	     -3.73469315	      0.47723310	      1.06604669	     -0.27012907	    -29.27415024	      2.15402166	     -3.49737506	      2.00228224	     -1.75470942	     -8.67916003	      0.00121973	      0.47123032	     -0.06988551	    -26.99950827	     13.49703717	     10.34469198	      8.03474361	      7.15055372	    -10.17910155	    -10.58326196	    -37.12867473	      0.81954288	      0.48333591	    -11.33427002	      5.83270384	    -29.45823285	     38.07912081	     10.45141040	     -2.79456454	     -5.85733399	     41.34689661
      0.45000000	     18.64534311	     -2.49935710	     -3.67629293	      0.48962195	      1.06428976	     -0.26974874	    -30.21130085	      1.88093826	     -3.85233505	      1.97640151	     -0.97079739	     -8.30738847	     -0.00578052	      0.41166461	      0.33119964	    -23.58664476	     13.82358123	     10.24770764	      7.77811426	      7.33797356	    -10.21928386	    -10.62439258	    -37.00274380	      1.35914986	      0.49429562	    -11.54242923	      6.02812921	    -30.54185251	     36.94490981	     11.15191053	     -3.15765364	     -5.37251156	     41.81527765
      0.46000000	     19.01262084	     -2.89972589	     -3.50677917	      0.50202991	      1.06291191	     -0.26965094	    -31.57863338	      1.56392872	     -4.21412347	      1.38322612	     -0.24570620	     -8.34348635	     -0.01272779	      0.34895710	      0.72924866	    -19.99376917	     14.23393192	      9.71158317	      7.90491868	      7.36095359	    -10.20880517	    -10.45289899	    -37.33396452	      1.92670489	      0.87102093	    -12.10941764	      6.23312390	    -31.44137912	     36.48803272	     12.15131337	     -3.33955694	     -4.79410617	     42.14724334
      0.47000000	     18.98573366	     -2.81738487	     -3.51976713	      0.51412948	      1.06075840	     -0.26917588	    -32.30794671	      1.72988353	     -4.47885939	      1.33627779	     -0.00615039	     -7.87817257	     -0.01370106	      0.29097641	      0.78501296	    -16.67171997	     14.64934142	      9.51463146	      8.06709105	      7.76113074	    -10.11491836	    -10.29987606	    -37.24242235	      1.99420317	      0.91698704	    -12.53618583	      6.44662244	    -32.10890341	     35.99607965	     13.06117541	     -3.63570040	     -4.31518336	     42.45166110
      0.48000000	     18.73662282	     -2.56053683	     -3.64023312	      0.52620761	      1.05810062	     -0.26855075	    -32.73937771	      2.07654938	     -4.56741997	      1.55908459	      0.03419834	     -7.34310104	     -0.01289133	      0.23584349	      0.73861875	    -13.51283654	     15.07124365	      9.47191308	      8.09152428	      8.21195710	    -10.03088910	    -10.35479321	    -36.93152190	      1.85372231	      0.88186447	    -12.93652170	      6.60707186	    -32.48597412	     35.59454538	     13.88548796	     -3.90525613	     -4.10033512	     42.84426314
      0.49000000	     19.51305916	     -2.94525698	     -3.34223484	      0.53886378	      1.05697317	     -0.26827249	    -34.39979292	      1.67465139	     -5.42019268	      0.25391876	      0.68867926	     -7.43855701	     -0.01416727	      0.17161067	      0.81172463	     -9.83256697	     15.62417183	      8.66126958	      9.39283531	      8.64691421	     -9.49791911	     -9.00674794	    -37.61312634	      2.40575083	      1.49789288	    -13.63258185	      6.92564384	    -33.67819983	     35.40715408	     15.17304651	     -4.02822862	     -2.90527645	     42.60409151
      0.50000000	     19.61506320	     -2.76832983	     -3.15763813	      0.55127211	      1.05481236	     -0.26779868	    -35.12923457	      1.75182303	     -5.43772158	     -0.13465541	      0.78250651	     -7.18228874	     -0.01002544	      0.11620279	      0.57441517	     -6.65792930	     16.03374070	      8.24275929	      9.73336457	      8.85813754	     -9.24441880	     -8.88613328	    -37.60559085	      2.44534052	      1.27715698	    -13.95686258	      7.07451974	    -33.95105366	     34.86442372	     15.96393903	     -4.30246641	     -2.67445770	     42.88532166
      0.51000000	     19.81746342	     -2.66307143	     -3.02797677	      0.56383385	      1.05273737	     -0.26715219	    -35.94870691	      1.77349330	     -5.69048719	     -0.65182711	      0.92260190	     -6.99985255	     -0.00447771	      0.06471650	      0.25655387	     -3.70798223	     16.49765601	      7.78251050	     10.43275878	      9.28077985	     -8.88377740	     -8.75856135	    -37.69886767	      2.49764748	      1.27529388	    -14.35349993	      7.24251672	    -34.32591555	     34.48213492	     16.80591752	     -4.50081649	     -2.37387817	     43.06594979
      0.52000000	     19.95586932	     -2.41980401	     -2.81328448	      0.57641389	      1.05062347	     -0.26665576	    -36.61533493	      1.84357229	     -5.74274190	     -1.07060245	      0.89132838	     -6.82576019	      0.00349040	      0.01932256	     -0.19998538	     -1.10710106	     16.91581084	      7.40901985	     11.04720672	      9.53429227	     -8.60190147	     -8.89693503	    -37.71914261	      2.48201233	      1.07615523	    -14.68473772	      7.37915776	    -34.53252599	     34.05377730	     17.58224067	     -4.69905187	     -2.20498268	     43.23822312
      0.53000000	     19.91137068	     -2.15843098	     -2.78102101	      0.58912583	      1.04824008	     -0.26578691	    -37.05187947	      1.99432307	     -5.73212530	     -1.19979550	      0.81677571	     -6.47135366	      0.01345953	     -0.01771295	     -0.77117419	      1.01487754	     17.29773485	      7.16580276	     11.29286307	      9.88042627	     -8.43816602	     -9.09384209	    -37.54979455	      2.35137961	      0.94136066	    -14.97939036	      7.48971113	    -34.64719446	     33.71551538	     18.23008062	     -4.85156049	     -2.22382434	     43.43179485
      0.54000000	     20.37269703	     -2.18521749	     -2.35477948	      0.60223286	      1.04674901	     -0.26534467	    -38.03720538	      1.63938712	     -6.08575403	     -1.99459902	      1.04516823	     -6.78394360	      0.02409653	     -0.05073258	     -1.38062958	      2.90676265	     17.74910808	      6.68058584	     12.81734244	     10.01423054	     -7.85197254	     -9.54593286	    -37.88237986	      2.66207546	      0.89294151	    -15.39790921	      7.63873276	    -34.83336098	     33.51170278	     18.96604242	     -4.92261363	     -2.05706282	     43.51834580
      0.55000000	     20.49826973	     -2.03437368	     -2.04502746	      0.61516127	      1.04495671	     -0.26483603	    -38.54612592	      1.48092147	     -5.91090352	     -2.25932366	      1.05047447	     -6.86657562	      0.03811902	     -0.07265288	     -2.18405901	      4.16270353	     18.02775628	      6.34078094	     13.37165344	     10.01097895	     -7.61613843	     -9.81038643	    -37.91642630	      2.78624284	      0.66804175	    -15.66689654	      7.71621053	    -34.81827562	     33.26220456	     19.52596366	     -4.99817874	     -2.19467621	     43.72881974
      0.56000000	     20.46889001	     -2.00142946	     -1.95383371	      0.62833475	      1.04306459	     -0.26401664	    -38.92371327	      1.34529482	     -5.81814847	     -2.22216413	      1.13684878	     -6.74416015	      0.05179861	     -0.08321063	     -2.96784150	      4.76761769	     17.98375167	      6.33170010	     13.53247886	     10.09394925	     -7.52310592	     -9.87743135	    -37.81378593	      2.91762981	      0.73731260	    -15.95146010	      7.74698073	    -34.80297902	     33.10785282	     19.99377210	     -4.98021720	     -2.38066196	     43.96814848
      0.57000000	     20.82384690	     -2.18859720	     -1.38044311	      0.64173617	      1.04208925	     -0.26381981	    -39.58114026	      0.69214237	     -5.90266635	     -2.71150860	      1.47441687	     -7.36688147	      0.07021171	     -0.09004109	     -4.02283465	      5.15897455	     18.41072585	      5.70983783	     14.74583409	     10.01513952	     -7.13474748	    -10.18935015	    -38.09836452	      3.50557341	      0.41293825	    -16.17302573	      7.75485125	    -34.68668957	     33.01640723	     20.28275908	     -4.99222598	     -2.85798881	     44.31612504
      0.58000000	     20.91542720	     -2.30668712	     -1.14118861	      0.65498631	      1.04091576	     -0.26322488	    -39.92179988	      0.30938374	     -5.78481946	     -2.68618788	      1.67712064	     -7.58318634	      0.08939994	     -0.08367611	     -5.12223922	      4.79428786	     18.36837405	      5.41939542	     15.02070816	      9.95615688	     -6.95212175	    -10.19231305	    -38.18839115	      3.88136241	      0.46233637	    -16.38759310	      7.75256676	    -34.60175237	     33.02815688	     20.61372216	     -4.88088843	     -3.22572266	     44.56499361
      0.59000000	     20.98315209	     -2.63673456	     -0.71365020	      0.66872811	      1.04001852	     -0.26296898	    -40.19932547	     -0.38759451	     -5.71511736	     -2.64838246	      2.08259711	     -8.08897703	      0.11068411	     -0.07136740	     -6.34173218	      4.08905061	     18.26186068	      4.96993090	     15.60347927	      9.88147082	     -6.62161697	    -10.03659009	    -38.25000118	      4.58349181	      0.36185559	    -16.55969902	      7.66086224	    -34.48924485	     33.06753198	     20.66444550	     -4.76811954	     -3.85932759	     45.03857508
      0.60000000	     21.10381846	     -2.89131196	     -0.50531466	      0.68239593	      1.03948468	     -0.26242982	    -40.48495537	     -0.86777049	     -5.60327479	     -2.55169457	      2.35217737	     -8.30378996	      0.13300114	     -0.05046260	     -7.62040411	      2.89129416	     17.67239675	      4.51864710	     15.79511874	      9.79192842	     -6.48679671	     -9.91117064	    -38.40062289	      5.10453245	      0.53376407	    -16.71174359	      7.56946537	    -34.38838387	     33.09338026	     20.78648107	     -4.58349526	     -4.22609052	     45.31943331
      0.61000000	     21.20880405	     -3.25092683	     -0.23963315	      0.69612512	      1.03919400	     -0.26203172	    -40.64165411	     -1.47312251	     -5.50551574	     -2.37950025	      2.70973553	     -8.61936871	      0.15890550	     -0.02340022	     -9.10461469	      1.34073407	     17.02836371	      3.93332099	     15.97430699	      9.64641490	     -6.29038608	     -9.72910947	    -38.56553840	      5.76528570	      0.72187920	    -16.84624499	      7.44284524	    -34.27785549	     33.23225188	     20.81087593	     -4.34663272	     -4.70194022	     45.68093832
      0.62000000	     20.77425312	     -3.80230009	      0.03834069	      0.71062219	      1.03846956	     -0.26170153	    -40.12344868	     -2.30309993	     -5.66607058	     -1.62004747	      3.24250129	     -9.09067291	      0.18894049	      0.00752582	    -10.82549241	     -0.43119765	     16.57977822	      3.10019368	     16.50172192	      9.42551864	     -4.96336229	     -8.58193736	    -38.18925852	      6.69914162	      0.40851628	    -16.71510001	      7.11160477	    -33.81414365	     33.23546275	     20.04809495	     -4.18376073	     -6.30169040	     46.83814221
      0.63000000	     20.66961047	     -4.20575165	      0.16757450	      0.72473824	      1.03841736	     -0.26126197	    -39.85433484	     -2.87032234	     -5.66559611	     -1.16748809	      3.57884990	     -9.15655729	      0.22091030	      0.04232797	    -12.65722770	     -2.42521419	     15.51912377	      2.31833275	     16.53366482	      9.09867028	     -4.08893221	     -7.96707611	    -38.19512143	      7.38630346	      0.67552752	    -16.77735448	      6.88166734	    -33.57513708	     33.44597047	     19.77554732	     -3.87689545	     -6.92079710	     47.33009847
      0.64000000	     20.33642770	     -4.54334899	      0.14487603	      0.73897220	      1.03836965	     -0.26038880	    -39.22180249	     -3.34573887	     -5.83156539	     -0.45058187	      3.85927306	     -8.84230952	      0.25605903	      0.07938254	    -14.67110150	     -4.54828456	     14.15642252	      1.47763918	     16.72679077	      8.41488867	     -2.36532905	     -7.30158527	    -37.96715397	      7.91096564	      0.77190516	    -16.62089286	      6.58946484	    -33.17220334	     33.45624684	     19.23099957	     -3.62656953	     -7.82774247	     48.00515411
      0.65000000	     20.05120669	     -4.88344721	      0.06764416	      0.75322533	      1.03860588	     -0.25949723	    -38.51330365	     -3.80688735	     -6.09620125	      0.17523115	      4.15747758	     -8.37747721	      0.29448422	      0.11649393	    -16.87270297	     -6.67461078	     12.50821896	      0.72569354	     16.92916529	      7.68994260	     -0.34301647	     -7.12790725	    -37.82041808	      8.41328451	      1.04659826	    -16.51416065	      6.29111224	    -32.75938358	     33.57859775	     18.71182636	     -3.32046353	     -8.54029888	     48.57245533
      0.66000000	     20.28025332	     -5.26926947	      0.21025963	      0.76756337	      1.03982984	     -0.25879286	    -38.25195900	     -4.42584006	     -6.23113744	      0.09369833	      4.51464628	     -8.25894587	      0.33530174	      0.14978972	    -19.21137475	     -8.58231867	     10.58210852	      0.22792863	     17.10386257	      7.57145856	     -0.07276888	     -7.03936688	    -38.14924221	      9.01540196	      1.46879175	    -16.47959845	      6.09709861	    -32.60911711	     33.76629352	     18.38796044	     -2.99366602	     -8.76108906	     48.76859361
      0.67000000	     19.32256657	     -5.49902314	     -0.32082355	      0.78164750	      1.03947699	     -0.25691470	    -36.48194551	     -4.69772567	     -6.98921199	      1.46355203	      4.80935659	     -6.92251071	      0.38371089	      0.18830474	    -21.98501433	    -10.78906710	      8.55291552	     -0.22235329	     17.56315736	      6.05854113	      3.24258992	     -7.63629208	    -37.39035814	      9.16052933	      1.77669779	    -16.12766443	      5.71013882	    -31.96477182	     33.77834100	     17.58088842	     -2.72298959	     -9.69548300	     49.44405131
      0.68000000	     19.62239247	     -5.83892035	     -0.19425350	      0.79592907	      1.04115789	     -0.25593967	    -35.99393853	     -5.36808691	     -7.27482514	      1.12986145	      5.18676589	     -6.64981932	      0.43167892	      0.21632162	    -24.73338009	    -12.39431592	      6.21232561	     -0.31904011	     17.77049161	      5.95306862	      3.60946897	     -7.58777514	    -37.78396658	      9.64675393	      2.21154350	    -16.00793639	      5.53268236	    -31.75100190	     33.97584961	     17.18330635	     -2.40108498	     -9.85096395	     49.57181163
      0.69000000	     18.66885583	     -6.12895854	     -0.73840026	      0.81002846	      1.04107911	     -0.25360908	    -33.98548855	     -5.88366443	     -8.27379834	      2.27858313	      5.67330715	     -5.28128792	      0.48384389	      0.24903644	    -27.72221279	    -14.26873713	      3.28302663	     -0.17156714	     18.07130777	      4.60345528	      9.57750310	     -9.90880040	    -37.01242373	      9.75656525	      2.62621903	    -15.62121041	      5.17024198	    -30.96433129	     34.00878466	     16.34339193	     -2.15520724	    -10.54315897	     50.05672801
      0.70000000	     18.31521678	     -6.37507296	     -0.96358176	      0.82384865	      1.04196828	     -0.25181297	    -32.45910925	     -6.49112950	     -8.83809152	      2.58803543	      6.07020924	     -4.51917392	      0.54031351	      0.27425071	    -30.95768371	    -15.71340801	      0.55096105	      0.10608413	     18.28946528	      3.98754206	     10.46702675	    -10.03723000	    -36.79598884	      9.93641313	      3.16491317	    -15.34543579	      4.95612434	    -30.55745667	     34.20386659	     15.84664906	     -1.87907122	    -10.62542925	     50.06755421
      0.71000000	     17.90099196	     -6.50478448	     -1.21247164	      0.83748796	      1.04282184	     -0.24967526	    -30.74376044	     -7.06994411	     -9.35898496	      2.87952208	      6.41125098	     -3.61770902	      0.59739450	      0.29690713	    -34.22818343	    -17.01152528	     -2.46776816	      0.62514531	     18.42483913	      3.09759210	     12.31984707	    -10.72467451	    -36.48664038	      9.92985757	      3.45362643	    -14.88984090	      4.70840950	    -29.83247766	     34.21277762	     15.21592718	     -1.70553046	    -10.91830783	     50.18488969
      0.72000000	     18.00491665	     -6.74942379	     -1.17315497	      0.85113707	      1.04452194	     -0.24801521	    -29.50794159	     -7.88817798	     -9.70656927	      2.38540181	      6.80719272	     -3.31866155	      0.65369085	      0.31162415	    -37.45372689	    -17.85474844	     -5.67722244	      1.28219315	     18.55906489	      2.83221111	     12.69298785	    -10.73445581	    -36.69035706	     10.10559930	      3.90639433	    -14.59120849	      4.56504543	    -29.38167286	     34.50596916	     14.76602378	     -1.46810004	    -10.84558157	     50.11365172
      0.73000000	     17.31728906	     -6.80937946	     -1.39850434	      0.86433183	      1.04502417	     -0.24575248	    -27.24712897	     -8.53515403	    -10.07654551	      2.82489989	      7.12392263	     -2.49141426	      0.71253162	      0.32936822	    -40.82505431	    -18.87140914	     -8.77445989	      2.17842997	     18.27732254	      1.98620643	     14.83047161	    -12.53346580	    -36.05774239	     10.00213516	      3.91239524	    -13.90039821	      4.26171185	    -28.28356373	     34.33936796	     14.00255638	     -1.38807438	    -11.21047010	     50.19026043
      0.74000000	     17.38516240	     -6.96546717	     -1.29355350	      0.87747172	      1.04661453	     -0.24401467	    -25.76978581	     -9.33684621	    -10.12535683	      2.19920445	      7.43981248	     -2.26750788	      0.76830182	      0.33734044	    -44.02045164	    -19.32818362	    -11.70536763	      3.00251565	     18.20368662	      1.74628066	     14.81515821	    -12.45841454	    -36.18762451	     10.05811126	      4.30744713	    -13.53722556	      4.16456422	    -27.79536766	     34.69994416	     13.66172182	     -1.23598157	    -10.89923067	     49.85546867
      0.75000000	     16.95413893	     -6.95029490	     -1.19679385	      0.89018417	      1.04737747	     -0.24229675	    -23.55881757	     -9.96370404	     -9.88211579	      2.15676159	      7.60250390	     -1.99270126	      0.82612388	      0.34631959	    -47.33341145	    -19.84265097	    -14.07067835	      3.88508127	     17.76036789	      1.34413868	     14.42045961	    -12.72461881	    -35.76375008	      9.95987320	      4.43160820	    -12.97580249	      4.02058633	    -27.07777141	     34.78543324	     13.26867037	     -1.14821856	    -10.60999646	     49.39138438
      0.76000000	     17.05577979	     -6.94021562	     -1.07189782	      0.90297049	      1.04904924	     -0.24064911	    -22.02086879	    -10.56911305	     -9.72464275	      1.36188673	      7.73314509	     -1.85582966	      0.87625909	      0.34939345	    -50.20594742	    -20.01877009	    -16.36366714	      4.75086703	     17.88093129	      1.13861092	     14.18641099	    -12.78471377	    -35.88459240	      9.82441438	      4.57457724	    -12.46432749	      3.89177200	    -26.40397069	     35.16810290	     12.82913334	     -1.06930275	    -10.32173643	     49.05790455
