Model Marker Errors from IK
version=1
nRows=58
nColumns=4
inDegrees=no
endheader
time	total_squared_error	marker_error_RMS	marker_error_max
      0.19000000	      0.02367322	      0.02432756	      0.06076371
      0.20000000	      0.02380784	      0.02439664	      0.06154417
      0.21000000	      0.02398910	      0.02448933	      0.06151389
      0.22000000	      0.02422079	      0.02460731	      0.06254472
      0.23000000	      0.02448547	      0.02474140	      0.06295690
      0.24000000	      0.02478372	      0.02489163	      0.06377767
      0.25000000	      0.02505698	      0.02502848	      0.06387054
      0.26000000	      0.02533875	      0.02516880	      0.06409313
      0.27000000	      0.02559754	      0.02529701	      0.06406807
      0.28000000	      0.02581315	      0.02540332	      0.06387935
      0.29000000	      0.02599175	      0.02549105	      0.06344455
      0.30000000	      0.02610747	      0.02554774	      0.06349320
      0.31000000	      0.02618730	      0.02558676	      0.06301679
      0.32000000	      0.02624821	      0.02561650	      0.06202562
      0.33000000	      0.02627393	      0.02562905	      0.06138498
      0.34000000	      0.02629646	      0.02564004	      0.06101406
      0.35000000	      0.02633915	      0.02566084	      0.06000276
      0.36000000	      0.02639811	      0.02568954	      0.05951828
      0.37000000	      0.02649824	      0.02573822	      0.05893592
      0.38000000	      0.02664202	      0.02580796	      0.05844037
      0.39000000	      0.02684299	      0.02590511	      0.05793152
      0.40000000	      0.02708081	      0.02601961	      0.05770678
      0.41000000	      0.02739092	      0.02616817	      0.05801620
      0.42000000	      0.02771196	      0.02632107	      0.05740239
      0.43000000	      0.02808965	      0.02649984	      0.05743468
      0.44000000	      0.02851776	      0.02670101	      0.05798877
      0.45000000	      0.02895139	      0.02690325	      0.05769482
      0.46000000	      0.02939867	      0.02711027	      0.05780199
      0.47000000	      0.02985984	      0.02732208	      0.05823234
      0.48000000	      0.03032435	      0.02753378	      0.05847237
      0.49000000	      0.03073182	      0.02771814	      0.06101147
      0.50000000	      0.03112292	      0.02789396	      0.06152807
      0.51000000	      0.03146817	      0.02804825	      0.06214252
      0.52000000	      0.03176385	      0.02817971	      0.06224957
      0.53000000	      0.03201192	      0.02828954	      0.06184857
      0.54000000	      0.03219856	      0.02837189	      0.06272193
      0.55000000	      0.03233822	      0.02843335	      0.06276998
      0.56000000	      0.03242995	      0.02847365	      0.06274126
      0.57000000	      0.03245030	      0.02848258	      0.06389873
      0.58000000	      0.03241682	      0.02846789	      0.06453969
      0.59000000	      0.03231486	      0.02842308	      0.06556942
      0.60000000	      0.03214610	      0.02834877	      0.06654174
      0.61000000	      0.03190470	      0.02824212	      0.06769488
      0.62000000	      0.03157071	      0.02809391	      0.06821407
      0.63000000	      0.03117346	      0.02791660	      0.06883744
      0.64000000	      0.03070994	      0.02770827	      0.06881105
      0.65000000	      0.03019616	      0.02747552	      0.06866912
      0.66000000	      0.02966552	      0.02723303	      0.06927970
      0.67000000	      0.02909540	      0.02697007	      0.06746158
      0.68000000	      0.02857005	      0.02672548	      0.06775067
      0.69000000	      0.02802275	      0.02646826	      0.06581306
      0.70000000	      0.02754987	      0.02624399	      0.06478135
      0.71000000	      0.02713019	      0.02604332	      0.06342245
      0.72000000	      0.02678063	      0.02587500	      0.06322254
      0.73000000	      0.02648486	      0.02573172	      0.06160475
      0.74000000	      0.02626395	      0.02562418	      0.06150349
      0.75000000	      0.02610291	      0.02554550	      0.06048952
      0.76000000	      0.02600638	      0.02549822	      0.06059513
