PathFileType	4	(X/Y/Z)	..\data\2014051\static\2014051_ST.trc
DataRate	CameraRate	NumFrames	NumMarkers	Units	OrigDataRate	OrigDataStartFrame	OrigNumFrames
100.000000	100.000000	2	44	mm	100.000000	0	2
Frame#	Time	L_IAS			L_IPS			R_IPS			R_IAS			L_FTC			L_FLE			L_FME			L_FAX			L_TTC			L_FAL			L_TAM			L_FCC			L_FM1			L_FM2			L_FM5			R_FTC			R_FLE			R_FME			R_FAX			R_TTC			R_FAL			R_TAM			R_FCC			R_FM1			R_FM2			R_FM5			CV7			TV10			SXS			SJN			L_SAE			L_HLE			L_HME			L_RSP			L_UHE			L_HM2			L_HM5			R_SAE			R_HLE			R_HME			R_RSP			R_UHE			R_HM2			R_HM5			
		X1	Y1	Z1	X2	Y2	Z2	X3	Y3	Z3	X4	Y4	Z4	X5	Y5	Z5	X6	Y6	Z6	X7	Y7	Z7	X8	Y8	Z8	X9	Y9	Z9	X10	Y10	Z10	X11	Y11	Z11	X12	Y12	Z12	X13	Y13	Z13	X14	Y14	Z14	X15	Y15	Z15	X16	Y16	Z16	X17	Y17	Z17	X18	Y18	Z18	X19	Y19	Z19	X20	Y20	Z20	X21	Y21	Z21	X22	Y22	Z22	X23	Y23	Z23	X24	Y24	Z24	X25	Y25	Z25	X26	Y26	Z26	X27	Y27	Z27	X28	Y28	Z28	X29	Y29	Z29	X30	Y30	Z30	X31	Y31	Z31	X32	Y32	Z32	X33	Y33	Z33	X34	Y34	Z34	X35	Y35	Z35	X36	Y36	Z36	X37	Y37	Z37	X38	Y38	Z38	X39	Y39	Z39	X40	Y40	Z40	X41	Y41	Z41	X42	Y42	Z42	X43	Y43	Z43	X44	Y44	Z44	

1	0	365.2045593261719	1098.648681640625	-296.8839111328126	474.1430969238282	1128.326538085938	-92.36000061035158	542.7893676757814	1126.186401367188	-96.36907958984378	633.7723388671876	1099.166625976563	-305.9088134765626	302.3879394531251	986.350524902344	-211.8358612060547	303.0772094726563	558.9030151367189	-187.2427215576172	431.3916320800782	550.1539306640626	-200.3290252685547	290.8078002929688	492.1621093750001	-163.0901184082032	345.4447326660157	467.5216064453126	-223.2727813720704	276.6582641601563	76.17660522460939	-128.1519927978516	369.4823303222657	87.4448699951172	-156.5294494628907	326.3782958984376	27.61336135864259	-82.82736968994142	346.6021728515626	26.87379837036134	-302.8006286621094	285.4801635742188	37.72278213500977	-303.6835021972657	238.7172088623047	22.63343620300293	-257.5296020507813	694.8230590820314	985.2073364257815	-221.3827819824219	677.4282226562501	550.7559814453126	-180.577865600586	550.3291625976564	540.4795532226564	-175.0036163330078	691.7604370117189	491.540008544922	-144.4264068603516	625.0277709960939	464.6688842773439	-209.3332977294922	698.0639038085939	72.0432815551758	-120.0106658935547	608.7960205078126	85.19497680664064	-161.0511779785157	642.8416748046876	23.69475746154786	-74.47749328613283	626.4329833984376	23.90135383605957	-300.5599975585938	682.6932983398439	38.22924804687501	-296.5568847656251	733.9129638671876	24.65622138977051	-253.0282592773438	497.0586547851564	1642.245483398438	-146.4112243652344	504.7116699218751	1283.720703125	-110.8599014282227	497.0554199218751	1375.940551757813	-334.2246398925782	489.7758178710939	1556.113403320313	-280.7122192382813	329.3327636718751	1610.851928710938	-192.3916625976563	46.47803497314454	1366.81982421875	-178.0730895996094	93.0620803833008	1306.657470703125	-215.689682006836	-166.7088623046875	1227.380249023438	-316.5545043945313	-192.9575195312501	1241.61865234375	-238.489730834961	-258.4862365722657	1167.995971679688	-351.1532287597657	-265.6123962402344	1173.355590820313	-241.7319793701172	676.4230346679689	1604.318969726563	-210.4272766113282	951.2426757812502	1384.628662109375	-164.7449645996094	905.9520263671877	1305.00341796875	-206.8915405273438	1168.318481445313	1237.56201171875	-299.0950317382813	1193.048583984375	1248.783203125	-219.7226562500001	1276.933349609375	1196.743774414063	-329.8753662109376	1261.960693359375	1176.972412109375	-219.7020721435547	
2	1	365.2045593261719	1098.648681640625	-296.8839111328126	474.1430969238282	1128.326538085938	-92.36000061035158	542.7893676757814	1126.186401367188	-96.36907958984378	633.7723388671876	1099.166625976563	-305.9088134765626	302.3879394531251	986.350524902344	-211.8358612060547	303.0772094726563	558.9030151367189	-187.2427215576172	431.3916320800782	550.1539306640626	-200.3290252685547	290.8078002929688	492.1621093750001	-163.0901184082032	345.4447326660157	467.5216064453126	-223.2727813720704	276.6582641601563	76.17660522460939	-128.1519927978516	369.4823303222657	87.4448699951172	-156.5294494628907	326.3782958984376	27.61336135864259	-82.82736968994142	346.6021728515626	26.87379837036134	-302.8006286621094	285.4801635742188	37.72278213500977	-303.6835021972657	238.7172088623047	22.63343620300293	-257.5296020507813	694.8230590820314	985.2073364257815	-221.3827819824219	677.4282226562501	550.7559814453126	-180.577865600586	550.3291625976564	540.4795532226564	-175.0036163330078	691.7604370117189	491.540008544922	-144.4264068603516	625.0277709960939	464.6688842773439	-209.3332977294922	698.0639038085939	72.0432815551758	-120.0106658935547	608.7960205078126	85.19497680664064	-161.0511779785157	642.8416748046876	23.69475746154786	-74.47749328613283	626.4329833984376	23.90135383605957	-300.5599975585938	682.6932983398439	38.22924804687501	-296.5568847656251	733.9129638671876	24.65622138977051	-253.0282592773438	497.0586547851564	1642.245483398438	-146.4112243652344	504.7116699218751	1283.720703125	-110.8599014282227	497.0554199218751	1375.940551757813	-334.2246398925782	489.7758178710939	1556.113403320313	-280.7122192382813	329.3327636718751	1610.851928710938	-192.3916625976563	46.47803497314454	1366.81982421875	-178.0730895996094	93.0620803833008	1306.657470703125	-215.689682006836	-166.7088623046875	1227.380249023438	-316.5545043945313	-192.9575195312501	1241.61865234375	-238.489730834961	-258.4862365722657	1167.995971679688	-351.1532287597657	-265.6123962402344	1173.355590820313	-241.7319793701172	676.4230346679689	1604.318969726563	-210.4272766113282	951.2426757812502	1384.628662109375	-164.7449645996094	905.9520263671877	1305.00341796875	-206.8915405273438	1168.318481445313	1237.56201171875	-299.0950317382813	1193.048583984375	1248.783203125	-219.7226562500001	1276.933349609375	1196.743774414063	-329.8753662109376	1261.960693359375	1176.972412109375	-219.7020721435547	
