Coordinates

Units are S.I. units (second, meters, Newtons, ...)
If the header above contains a line with 'inDegrees', this indicates whether rotational values are in degrees (yes) or radians (no).

inDegrees=yes
nColumns=34
nRows=62
DataType=double
version=3
OpenSimVersion=4.5-2023-11-26-efcdfd3eb
endheader
time	pelvis_tilt	pelvis_tx	pelvis_ty	hip_flexion_l	hip_flexion_r	knee_angle_l	knee_angle_r	ankle_angle_l	ankle_angle_r	mtp_angle_l	mtp_angle_r	lumbar_ext	shoulder_flexion_r	elbow_flexion_r	shoulder_flexion_l	elbow_flexion_l
0.21	-2.69598882	-0.7838995	0.94265033	-3.38298677	18.60676716	-40.5418964	-17.51910115	-2.63316259	1.53640196	12.41592059	-0.40895099	-7.84644714	-9.32668335	43.94272603	-1.03287968	47.83055884
0.22	-2.78377098	-0.77432039	0.94380949	-1.91931961	17.78058244	-43.17194551	-16.9080019	-3.97940269	1.93416563	12.409348	-0.50778011	-7.77627487	-9.27674916	44.11096556	-1.58342442	47.05549546
0.23	-2.98416558	-0.76498139	0.94470201	-0.26378551	17.08212894	-45.6911878	-16.2931867	-4.92147326	2.34740177	12.21868575	-0.63187162	-7.61413778	-9.22823225	44.33534013	-2.12096414	46.22809289
0.24	-2.98372509	-0.7559943099999999	0.9458891	1.15505641	16.19804263	-47.88869461	-15.74228702	-5.27447269	2.75225199	12.1189562	-0.69566902	-7.7254707	-9.079131759999999	44.50744227	-2.59789121	45.52477128
0.25	-3.6204452	-0.74725639	0.9459359000000001	3.42959548	16.09054976	-50.18360174	-15.30078112	-5.18354951	3.16484591	9.24015387	-1.6059878	-7.07476803	-8.981233599999999	44.67833676	-3.10928917	44.60173753
0.26	-3.70236577	-0.73854864	0.94689232	4.98488853	15.30080927	-51.96162812	-14.69878603	-4.83721489	3.39913513	9.15849781	-1.66007166	-7.08465222	-8.831425960000001	44.97438586	-3.59109282	43.8690883
0.27	-3.62175458	-0.73013597	0.94815266	6.32312966	14.38655302	-53.38952769	-14.19497297	-4.32169711	3.67063528	9.19161293	-1.6839584	-7.324443	-8.571876809999999	45.17886731	-4.03700695	43.274995
0.28	-4.06344799	-0.7218652800000001	0.94839741	8.329858789999999	14.07340041	-54.7744671	-13.70856414	-3.37485411	3.87100288	8.83360925	-1.86566858	-6.92998433	-8.37961336	45.42340241	-4.51634807	42.46515956
0.29	-4.01796866	-0.71352101	0.94951533	9.635352729999999	13.21176813	-55.63643315	-13.22478888	-2.31670624	4.18339717	8.82418083	-1.92613135	-7.09754162	-8.12961965	45.70295437	-4.99193503	41.84114315
0.3	-3.99407227	-0.70532769	0.95054807	10.96193882	12.37708023	-56.26698404	-12.71911621	-1.25015036	4.42940033	8.851521780000001	-1.98001498	-7.25651221	-7.85753725	45.98450066	-5.45479916	41.24845856
0.31	-4.00133728	-0.69714854	0.95147718	12.28362024	11.58380014	-56.63219937	-12.22004896	-0.08946887000000001	4.67820364	8.88751394	-2.04374598	-7.3614115	-7.58420982	46.27382063	-5.93725263	40.64070447
0.32	-4.02141022	-0.68898031	0.95233126	13.57060119	10.800633	-56.72366337	-11.71716384	1.05751989	4.91758862	8.93140032	-2.11213383	-7.42098029	-7.31255991	46.57467635	-6.42462202	40.04617398
0.33	-4.05179602	-0.6808388	0.9531007500000001	14.82251298	10.03006331	-56.55738346	-11.20321787	2.16266645	5.15854865	8.983659490000001	-2.18804339	-7.47099222	-7.03690826	46.87554961	-6.91873846	39.46414376
0.34	-4.08579984	-0.6726715	0.95378688	16.0193418	9.248108759999999	-56.12443953	-10.66047627	3.16588307	5.39517133	9.036457589999999	-2.26207465	-7.4986226	-6.77127157	47.20605067	-7.43245013	38.90041706
0.35	-4.00565717	-0.66449172	0.95459785	16.95943071	8.36133091	-55.35857892	-10.18873085	4.33679542	5.66575282	9.283386200000001	-2.56063166	-7.64882406	-6.46463775	47.43088365	-7.94626391	38.42569557
0.36	-4.0477405	-0.6563075	0.95506666	18.06650087	7.56874401	-54.45548392	-9.5937511	5.09104329	5.8815286	9.32940569	-2.64468905	-7.65081455	-6.232929	47.79807436	-8.444428390000001	37.89343955
0.37	-3.94358633	-0.6481026600000001	0.95569192	18.89278884	6.66169233	-53.22118147	-9.096544359999999	5.88019899	6.15471543	9.506778329999999	-2.79388546	-7.80917675	-5.96899472	48.07906392	-8.927582960000001	37.40322246
0.38	-3.96268297	-0.63984516	0.9559677600000001	19.80269859	5.8388885	-51.81609505	-8.508408599999999	6.42899352	6.39687185	9.58935754	-2.88887877	-7.80632473	-5.73830291	48.48795359	-9.46074194	36.96135961
0.39	-3.73192365	-0.63154108	0.95656306	20.3117128	4.77775498	-50.08314385	-7.9865374	6.91957661	6.7122196	9.92329932	-3.09845258	-8.09986773	-5.45339185	48.83526694	-9.98960975	36.65795247
0.4	-3.86660627	-0.62360501	0.9563613	21.28475141	4.2292891	-48.33408461	-7.68435458	7.09804741	6.92466307	9.85696203	-3.11732166	-8.022982259999999	-5.19549944	49.21802748	-10.50132159	36.3913887
0.41	-4.02832291	-0.61532065	0.9559717599999999	22.13617421	3.58066587	-46.32187803	-7.1190351	7.54807753	7.20727944	9.83100067	-3.17518057	-7.84159899	-5.05217195	49.61689584	-10.97225951	35.92134186
0.42	-4.03546134	-0.60710568	0.95577991	22.68125402	2.83038477	-43.97893049	-6.67031772	7.90133411	7.6054389	9.835406969999999	-3.27744919	-7.86799898	-4.81934969	49.92581094	-11.40700738	35.51953412
0.43	-3.70054908	-0.59889424	0.95604314	22.74170537	1.76280404	-41.39389664	-6.34058035	7.86221864	8.07119793	9.856406529999999	-3.53583618	-8.300755560000001	-4.44327153	50.22281988	-11.93136354	35.48406084
0.44	-3.85503106	-0.59081336	0.95532632	23.3323682	1.26965435	-38.77510021	-6.09660466	7.93257009	8.468520809999999	9.663626199999999	-3.64010929	-8.178476180000001	-4.20620348	50.51842146	-12.35810002	35.21947649
0.45	-3.97693709	-0.58271682	0.95454573	23.79914531	0.767954	-36.00576521	-5.90855497	7.92256851	8.88232408	9.351083729999999	-3.73077857	-8.09701993	-3.97225614	50.83190259	-12.76756715	34.97639207
0.46	-4.19540029	-0.57483306	0.9534892700000001	24.32839835	0.42847908	-33.16021786	-5.84162822	7.89134372	9.22444043	9.07618664	-3.75129389	-7.95590957	-3.74438326	51.16375631	-13.16089997	34.90407789
0.47	-3.9096833	-0.56659659	0.95331424	24.04943103	-0.46573037	-29.83638805	-5.71636024	7.11564868	9.90160687	8.014187590000001	-3.99078892	-8.328763950000001	-3.38355231	51.32149464	-13.52362465	34.78289797
0.48	-3.85489668	-0.55842096	0.95256604	24.02816065	-1.08266625	-26.61945498	-5.67980348	6.6432121	10.44078061	6.8733668	-4.1596725	-8.45477554	-3.09253131	51.54481019	-13.87599123	34.67674636
0.49	-3.83479634	-0.55023756	0.95166509	23.97002571	-1.63868547	-23.3661839	-5.71003436	6.05898959	10.95311375	5.59845347	-4.26604106	-8.550078920000001	-2.81595141	51.76855741	-14.19474313	34.55424261
0.5	-3.76616853	-0.54193702	0.95077852	23.77810511	-2.23227354	-20.07345168	-5.77255853	5.25246697	11.49401654	4.12911912	-4.32185472	-8.666217850000001	-2.5853187	51.92403869	-14.45592696	34.4133689
0.51	-4.03911272	-0.53354435	0.94905767	24.03767434	-2.47303785	-17.17381075	-5.88447718	5.28341933	11.8745261	3.76298977	-4.29461723	-8.41995966	-2.39386432	52.23067524	-14.84294132	34.37377172
0.52	-3.64391693	-0.52508478	0.94867609	23.28291726	-3.39497327	-13.82795506	-6.00449342	3.40492573	12.5085348	1.68192854	-4.24895257	-8.867961040000001	-2.13053454	52.20364609	-14.93725611	34.0689815
0.53	-3.57860949	-0.51653141	0.94740917	23.10758388	-3.96529022	-11.19830017	-6.13878089	2.52952424	13.08427307	-2.81417513	-3.94484245	-9.008928600000001	-1.92128244	52.37644087	-15.21372563	34.15790938
0.54	-3.50317367	-0.50787697	0.94619621	22.86291954	-4.55222479	-8.76731157	-6.34306445	1.72271522	13.52904905	-4.08688088	-3.77244702	-9.10768837	-1.76814316	52.48435537	-15.38440206	33.99511373
0.55	-3.43209202	-0.49915758	0.9449318799999999	22.71218942	-5.13306609	-6.77767501	-6.55622319	0.96020283	13.95096206	-5.39909198	-3.55056942	-9.211318370000001	-1.61452412	52.54852211	-15.52875705	33.84618916
0.5600000000000001	-3.35148926	-0.49024946	0.94358128	22.60622115	-5.71384046	-5.22589963	-6.78847231	0.28470277	14.49529789	-7.10381005	-3.18517756	-9.310888029999999	-1.51902659	52.65201141	-15.67513693	33.80409285
0.57	-3.4485281	-0.48130589	0.94192833	22.86428764	-6.11157586	-4.34040214	-7.01088458	0.4026504	14.74481044	-7.24243835	-3.1278026	-9.22757118	-1.44060506	52.73961097	-15.80826323	33.7410685
0.58	-3.43117099	-0.47227393	0.94053506	22.93615879	-6.60959218	-3.69440727	-7.31023846	0.31415747	15.15366689	-7.47906125	-3.00609658	-9.22842492	-1.3988643	52.65216859	-15.87869672	33.66553718
0.59	-3.20962568	-0.46323996	0.93948577	22.91118922	-7.28586143	-3.66872665	-7.68569697	0.10939128	15.75425617	-8.051142240000001	-2.68158616	-9.489030169999999	-1.32412889	52.68801463	-15.85906662	33.5731708
0.6	-3.24167068	-0.45361382	0.93807061	23.0943285	-7.80237079	-3.81756589	-7.86751729	0.03201436	15.78949514	-8.06642192	-2.65280024	-9.365806040000001	-1.4262199	52.66960559	-15.94351497	33.54738192
0.61	-2.93225869	-0.44424298	0.93714827	23.1694609	-8.518370239999999	-4.77802776	-8.279409019999999	0.18760834	16.7289409	-8.44203832	-1.95408447	-9.7081062	-1.44436475	52.63779302	-15.84273984	33.50991373
0.62	-2.82617292	-0.43471771	0.93606267	23.37371587	-9.10362467	-5.8303631	-8.57528188	0.01785385	16.83405859	-8.35457454	-1.88745819	-9.776939909999999	-1.54013204	52.50250215	-15.73772145	33.49107564
0.63	-2.68303415	-0.4249821	0.93504941	23.55925969	-9.70535293	-7.17170316	-8.928037809999999	-0.10253397	17.00517486	-8.177990830000001	-1.82377564	-9.87010987	-1.66255051	52.39958009	-15.6341659	33.47640491
0.64	-2.52193198	-0.41501388	0.93413859	23.72253316	-10.3081041	-8.692396540000001	-9.31966195	-0.2265218	17.16341625	-7.90668907	-1.77019547	-9.970461800000001	-1.83438038	52.29331272	-15.51009123	33.48368529
0.65	-2.35006701	-0.40480305	0.93334761	23.82094221	-10.91332676	-10.26881407	-9.75766166	-0.42965294	17.2062712	-7.61034184	-1.73366484	-10.02265548	-2.07229491	52.12001534	-15.35754226	33.50457639
0.66	-1.95440469	-0.39380115	0.93290823	23.62487219	-11.71490629	-11.80622582	-10.31803142	0.02279665	17.755837	-3.86154816	-1.38511829	-10.24096802	-2.31769894	51.91747261	-15.37900982	33.70182511
0.67	-1.79901843	-0.38329135	0.93244331	23.60650268	-12.22052056	-13.33332713	-10.93006253	-0.35980928	17.44235029	-3.74090494	-1.36494037	-10.24954128	-2.65321644	51.6457469	-15.14705417	33.70522265
0.68	-1.63340756	-0.37262054	0.93215558	23.52515388	-12.64181525	-14.79828712	-11.73267382	-0.70811256	17.04393681	-3.6097515	-1.31945424	-10.2680662	-3.0040909	51.38762307	-14.91967702	33.72007377
0.6899999999999999	-1.35138021	-0.36132599	0.93214798	23.16683714	-13.07737318	-15.96805481	-12.77097776	-1.04185954	17.09952304	-3.32517662	-0.81798532	-10.31221204	-3.37898161	51.05837275	-14.80437988	33.87525088
0.7	-1.14427051	-0.35038844	0.93237116	22.83193822	-13.30314803	-17.06900909	-14.03512095	-1.3140297	16.45283449	-3.21812442	-0.34665446	-10.35000692	-3.76607824	50.70691998	-14.55162065	33.95235834
0.71	-0.84236895	-0.33917287	0.93293699	22.26351474	-13.50956894	-17.91704021	-15.45359301	-1.52622136	15.75976487	-3.32155386	3.05574078	-10.44205811	-4.09582687	50.20971824	-14.37194911	34.14166007
0.72	-0.66853565	-0.32835168	0.93356819	21.82236851	-13.43245519	-18.76256339	-17.17082759	-1.40243501	14.46074166	-3.24854703	3.20289742	-10.44997744	-4.51915574	49.81279159	-13.9880548	34.1852849
0.73	-0.66815392	-0.31709264	0.93405973	21.36988906	-12.91282848	-19.1585392	-19.40046707	-1.50348509	13.7083701	-3.31814833	4.5814036	-10.18929693	-4.96086701	49.33093589	-13.77193011	34.36342954
0.74	-0.58833303	-0.30617269	0.9348161699999999	20.80378141	-12.34043149	-19.50989836	-21.78379103	-1.29557051	12.49586421	-3.45349939	6.72803544	-10.07953891	-5.3069477	48.78154807	-13.49917276	34.58343216
0.75	-0.49729248	-0.29546295	0.93579109	20.14413304	-11.62261975	-19.68011608	-24.25420125	-0.98657691	10.56236989	-3.97106529	12.77014105	-10.01264884	-5.60605072	48.26983543	-13.20450052	34.92245337
0.76	-0.59474782	-0.28496088	0.93654096	19.6298853	-10.49118527	-19.69980068	-27.17094392	-0.56292841	8.84004294	-3.94792941	13.66007725	-9.74599224	-5.96521733	47.80780136	-12.83346772	35.17897801
0.77	-0.75243681	-0.27473498	0.93723444	19.12765163	-9.136393780000001	-19.57018605	-30.23728689	-0.15731695	6.98287307	-3.96459078	14.7608416	-9.428453879999999	-6.24419994	47.32041536	-12.48324077	35.5387595
0.78	-0.81016027	-0.26474331	0.93816621	18.46727788	-7.81141564	-19.32514488	-33.28325822	0.34449544	4.78202908	-3.95670766	15.29711424	-9.303056079999999	-6.55870145	47.03608761	-12.03736101	35.95942826
0.79	-0.94667122	-0.25503969	0.93892552	17.86794423	-6.24395278	-18.98899185	-36.44219947	0.83454124	2.83855689	-3.96179529	15.73762529	-9.09894413	-6.79024982	46.72229795	-11.61296497	36.43847905
0.8	-1.35218965	-0.24557448	0.93920165	17.53018784	-4.24211223	-18.52041389	-39.68942395	1.12691196	1.40476215	-4.04532722	16.12221218	-8.54392723	-6.91963768	46.23534354	-11.26176961	37.01767353
0.8100000000000001	-1.90506387	-0.23670393	0.93923394	17.39097226	-1.97136906	-18.10367475	-42.88525929	1.49652401	0.28042288	-4.22877786	16.10016961	-7.92093812	-6.92104235	45.6796687	-10.87119458	37.62711181
0.82	-2.14924339	-0.22784351	0.93977175	16.87347486	-0.04316831	-17.5865913	-45.84870216	1.81069708	-0.75951153	-4.34492745	15.71218944	-7.66710493	-6.99542552	45.42600279	-10.40123064	38.26375868
