Model Marker Errors from IK
version=1
nRows=62
nColumns=4
inDegrees=no
endheader
time	total_squared_error	marker_error_RMS	marker_error_max
      0.21000000	      0.09587413	      0.04895767	      0.19851033
      0.22000000	      0.09576877	      0.04893076	      0.19872506
      0.23000000	      0.09570163	      0.04891360	      0.19896750
      0.24000000	      0.09568086	      0.04890830	      0.19931764
      0.25000000	      0.09568118	      0.04890838	      0.19912732
      0.26000000	      0.09572754	      0.04892023	      0.19924324
      0.27000000	      0.09580647	      0.04894039	      0.19943995
      0.28000000	      0.09589987	      0.04896424	      0.19927325
      0.29000000	      0.09600974	      0.04899228	      0.19931249
      0.30000000	      0.09612250	      0.04902104	      0.19938687
      0.31000000	      0.09622778	      0.04904788	      0.19940049
      0.32000000	      0.09631755	      0.04907075	      0.19930423
      0.33000000	      0.09638608	      0.04908821	      0.19924877
      0.34000000	      0.09643099	      0.04909964	      0.19916330
      0.35000000	      0.09644884	      0.04910419	      0.19913248
      0.36000000	      0.09644962	      0.04910438	      0.19906119
      0.37000000	      0.09643524	      0.04910072	      0.19902310
      0.38000000	      0.09641449	      0.04909544	      0.19890133
      0.39000000	      0.09639354	      0.04909011	      0.19895495
      0.40000000	      0.09638809	      0.04908872	      0.19887593
      0.41000000	      0.09638956	      0.04908909	      0.19864564
      0.42000000	      0.09640632	      0.04909336	      0.19853741
      0.43000000	      0.09644076	      0.04910213	      0.19862471
      0.44000000	      0.09649554	      0.04911607	      0.19842049
      0.45000000	      0.09656587	      0.04913397	      0.19823542
      0.46000000	      0.09665328	      0.04915620	      0.19808592
      0.47000000	      0.09673055	      0.04917585	      0.19797298
      0.48000000	      0.09681318	      0.04919685	      0.19781091
      0.49000000	      0.09688562	      0.04921525	      0.19767752
      0.50000000	      0.09693952	      0.04922894	      0.19742694
      0.51000000	      0.09699157	      0.04924215	      0.19729710
      0.52000000	      0.09697840	      0.04923881	      0.19705637
      0.53000000	      0.09695284	      0.04923232	      0.19713098
      0.54000000	      0.09692513	      0.04922528	      0.19700959
      0.55000000	      0.09689564	      0.04921779	      0.19692503
      0.56000000	      0.09686957	      0.04921117	      0.19694463
      0.57000000	      0.09686277	      0.04920944	      0.19695965
      0.58000000	      0.09686751	      0.04921065	      0.19676043
      0.59000000	      0.09687944	      0.04921368	      0.19678597
      0.60000000	      0.09691508	      0.04922273	      0.19655336
      0.61000000	      0.09694907	      0.04923136	      0.19677329
      0.62000000	      0.09700169	      0.04924472	      0.19669240
      0.63000000	      0.09705883	      0.04925922	      0.19670782
      0.64000000	      0.09711194	      0.04927270	      0.19682285
      0.65000000	      0.09715729	      0.04928420	      0.19681335
      0.66000000	      0.09715962	      0.04928479	      0.19706744
      0.67000000	      0.09718096	      0.04929020	      0.19711936
      0.68000000	      0.09719864	      0.04929468	      0.19729179
      0.69000000	      0.09720409	      0.04929607	      0.19745146
      0.70000000	      0.09721769	      0.04929951	      0.19769541
      0.71000000	      0.09722638	      0.04930172	      0.19790092
      0.72000000	      0.09724629	      0.04930677	      0.19808422
      0.73000000	      0.09724715	      0.04930698	      0.19818225
      0.74000000	      0.09723882	      0.04930487	      0.19843350
      0.75000000	      0.09719962	      0.04929493	      0.19862648
      0.76000000	      0.09714663	      0.04928149	      0.19880619
      0.77000000	      0.09706985	      0.04926202	      0.19892697
      0.78000000	      0.09697516	      0.04923798	      0.19925859
      0.79000000	      0.09686899	      0.04921102	      0.19954947
      0.80000000	      0.09675548	      0.04918218	      0.19951288
      0.81000000	      0.09664866	      0.04915502	      0.19954974
      0.82000000	      0.09655663	      0.04913162	      0.19973274
