Coordinates
version=1
nRows=62
nColumns=34
inDegrees=yes

Units are S.I. units (second, meters, Newtons, ...)
If the header above contains a line with 'inDegrees', this indicates whether rotational values are in degrees (yes) or radians (no).

endheader
time	pelvis_tilt	pelvis_list	pelvis_rotation	pelvis_tx	pelvis_ty	pelvis_tz	hip_flexion_l	hip_adduction_l	hip_rotation_l	hip_flexion_r	hip_adduction_r	hip_rotation_r	knee_angle_l_beta	knee_angle_r_beta	knee_angle_l	knee_angle_r	ankle_angle_l	ankle_angle_r	subtalar_angle_l	subtalar_angle_r	mtp_angle_l	mtp_angle_r	lumbar_ext	lumbar_bend	lumbar_rota	shoulder_flexion_r	shoulder_adduction_r	shoulder_rotation_r	elbow_flexion_r	shoulder_flexion_l	shoulder_adduction_l	shoulder_rotation_l	elbow_flexion_l
      0.21000000	     -2.69598882	     -6.34249874	     -2.67455122	     -0.78389950	      0.94265033	      0.29287335	     -3.38298677	     -8.76258198	     -8.74434795	     18.60676716	     11.12181609	      5.46226578	      0.70758958	      0.30576600	    -40.54189640	    -17.51910115	     -2.63316259	      1.53640196	     11.44381802	     -7.61095045	     12.41592059	     -0.40895099	     -7.84644714	      3.54247459	      3.44174011	     -9.32668335	     -2.75415808	    -11.56726559	     43.94272603	     -1.03287968	     -2.30561807	    -13.00024807	     47.83055884
      0.22000000	     -2.78377098	     -6.83155686	     -2.42475704	     -0.77432039	      0.94380949	      0.29399862	     -1.91931961	     -9.80211830	     -8.88171102	     17.78058244	     11.55497503	      5.12799842	      0.75349259	      0.29510030	    -43.17194551	    -16.90800190	     -3.97940269	      1.93416563	     10.86174828	     -7.38779785	     12.40934800	     -0.50778011	     -7.77627487	      4.02406154	      3.53347880	     -9.27674916	     -2.84164564	    -11.39508751	     44.11096556	     -1.58342442	     -2.15490064	    -13.11961988	     47.05549546
      0.23000000	     -2.98416558	     -7.27871514	     -2.19135575	     -0.76498139	      0.94470201	      0.29509295	     -0.26378551	    -10.75309765	     -8.84175549	     17.08212894	     11.96587654	      4.86495428	      0.79746167	      0.28436975	    -45.69118780	    -16.29318670	     -4.92147326	      2.34740177	     10.06257564	     -7.16916752	     12.21868575	     -0.63187162	     -7.61413778	      4.46004234	      3.64083717	     -9.22823225	     -2.97370785	    -11.18131469	     44.33534013	     -2.12096414	     -2.04340168	    -13.18179524	     46.22809289
      0.24000000	     -2.98372509	     -7.38765315	     -2.08198467	     -0.75599431	      0.94588910	      0.29628129	      1.15505641	    -11.25526338	     -8.75624020	     16.19804263	     12.09407754	      4.99793977	      0.83581540	      0.27475474	    -47.88869461	    -15.74228702	     -5.27447269	      2.75225199	      9.52162164	     -7.02713602	     12.11895620	     -0.69566902	     -7.72547070	      4.49054541	      3.87045187	     -9.07913176	     -3.09720628	    -10.96783795	     44.50744227	     -2.59789121	     -1.95214865	    -13.24447688	     45.52477128
      0.25000000	     -3.62044520	     -7.72810091	     -1.79287729	     -0.74725639	      0.94593590	      0.29715979	      3.42959548	    -11.96402726	     -8.34603556	     16.09054976	     12.40326323	      4.56745250	      0.87586908	      0.26704901	    -50.18360174	    -15.30078112	     -5.18354951	      3.16484591	      8.52628910	     -6.80726620	      9.24015387	     -1.60598780	     -7.07476803	      4.83342161	      3.86057624	     -8.98123360	     -3.26723248	    -10.68931772	     44.67833676	     -3.10928917	     -1.87881038	    -13.20429947	     44.60173753
      0.26000000	     -3.70236577	     -7.84289858	     -1.68217302	     -0.73854864	      0.94689232	      0.29818690	      4.98488853	    -12.36082080	     -8.14046208	     15.30080927	     12.53628363	      4.59338425	      0.90690150	      0.25654221	    -51.96162812	    -14.69878603	     -4.83721489	      3.39913513	      7.63900371	     -6.76742902	      9.15849781	     -1.66007166	     -7.08465222	      4.88967277	      4.08141627	     -8.83142596	     -3.43813401	    -10.37712903	     44.97438586	     -3.59109282	     -1.80185086	    -13.20892712	     43.86908830
      0.27000000	     -3.62175458	     -7.69050583	     -1.64799677	     -0.73013597	      0.94815266	      0.29929494	      6.32312966	    -12.43349810	     -8.00566582	     14.38655302	     12.43167944	      4.86148847	      0.93182304	      0.24774902	    -53.38952769	    -14.19497297	     -4.32169711	      3.67063528	      7.20640164	     -6.71699608	      9.19161293	     -1.68395840	     -7.32444300	      4.61185218	      4.36815761	     -8.57187681	     -3.57406864	    -10.18262026	     45.17886731	     -4.03700695	     -1.75016688	    -13.26716918	     43.27499500
      0.28000000	     -4.06344799	     -7.75851144	     -1.48441915	     -0.72186528	      0.94839741	      0.30017030	      8.32985879	    -12.66935817	     -7.57998830	     14.07340041	     12.52077142	      4.85104026	      0.95599480	      0.23925958	    -54.77446710	    -13.70856414	     -3.37485411	      3.87100288	      6.34183225	     -6.83858597	      8.83360925	     -1.86566858	     -6.92998433	      4.63051835	      4.45145755	     -8.37961336	     -3.73754587	     -9.87081777	     45.42340241	     -4.51634807	     -1.70461642	    -13.23447956	     42.46515956
      0.29000000	     -4.01796866	     -7.53475952	     -1.47526970	     -0.71352101	      0.94951533	      0.30111534	      9.63535273	    -12.56784706	     -7.48937370	     13.21176813	     12.34455912	      5.10387424	      0.97103894	      0.23081611	    -55.63643315	    -13.22478888	     -2.31670624	      4.18339717	      5.94496341	     -6.87290423	      8.82418083	     -1.92613135	     -7.09754162	      4.29144962	      4.71289426	     -8.12961965	     -3.90227701	     -9.65743601	     45.70295437	     -4.99193503	     -1.66938788	    -13.34152144	     41.84114315
      0.30000000	     -3.99407227	     -7.30012333	     -1.45787737	     -0.70532769	      0.95054807	      0.30201598	     10.96193882	    -12.41079076	     -7.35434814	     12.37708023	     12.14961997	      5.38722322	      0.98204413	      0.22199046	    -56.26698404	    -12.71911621	     -1.25015036	      4.42940033	      5.62011531	     -6.87723570	      8.85152178	     -1.98001498	     -7.25651221	      3.93774274	      4.95299685	     -7.85753725	     -4.02719018	     -9.48551506	     45.98450066	     -5.45479916	     -1.60887043	    -13.44911566	     41.24845856
      0.31000000	     -4.00133728	     -7.04682939	     -1.44887644	     -0.69714854	      0.95147718	      0.30285601	     12.28362024	    -12.20247392	     -7.26363565	     11.58380014	     11.92874985	      5.61762320	      0.98841834	      0.21328009	    -56.63219937	    -12.22004896	     -0.08946887	      4.67820364	      5.37920752	     -6.92439484	      8.88751394	     -2.04374598	     -7.36141150	      3.56905748	      5.16757906	     -7.58420982	     -4.16082391	     -9.34951461	     46.27382063	     -5.93725263	     -1.55603014	    -13.58272893	     40.64070447
      0.32000000	     -4.02141022	     -6.78177940	     -1.45341405	     -0.68898031	      0.95233126	      0.30376593	     13.57060119	    -11.95427411	     -7.17118641	     10.80063300	     11.70124280	      5.85399610	      0.99001469	      0.20450309	    -56.72366337	    -11.71716384	      1.05751989	      4.91758862	      5.26357091	     -6.97262739	      8.93140032	     -2.11213383	     -7.42098029	      3.17832347	      5.37579380	     -7.31255991	     -4.23959077	     -9.24716450	     46.57467635	     -6.42462202	     -1.51814438	    -13.75092818	     40.04617398
      0.33000000	     -4.05179602	     -6.50814195	     -1.46948220	     -0.68083880	      0.95310075	      0.30456272	     14.82251298	    -11.66512705	     -7.11974893	     10.03006331	     11.45152953	      6.07964235	      0.98711256	      0.19553304	    -56.55738346	    -11.20321787	      2.16266645	      5.15854865	      5.28690560	     -7.02924014	      8.98365949	     -2.18804339	     -7.47099222	      2.79159151	      5.57462670	     -7.03690826	     -4.33327642	     -9.19526486	     46.87554961	     -6.91873846	     -1.45636440	    -13.95099220	     39.46414376
      0.34000000	     -4.08579984	     -6.24709086	     -1.49784554	     -0.67267150	      0.95378688	      0.30532980	     16.01934180	    -11.35957557	     -7.07585059	      9.24810876	     11.20856389	      6.31036702	      0.97955626	      0.18606041	    -56.12443953	    -10.66047627	      3.16588307	      5.39517133	      5.40644538	     -7.06765804	      9.03645759	     -2.26207465	     -7.49862260	      2.42489886	      5.76292712	     -6.77127157	     -4.40543161	     -9.17998452	     47.20605067	     -7.43245013	     -1.39038112	    -14.18095296	     38.90041706
      0.35000000	     -4.00565717	     -5.89582520	     -1.63366192	     -0.66449172	      0.95459785	      0.30627005	     16.95943071	    -10.98808564	     -7.17445090	      8.36133091	     10.89751257	      6.71325306	      0.96618947	      0.17782690	    -55.35857892	    -10.18873085	      4.33679542	      5.66575282	      6.27622380	     -7.22980180	      9.28338620	     -2.56063166	     -7.64882406	      1.93582953	      6.04355380	     -6.46463775	     -4.46911869	     -9.15799191	     47.43088365	     -7.94626391	     -1.30421187	    -14.54999430	     38.42569557
      0.36000000	     -4.04774050	     -5.69690099	     -1.64580125	     -0.65630750	      0.95506666	      0.30687468	     18.06650087	    -10.67333101	     -7.07924090	      7.56874401	     10.69229107	      6.89009899	      0.95042749	      0.16744254	    -54.45548392	     -9.59375110	      5.09104329	      5.88152860	      6.37446910	     -7.23428540	      9.32940569	     -2.64468905	     -7.65081455	      1.65536394	      6.22750193	     -6.23292900	     -4.54649143	     -9.19692915	     47.79807436	     -8.44442839	     -1.20375137	    -14.83676220	     37.89343955
      0.37000000	     -3.94358633	     -5.37334745	     -1.70265991	     -0.64810266	      0.95569192	      0.30746876	     18.89278884	    -10.22755701	     -7.08128441	      6.66169233	     10.35733416	      7.13185303	      0.92888485	      0.15876465	    -53.22118147	     -9.09654436	      5.88019899	      6.15471543	      6.93305011	     -7.28284616	      9.50677833	     -2.79388546	     -7.80917675	      1.24479168	      6.44326621	     -5.96899472	     -4.59236891	     -9.30136212	     48.07906392	     -8.92758296	     -1.09585641	    -15.21557445	     37.40322246
      0.38000000	     -3.96268297	     -5.21477636	     -1.78893915	     -0.63984516	      0.95596776	      0.30812871	     19.80269859	     -9.90931377	     -6.94270065	      5.83888850	     10.19678484	      7.32869420	      0.90436146	      0.14849974	    -51.81609505	     -8.50840860	      6.42899352	      6.39687185	      7.23012537	     -7.26664808	      9.58935754	     -2.88887877	     -7.80632473	      1.00079328	      6.65054633	     -5.73830291	     -4.66292404	     -9.33319779	     48.48795359	     -9.46074194	     -0.97935713	    -15.53836266	     36.96135961
      0.39000000	     -3.73192365	     -4.93458273	     -1.90802040	     -0.63154108	      0.95656306	      0.30875332	     20.31171280	     -9.48278046	     -6.95869292	      4.77775498	      9.89813135	      7.60184318	      0.87411576	      0.13939137	    -50.08314385	     -7.98653740	      6.91957661	      6.71221960	      7.83128968	     -7.24463475	      9.92329932	     -3.09845258	     -8.09986773	      0.62956399	      6.86538313	     -5.45339185	     -4.72083162	     -9.35257525	     48.83526694	     -9.98960975	     -0.84714046	    -15.96851886	     36.65795247
      0.40000000	     -3.86660627	     -5.03418664	     -1.96047842	     -0.62360501	      0.95636130	      0.30925767	     21.28475141	     -9.38978863	     -6.66831135	      4.22928910	     10.00989168	      7.70023204	      0.84358892	      0.13411729	    -48.33408461	     -7.68435458	      7.09804741	      6.92466307	      7.94342402	     -7.25167100	      9.85696203	     -3.11732166	     -8.02298226	      0.70587923	      7.06443162	     -5.19549944	     -4.83464585	     -9.37029894	     49.21802748	    -10.50132159	     -0.71770052	    -16.13471407	     36.39138870
      0.41000000	     -4.02832291	     -4.87446158	     -2.01238519	     -0.61532065	      0.95597176	      0.30949073	     22.13617421	     -8.95875436	     -6.32744690	      3.58066587	      9.81566632	      7.86114600	      0.80846929	      0.12425060	    -46.32187803	     -7.11903510	      7.54807753	      7.20727944	      8.18472800	     -7.26542262	      9.83100067	     -3.17518057	     -7.84159899	      0.53023459	      7.25413220	     -5.05217195	     -4.93898920	     -9.40050657	     49.61689584	    -10.97225951	     -0.55068675	    -16.52112887	     35.92134186
      0.42000000	     -4.03546134	     -4.52479797	     -2.06802618	     -0.60710568	      0.95577991	      0.30977505	     22.68125402	     -8.35820054	     -6.13300338	      2.83038477	      9.42772066	      8.03792733	      0.76757714	      0.11641901	    -43.97893049	     -6.67031772	      7.90133411	      7.60543890	      8.52156645	     -7.30563863	      9.83540697	     -3.27744919	     -7.86799898	      0.13674422	      7.39318282	     -4.81934969	     -4.96954790	     -9.45932738	     49.92581094	    -11.40700738	     -0.40144550	    -16.97944344	     35.51953412
      0.43000000	     -3.70054908	     -4.25716817	     -2.21521211	     -0.59889424	      0.95604314	      0.31018349	     22.74170537	     -7.86843377	     -5.99421574	      1.76280404	      9.12016846	      8.24783169	      0.72245979	      0.11066400	    -41.39389664	     -6.34058035	      7.86221864	      8.07119793	      8.48767193	     -7.13215825	      9.85640653	     -3.53583618	     -8.30075556	     -0.21805621	      7.50698535	     -4.44327153	     -5.07277889	     -9.26195791	     50.22281988	    -11.93136354	     -0.22776117	    -17.48224312	     35.48406084
      0.44000000	     -3.85503106	     -4.13648099	     -2.25401083	     -0.59081336	      0.95532632	      0.31028047	     23.33236820	     -7.46280884	     -5.53068010	      1.26965435	      8.97838168	      8.34833204	      0.67675317	      0.10640582	    -38.77510021	     -6.09660466	      7.93257009	      8.46852081	      8.38237589	     -7.16948933	      9.66362620	     -3.64010929	     -8.17847618	     -0.34019906	      7.62218035	     -4.20620348	     -5.16655879	     -9.24136371	     50.51842146	    -12.35810002	     -0.06243976	    -17.80551114	     35.21947649
      0.45000000	     -3.97693709	     -4.02382590	     -2.31434606	     -0.58271682	      0.95454573	      0.31037390	     23.79914531	     -7.07611315	     -5.05446290	      0.76795400	      8.84863530	      8.47840863	      0.62841915	      0.10312374	    -36.00576521	     -5.90855497	      7.92256851	      8.88232408	      8.04165420	     -7.17801430	      9.35108373	     -3.73077857	     -8.09701993	     -0.45941892	      7.73607705	     -3.97225614	     -5.26161310	     -9.16329430	     50.83190259	    -12.76756715	      0.10283187	    -18.10133797	     34.97639207
      0.46000000	     -4.19540029	     -4.19733404	     -2.40400278	     -0.57483306	      0.95348927	      0.31053194	     24.32839835	     -7.02737374	     -4.44969029	      0.42847908	      9.03021441	      8.61500029	      0.57875498	      0.10195565	    -33.16021786	     -5.84162822	      7.89134372	      9.22444043	      7.90994634	     -7.19872400	      9.07618664	     -3.75129389	     -7.95590957	     -0.26031937	      7.93206705	     -3.74438326	     -5.40301529	     -9.07395451	     51.16375631	    -13.16089997	      0.26707828	    -18.25454439	     34.90407789
      0.47000000	     -3.90968330	     -3.68847290	     -2.48492204	     -0.56659659	      0.95331424	      0.31039152	     24.04943103	     -6.16358894	     -3.83161595	     -0.46573037	      8.43527156	      8.70999096	      0.52074321	      0.09976931	    -29.83638805	     -5.71636024	      7.11564868	      9.90160687	      5.97871646	     -6.95346673	      8.01418759	     -3.99078892	     -8.32876395	     -0.82293139	      7.93336766	     -3.38355231	     -5.46078508	     -8.85258483	     51.32149464	    -13.52362465	      0.42526685	    -18.63877337	     34.78289797
      0.48000000	     -3.85489668	     -3.58041617	     -2.53619267	     -0.55842096	      0.95256604	      0.31026592	     24.02816065	     -5.76709575	     -3.01833343	     -1.08266625	      8.28504637	      8.71226835	      0.46459713	      0.09913127	    -26.61945498	     -5.67980348	      6.64321210	     10.44078061	      4.60632299	     -6.73294328	      6.87336680	     -4.15967250	     -8.45477554	     -0.93168532	      7.96806826	     -3.09253131	     -5.55486689	     -8.66273586	     51.54481019	    -13.87599123	      0.59357703	    -18.92137439	     34.67674636
      0.49000000	     -3.83479634	     -3.52497442	     -2.62106393	     -0.55023756	      0.95166509	      0.31021980	     23.97002571	     -5.46468454	     -2.10759054	     -1.63868547	      8.19568956	      8.75989620	      0.40781684	      0.09965890	    -23.36618390	     -5.71003436	      6.05898959	     10.95311375	      2.97315296	     -6.51784457	      5.59845347	     -4.26604106	     -8.55007892	     -0.99519983	      8.03403876	     -2.81595141	     -5.62634295	     -8.48477944	     51.76855741	    -14.19474313	      0.73903977	    -19.12175353	     34.55424261
      0.50000000	     -3.76616853	     -3.46817604	     -2.69722311	     -0.54193702	      0.95077852	      0.31006410	     23.77810511	     -5.17054462	     -1.07625536	     -2.23227354	      8.09060320	      8.80748521	      0.35034782	      0.10075015	    -20.07345168	     -5.77255853	      5.25246697	     11.49401654	      0.86133935	     -6.26379320	      4.12911912	     -4.32185472	     -8.66621785	     -1.04208739	      8.13925314	     -2.58531870	     -5.71209050	     -8.29770736	     51.92403869	    -14.45592696	      0.88328441	    -19.28967709	     34.41336890
      0.51000000	     -4.03911272	     -3.80594551	     -2.81393717	     -0.53354435	      0.94905767	      0.31027271	     24.03767434	     -5.48750363	     -0.58031625	     -2.47303785	      8.45575981	      8.82573913	      0.29973954	      0.10270350	    -17.17381075	     -5.88447718	      5.28341933	     11.87452610	      0.71490324	     -6.31646854	      3.76298977	     -4.29461723	     -8.41995966	     -0.65420947	      8.19507148	     -2.39386432	     -5.73078477	     -8.21159948	     52.23067524	    -14.84294132	      1.01851877	    -19.33617620	     34.37377172
      0.52000000	     -3.64391693	     -3.59157187	     -3.06842827	     -0.52508478	      0.94867609	      0.31016555	     23.28291726	     -5.06538097	      0.88682584	     -3.39497327	      8.12803487	      8.99928390	      0.24134334	      0.10479818	    -13.82795506	     -6.00449342	      3.40492573	     12.50853480	     -3.59829484	     -5.70778933	      1.68192854	     -4.24895257	     -8.86796104	     -0.92137565	      8.49162263	     -2.13053454	     -5.83502760	     -7.93544135	     52.20364609	    -14.93725611	      1.14491238	    -19.47736371	     34.06898150
      0.53000000	     -3.57860949	     -3.76772968	     -2.92837735	     -0.51653141	      0.94740917	      0.30965960	     23.10758388	     -4.99784834	      2.60158976	     -3.96529022	      8.25118585	      8.46066962	      0.19544721	      0.10714194	    -11.19830017	     -6.13878089	      2.52952424	     13.08427307	     -5.98393221	     -4.97851265	     -2.81417513	     -3.94484245	     -9.00892860	     -0.72076355	      8.32080390	     -1.92128244	     -5.85784066	     -7.75850583	     52.37644087	    -15.21372563	      1.27049338	    -19.62710713	     34.15790938
      0.54000000	     -3.50317367	     -3.97255437	     -3.22579923	     -0.50787697	      0.94619621	      0.30992918	     22.86291954	     -5.24247927	      3.25645147	     -4.55222479	      8.40667488	      8.68771135	      0.15301845	      0.11070736	     -8.76731157	     -6.34306445	      1.72271522	     13.52904905	     -7.82725579	     -4.68462191	     -4.08688088	     -3.77244702	     -9.10768837	     -0.52961933	      8.62979553	     -1.76814316	     -5.89057653	     -7.59556509	     52.48435537	    -15.38440206	      1.36670381	    -19.61262588	     33.99511373
      0.55000000	     -3.43209202	     -4.23933504	     -3.38101058	     -0.49915758	      0.94493188	      0.30999765	     22.71218942	     -5.50525521	      4.07042469	     -5.13306609	      8.62178647	      8.67783117	      0.11829274	      0.11442768	     -6.77767501	     -6.55622319	      0.96020283	     13.95096206	     -9.47333371	     -4.18447874	     -5.39909198	     -3.55056942	     -9.21131837	     -0.27168987	      8.77905724	     -1.61452412	     -5.87044365	     -7.46410956	     52.54852211	    -15.52875705	      1.44859898	    -19.61577083	     33.84618916
      0.56000000	     -3.35148926	     -4.38443203	     -3.48488454	     -0.49024946	      0.94358128	      0.30993534	     22.60622115	     -5.60954010	      4.91105160	     -5.71384046	      8.69858008	      8.45275813	      0.09120915	      0.11848119	     -5.22589963	     -6.78847231	      0.28470277	     14.49529789	    -11.15016530	     -3.57762751	     -7.10381005	     -3.18517756	     -9.31088803	     -0.14983183	      8.87751161	     -1.51902659	     -5.83463269	     -7.37115302	     52.65201141	    -15.67513693	      1.47644809	    -19.59386054	     33.80409285
      0.57000000	     -3.44852810	     -4.54747726	     -3.50477101	     -0.48130589	      0.94192833	      0.30995651	     22.86428764	     -5.74325291	      5.06037952	     -6.11157586	      8.84533969	      8.48161517	      0.07575431	      0.12236302	     -4.34040214	     -7.01088458	      0.40265040	     14.74481044	    -11.14660363	     -3.58747537	     -7.24243835	     -3.12780260	     -9.22757118	     -0.01537833	      8.81713206	     -1.44060506	     -5.67952799	     -7.36111764	     52.73961097	    -15.80826323	      1.45971650	    -19.58407551	     33.74106850
      0.58000000	     -3.43117099	     -4.73193163	     -3.66287675	     -0.47227393	      0.94053506	      0.30979376	     22.93615879	     -5.90814062	      5.43897668	     -6.60959218	      8.95637479	      8.54249950	      0.06447957	      0.12758773	     -3.69440727	     -7.31023846	      0.31415747	     15.15366689	    -11.24709986	     -3.40296808	     -7.47906125	     -3.00609658	     -9.22842492	      0.18375103	      8.99362777	     -1.39886430	     -5.62377578	     -7.28565154	     52.65216859	    -15.87869672	      1.49579377	    -19.55764236	     33.66553718
      0.59000000	     -3.20962568	     -4.82947257	     -3.80412322	     -0.46323996	      0.93948577	      0.30962610	     22.91118922	     -5.93076445	      5.75471337	     -7.28586143	      8.94299262	      8.42634612	      0.06403136	      0.13414072	     -3.66872665	     -7.68569697	      0.10939128	     15.75425617	    -11.90329116	     -2.51133131	     -8.05114224	     -2.68158616	     -9.48903017	      0.24875357	      9.07104346	     -1.32412889	     -5.54893882	     -7.22126026	     52.68801463	    -15.85906662	      1.50572285	    -19.43452305	     33.57317080
      0.60000000	     -3.24167068	     -4.85990191	     -3.87420780	     -0.45361382	      0.93807061	      0.30946807	     23.09432850	     -5.87365207	      5.84650225	     -7.80237079	      8.90386668	      8.43389396	      0.06662909	      0.13731408	     -3.81756589	     -7.86751729	      0.03201436	     15.78949514	    -11.88161390	     -2.47181838	     -8.06642192	     -2.65280024	     -9.36580604	      0.23918869	      9.09495589	     -1.42621990	     -5.38948402	     -7.19619335	     52.66960559	    -15.94351497	      1.44542461	    -19.44221903	     33.54738192
      0.61000000	     -2.93225869	     -4.64829910	     -3.72614032	     -0.44424298	      0.93714827	      0.30858950	     23.16946090	     -5.41239453	      5.99132047	     -8.51837024	      8.52828694	      7.58936530	      0.08339232	      0.14450295	     -4.77802776	     -8.27940902	      0.18760834	     16.72894090	    -11.53220044	     -0.82619190	     -8.44203832	     -1.95408447	     -9.70810620	     -0.00047005	      8.90794781	     -1.44436475	     -5.20590954	     -7.33843981	     52.63779302	    -15.84273984	      1.36901847	    -19.29551290	     33.50991373
      0.62000000	     -2.82617292	     -4.55428833	     -3.73229152	     -0.43471771	      0.93606267	      0.30806692	     23.37371587	     -5.14180407	      6.08342798	     -9.10362467	      8.34191125	      7.68416261	      0.10175903	      0.14966690	     -5.83036310	     -8.57528188	      0.01785385	     16.83405859	    -11.42170029	     -0.75561334	     -8.35457454	     -1.88745819	     -9.77693991	     -0.13023075	      8.89372173	     -1.54013204	     -5.03869956	     -7.36852848	     52.50250215	    -15.73772145	      1.29379125	    -19.27382552	     33.49107564
      0.63000000	     -2.68303415	     -4.39192060	     -3.68627355	     -0.42498210	      0.93504941	      0.30741853	     23.55925969	     -4.77227533	      6.06223936	     -9.70535293	      8.08482874	      7.63267528	      0.12516983	      0.15582366	     -7.17170316	     -8.92803781	     -0.10253397	     17.00517486	    -11.19368069	     -0.65318230	     -8.17799083	     -1.82377564	     -9.87010987	     -0.33146106	      8.77180749	     -1.66255051	     -4.83244081	     -7.43936894	     52.39958009	    -15.63416590	      1.20282615	    -19.22124322	     33.47640491
      0.64000000	     -2.52193198	     -4.15348216	     -3.58615465	     -0.41501388	      0.93413859	      0.30665854	     23.72253316	     -4.30854244	      5.94125882	    -10.30810410	      7.75284892	      7.45664471	      0.15171094	      0.16265879	     -8.69239654	     -9.31966195	     -0.22652180	     17.16341625	    -10.78212602	     -0.47150354	     -7.90668907	     -1.77019547	     -9.97046180	     -0.60609985	      8.58026138	     -1.83438038	     -4.58287472	     -7.52972251	     52.29331272	    -15.51009123	      1.08849656	    -19.15436402	     33.48368529
      0.65000000	     -2.35006701	     -3.87787412	     -3.48156557	     -0.40480305	      0.93334761	      0.30583544	     23.82094221	     -3.81291952	      5.81180197	    -10.91332676	      7.37874983	      7.26081542	      0.17922462	      0.17030332	    -10.26881407	     -9.75766166	     -0.42965294	     17.20627120	    -10.31702484	     -0.24997848	     -7.61034184	     -1.73366484	    -10.02265548	     -0.91339559	      8.41857066	     -2.07229491	     -4.37501240	     -7.60992522	     52.12001534	    -15.35754226	      0.94002066	    -19.11051913	     33.50457639
      0.66000000	     -1.95440469	     -3.32759011	     -3.26514927	     -0.39380115	      0.93290823	      0.30490052	     23.62487219	     -3.13223670	      4.65919526	    -11.71490629	      6.65990963	      6.17632630	      0.20605751	      0.18008362	    -11.80622582	    -10.31803142	      0.02279665	     17.75583700	     -7.77876082	      1.41169652	     -3.86154816	     -1.38511829	    -10.24096802	     -1.51447589	      7.91896278	     -2.31769894	     -4.04146084	     -7.60991921	     51.91747261	    -15.37900982	      0.79090301	    -19.18619894	     33.70182511
      0.67000000	     -1.79901843	     -3.04499737	     -3.21950024	     -0.38329135	      0.93244331	      0.30407097	     23.60650268	     -2.66833219	      4.64861231	    -12.22052056	      6.27467602	      6.09168190	      0.23271046	      0.19076558	    -13.33332713	    -10.93006253	     -0.35980928	     17.44235029	     -7.70621871	      1.49959359	     -3.74090494	     -1.36494037	    -10.24954128	     -1.83147639	      7.84597451	     -2.65321644	     -3.83202589	     -7.63963995	     51.64574690	    -15.14705417	      0.66158655	    -19.18008510	     33.70522265
      0.68000000	     -1.63340756	     -2.67189156	     -3.12289113	     -0.37262054	      0.93215558	      0.30318720	     23.52515388	     -2.11434853	      4.53153299	    -12.64181525	      5.80649958	      5.79357424	      0.25827883	      0.20477379	    -14.79828712	    -11.73267382	     -0.70811256	     17.04393681	     -7.59052854	      1.66886465	     -3.60975150	     -1.31945424	    -10.26806620	     -2.23393351	      7.65368763	     -3.00409090	     -3.58129288	     -7.69627104	     51.38762307	    -14.91967702	      0.50723577	    -19.16588813	     33.72007377
      0.69000000	     -1.35138021	     -1.89391475	     -2.86094233	     -0.36132599	      0.93214798	      0.30188834	     23.16683714	     -1.11691996	      4.19523596	    -13.07737318	      4.85312196	      4.49670562	      0.27869513	      0.22289561	    -15.96805481	    -12.77097776	     -1.04185954	     17.09952304	     -7.07365388	      3.24245746	     -3.32517662	     -0.81798532	    -10.31221204	     -3.04087176	      7.14730855	     -3.37898161	     -3.27711037	     -7.72240828	     51.05837275	    -14.80437988	      0.31953542	    -19.19133526	     33.87525088
      0.70000000	     -1.14427051	     -1.43382147	     -2.80008585	     -0.35038844	      0.93237116	      0.30098750	     22.83193822	     -0.50862664	      4.04396439	    -13.30314803	      4.23505521	      3.78550662	      0.29791041	      0.24495907	    -17.06900909	    -14.03512095	     -1.31402970	     16.45283449	     -7.10823714	      4.01579951	     -3.21812442	     -0.34665446	    -10.35000692	     -3.54899442	      6.94875502	     -3.76607824	     -3.05068627	     -7.64588447	     50.70691998	    -14.55162065	      0.17977025	    -19.30767190	     33.95235834
      0.71000000	     -0.84236895	     -0.76696439	     -2.68800311	     -0.33917287	      0.93293699	      0.29973962	     22.26351474	      0.35680767	      4.01175057	    -13.50956894	      3.29176064	      2.53596799	      0.31271134	      0.26971608	    -17.91704021	    -15.45359301	     -1.52622136	     15.75976487	     -7.41210003	      5.77094453	     -3.32155386	      3.05574078	    -10.44205811	     -4.25381135	      6.54867094	     -4.09582687	     -2.86714870	     -7.36028926	     50.20971824	    -14.37194911	      0.09918389	    -19.63074814	     34.14166007
      0.72000000	     -0.66853565	     -0.39586075	     -2.67738425	     -0.32835168	      0.93356819	      0.29879409	     21.82236851	      0.86419949	      4.02742486	    -13.43245519	      2.74909063	      2.09469405	      0.32746851	      0.29968748	    -18.76256339	    -17.17082759	     -1.40243501	     14.46074166	     -7.47657811	      6.11700897	     -3.24854703	      3.20289742	    -10.44997744	     -4.64846549	      6.47824456	     -4.51915574	     -2.69935519	     -7.32101754	     49.81279159	    -13.98805480	     -0.01861212	    -19.68204574	     34.18528490
      0.73000000	     -0.66815392	      0.50176862	     -2.66991590	     -0.31709264	      0.93405973	      0.29763681	     21.36988906	      1.86248134	      3.55551399	    -12.91282848	      1.45295063	      0.43298917	      0.33437959	      0.33860203	    -19.15853920	    -19.40046707	     -1.50348509	     13.70837010	     -7.49029249	      8.57628609	     -3.31814833	      4.58140360	    -10.18929693	     -5.58651249	      6.19122463	     -4.96086701	     -2.50197967	     -7.11243510	     49.33093589	    -13.77193011	     -0.13083916	    -19.92414832	     34.36342954
      0.74000000	     -0.58833303	      1.19048101	     -2.69287817	     -0.30617269	      0.93481617	      0.29646354	     20.80378141	      2.68428283	      3.44605008	    -12.34043149	      0.33807872	     -0.84351493	      0.34051196	      0.38019888	    -19.50989836	    -21.78379103	     -1.29557051	     12.49586421	     -7.74646628	     10.62323913	     -3.45349939	      6.72803544	    -10.07953891	     -6.30859979	      5.91900024	     -5.30694770	     -2.38773356	     -6.77538629	     48.78154807	    -13.49917276	     -0.17887706	    -20.26207286	     34.58343216
      0.75000000	     -0.49729248	      1.78711407	     -2.68076599	     -0.29546295	      0.93579109	      0.29511221	     20.14413304	      3.43909185	      3.35938331	    -11.62261975	     -0.73385780	     -2.07547556	      0.34348282	      0.42331567	    -19.68011608	    -24.25420125	     -0.98657691	     10.56236989	     -8.05697193	     11.81345053	     -3.97106529	     12.77014105	    -10.01264884	     -6.91800764	      5.59994610	     -5.60605072	     -2.34081464	     -6.32182160	     48.26983543	    -13.20450052	     -0.17628273	    -20.67013300	     34.92245337
      0.76000000	     -0.59474782	      2.46098184	     -2.83409762	     -0.28496088	      0.93654096	      0.29403762	     19.62988530	      4.17659744	      3.01556275	    -10.49118527	     -1.91690758	     -2.96593382	      0.34382638	      0.47422243	    -19.69980068	    -27.17094392	     -0.56292841	      8.84004294	     -8.10589883	     13.20174417	     -3.94792941	     13.66007725	     -9.74599224	     -7.61180293	      5.51744133	     -5.96521733	     -2.29052965	     -6.01691690	     47.80780136	    -12.83346772	     -0.20796453	    -20.88421501	     35.17897801
      0.77000000	     -0.75243681	      3.15996811	     -3.00731993	     -0.27473498	      0.93723444	      0.29294350	     19.12765163	      4.94155523	      2.69693373	     -9.13639378	     -3.16099179	     -3.72361335	      0.34156418	      0.52774021	    -19.57018605	    -30.23728689	     -0.15731695	      6.98287307	     -8.20852802	     14.27220625	     -3.96459078	     14.76084160	     -9.42845388	     -8.32681071	      5.37365075	     -6.24419994	     -2.27329204	     -5.61868710	     47.32041536	    -12.48324077	     -0.21120921	    -21.18511250	     35.53875950
      0.78000000	     -0.81016027	      3.69433257	     -3.11677432	     -0.26474331	      0.93816621	      0.29176809	     18.46727788	      5.56639233	      2.48629986	     -7.81141564	     -4.21908527	     -4.31915456	      0.33728741	      0.58090244	    -19.32514488	    -33.28325822	      0.34449544	      4.78202908	     -8.28175791	     14.77255896	     -3.95670766	     15.29711424	     -9.30305608	     -8.85423554	      5.24771756	     -6.55870145	     -2.28094174	     -5.29586642	     47.03608761	    -12.03736101	     -0.21901977	    -21.32865878	     35.95942826
      0.79000000	     -0.94667122	      4.30234819	     -3.30094839	     -0.25503969	      0.93892552	      0.29064757	     17.86794423	      6.25116553	      2.26916747	     -6.24395278	     -5.37100065	     -4.69461168	      0.33142043	      0.63603637	    -18.98899185	    -36.44219947	      0.83454124	      2.83855689	     -8.35168124	     15.11638379	     -3.96179529	     15.73762529	     -9.09894413	     -9.45587908	      5.11507931	     -6.79024982	     -2.33303478	     -4.93034748	     46.72229795	    -11.61296497	     -0.22134058	    -21.48453676	     36.43847905
      0.80000000	     -1.35218965	      5.02702271	     -3.57613352	     -0.24557448	      0.93920165	      0.28975313	     17.53018784	      6.98777465	      1.80050428	     -4.24211223	     -6.62121694	     -4.82690319	      0.32324220	      0.69271113	    -18.52041389	    -39.68942395	      1.12691196	      1.40476215	     -8.45564176	     15.13490837	     -4.04532722	     16.12221218	     -8.54392723	    -10.18541041	      4.98637079	     -6.91963768	     -2.37496931	     -4.42953097	     46.23534354	    -11.26176961	     -0.21388445	    -21.76455451	     37.01767353
      0.81000000	     -1.90506387	      5.60437708	     -3.83182859	     -0.23670393	      0.93923394	      0.28892090	     17.39097226	      7.58258097	      1.55707012	     -1.97136906	     -7.60754495	     -4.63055164	      0.31596873	      0.74848898	    -18.10367475	    -42.88525929	      1.49652401	      0.28042288	     -8.64039985	     14.85064351	     -4.22877786	     16.10016961	     -7.92093812	    -10.76809354	      4.77457894	     -6.92104235	     -2.46196903	     -3.76690723	     45.67966870	    -10.87119458	     -0.20794412	    -22.10065135	     37.62711181
      0.82000000	     -2.14924339	      6.10281373	     -4.04136879	     -0.22784351	      0.93977175	      0.28805943	     16.87347486	      8.13504696	      1.39106401	     -0.04316831	     -8.49024518	     -4.48138463	      0.30694392	      0.80021081	    -17.58659130	    -45.84870216	      1.81069708	     -0.75951153	     -8.69986394	     14.12169742	     -4.34492745	     15.71218944	     -7.66710493	    -11.24161748	      4.58749214	     -6.99542552	     -2.52400738	     -3.42061732	     45.42600279	    -10.40123064	     -0.24973896	    -22.10816910	     38.26375868
