Coordinates
version=1
nRows=106
nColumns=13
inDegrees=yes

Units are S.I. units (second, meters, Newtons, ...)
If the header above contains a line with 'inDegrees', this indicates whether rotational values are in degrees (yes) or radians (no).

endheader
time	pelvis_tilt	pelvis_tx	pelvis_ty	hip_flexion_r	knee_angle_r	ankle_angle_r	mtp_angle_r	hip_flexion_l	knee_angle_l	ankle_angle_l	mtp_angle_l	lumbar_ext
      0.95000000	      3.20587687	     -0.01902727	      0.83500511	    -15.19715763	    -17.94093062	     17.49407879	      0.00000000	     23.39219453	     -9.01824471	     -3.98547573	      0.00000000	    -16.40827304
      0.96000000	      2.73359380	     -0.00772603	      0.83290721	    -14.31210229	    -20.29480317	     17.09391034	      0.00000000	     25.41043586	    -13.25304831	     -3.33130298	      0.00000000	    -15.92531358
      0.97000000	      2.32413131	      0.00387525	      0.83119760	    -13.42227685	    -22.74317567	     16.32872136	      0.00000000	     26.94802820	    -16.78417607	     -3.09881753	      0.00000000	    -15.48807766
      0.98000000	      2.13369024	      0.01580610	      0.83017415	    -12.75426091	    -25.15415412	     14.89443531	      0.00000000	     27.91863599	    -19.78951611	     -2.95804833	      0.00000000	    -15.27536288
      0.99000000	      1.89331635	      0.02768432	      0.82939535	    -11.82142469	    -27.85530475	     13.16627354	      0.00000000	     28.71445588	    -22.38108728	     -2.69456776	      0.00000000	    -15.00676095
      1.00000000	      1.58239616	      0.03956467	      0.82880674	    -10.61366251	    -30.81465456	     11.36554614	      0.00000000	     29.42704450	    -24.69999591	     -2.45950121	      0.00000000	    -14.65467515
      1.01000000	      1.44697379	      0.05145142	      0.82884210	     -9.49884146	    -33.77563904	      8.88522284	      0.00000000	     29.67790167	    -26.55878734	     -1.99578962	      0.00000000	    -14.51373705
      1.02000000	      1.31429664	      0.06321557	      0.82913712	     -8.20632328	    -36.93079084	      6.37761337	      0.00000000	     29.78359379	    -28.15104222	     -1.41894260	      0.00000000	    -14.38922288
      1.03000000	      1.05439392	      0.07473208	      0.82942715	     -6.54254523	    -40.30755957	      3.85795519	      0.00000000	     29.91087034	    -29.52158977	     -0.67432454	      0.00000000	    -14.12846407
      1.04000000	      0.86529197	      0.08612655	      0.83001245	     -4.84580439	    -43.68959851	      1.39682649	      0.00000000	     29.82001476	    -30.63694089	      0.18874432	      0.00000000	    -13.96207767
      1.05000000	      0.38674864	      0.09711576	      0.83023346	     -2.56428396	    -47.33063649	     -0.58330131	      0.00000000	     30.02181520	    -31.65478466	      1.06861288	      0.00000000	    -13.47831142
      1.06000000	      0.07928637	      0.10797207	      0.83084528	     -0.41813798	    -50.80770201	     -2.43303548	      0.00000000	     29.89771616	    -32.42402219	      2.05310399	      0.00000000	    -13.21071062
      1.07000000	     -0.08558770	      0.11877162	      0.83179722	      1.60336315	    -54.08323225	     -4.11891930	      0.00000000	     29.50066247	    -33.00129378	      3.17372339	      0.00000000	    -13.10724891
      1.08000000	     -0.48481999	      0.12920548	      0.83242774	      4.04734820	    -57.37345925	     -5.07261353	      0.00000000	     29.34236763	    -33.48092280	      4.12947695	      0.00000000	    -12.74219720
      1.09000000	     -0.85108797	      0.13949821	      0.83312952	      6.49910025	    -60.43766237	     -5.69242172	      0.00000000	     29.11595776	    -33.88353307	      5.03687695	      0.00000000	    -12.41866449
      1.10000000	     -0.98018449	      0.14979789	      0.83428312	      8.65073301	    -63.12835764	     -6.14070166	      0.00000000	     28.51235374	    -34.08885067	      6.09021196	      0.00000000	    -12.37020809
      1.11000000	     -1.35852684	      0.15980674	      0.83501722	     11.17870661	    -65.67662865	     -6.13391733	      0.00000000	     28.22102140	    -34.29981092	      6.88741572	      0.00000000	    -12.02438712
      1.12000000	     -1.56246437	      0.16989229	      0.83607877	     13.46520023	    -67.81765685	     -5.97590769	      0.00000000	     27.65605033	    -34.37953734	      7.73195271	      0.00000000	    -11.86619150
      1.13000000	     -1.26342008	      0.18005907	      0.83797613	     15.07316825	    -69.43202335	     -5.96787156	      0.00000000	     26.46201865	    -34.32715362	      7.95584972	      0.00000000	    -12.30795891
      1.14000000	     -1.66350179	      0.19010650	      0.83866177	     17.57435300	    -71.00057574	     -5.19258461	      0.00000000	     26.03994975	    -34.26721105	      9.36915325	      0.00000000	    -11.86243676
      1.15000000	     -1.89767382	      0.20019547	      0.83953351	     19.81060744	    -72.13521045	     -4.70030634	      0.00000000	     25.46079036	    -34.25047486	     10.05843291	      0.00000000	    -11.60086003
      1.16000000	     -1.82435018	      0.21045914	      0.84096782	     21.57492183	    -72.79697364	     -4.34392258	      0.00000000	     24.38726561	    -33.95916585	     10.60054100	      0.00000000	    -11.68327300
      1.17000000	     -1.83705690	      0.22075225	      0.84206854	     23.38947779	    -73.18498789	     -3.72604091	      0.00000000	     23.47189346	    -33.81763836	     11.43200522	      0.00000000	    -11.63776428
      1.18000000	     -1.74808615	      0.23118650	      0.84335962	     24.96767777	    -73.14879074	     -3.47597198	      0.00000000	     22.32357467	    -33.43651200	     11.84488450	      0.00000000	    -11.68458478
      1.19000000	     -1.60734757	      0.24161489	      0.84449733	     26.41276579	    -72.85502799	     -2.85952128	      0.00000000	     21.14834146	    -33.14502865	     12.78322614	      0.00000000	    -11.79505866
      1.20000000	     -1.52507842	      0.25207487	      0.84551084	     27.82411513	    -72.21943487	     -2.62521216	      0.00000000	     19.97681807	    -32.71479971	     13.23585588	      0.00000000	    -11.81705213
      1.21000000	     -1.41203025	      0.26258047	      0.84643921	     29.09155249	    -71.28173574	     -2.33899960	      0.00000000	     18.75647292	    -32.25874496	     13.84500254	      0.00000000	    -11.86605779
      1.22000000	     -0.93739165	      0.27333005	      0.84778859	     29.76085362	    -69.96675717	     -1.90675993	      0.00000000	     17.03807452	    -31.70320788	     14.83159083	      0.00000000	    -12.32190399
      1.23000000	     -0.88401524	      0.28377146	      0.84833299	     30.87973537	    -68.47339311	     -1.76702481	      0.00000000	     15.86085642	    -31.18431233	     15.30519415	      0.00000000	    -12.30680874
      1.24000000	     -0.40294334	      0.29446528	      0.84944698	     31.30291695	    -66.58331751	     -1.58563385	      0.00000000	     14.07049243	    -30.46527782	     15.96146404	      0.00000000	    -12.78018469
      1.25000000	     -0.39044346	      0.30482783	      0.84956011	     32.24186038	    -64.56726090	     -1.51458500	      0.00000000	     12.96502598	    -29.99770790	     16.51436709	      0.00000000	    -12.72315790
      1.26000000	     -0.22582730	      0.31529145	      0.84979318	     32.83496845	    -62.22518915	     -1.50044205	      0.00000000	     11.61836222	    -29.41538351	     17.18813395	      0.00000000	    -12.84209706
      1.27000000	      0.05678838	      0.32573557	      0.85008627	     33.14236586	    -59.58267086	     -1.54244293	      0.00000000	     10.09880925	    -28.74052829	     17.78192080	      0.00000000	    -13.11875392
      1.28000000	      0.35974930	      0.33617373	      0.85032033	     33.28036762	    -56.66497409	     -1.61705452	      0.00000000	      8.48400706	    -27.91342142	     18.24969720	      0.00000000	    -13.42795977
      1.29000000	      0.52111355	      0.34649880	      0.85013186	     33.46772211	    -53.53254553	     -1.69055326	      0.00000000	      7.10023176	    -27.20437002	     18.63628818	      0.00000000	    -13.58351639
      1.30000000	      0.62424329	      0.35676679	      0.84968791	     33.59354999	    -50.16053237	     -1.87369822	      0.00000000	      5.82781846	    -26.57927945	     19.10028882	      0.00000000	    -13.68561166
      1.31000000	      0.69350526	      0.36699996	      0.84906201	     33.61360547	    -46.54109442	     -2.09231249	      0.00000000	      4.61261532	    -25.98284268	     19.52430263	      0.00000000	    -13.76108851
      1.32000000	      0.70835014	      0.37720485	      0.84822344	     33.55022639	    -42.68196070	     -2.37153701	      0.00000000	      3.49266157	    -25.44355523	     19.94278871	      0.00000000	    -13.78558155
      1.33000000	      0.34769872	      0.38715169	      0.84648528	     33.85040563	    -38.74442041	     -2.19759724	      0.00000000	      3.13979837	    -25.56715317	     20.19448559	      0.00000000	    -13.39502273
      1.34000000	      0.61041644	      0.39750630	      0.84598583	     33.10080950	    -34.26896968	     -3.09910786	      0.00000000	      1.56999388	    -24.67904113	     20.71963107	      0.00000000	    -13.73049977
      1.35000000	      0.16131374	      0.40755187	      0.84389985	     33.17897301	    -29.94533561	     -2.89425232	      0.00000000	      1.35306478	    -24.88152675	     20.98160205	      0.00000000	    -13.23872729
      1.36000000	      0.11687297	      0.41777453	      0.84252968	     32.49607075	    -25.14193947	     -4.30371693	      0.00000000	      0.50710576	    -24.75164035	     21.71240362	      0.00000000	    -13.23893335
      1.37000000	      0.18967203	      0.42831578	      0.84124960	     31.51639376	    -20.31783286	     -4.96031211	      0.00000000	     -0.56677837	    -24.44079119	     21.89468418	      0.00000000	    -13.34725054
      1.38000000	     -0.09722674	      0.43880350	      0.83906187	     30.96493772	    -15.76810004	     -5.80207548	      0.00000000	     -0.90267907	    -24.83326075	     22.43898883	      0.00000000	    -13.02322211
      1.39000000	     -0.28178751	      0.44960293	      0.83695908	     30.24991891	    -11.47856891	     -6.65511537	      0.00000000	     -1.42908766	    -25.10147045	     22.88151955	      0.00000000	    -12.78949486
      1.40000000	     -0.13244299	      0.46077143	      0.83531325	     29.21379912	     -7.74741880	     -7.35322282	      0.00000000	     -2.46978424	    -25.12537979	     23.01075459	      0.00000000	    -12.93155385
      1.41000000	     -0.32656629	      0.47194603	      0.83296574	     28.85168646	     -4.99392096	     -7.95523957	      0.00000000	     -2.92528237	    -25.57249786	     23.44015156	      0.00000000	    -12.65110381
      1.42000000	     -0.50995820	      0.48313441	      0.83062201	     28.76463272	     -3.28167820	     -7.92065832	      0.00000000	     -3.31327688	    -26.15631475	     23.54455577	      0.00000000	    -12.39939281
      1.43000000	     -0.57660862	      0.49449144	      0.82860899	     28.73168448	     -2.38649959	     -8.24925703	      0.00000000	     -3.90987183	    -26.59456379	     23.75896220	      0.00000000	    -12.28289622
      1.44000000	     -0.69554053	      0.50609899	      0.82667053	     28.93952044	     -2.32536360	     -8.25215609	      0.00000000	     -4.49386307	    -26.93601097	     23.73528380	      0.00000000	    -12.08289814
      1.45000000	     -0.68928153	      0.51754433	      0.82494388	     29.45810231	     -3.55792414	     -7.95092863	      0.00000000	     -5.09384184	    -27.47962560	     23.50745754	      0.00000000	    -12.08280543
      1.46000000	     -1.10377907	      0.52913577	      0.82256933	     30.69874422	     -5.65701983	     -7.13028905	      0.00000000	     -5.03676996	    -28.41318352	     23.27586722	      0.00000000	    -11.54645589
      1.47000000	     -0.95348342	      0.54129160	      0.82134032	     31.18138212	     -7.82321357	     -7.25240667	      0.00000000	     -5.87036581	    -28.83410999	     22.91485934	      0.00000000	    -11.64652159
      1.48000000	     -1.31116959	      0.55356792	      0.81924490	     32.54810538	    -10.88765250	     -6.12366110	      0.00000000	     -5.87192827	    -29.78215686	     21.98960124	      0.00000000	    -11.09229375
      1.49000000	     -1.03703659	      0.56633655	      0.81843940	     32.90267792	    -13.50410027	     -6.41033572	      0.00000000	     -6.75817940	    -30.36765376	     21.41200012	      0.00000000	    -11.27290608
      1.50000000	     -1.03292863	      0.57943324	      0.81736899	     33.62199401	    -16.45936632	     -5.49263154	      0.00000000	     -7.21558886	    -31.13777591	     19.48009832	      0.00000000	    -11.06899516
      1.51000000	     -0.83204201	      0.59264976	      0.81688021	     33.92830611	    -19.07679000	     -5.35967296	      0.00000000	     -7.78325160	    -32.06433363	     17.74114184	      0.00000000	    -11.10671462
      1.52000000	     -0.59131606	      0.60596769	      0.81674294	     34.06502357	    -21.51172773	     -5.20043514	      0.00000000	     -8.23667292	    -33.20072682	     15.65393562	      0.00000000	    -11.18421707
      1.53000000	     -0.32269444	      0.61931220	      0.81696670	     34.04876860	    -23.75907575	     -4.96422042	      0.00000000	     -8.53574502	    -34.57001044	     13.19904793	      0.00000000	    -11.29926548
      1.54000000	     -0.03884401	      0.63257844	      0.81753589	     33.89298690	    -25.79787397	     -4.62485768	      0.00000000	     -8.62378306	    -36.23056623	     10.35796913	      0.00000000	    -11.44640196
      1.55000000	      0.25305804	      0.64570729	      0.81844174	     33.59598835	    -27.60559638	     -4.18111342	      0.00000000	     -8.47349350	    -38.19074922	      7.35334635	      0.00000000	    -11.62279925
      1.56000000	      0.52728054	      0.65865546	      0.81956610	     33.21344146	    -29.22690847	     -3.57897476	      0.00000000	     -8.05851487	    -40.44208743	      4.11621453	      0.00000000	    -11.80683017
      1.57000000	      0.77056014	      0.67138392	      0.82087420	     32.73700247	    -30.62024312	     -2.86071491	      0.00000000	     -7.36180992	    -42.95557493	      0.87114188	      0.00000000	    -11.97430890
      1.58000000	      0.98433074	      0.68383635	      0.82235629	     32.16730605	    -31.77969814	     -2.03041227	      0.00000000	     -6.39907915	    -45.68257703	     -2.31315233	      0.00000000	    -12.13417487
      1.59000000	      1.07694506	      0.69598075	      0.82377994	     31.62273313	    -32.72553189	     -1.14515704	      0.00000000	     -5.05366520	    -48.64252978	     -5.18642483	      0.00000000	    -12.17608005
      1.60000000	      1.14676503	      0.70782380	      0.82528556	     30.98635199	    -33.43689020	     -0.21643807	      0.00000000	     -3.49737562	    -51.68957772	     -7.69782820	      0.00000000	    -12.21838375
      1.61000000	      1.20170544	      0.71941189	      0.82687784	     30.26352147	    -33.96103458	      0.75546875	      0.00000000	     -1.76199150	    -54.76075749	     -9.82965918	      0.00000000	    -12.26602416
      1.62000000	      1.13170052	      0.73066960	      0.82834936	     29.57733395	    -34.25080758	      1.69151227	      0.00000000	      0.27315166	    -57.84924786	    -11.34579046	      0.00000000	    -12.18716898
      1.63000000	      0.92518711	      0.74162276	      0.82963640	     29.00411450	    -34.44176097	      2.56831034	      0.00000000	      2.60983493	    -60.91175435	    -12.29138345	      0.00000000	    -11.96986591
      1.64000000	      1.30681553	      0.75265105	      0.83210100	     27.52277829	    -34.16746581	      2.88281969	      0.00000000	      4.18917151	    -63.47615208	    -12.59946601	      0.00000000	    -12.45046528
      1.65000000	      0.83037144	      0.76327683	      0.83305796	     27.14640167	    -34.15925760	      4.24871366	      0.00000000	      6.99340791	    -66.20676896	    -13.03007728	      0.00000000	    -11.90414124
      1.66000000	      0.77977301	      0.77380868	      0.83480941	     26.15541095	    -33.85980913	      5.03898664	      0.00000000	      9.27213492	    -68.51127502	    -12.87136709	      0.00000000	    -11.89405050
      1.67000000	      0.94557733	      0.78447289	      0.83708928	     24.73813555	    -33.22598801	      5.71180725	      0.00000000	     11.21482863	    -70.35093451	    -12.51376354	      0.00000000	    -12.10920942
      1.68000000	      1.10702604	      0.79506529	      0.83937654	     23.27824269	    -32.48160834	      6.20033235	      0.00000000	     13.15931092	    -71.87312246	    -12.15108534	      0.00000000	    -12.32504785
      1.69000000	      1.19757647	      0.80569079	      0.84135105	     21.95790681	    -31.88942728	      7.05738358	      0.00000000	     15.15549766	    -73.13429003	    -11.09520111	      0.00000000	    -12.42204365
      1.70000000	      1.38363713	      0.81640980	      0.84358706	     20.39415799	    -31.01676898	      7.60876601	      0.00000000	     16.94649307	    -73.95221081	    -10.30095481	      0.00000000	    -12.61457199
      1.71000000	      1.55714857	      0.82729793	      0.84579169	     18.74751595	    -29.96769038	      8.05145738	      0.00000000	     18.64831236	    -74.38264640	     -9.66961069	      0.00000000	    -12.74726726
      1.72000000	      2.24439309	      0.83832248	      0.84873677	     16.41381312	    -28.72771103	      8.63829131	      0.00000000	     19.56709464	    -74.29485617	     -8.40608702	      0.00000000	    -13.50833673
      1.73000000	      2.86934588	      0.84954232	      0.85150143	     14.07005193	    -27.33885769	      9.01904832	      0.00000000	     20.43809950	    -73.84853198	     -7.47559511	      0.00000000	    -14.14002784
      1.74000000	      3.61987581	      0.86091883	      0.85433550	     11.48970945	    -25.76338225	      9.32384479	      0.00000000	     21.01402962	    -73.01756802	     -6.53103819	      0.00000000	    -14.89513884
      1.75000000	      4.35763009	      0.87238341	      0.85694763	      8.89680663	    -24.12590256	      9.62339183	      0.00000000	     21.47810483	    -71.88306043	     -5.44336748	      0.00000000	    -15.61613287
      1.76000000	      5.29148496	      0.88407291	      0.85974608	      5.93181731	    -22.20446018	      9.70690437	      0.00000000	     21.51569570	    -70.30242711	     -4.54271493	      0.00000000	    -16.52964346
      1.77000000	      6.20337199	      0.89579674	      0.86225261	      2.96663362	    -20.21262788	      9.73880437	      0.00000000	     21.45573300	    -68.44625855	     -3.56247385	      0.00000000	    -17.40792056
      1.78000000	      7.09051462	      0.90756549	      0.86445298	      0.00328034	    -18.15758914	      9.69676914	      0.00000000	     21.29455909	    -66.31157092	     -2.57532199	      0.00000000	    -18.24286745
      1.79000000	      7.93672607	      0.91930807	      0.86631751	     -2.92866025	    -16.04682220	      9.56105447	      0.00000000	     21.06061177	    -63.90191130	     -1.64856932	      0.00000000	    -19.02967763
      1.80000000	      8.68461103	      0.93100983	      0.86774327	     -5.72354711	    -13.96757536	      9.37184038	      0.00000000	     20.83732709	    -61.26433544	     -0.77050372	      0.00000000	    -19.70339601
      1.81000000	      9.31870347	      0.94258383	      0.86869981	     -8.31608070	    -12.00166901	      9.11256604	      0.00000000	     20.64964939	    -58.40869622	      0.01891702	      0.00000000	    -20.26427780
      1.82000000	      9.80037799	      0.95402841	      0.86916024	    -10.64196520	    -10.20147154	      8.93251624	      0.00000000	     20.55052812	    -55.36704356	      0.76999733	      0.00000000	    -20.66677248
      1.83000000	     10.14972379	      0.96529680	      0.86915749	    -12.69434727	     -8.62485045	      8.79129658	      0.00000000	     20.51685721	    -52.14412427	      1.47500872	      0.00000000	    -20.94748688
      1.84000000	     10.35315485	      0.97638807	      0.86871764	    -14.43922143	     -7.30917920	      8.75954997	      0.00000000	     20.56130687	    -48.76035378	      2.12604058	      0.00000000	    -21.09167977
      1.85000000	      9.99606883	      0.98688399	      0.86727920	    -15.05449393	     -6.93378379	      8.98985476	      0.00000000	     21.24139753	    -45.31133281	      2.46441774	      0.00000000	    -20.68030469
      1.86000000	     10.41411976	      0.99808094	      0.86675868	    -17.15911075	     -5.36949385	      9.00235092	      0.00000000	     20.75247672	    -41.57475568	      3.21939861	      0.00000000	    -21.08363320
      1.87000000	      9.98119404	      1.00851081	      0.86489688	    -17.63898019	     -5.06862636	      9.26479485	      0.00000000	     21.27022354	    -37.88869454	      3.60234365	      0.00000000	    -20.61438736
      1.88000000	      9.57874856	      1.01892273	      0.86295061	    -18.13219474	     -4.80325172	      9.61475339	      0.00000000	     21.60232040	    -34.09321897	      4.00644069	      0.00000000	    -20.19294525
      1.89000000	      9.59091562	      1.02909620	      0.86151985	    -18.94808576	     -4.81363222	     10.43382517	      0.00000000	     21.19823078	    -29.98104320	      3.99467197	      0.00000000	    -20.32489797
      1.90000000	      9.21042973	      1.03916859	      0.85946579	    -19.17496501	     -5.09207016	     10.92990098	      0.00000000	     21.13935870	    -25.91718391	      4.02114871	      0.00000000	    -20.01932075
      1.91000000	      8.73608622	      1.04912019	      0.85721579	    -19.15607448	     -5.65106749	     11.80412958	      0.00000000	     20.98822396	    -21.74475895	      3.45989597	      0.00000000	    -19.62931764
      1.92000000	      8.16946359	      1.05890638	      0.85479587	    -18.82363520	     -6.61429091	     12.65864822	      0.00000000	     20.73568149	    -17.49568502	      2.70759760	      0.00000000	    -19.17852196
      1.93000000	      7.59786456	      1.06895791	      0.85230310	    -18.41761367	     -7.76747058	     13.57287921	      0.00000000	     20.24979048	    -13.20259172	      1.68663548	      0.00000000	    -18.67735317
      1.94000000	      6.98955902	      1.07916404	      0.84963036	    -17.97003692	     -8.92795258	     14.24524317	      0.00000000	     19.81909290	     -9.41144077	      1.04506758	      0.00000000	    -18.13201612
      1.95000000	      6.70500980	      1.08972123	      0.84753293	    -17.89963784	    -10.11315068	     15.11574263	      0.00000000	     18.21336451	     -4.36406245	     -1.77334438	      0.00000000	    -17.92308679
      1.96000000	      6.19727157	      1.10044444	      0.84490163	    -17.40033718	    -11.70813484	     15.93231895	      0.00000000	     17.50088699	     -1.11276272	     -3.39608565	      0.00000000	    -17.43700116
      1.97000000	      6.18968656	      1.11195848	      0.84306591	    -17.78563966	    -12.69771600	     16.09781746	      0.00000000	     15.92258578	      2.21797826	     -5.24952526	      0.00000000	    -17.43198009
      1.98000000	      6.05817405	      1.12312839	      0.84112793	    -17.77143623	    -14.14458968	     16.06853613	      0.00000000	     15.83307444	      2.40752429	     -5.51741648	      0.00000000	    -17.35195195
      1.99000000	      5.93505461	      1.13458270	      0.83938608	    -17.73329166	    -15.67538007	     16.00211542	      0.00000000	     15.86620167	      2.00660680	     -5.98492506	      0.00000000	    -17.24927920
      2.00000000	      3.91807457	      1.14438789	      0.83455025	    -14.40974241	    -19.42957051	     16.91541597	      0.00000000	     21.67336376	     -5.92671804	     -3.21594567	      0.00000000	    -15.11824949
