Coordinates
version=1
nRows=106
nColumns=13
inDegrees=no
endheader
time	/jointset/ground_pelvis/pelvis_tilt/value	/jointset/ground_pelvis/pelvis_tx/value	/jointset/ground_pelvis/pelvis_ty/value	/jointset/hip_r/hip_flexion_r/value	/jointset/knee_r/knee_angle_r/value	/jointset/ankle_r/ankle_angle_r/value	/jointset/mtp_r/mtp_angle_r/value	/jointset/hip_l/hip_flexion_l/value	/jointset/knee_l/knee_angle_l/value	/jointset/ankle_l/ankle_angle_l/value	/jointset/mtp_l/mtp_angle_l/value	/jointset/back/lumbar_ext/value
      0.95000000	      0.05595311	     -0.01902727	      0.83500511	     -0.26524044	     -0.31312831	      0.30532927	      0.00000000	      0.40827081	     -0.15739806	     -0.06955967	      0.00000000	     -0.28637839
      0.96000000	      0.04771021	     -0.00772603	      0.83290721	     -0.24979331	     -0.35421114	      0.29834502	      0.00000000	      0.44349577	     -0.23130933	     -0.05814221	      0.00000000	     -0.27794916
      0.97000000	      0.04056374	      0.00387525	      0.83119760	     -0.23426292	     -0.39694330	      0.28498995	      0.00000000	      0.47033182	     -0.29293913	     -0.05408457	      0.00000000	     -0.27031795
      0.98000000	      0.03723992	      0.01580610	      0.83017415	     -0.22260385	     -0.43902281	      0.25995694	      0.00000000	      0.48727212	     -0.34539221	     -0.05162768	      0.00000000	     -0.26660538
      0.99000000	      0.03304460	      0.02768432	      0.82939535	     -0.20632278	     -0.48616678	      0.22979482	      0.00000000	      0.50116180	     -0.39062366	     -0.04702908	      0.00000000	     -0.26191739
      1.00000000	      0.02761802	      0.03956467	      0.82880674	     -0.18524336	     -0.53781718	      0.19836620	      0.00000000	      0.51359882	     -0.43109625	     -0.04292639	      0.00000000	     -0.25577233
      1.01000000	      0.02525446	      0.05145142	      0.82884210	     -0.16578606	     -0.58949611	      0.15507639	      0.00000000	      0.51797710	     -0.46353828	     -0.03483310	      0.00000000	     -0.25331250
      1.02000000	      0.02293880	      0.06321557	      0.82913712	     -0.14322736	     -0.64456390	      0.11131035	      0.00000000	      0.51982177	     -0.49132837	     -0.02476522	      0.00000000	     -0.25113932
      1.03000000	      0.01840265	      0.07473208	      0.82942715	     -0.11418896	     -0.70349963	      0.06733402	      0.00000000	      0.52204317	     -0.51524894	     -0.01176918	      0.00000000	     -0.24658822
      1.04000000	      0.01510219	      0.08612655	      0.83001245	     -0.08457524	     -0.76252734	      0.02437922	      0.00000000	      0.52045744	     -0.53471549	      0.00329421	      0.00000000	     -0.24368423
      1.05000000	      0.00675004	      0.09711576	      0.83023346	     -0.04475520	     -0.82607544	     -0.01018053	      0.00000000	      0.52397952	     -0.55248022	      0.01865081	      0.00000000	     -0.23524091
      1.06000000	      0.00138381	      0.10797207	      0.83084528	     -0.00729788	     -0.88676169	     -0.04246448	      0.00000000	      0.52181359	     -0.56590594	      0.03583342	      0.00000000	     -0.23057040
      1.07000000	     -0.00149379	      0.11877162	      0.83179722	      0.02798397	     -0.94393047	     -0.07188870	      0.00000000	      0.51488369	     -0.57598123	      0.05539192	      0.00000000	     -0.22876465
      1.08000000	     -0.00846171	      0.12920548	      0.83242774	      0.07063955	     -1.00135577	     -0.08853381	      0.00000000	      0.51212093	     -0.58435234	      0.07207297	      0.00000000	     -0.22239330
      1.09000000	     -0.01485429	      0.13949821	      0.83312952	      0.11343070	     -1.05483620	     -0.09935150	      0.00000000	      0.50816933	     -0.59137921	      0.08791009	      0.00000000	     -0.21674658
      1.10000000	     -0.01710745	      0.14979789	      0.83428312	      0.15098377	     -1.10179769	     -0.10717546	      0.00000000	      0.49763445	     -0.59496268	      0.10629425	      0.00000000	     -0.21590086
      1.11000000	     -0.02371077	      0.15980674	      0.83501722	      0.19510524	     -1.14627341	     -0.10705705	      0.00000000	      0.49254974	     -0.59864463	      0.12020808	      0.00000000	     -0.20986515
      1.12000000	     -0.02727015	      0.16989229	      0.83607877	      0.23501208	     -1.18364140	     -0.10429926	      0.00000000	      0.48268914	     -0.60003612	      0.13494803	      0.00000000	     -0.20710411
      1.13000000	     -0.02205084	      0.18005907	      0.83797613	      0.26307641	     -1.21181741	     -0.10415901	      0.00000000	      0.46184935	     -0.59912185	      0.13885577	      0.00000000	     -0.21481441
      1.14000000	     -0.02903358	      0.19010650	      0.83866177	      0.30673032	     -1.23919382	     -0.09062770	      0.00000000	      0.45448286	     -0.59807566	      0.16352257	      0.00000000	     -0.20703858
      1.15000000	     -0.03312066	      0.20019547	      0.83953351	      0.34576033	     -1.25899693	     -0.08203582	      0.00000000	      0.44437462	     -0.59778356	      0.17555277	      0.00000000	     -0.20247320
      1.16000000	     -0.03184092	      0.21045914	      0.84096782	      0.37655342	     -1.27054688	     -0.07581575	      0.00000000	      0.42563808	     -0.59269926	      0.18501434	      0.00000000	     -0.20391158
      1.17000000	     -0.03206269	      0.22075225	      0.84206854	      0.40822340	     -1.27731900	     -0.06503168	      0.00000000	      0.40966182	     -0.59022913	      0.19952613	      0.00000000	     -0.20311730
      1.18000000	     -0.03050986	      0.23118650	      0.84335962	      0.43576818	     -1.27668724	     -0.06066716	      0.00000000	      0.38961988	     -0.58357722	      0.20673223	      0.00000000	     -0.20393448
      1.19000000	     -0.02805351	      0.24161489	      0.84449733	      0.46098973	     -1.27156012	     -0.04990806	      0.00000000	      0.36910819	     -0.57848988	      0.22310939	      0.00000000	     -0.20586261
      1.20000000	     -0.02661764	      0.25207487	      0.84551084	      0.48562242	     -1.26046692	     -0.04581860	      0.00000000	      0.34866125	     -0.57098097	      0.23100926	      0.00000000	     -0.20624647
      1.21000000	     -0.02464458	      0.26258047	      0.84643921	      0.50774338	     -1.24410099	     -0.04082324	      0.00000000	      0.32736221	     -0.56302131	      0.24164088	      0.00000000	     -0.20710178
      1.22000000	     -0.01636057	      0.27333005	      0.84778859	      0.51942488	     -1.22115028	     -0.03327924	      0.00000000	      0.29737050	     -0.55332536	      0.25886009	      0.00000000	     -0.21505779
      1.23000000	     -0.01542898	      0.28377146	      0.84833299	      0.53895305	     -1.19508616	     -0.03084040	      0.00000000	      0.27682417	     -0.54426893	      0.26712603	      0.00000000	     -0.21479433
      1.24000000	     -0.00703269	      0.29446528	      0.84944698	      0.54633897	     -1.16209812	     -0.02767453	      0.00000000	      0.24557642	     -0.53171941	      0.27858010	      0.00000000	     -0.22305630
      1.25000000	     -0.00681452	      0.30482783	      0.84956011	      0.56272662	     -1.12691129	     -0.02643450	      0.00000000	      0.22628239	     -0.52355877	      0.28823008	      0.00000000	     -0.22206100
      1.26000000	     -0.00394143	      0.31529145	      0.84979318	      0.57307831	     -1.08603443	     -0.02618765	      0.00000000	      0.20277867	     -0.51339529	      0.29998953	      0.00000000	     -0.22413688
      1.27000000	      0.00099114	      0.32573557	      0.85008627	      0.57844341	     -1.03991378	     -0.02692071	      0.00000000	      0.17625747	     -0.50161685	      0.31035307	      0.00000000	     -0.22896545
      1.28000000	      0.00627881	      0.33617373	      0.85032033	      0.58085199	     -0.98899037	     -0.02822293	      0.00000000	      0.14807386	     -0.48718111	      0.31851730	      0.00000000	     -0.23436211
      1.29000000	      0.00909515	      0.34649880	      0.85013186	      0.58412194	     -0.93431918	     -0.02950572	      0.00000000	      0.12392242	     -0.47480583	      0.32526459	      0.00000000	     -0.23707709
      1.30000000	      0.01089510	      0.35676679	      0.84968791	      0.58631805	     -0.87546644	     -0.03270220	      0.00000000	      0.10171462	     -0.46389594	      0.33336293	      0.00000000	     -0.23885898
      1.31000000	      0.01210395	      0.36699996	      0.84906201	      0.58666809	     -0.81229534	     -0.03651774	      0.00000000	      0.08050532	     -0.45348615	      0.34076337	      0.00000000	     -0.24017630
      1.32000000	      0.01236304	      0.37720485	      0.84822344	      0.58556192	     -0.74494075	     -0.04139113	      0.00000000	      0.06095844	     -0.44407381	      0.34806733	      0.00000000	     -0.24060379
      1.33000000	      0.00606849	      0.38715169	      0.84648528	      0.59080103	     -0.67621770	     -0.03835531	      0.00000000	      0.05479982	     -0.44623100	      0.35246026	      0.00000000	     -0.23378725
      1.34000000	      0.01065378	      0.39750630	      0.84598583	      0.57771811	     -0.59810635	     -0.05408964	      0.00000000	      0.02740156	     -0.43073052	      0.36162578	      0.00000000	     -0.23964243
      1.35000000	      0.00281546	      0.40755187	      0.84389985	      0.57908232	     -0.52264470	     -0.05051423	      0.00000000	      0.02361544	     -0.43426456	      0.36619804	      0.00000000	     -0.23105938
      1.36000000	      0.00203982	      0.41777453	      0.84252968	      0.56716343	     -0.43880962	     -0.07511403	      0.00000000	      0.00885067	     -0.43199762	      0.37895293	      0.00000000	     -0.23106298
      1.37000000	      0.00331040	      0.42831578	      0.84124960	      0.55006484	     -0.35461308	     -0.08657378	      0.00000000	     -0.00989215	     -0.42657228	      0.38213433	      0.00000000	     -0.23295347
      1.38000000	     -0.00169693	      0.43880350	      0.83906187	      0.54044012	     -0.27520526	     -0.10126532	      0.00000000	     -0.01575472	     -0.43342216	      0.39163424	      0.00000000	     -0.22729811
      1.39000000	     -0.00491812	      0.44960293	      0.83695908	      0.52796068	     -0.20033882	     -0.11615368	      0.00000000	     -0.02494228	     -0.43810331	      0.39935785	      0.00000000	     -0.22321879
      1.40000000	     -0.00231157	      0.46077143	      0.83531325	      0.50987698	     -0.13521797	     -0.12833795	      0.00000000	     -0.04310587	     -0.43852060	      0.40161343	      0.00000000	     -0.22569819
      1.41000000	     -0.00569966	      0.47194603	      0.83296574	      0.50355692	     -0.08716036	     -0.13884512	      0.00000000	     -0.05105581	     -0.44632429	      0.40910782	      0.00000000	     -0.22080342
      1.42000000	     -0.00890045	      0.48313441	      0.83062201	      0.50203755	     -0.05727609	     -0.13824157	      0.00000000	     -0.05782759	     -0.45651381	      0.41093002	      0.00000000	     -0.21641023
      1.43000000	     -0.01006372	      0.49449144	      0.82860899	      0.50146249	     -0.04165228	     -0.14397670	      0.00000000	     -0.06824014	     -0.46416270	      0.41467212	      0.00000000	     -0.21437698
      1.44000000	     -0.01213947	      0.50609899	      0.82667053	      0.50508992	     -0.04058525	     -0.14402729	      0.00000000	     -0.07843271	     -0.47012208	      0.41425885	      0.00000000	     -0.21088636
      1.45000000	     -0.01203023	      0.51754433	      0.82494388	      0.51414088	     -0.06209749	     -0.13876988	      0.00000000	     -0.08890431	     -0.47960994	      0.41028253	      0.00000000	     -0.21088474
      1.46000000	     -0.01926458	      0.52913577	      0.82256933	      0.53579416	     -0.09873362	     -0.12444702	      0.00000000	     -0.08790822	     -0.49590360	      0.40624052	      0.00000000	     -0.20152367
      1.47000000	     -0.01664143	      0.54129160	      0.82134032	      0.54421778	     -0.13654083	     -0.12657838	      0.00000000	     -0.10245721	     -0.50325016	      0.39993974	      0.00000000	     -0.20327015
      1.48000000	     -0.02288423	      0.55356792	      0.81924490	      0.56807160	     -0.19002538	     -0.10687805	      0.00000000	     -0.10248448	     -0.51979670	      0.38379094	      0.00000000	     -0.19359705
      1.49000000	     -0.01809970	      0.56633655	      0.81843940	      0.57426006	     -0.23569101	     -0.11188146	      0.00000000	     -0.11795248	     -0.53001554	      0.37370990	      0.00000000	     -0.19674933
      1.50000000	     -0.01802801	      0.57943324	      0.81736899	      0.58681450	     -0.28727014	     -0.09586450	      0.00000000	     -0.12593578	     -0.54345671	      0.33999185	      0.00000000	     -0.19319041
      1.51000000	     -0.01452187	      0.59264976	      0.81688021	      0.59216065	     -0.33295280	     -0.09354394	      0.00000000	     -0.13584337	     -0.55962819	      0.30964134	      0.00000000	     -0.19384874
      1.52000000	     -0.01032041	      0.60596769	      0.81674294	      0.59454682	     -0.37545048	     -0.09076472	      0.00000000	     -0.14375706	     -0.57946200	      0.27321272	      0.00000000	     -0.19520141
      1.53000000	     -0.00563208	      0.61931220	      0.81696670	      0.59426312	     -0.41467410	     -0.08664199	      0.00000000	     -0.14897685	     -0.60336050	      0.23036684	      0.00000000	     -0.19720939
      1.54000000	     -0.00067796	      0.63257844	      0.81753589	      0.59154421	     -0.45025784	     -0.08071899	      0.00000000	     -0.15051341	     -0.63234267	      0.18078067	      0.00000000	     -0.19977740
      1.55000000	      0.00441670	      0.64570729	      0.81844174	      0.58636061	     -0.48180855	     -0.07297420	      0.00000000	     -0.14789036	     -0.66655432	      0.12834010	      0.00000000	     -0.20285612
      1.56000000	      0.00920278	      0.65865546	      0.81956610	      0.57968391	     -0.51010578	     -0.06246489	      0.00000000	     -0.14064762	     -0.70584758	      0.07184150	      0.00000000	     -0.20606806
      1.57000000	      0.01344881	      0.67138392	      0.82087420	      0.57136848	     -0.53442406	     -0.04992889	      0.00000000	     -0.12848782	     -0.74971621	      0.01520429	      0.00000000	     -0.20899112
      1.58000000	      0.01717981	      0.68383635	      0.82235629	      0.56142540	     -0.55466037	     -0.03543738	      0.00000000	     -0.11168500	     -0.79731138	     -0.04037212	      0.00000000	     -0.21178130
      1.59000000	      0.01879624	      0.69598075	      0.82377994	      0.55192081	     -0.57116828	     -0.01998676	      0.00000000	     -0.08820310	     -0.84897230	     -0.09052019	      0.00000000	     -0.21251269
      1.60000000	      0.02001483	      0.70782380	      0.82528556	      0.54081387	     -0.58358383	     -0.00377756	      0.00000000	     -0.06104072	     -0.90215332	     -0.13435245	      0.00000000	     -0.21325103
      1.61000000	      0.02097372	      0.71941189	      0.82687784	      0.52819809	     -0.59273187	      0.01318542	      0.00000000	     -0.03075255	     -0.95575552	     -0.17155992	      0.00000000	     -0.21408251
      1.62000000	      0.01975190	      0.73066960	      0.82834936	      0.51622186	     -0.59778936	      0.02952246	      0.00000000	      0.00476740	     -1.00965984	     -0.19802140	      0.00000000	     -0.21270623
      1.63000000	      0.01614756	      0.74162276	      0.82963640	      0.50621729	     -0.60112213	      0.04482547	      0.00000000	      0.04555021	     -1.06311067	     -0.21452511	      0.00000000	     -0.20891357
      1.64000000	      0.02280823	      0.75265105	      0.83210100	      0.48036310	     -0.59633478	      0.05031470	      0.00000000	      0.07311484	     -1.10786785	     -0.21990217	      0.00000000	     -0.21730161
      1.65000000	      0.01449272	      0.76327683	      0.83305796	      0.47379409	     -0.59619152	      0.07415404	      0.00000000	      0.12205799	     -1.15552611	     -0.22741775	      0.00000000	     -0.20776646
      1.66000000	      0.01360961	      0.77380868	      0.83480941	      0.45649804	     -0.59096515	      0.08794691	      0.00000000	      0.16182928	     -1.19574732	     -0.22464773	      0.00000000	     -0.20759034
      1.67000000	      0.01650344	      0.78447289	      0.83708928	      0.43176192	     -0.57990289	      0.09968984	      0.00000000	      0.19573568	     -1.22785544	     -0.21840638	      0.00000000	     -0.21134557
      1.68000000	      0.01932125	      0.79506529	      0.83937654	      0.40628198	     -0.56691101	      0.10821621	      0.00000000	      0.22967330	     -1.25442263	     -0.21207645	      0.00000000	     -0.21511267
      1.69000000	      0.02090165	      0.80569079	      0.84135105	      0.38323777	     -0.55657550	      0.12317458	      0.00000000	      0.26451333	     -1.27643416	     -0.19364779	      0.00000000	     -0.21680556
      1.70000000	      0.02414902	      0.81640980	      0.84358706	      0.35594521	     -0.54134474	      0.13279802	      0.00000000	      0.29577210	     -1.29070957	     -0.17978558	      0.00000000	     -0.22016581
      1.71000000	      0.02717737	      0.82729793	      0.84579169	      0.32720588	     -0.52303487	      0.14052444	      0.00000000	      0.32547445	     -1.29822209	     -0.16876654	      0.00000000	     -0.22248178
      1.72000000	      0.03917205	      0.83832248	      0.84873677	      0.28647508	     -0.50139314	      0.15076663	      0.00000000	      0.34151023	     -1.29668986	     -0.14671390	      0.00000000	     -0.23576495
      1.73000000	      0.05007953	      0.84954232	      0.85150143	      0.24556873	     -0.47715308	      0.15741209	      0.00000000	      0.35671213	     -1.28890003	     -0.13047375	      0.00000000	     -0.24679004
      1.74000000	      0.06317875	      0.86091883	      0.85433550	      0.20053326	     -0.44965585	      0.16273179	      0.00000000	      0.36676401	     -1.27439697	     -0.11398812	      0.00000000	     -0.25996922
      1.75000000	      0.07605499	      0.87238341	      0.85694763	      0.15527857	     -0.42107643	      0.16795987	      0.00000000	      0.37486365	     -1.25459608	     -0.09500468	      0.00000000	     -0.27255294
      1.76000000	      0.09235383	      0.88407291	      0.85974608	      0.10352974	     -0.38754094	      0.16941744	      0.00000000	      0.37551973	     -1.22700883	     -0.07928533	      0.00000000	     -0.28849670
      1.77000000	      0.10826927	      0.89579674	      0.86225261	      0.05177752	     -0.35277691	      0.16997420	      0.00000000	      0.37447318	     -1.19461257	     -0.06217690	      0.00000000	     -0.30382553
      1.78000000	      0.12375283	      0.90756549	      0.86445298	      0.00005725	     -0.31690971	      0.16924055	      0.00000000	      0.37166017	     -1.15735524	     -0.04494785	      0.00000000	     -0.31839810
      1.79000000	      0.13852200	      0.91930807	      0.86631751	     -0.05111476	     -0.28006988	      0.16687188	      0.00000000	      0.36757702	     -1.11529875	     -0.02877296	      0.00000000	     -0.33213053
      1.80000000	      0.15157506	      0.93100983	      0.86774327	     -0.09989474	     -0.24378018	      0.16356947	      0.00000000	      0.36367997	     -1.06926437	     -0.01344783	      0.00000000	     -0.34388913
      1.81000000	      0.16264206	      0.94258383	      0.86869981	     -0.14514299	     -0.20946864	      0.15904428	      0.00000000	      0.36040437	     -1.01942406	      0.00033016	      0.00000000	     -0.35367837
      1.82000000	      0.17104886	      0.95402841	      0.86916024	     -0.18573733	     -0.17804927	      0.15590182	      0.00000000	      0.35867438	     -0.96633721	      0.01343899	      0.00000000	     -0.36070323
      1.83000000	      0.17714610	      0.96529680	      0.86915749	     -0.22155816	     -0.15053204	      0.15343707	      0.00000000	      0.35808671	     -0.91008665	      0.02574376	      0.00000000	     -0.36560262
      1.84000000	      0.18069664	      0.97638807	      0.86871764	     -0.25201196	     -0.12756924	      0.15288299	      0.00000000	      0.35886250	     -0.85102872	      0.03710641	      0.00000000	     -0.36811926
      1.85000000	      0.17446431	      0.98688399	      0.86727920	     -0.26275049	     -0.12101736	      0.15690256	      0.00000000	      0.37073232	     -0.79083195	      0.04301220	      0.00000000	     -0.36093941
      1.86000000	      0.18176068	      0.99808094	      0.86675868	     -0.29948298	     -0.09371535	      0.15712066	      0.00000000	      0.36219905	     -0.72561637	      0.05618911	      0.00000000	     -0.36797882
      1.87000000	      0.17420470	      1.00851081	      0.86489688	     -0.30785828	     -0.08846422	      0.16170117	      0.00000000	      0.37123543	     -0.66128247	      0.06287276	      0.00000000	     -0.35978893
      1.88000000	      0.16718070	      1.01892273	      0.86295061	     -0.31646650	     -0.08383256	      0.16780910	      0.00000000	      0.37703162	     -0.59503892	      0.06992558	      0.00000000	     -0.35243338
      1.89000000	      0.16739306	      1.02909620	      0.86151985	     -0.33070648	     -0.08401373	      0.18210460	      0.00000000	      0.36997892	     -0.52326792	      0.06972018	      0.00000000	     -0.35473639
      1.90000000	      0.16075232	      1.03916859	      0.85946579	     -0.33466627	     -0.08887339	      0.19076276	      0.00000000	      0.36895141	     -0.45234019	      0.07018228	      0.00000000	     -0.34940306
      1.91000000	      0.15247347	      1.04912019	      0.85721579	     -0.33433657	     -0.09862973	      0.20602093	      0.00000000	      0.36631361	     -0.37951764	      0.06038658	      0.00000000	     -0.34259622
      1.92000000	      0.14258404	      1.05890638	      0.85479587	     -0.32853441	     -0.11544115	      0.22093509	      0.00000000	      0.36190591	     -0.30535731	      0.04725649	      0.00000000	     -0.33472835
      1.93000000	      0.13260775	      1.06895791	      0.85230310	     -0.32144800	     -0.13556794	      0.23689143	      0.00000000	      0.35342552	     -0.23042870	      0.02943734	      0.00000000	     -0.32598131
      1.94000000	      0.12199082	      1.07916404	      0.84963036	     -0.31363631	     -0.15582217	      0.24862640	      0.00000000	      0.34590843	     -0.16426063	      0.01823987	      0.00000000	     -0.31646338
      1.95000000	      0.11702450	      1.08972123	      0.84753293	     -0.31240762	     -0.17650778	      0.26381948	      0.00000000	      0.31788318	     -0.07616726	     -0.03095070	      0.00000000	     -0.31281688
      1.96000000	      0.10816279	      1.10044444	      0.84490163	     -0.30369317	     -0.20434550	      0.27807142	      0.00000000	      0.30544810	     -0.01942137	     -0.05927288	      0.00000000	     -0.30433308
      1.97000000	      0.10803041	      1.11195848	      0.84306591	     -0.31041797	     -0.22161695	      0.28095992	      0.00000000	      0.27790155	      0.03871102	     -0.09162150	      0.00000000	     -0.30424545
      1.98000000	      0.10573508	      1.12312839	      0.84112793	     -0.31017008	     -0.24686966	      0.28044886	      0.00000000	      0.27633928	      0.04201923	     -0.09629708	      0.00000000	     -0.30284869
      1.99000000	      0.10358624	      1.13458270	      0.83938608	     -0.30950433	     -0.27358699	      0.27928960	      0.00000000	      0.27691746	      0.03502190	     -0.10445665	      0.00000000	     -0.30105672
      2.00000000	      0.06838330	      1.14438789	      0.83455025	     -0.25149745	     -0.33910998	      0.29522970	      0.00000000	      0.37827156	     -0.10344074	     -0.05612884	      0.00000000	     -0.26386323
