inDegrees=no
num_controls=27
num_derivatives=0
num_iterations=18
num_multipliers=0
num_parameters=0
num_slacks=0
num_states=18
objective=794.081380
objective_excitation_effort=794.081380
solver_duration=3.508179
status=Solve_Succeeded
success=true
DataType=double
version=3
OpenSimVersion=4.5-2023-11-26-efcdfd3eb
endheader
time	/forceset/hamstrings_r/activation	/forceset/bifemsh_r/activation	/forceset/glut_max_r/activation	/forceset/iliopsoas_r/activation	/forceset/rect_fem_r/activation	/forceset/vasti_r/activation	/forceset/gastroc_r/activation	/forceset/soleus_r/activation	/forceset/dorsiflexors_r/activation	/forceset/hamstrings_l/activation	/forceset/bifemsh_l/activation	/forceset/glut_max_l/activation	/forceset/iliopsoas_l/activation	/forceset/rect_fem_l/activation	/forceset/vasti_l/activation	/forceset/gastroc_l/activation	/forceset/soleus_l/activation	/forceset/dorsiflexors_l/activation	/forceset/hamstrings_r	/forceset/bifemsh_r	/forceset/glut_max_r	/forceset/iliopsoas_r	/forceset/rect_fem_r	/forceset/vasti_r	/forceset/gastroc_r	/forceset/soleus_r	/forceset/dorsiflexors_r	/forceset/hamstrings_l	/forceset/bifemsh_l	/forceset/glut_max_l	/forceset/iliopsoas_l	/forceset/rect_fem_l	/forceset/vasti_l	/forceset/gastroc_l	/forceset/soleus_l	/forceset/dorsiflexors_l	/forceset/reserve_jointset_ground_pelvis_pelvis_tilt	/forceset/reserve_jointset_ground_pelvis_pelvis_tx	/forceset/reserve_jointset_ground_pelvis_pelvis_ty	/forceset/reserve_jointset_hip_r_hip_flexion_r	/forceset/reserve_jointset_knee_r_knee_angle_r	/forceset/reserve_jointset_ankle_r_ankle_angle_r	/forceset/reserve_jointset_hip_l_hip_flexion_l	/forceset/reserve_jointset_knee_l_knee_angle_l	/forceset/reserve_jointset_ankle_l_ankle_angle_l
0.95	0.2137644476111237	0.6149847631911097	0.04210492520209859	0.8943841924036516	0.1557816493908786	0.02840886204384775	0.01022717976489065	0.01000933139121879	0.01013569901967169	0.09041838920999563	0.7587179506914692	0.2414074477883744	0.5229141937340176	0.02084109239474305	0.02160902489044505	0.01533535465798044	0.01350463754432539	0.034630968327433	0.2137644476111237	0.6149847631911097	0.04210492520209859	0.8943841924036516	0.1557816493908786	0.02840886204384775	0.01022717976489065	0.01000933139121879	0.01013569901967169	0.09041838920999563	0.7587179506914692	0.2414074477883744	0.5229141937340176	0.02084109239474305	0.02160902489044505	0.01533535465798044	0.01350463754432539	0.034630968327433	-14.77249464455658	23.50328130844726	16.52206874401486	-1.363148916371764	0.8690487356218227	-42.62264074740276	3.932394977897986	0.1618138859536387	-1.168254383679474
0.971	0.1763462048905539	0.6008450691357965	0.03545565179997419	0.9152931814865884	0.2105164119581865	0.02461932797831401	0.01020145564084417	0.0100092573986674	0.0101201442007431	0.233398783495773	0.6446523350214756	0.2069376572706452	0.4952692029207425	0.1926625570870867	0.0365226311890505	0.03644955874096432	0.01989942434397683	0.05966741712024936	0.01223308091890808	0.5114219125615159	0.01120989988330997	0.9941276227366203	0.4452507423695213	0.01209979028035428	0.01011220325080775	0.01000995361877356	0.01006619240000244	0.7810978462845455	0.1503945332090477	0.04767654926901931	0.4341334177882876	0.9369605732698313	0.09870355650443903	0.1058352550371126	0.04032475543429514	0.1461948957534746	-24.42279859989476	34.6933009733113	-0.2870452819142923	0.227162078951146	-0.1967651588621896	-41.57201074036923	-2.001600633312039	-0.1695704698969973	0.3140519082565473
0.992	0.1198006447304423	0.5417602618856304	0.02662460275601978	0.9377999400633773	0.282561754862027	0.02143199264260352	0.01016809152021598	0.01001089136894712	0.01009998663545471	0.3217498009843918	0.4789167887329502	0.1468957359326333	0.5470329452457189	0.4587049631580082	0.07026726532576506	0.05178105277453435	0.02440307799955055	0.08022269880867144	0.02145818838968008	0.2913609267253487	0.01671929531536915	0.9456304941389906	0.3796948135560052	0.02414004406687699	0.01013441695242016	0.01001841740538808	0.01007970170032065	0.01127580074253928	0.1875402672808058	0.01209876545944999	0.9946775642579625	0.99568168084455	0.1610425435518911	0.02446638719449617	0.01584972053362052	0.05821325573540304	14.25262807806827	-31.75332812385967	0.1426180489054888	0.8070193391442635	-0.2818350900556082	-44.13835927264294	2.727832160969823	0.2979110268382373	-0.4687462954680623
1.013	0.1012641342585202	0.4581213686151078	0.0250195769210259	0.8605406194592158	0.2447616940721399	0.02116448498243789	0.01013358425866347	0.01001122215161794	0.01007918534510055	0.3009086790632876	0.3854566013215585	0.1540997612468165	0.5168356142312478	0.4490533429584907	0.0887944750639142	0.04517807121894293	0.02081860606238932	0.07142029243933776	0.08326073626964786	0.2502462863771882	0.02483445957180654	0.5823409449120518	0.05265798566340273	0.01860962016669019	0.01003405777970179	0.0100079801417564	0.01001914477541704	0.3729152234746134	0.1538410563673011	0.2518111540029106	0.1204130306699745	0.1001425576569791	0.1241308197158478	0.03832349428136014	0.01354678562738952	0.05144591151036321	17.38662918312227	-36.22739847016246	-1.26285249119352	-0.09847585156321259	0.01326800987819762	-59.06718813605509	-0.3568187716862991	-0.1473529387979017	0.09615593664494124
1.034	0.0888020550721922	0.4030238204733171	0.02399318199718111	0.8069759245319719	0.2273778914052359	0.02036536589004508	0.01009490791741593	0.0100105141486899	0.01005578920722617	0.2887564323066779	0.320735402649652	0.1645355097294271	0.418053268654262	0.3812690208993098	0.1286647575607208	0.04334239101725166	0.01823228180253487	0.06457008223591069	0.02394135418890662	0.3096103356709474	0.01674859570122806	0.9380527351775322	0.4342484800685291	0.02068134415273682	0.01004286406097399	0.01001346283715274	0.0100240708624158	0.02914906787174097	0.1906569388049933	0.04527265648857896	0.479677338170398	0.5866916250201352	0.3342911594470535	0.03861646084368151	0.01423771636302906	0.052409704645027	14.30041533039159	-30.88055581556747	-1.069402869778523	0.1047184805922135	-0.09515483038736809	-119.6278144933877	0.6193094467588361	0.2675795315526842	0.2645350533300578
1.055	0.1102151399050429	0.3754217415056658	0.02136583381140719	0.8119141654991034	0.215096234961118	0.01868855380970245	0.01006967239420334	0.01000990833975747	0.01004052910697491	0.2635704354790306	0.2755236477531215	0.1732235336149606	0.3665399580175747	0.3444368138939609	0.1609335024005582	0.03583510953072511	0.01595215834153111	0.05232852888886367	0.2227581225896583	0.3043105500527745	0.01806774244189627	0.7306587780721711	0.03966479503959475	0.01394730462061837	0.0100155826415257	0.0100065649728345	0.01000774816318574	0.2920249099646	0.1601443617155956	0.2670442620826294	0.1208493298287466	0.08136498465964909	0.1713810417918711	0.01086292359910187	0.01039340150639043	0.01325860075132359	12.42281407902582	-28.20161214943862	-3.916792017901286	0.1050659983689891	-0.0137921565547408	-317.8659554572556	-0.2364027477708936	-0.1353517609421318	0.6270813139050403
1.076	0.1293977407749563	0.3479362919276383	0.02222199254246331	0.7616616094063845	0.1725375020605931	0.01888117540561075	0.01005042293926183	0.01000954412250647	0.0100285278708871	0.2464921576322895	0.2456545651609017	0.1812177354380951	0.3224238046538923	0.3031917991809636	0.1760582911256849	0.02599387349158346	0.01379955672407394	0.03737793995005643	0.05018033863434281	0.2552720777276976	0.03068424548998846	0.6059326322327815	0.2122723426711769	0.02756078566000368	0.01002476236760527	0.01001355736280402	0.0100111715288135	0.03532469742061743	0.2034385763354433	0.05686543844656365	0.4255846630156588	0.4816471285959417	0.2989393328166548	0.01080095248456682	0.01040264591410492	0.01316036501030975	-0.8510660923127351	-6.913886354728978	-1.015617531519324	-0.03393079391390404	-0.4078655341270775	-660.3601210711064	0.3857248666277288	0.2494984858531196	0.3955086552116838
1.097	0.1058526077222761	0.3057450209490953	0.0250876752537483	0.6708164578234754	0.2065058843237556	0.02658112219355435	0.01003826853110319	0.01000948956548219	0.01002081260340845	0.2057827384031661	0.2279605398837389	0.1605794398291096	0.3054830240973166	0.2788877859749676	0.1735307315791242	0.020424675686648	0.01250077052823794	0.02833574703562996	0.06519749748680582	0.1781441392747943	0.03630496609184651	0.3784436892247271	0.3168777236251561	0.04885591357758419	0.0100144617447437	0.01000783987328145	0.01000560289173426	0.150251105517721	0.181044989473178	0.1432274397659922	0.189419185514909	0.0793585300496836	0.09135478217335459	0.01026249876609969	0.01012367824586459	0.01101009051660504	-5.240998440641995	-0.4133937984593944	2.045271112988689	0.1243119033535235	0.08620558686363704	-961.1274150527327	-0.1459639635671098	-0.1138528032273591	-0.6029329476311822
1.118	0.09817133816376364	0.2712120248144515	0.03813193164980624	0.5685853060811129	0.2288095273179151	0.03517687369931442	0.0100325288966833	0.01001041036396105	0.01001602093748319	0.1766849078045964	0.2181213289849314	0.1454435049197485	0.2990129300584145	0.2437608738863435	0.155727798918182	0.01677475463264174	0.011637265919243	0.02216117613356026	0.1010666832457081	0.2227903511322254	0.09368873372067389	0.3401392681698625	0.2054988189366088	0.04820458738858739	0.01003513657571011	0.01001872145139453	0.01001154779142449	0.03545751065537581	0.2195397482235635	0.05327083295660828	0.4605951173487036	0.3591883865251284	0.1966137519899754	0.01039328010779833	0.01017789398407754	0.01148145131326021	-12.9355424458495	12.53154026665291	1.485293953968523	-0.1391331175653658	-0.2383812303944992	-1249.188607405361	0.2402469725724096	0.2117497539051161	-1.993676021280341
1.139	0.08724761237682738	0.246985484969057	0.0447226870267063	0.4995009323090272	0.243964791592875	0.05038321413878277	0.01002988883574242	0.01001132549871145	0.01001319507040762	0.1659304322575793	0.2184922624329629	0.1262281370237808	0.3034441069875501	0.2166964179553663	0.1370447822050437	0.01441241247571612	0.01108097991979212	0.01812315795834706	0.04946571817532631	0.175106700131626	0.04213493367615102	0.3368870806114375	0.3194637053314268	0.09690561843452077	0.010024242412046	0.01001048156156412	0.01000799976244708	0.1940413290062678	0.221575385390811	0.09915857107329881	0.2578203786532746	0.04787161553202515	0.03926728588303139	0.01019610515335389	0.01007641882220073	0.01066362957514569	-19.15752753150718	22.91422563802403	0.773408385036456	0.1003198148276705	0.08235416016170632	-1196.981344717444	-0.07105005587319743	-0.09413690956041385	-3.50533338729517
1.16	0.08314337330402172	0.2302440745853149	0.05556737641580534	0.4486973173126672	0.2603181308008523	0.06491945957975094	0.010035205331959	0.01001276213591222	0.01001383172930316	0.1571271249096921	0.2221619541563245	0.110169764548335	0.3314861663175492	0.1903002949238434	0.111676765930586	0.01291196413229915	0.0107215377908268	0.01549040876531668	0.1194459003504072	0.2238901429384895	0.1326331646870103	0.3182127062887792	0.2434345656761639	0.07531581441271566	0.01007287454604942	0.01002337123312735	0.01002461609467994	0.02820821771567306	0.2417191220987795	0.03703045062440625	0.6275618140124947	0.3062524629863755	0.1171019349037171	0.01039456936560661	0.0101332076877973	0.01119419490544605	-22.4193865919088	28.63096385615302	-0.1477602604891405	-0.1257511162683888	-0.1578495630291928	-1021.528485702494	0.07728729934494281	0.142101352736571	-4.901502290453721
1.181	0.08233773725503565	0.2209652201105791	0.06478890492903855	0.4121140093379885	0.2571066256706951	0.06800936740089822	0.01004021979644503	0.0100136911139517	0.0100150922773086	0.1494680789100671	0.2340472027853695	0.09332567303661339	0.3670335356542653	0.171987031490027	0.09419136585178113	0.01195102122533793	0.01048999392995617	0.01378430361890779	0.05928354109387479	0.1888760145964062	0.05386269143168072	0.335411492961162	0.2542155647201124	0.07291038649005425	0.0100374882688033	0.0100110092489773	0.01001531875612454	0.1840704870912653	0.2747310533132726	0.06868921277886594	0.3780403740196951	0.03098191387131581	0.02627427092702591	0.01023385838783993	0.01006417904203478	0.01058876130172727	-23.99496083131882	31.34235678413159	-0.5937036046468976	0.08139110067863753	0.05173536982808735	-797.9736580943184	0.01912086127937502	-0.04946145039286728	-6.341676765743776
1.202	0.07847999636530424	0.2161180152239643	0.06576294104585401	0.3952142900580814	0.2569851708642167	0.06935561403205651	0.01004438186722315	0.01001380776669272	0.01001899030214267	0.1434183217142623	0.2477734699468697	0.08050646940490902	0.4139744236912898	0.1395560868291524	0.07723978712505923	0.01137681799942415	0.0103419773139199	0.01269341859391481	0.09968163620742847	0.2341069822464238	0.1044755710341948	0.3763049706169602	0.2573674317203765	0.07138804597920281	0.01007829545992283	0.01002083740422879	0.01004139679704244	0.02435978851794586	0.2777721703615756	0.02961264920442232	0.7769920138866954	0.1781089127097741	0.08507431498624514	0.01057520320585251	0.0101223526008514	0.01114390724302746	-22.73675541987629	29.27340093344196	-0.5894148912718629	-0.1190434681042331	-0.1120765613674754	-623.1225777228886	-0.1186159266322704	0.01203177793139751	-7.948065894464342
1.223	0.07665198813319012	0.2172158897568353	0.06701995307817815	0.3948533802771086	0.2506588943958444	0.06394823975925379	0.01004571377794123	0.01001366796726916	0.0100218453148467	0.1357966790134498	0.2740996863363417	0.06897099558034793	0.4740785756652153	0.1208521752405835	0.0657026573247881	0.01102382225701663	0.01024718365143055	0.0119939836111855	0.05413520351359764	0.2142958823154463	0.04783608285090533	0.4157740141985629	0.2279005142704065	0.04362237308330658	0.01002974573117604	0.01000928986982065	0.01001889776976836	0.1661292971615506	0.3713337316220091	0.05407014583718345	0.5473802310131578	0.02129034160244478	0.02028734698582453	0.01037605679022619	0.01006368190558995	0.01059852388058021	-18.17855966357788	21.5446186572363	0.01381448634194941	0.06811154909047551	0.02870153230761827	-509.3158336848376	0.1424109562377132	0.01566083725077535	-9.574902887227088
1.244	0.0663044608445536	0.2206280202569877	0.06118681695693984	0.4127628480588325	0.249929888572967	0.05883579720738018	0.01004084937481639	0.01001279967224308	0.01002255851519082	0.1300199106215214	0.3029717780301445	0.06060129055092864	0.5318088179718489	0.08923543107585817	0.05448176872756672	0.01088920201610553	0.0101889030541266	0.01156738672780386	0.04618612907032952	0.2513693254976567	0.06583386317223607	0.4979055279478048	0.2814469499693356	0.06224571053718448	0.01004745768726647	0.01001661921475352	0.01003552720446505	0.02193671999308346	0.3478357395454196	0.0262016550172656	0.8776769191245561	0.06189732383399422	0.06357601832387538	0.01105213136260483	0.01013028730625103	0.01122683812345411	-13.17913221182619	13.19577153009335	0.4726049771282678	-0.1233914940697855	-0.1008798368277865	-452.5072847035686	-0.3463320268423962	-0.2124373575881698	-11.38898565504413
1.265	0.05769221148162956	0.2284048296840694	0.05697293853828077	0.4397680486700579	0.2431569043594334	0.05283816148333683	0.01003642947815952	0.01001206051864185	0.01002216403817555	0.1424033513697359	0.3576664509782281	0.05286661049459106	0.6184018253535973	0.07032498886983186	0.0469332814626662	0.01083238036433856	0.01015237989327551	0.01130058693039651	0.036389506937644	0.2430216447287788	0.03845066094478042	0.521307793840581	0.2034982971677618	0.0324019988841927	0.01001727376378208	0.01000756006322266	0.01001286318215757	0.2422862641394577	0.5738426279637948	0.04365743066187194	0.7982645899859522	0.01523458038854473	0.0155813153578617	0.01061716431388546	0.01007035112437437	0.01065721995946558	-7.361631152981528	3.533862538100955	0.9462666612202504	0.09104314645040365	0.02763559930568356	-443.61517184875	0.2535145884926155	0.1690972264791162	-13.17997439913341
1.286	0.04828323643870987	0.233144429774652	0.05080206128217775	0.4792612383388027	0.2426492885317344	0.05113564954729198	0.01002975137016714	0.01001105284647021	0.01001902309184453	0.1507597897502534	0.4203125891052706	0.04721725772741187	0.6916067736327474	0.05206599265180369	0.03892067499489092	0.01087405476749459	0.01013291783268059	0.01116106242206946	0.0249380627986034	0.2472826782503278	0.04616361092600808	0.6347766733909281	0.308799452665762	0.07474208830797437	0.01002640854794662	0.01001368916576141	0.01001988937898077	0.01941841755284234	0.5108556714737881	0.02329042932264167	0.9511803139261265	0.02909873550556328	0.0456606380723146	0.01147164425600467	0.01014950367889209	0.01138277358181301	-2.582369568182382	-4.039955645652702	0.6337133243234228	-0.1474525774968566	-0.134466630569382	-481.5334878395909	-0.6683352157007244	-0.5011103256290488	-15.06028000600265
1.307	0.04065956024521768	0.2398718739032442	0.04594777751611959	0.5180255461235997	0.228967593919458	0.04819551838533013	0.0100249446040221	0.01001030078083893	0.01001642437130904	0.2033206913717867	0.5317057410317664	0.0368207065060405	0.7801650334071828	0.03214116216815723	0.03384716180639295	0.01090347859729834	0.01012127268697982	0.0110783556915449	0.02803676018361945	0.2587002827712885	0.03430375977427905	0.5848337270727109	0.1230765921618914	0.02650301193588699	0.01001086448780985	0.01000650322511406	0.01000696497217161	0.4725897661096029	0.9700384325997712	0.01342886879857971	0.9904261283553081	0.01158521362788553	0.01131052013626125	0.01067795681946477	0.01007810324725834	0.01072243510749705	-3.428164803864947	-1.949664159291806	0.2164365856958688	0.1173969193804011	0.0559258041746874	-573.8686736011038	0.304492710148218	0.6735440490031649	-17.083145841291
1.328	0.03714902156111302	0.2437035593120711	0.04638588213739146	0.5289380908916218	0.1920503887327393	0.04601511153078967	0.01002038191903202	0.01000955970094456	0.01001303075953049	0.2397454155056868	0.6590150906622804	0.0278951628993241	0.8494333149674153	0.07645471461334659	0.02582262769381018	0.01088925322481545	0.01011619189016975	0.01104781936142951	0.03320692327011729	0.2418244504460458	0.06652772649484121	0.5266324397199524	0.1305235595875194	0.0729802144914429	0.01001811469959507	0.01001224442120115	0.01001039438149597	0.01148036902456748	0.8325173194383231	0.01138477892769251	0.9957264486678401	0.3620028657626537	0.01904387424435675	0.01129423996038028	0.01016170806797024	0.01149979229064541	1.877671539868572	-10.3189105485254	-1.117840788223904	-0.1456889140105692	-0.2223730238518684	-735.9509399816627	-1.881593100691052	-2.6529877930623	-19.70341614842447
1.349	0.05951896857463867	0.2467077640887464	0.05643862961212313	0.5068211476265081	0.1537843168914476	0.04357674211944379	0.01001731653018834	0.01000906039915164	0.01001062440307153	0.1530588266686724	0.7424089961999013	0.02178912236157377	0.8978639765556701	0.1034262947771475	0.02159323527196189	0.01085984978371069	0.01011290537687116	0.01103080889176026	0.1352662523663232	0.2570552867491236	0.07635853905083978	0.4516128985352362	0.04119334403834268	0.02137796703496755	0.01000882885272102	0.010006201907137	0.01000408948720756	0.01094277389650343	0.9912686595689056	0.01050294356528681	0.9984413333258128	0.01149185837703163	0.01066155246718165	0.01052260531724173	0.01007929193650001	0.01075371934810624	-11.07315231933564	11.3369327370506	0.9731637348653802	0.1266660116006608	0.1326120821248429	-981.159559950956	1.113740044121085	1.90644627476945	-22.37624402283607
1.37	0.07174306215261457	0.2451791349231145	0.05696372793734822	0.5373050028989961	0.1294178543876409	0.04080665512968633	0.01001517601687707	0.01000880432509622	0.01000839869672474	0.2079918529813176	0.8264533023693807	0.01775589269660293	0.9311103434419543	0.06063903084506658	0.01733082862197466	0.01076259648836046	0.01010963343624883	0.01102326403471573	0.01824243455157116	0.2180486988349987	0.03212016933835918	0.8310810387220259	0.1425168459419272	0.06604310761463099	0.01001698425967968	0.01001256080645834	0.01000655836115223	0.7492145478005163	0.9938651922990992	0.01080446733567056	0.9974663098218005	0.0109068323158625	0.01050396358082633	0.01086813386646829	0.01015521334956912	0.01151700166908907	-4.859600522248596	1.243154989522027	-1.414399756777771	-0.3156357229774303	-0.3802747595310573	-1300.723078211823	-1.161815532140291	-1.614180121313417	-24.74833744269914
1.391	0.1099429698330593	0.2622247577331624	0.05022972036787236	0.5907634119917685	0.1072623231295449	0.0364274999553026	0.01001375524895927	0.01000870234713428	0.01000690719320943	0.2425896193566438	0.8815071969344874	0.01514228679779105	0.9536501195813267	0.04335735934686341	0.01479640466843865	0.01066680191637091	0.01010526171879046	0.01100219609452851	0.2749041189651574	0.3396265325133987	0.04651634325549204	0.6392226969826179	0.01977933001137586	0.01438094774691233	0.01000836585673604	0.01000674222147793	0.01000314577046976	0.02342897688637366	0.9967461444237438	0.01041118956374404	0.9987169545197641	0.01045128558065533	0.01025501051325486	0.01026751694473483	0.0100640992654006	0.01064978057375076	-7.503864057037648	5.657078358552548	-1.055033356471483	0.2472838037042456	0.292422835363259	-1637.146360411681	1.558728774244244	-1.131139804161717	-26.80358038595457
1.412	0.1372097741824976	0.2685184853715811	0.05670657673881434	0.6022463231977649	0.09037880240451381	0.04187557108384816	0.01001271601367071	0.01000906357269939	0.01000586511939785	0.1576629769718538	0.9190963883037611	0.0134825018036905	0.9686605357815961	0.03187161511333756	0.01318389590268897	0.01051739364321388	0.01009377014384557	0.01091625872036041	0.02259059710896568	0.1809692866144353	0.0946464448738393	0.6586441859525203	0.1300972850411308	0.1125105911352805	0.01001620545505133	0.01001486112771022	0.01000600516082398	0.05742487275632702	0.9934550268995321	0.01081588825428633	0.9974059488554551	0.01087126032134227	0.01049583347016658	0.01038643020779997	0.01010797110365551	0.01112361946972859	-7.706450908422851	5.974492866105507	-0.5446682088783262	-0.4675935546141642	-0.969835292013697	-1898.028324454364	-1.076618380207783	-2.921912030357273	-29.07291429029666
1.433	0.160803375280957	0.34454564459137	0.05382287907817079	0.677662459684348	0.05724321931291926	0.03729514979345984	0.01001198382139257	0.01000939266598228	0.01000522831911632	0.11676936690648	0.9445794425012649	0.01239936808836316	0.9787451586808471	0.02431956131255812	0.01215492357114834	0.01040792260554999	0.01008334611098315	0.01083133277971145	0.3061718269727229	0.6975661318175314	0.01646161244047886	0.9787543513873491	0.01007101152021285	0.01141608024209043	0.01000784216635705	0.01000798458068341	0.01000333327804235	0.01110814924049008	0.9947106957016288	0.01038930148755094	0.9987497192859156	0.01073169839271145	0.01035940337502647	0.01010973951794115	0.01003891481838951	0.01041433389026279	-0.3053599853632229	-6.63211404643881	0.9719447479399609	0.1225993803338475	0.8250243913053589	-2023.181403144657	1.557810732566298	-1.808395241981915	-31.20394872528297
1.454	0.175653886905379	0.3999782272100773	0.03720226774727781	0.7837849920413601	0.1744663204695749	0.07642059110596808	0.01001129309861488	0.0100104535984473	0.01000509892026473	0.08087404802040184	0.9590390370630033	0.01177699594586276	0.9852099690084523	0.01971723951795492	0.01162748095998338	0.01029552964322157	0.01006769992634293	0.01068793702926258	0.01040654426555646	0.193844840845842	0.01065249922229647	0.9984356430945933	0.9982826756720337	0.3600498098489697	0.01001496526428271	0.01001947596946483	0.01000747477359058	0.01250922719215988	0.9784065342233706	0.01115590236224585	0.9963244895822807	0.01239161974158735	0.01116394555677492	0.01015173539460082	0.01005888683863026	0.01063726742474312	0.3680731192884955	-7.15794132385194	0.9750625016076729	-3.938340180764261	-2.957520966824557	-2004.773516652562	-0.2022183455321524	-1.918454731729096	-32.97785996366846
1.475	0.1941627167699042	0.4653152521321009	0.02273639846071717	0.8701733608471406	0.2316354901774813	0.1011824508209392	0.01001081702011437	0.01001122496126459	0.01000510473109157	0.05727227008094669	0.9690532080213122	0.01134623354228439	0.9895954324302383	0.05005381578796707	0.01133986850363711	0.01021925933053914	0.01005619416298579	0.01058006006113596	0.4477526060590403	0.8490602677413501	0.01286758423776781	0.9841607158781011	0.01250285310021752	0.01097721687263788	0.01000776742128403	0.01000954419772134	0.01000439986984406	0.01043814497636686	0.9760980104045021	0.01030121043773556	0.9989237064921901	0.1910073209555467	0.01084695120669551	0.0100451245588147	0.01002245283780351	0.01024439493088695	20.70541521518899	-41.9613403347261	1.498324231573027	4.779895249894584	1.858241776921016	-1944.251555972138	0.4925209262485872	-0.7726446032005956	-34.00217773129259
1.496	0.3562238269787001	0.5333809769174824	0.05458817304393327	0.7821211022253184	0.262955122220673	0.07019562858281704	0.01001099424422335	0.01001250685759583	0.01000595270280848	0.04117031951495614	0.9465512686811155	0.01104555083263375	0.9924531439407999	0.1332861209267178	0.0114657472986303	0.01015411959746917	0.01004447042640405	0.01046471637948516	0.9961566008939504	0.346373745266167	0.2448004863824473	0.1059358136565852	0.9924397080120241	0.08579142938764295	0.01001754514703074	0.01002377890131917	0.01001203945908016	0.0114588225768203	0.8082024184645902	0.01099957997516949	0.9962061448289725	0.3961623933270124	0.01282903668797293	0.01005942038035887	0.01003469715500261	0.01038113863128144	-21.51574870328635	33.95266649665577	8.138988199689358	-8.94758222168209	-5.356451759929564	-1842.873541292543	4.169744627290699	-1.073763286680528	-33.680656614568
1.517	0.3515915150025545	0.4189984781924833	0.05054768865760369	0.7539137851866682	0.4756918304350348	0.1303141799858409	0.01001133210089601	0.01001386538959084	0.01000679103288426	0.05174066140978922	0.8061636761107857	0.01404629427996588	0.9399343525417453	0.1402374003042965	0.01274599168146126	0.0101116805917448	0.01003672597859821	0.01038641065461532	0.01176677085853957	0.1173914212537404	0.01150424161535978	0.9934757232808308	0.8538817701740039	0.3332662777289005	0.01001015165549176	0.01001272921124118	0.01000736613414844	0.1034434457935402	0.3214221775156342	0.02426070331068895	0.7487999723385231	0.02142720761035274	0.01746029751736303	0.01002644365624649	0.01001800527896006	0.01018154998405955	32.5129093771896	-59.62783298299084	3.274258476804002	4.090076217629782	2.22662092612922	-1406.552347457021	-0.09857292085627928	-0.3194831561585429	-31.28946090047835
1.538	0.3489937125973308	0.4325604953508853	0.1668552425247652	0.7221239039391562	0.4738513930607346	0.1593354773301146	0.01001344635317054	0.01001524229012971	0.01000916887449841	0.06125453255704049	0.6266061642059981	0.01742296880763945	0.8902836083896268	0.1291453243552238	0.0160988592322539	0.01008321193991447	0.01003259065271732	0.01033045160740739	0.9996024222392104	0.9713504121657114	0.9991283137245096	0.01158508905498231	0.01079583776103026	0.01093770773241112	0.01002782489435691	0.01002659532845567	0.0100220394058214	0.02558748612250986	0.2595254937113701	0.01905444936132889	0.9085111678610328	0.2994848645703061	0.02669972251860473	0.01005009237537189	0.01003872158276012	0.01034541853543478	0.9427454018237091	-6.900625637274121	1.978480078142328	-3.561067065124904	-2.178900356509412	-1495.642456054712	0.2898558562717781	0.2415080159230644	-26.53938239396662
1.559	0.35749221871888	0.4435440059763927	0.2418368146535738	0.588615220859824	0.4921841487284766	0.1600495643749516	0.01001601396974374	0.01001709831959821	0.01001170415885196	0.04373493647155856	0.5028961830751302	0.01940218609377617	0.8270213608603006	0.1521721869269719	0.02169091799222936	0.01006524880928178	0.0100305588285348	0.01029824463565118	0.02029760443212472	0.1376180278219421	0.02969114051366462	0.4576854609774613	0.8080802747013708	0.2827145336312896	0.01002278677288946	0.01001841603506921	0.01001816976181901	0.04069164667868484	0.2029465547283061	0.02710165144963137	0.5519171521283431	0.1270243650474183	0.0335607460969606	0.01003971167669056	0.01002797362125022	0.01022793908777542	-0.9882195223596042	-3.305054759080774	-0.01273603875575851	-0.8937769886619946	-0.2957866739501337	-878.3205277619555	0.04132581221752227	-0.2148202897165565	-19.49908436147733
1.58	0.301139204693131	0.3347765071865741	0.2060576384781877	0.5178504800974881	0.5174693839829322	0.2310505399243104	0.010028524207572	0.01002051627214405	0.0100224496000565	0.0963619264737889	0.4231281513038138	0.02472119556488133	0.7225394018457575	0.1317506854992881	0.02437643161781824	0.01007864489971671	0.01004158982056651	0.01034528177396115	0.5826350229187992	0.191059203688549	0.4775515035382636	0.1025709567532835	0.09725832231914362	0.4638863369901471	0.01008671588249279	0.01003875204379859	0.01007149861423967	0.4050371539032243	0.2880210753816354	0.04145473815722048	0.5243214310898783	0.07866894216156399	0.02200055127198286	0.0101837240595918	0.01010528426000215	0.0107096309240257	18.85270566029	-36.86897896438578	-1.15125506390243	2.02929392567514	0.6250758440461071	-691.5670298925047	0.020822300234604	0.4984729216411575	-11.99932778994106
1.601	0.292663134964321	0.2811151231690762	0.2275934465705547	0.3991804991987063	0.4002843312444894	0.2910748678466519	0.01004002382586328	0.01002312043628798	0.01003217537928788	0.1289564992553559	0.3859100225387456	0.0246631715995474	0.7112981948547952	0.09946480774268868	0.02098867824552728	0.0100951686747582	0.01005262846873726	0.0104002540497913	0.05845887981222188	0.1375949427029169	0.1302608140746389	0.157496328611966	0.2055938477883397	0.4134726783404036	0.01006872059088032	0.01002331287903655	0.01005649657987675	0.05974157988971679	0.296023376595809	0.01635155218435917	0.7614857558793632	0.03620685753280107	0.01407749628150369	0.01013072579229461	0.01007122032503076	0.0104708660099975	-11.47673765419996	12.0686893630821	-1.371854823739866	-1.043236392148007	-0.3188784367250007	-397.1529927110514	-0.01557745751504422	-0.2980752082070403	-6.988240513222674
1.622	0.2038499907944198	0.2444152869393744	0.1796553105431906	0.3554521831383673	0.4116361718942129	0.3347925555450072	0.01008744553956186	0.01002700246694721	0.01007222465794845	0.1098528910698122	0.3506823734986305	0.02507089423508443	0.692438570474373	0.119346847696521	0.02352611899687682	0.01017247123020067	0.01008900321306247	0.0105840580609951	0.03807408018810288	0.1981152750179169	0.07555639249798518	0.3587508143152244	0.7152639746787088	0.4827917091538507	0.01030395053778081	0.01005086943659384	0.01025490923818039	0.1654756853197818	0.2268009661207117	0.04392118893456234	0.4518990505173437	0.3319516725647763	0.04786036567700051	0.01054545458310061	0.01026435882082436	0.0115167799490807	14.53374812160558	-32.22318823814772	-0.8070734793367971	1.982076860842767	0.655811734697755	-258.2547755444826	0.2627846026456149	0.2168234669005226	-4.857534361182832
1.643	0.176351662655352	0.2209370976606801	0.1645330759020329	0.2987330296924667	0.3702301121021271	0.3364858270814803	0.0101304053048535	0.01002974829142132	0.01010876184903039	0.1078324321341713	0.3103970659486374	0.02837196469446019	0.6140395588833586	0.1424386423920663	0.02387286307343558	0.01023727558394823	0.01011676017117185	0.01073110861495094	0.1499316278501338	0.1526243846030115	0.1528815136899981	0.1297386205788663	0.07781326505352275	0.2524904804462016	0.01020804175186255	0.01002701335288942	0.01017354787887397	0.06642755529208817	0.2073570897796407	0.03016132679363912	0.4256712879285258	0.1256402678799423	0.02151247007934875	0.01039443217154219	0.01019283945384303	0.01106723000933175	-11.03089935745976	12.45550739525957	2.455101296224739	-0.9389437608022627	-0.3169281995545977	-158.015554224084	-0.06895707312992336	-0.1870559103503323	-3.320141049024144
1.664	0.1533176883872114	0.2057868854401476	0.1453612280901499	0.3456148900770117	0.3798187172729863	0.3141573264427233	0.010253039471668	0.01003271892947667	0.01020949475058596	0.09663028861742388	0.2791567621296439	0.0317019152954513	0.5496948656241577	0.1690981564452199	0.03956058113282755	0.010536954686692	0.01027523464625997	0.01145120654314916	0.01654596212491895	0.2057678305513956	0.02241449063616642	0.9354599588704737	0.9730720903441167	0.3259585231837662	0.01082082071824838	0.01005757680192495	0.01067518563753895	0.1057344131348705	0.207583105237738	0.05088441868456298	0.3763909776771009	0.4097466147592357	0.1351200205404185	0.01194600667218546	0.01102688870249193	0.01491631491076556	-0.5155768595769957	-5.547468133472579	1.918150665312645	1.600115577480672	0.6659908588026979	-104.2435354961483	0.2377393292578579	0.19312920025119	-2.3076187609368
1.685	0.143097892606362	0.2005684110134998	0.123199098109355	0.3747370382664755	0.3771637046506478	0.2693772164063214	0.01036395039865893	0.01003479123854955	0.0103003612561951	0.09580974960405304	0.2531861216367455	0.04395975720236393	0.4813741942255617	0.1986412484323835	0.04976562223310841	0.01076468145869419	0.01037438980873139	0.01190286780359583	0.1727722627738764	0.1817785719953032	0.1026350223938195	0.186331129054991	0.06081885333288264	0.06389208377631525	0.01050249635707375	0.01002879703483256	0.01039889925948743	0.08485414875623834	0.1864799677535122	0.07524947300470676	0.2933888160947141	0.1828532369588479	0.03874269359703537	0.01155765768985288	0.01086932069724517	0.01410444620203086	-12.92273493466541	15.68918009300142	2.577328635291883	-0.6223021570589344	-0.3327067657944541	-73.27633836431349	-0.07784993100913194	-0.1214507286455741	-1.214744762434213
1.706	0.1363998629153078	0.1990617756233288	0.1085511446372526	0.3812306243890822	0.3633662705982914	0.209116302551525	0.01057598426010538	0.01003611173058401	0.01044743788336865	0.08965792365721462	0.2364739234752286	0.05322025664365357	0.4320437885783656	0.2097665079835867	0.06298040981876898	0.01234181339686799	0.01145864069058892	0.01676657457835839	0.01996824261063688	0.2192161546123557	0.02803139541370464	0.845329817306136	0.892282380292743	0.1357796028885195	0.0115900787673016	0.0100576567752293	0.01116118199603213	0.07224638765540438	0.2172427376082311	0.05888942439731615	0.3630184608918627	0.3572338067873077	0.1761556160688816	0.01972382514859199	0.01656265972968841	0.03991350065839454	-13.00679192263863	15.77707590532554	2.51473857459094	1.071670631389665	0.6499016250920125	-56.68503669492954	0.1709728517058332	0.1644927019891534	-0.5733681923260906
1.727	0.1382257771850248	0.2112937608236325	0.08580768272513352	0.4209482887556942	0.356265871216316	0.1642576913099318	0.01076214765988632	0.01003696884562171	0.01057259549298328	0.08377088935121388	0.225009041296343	0.05928859416312341	0.4003644471834236	0.2266595046191886	0.07530184246922017	0.01382129503126308	0.01253335911305902	0.02196834367989154	0.2030610497974228	0.250863503139014	0.04500090231054468	0.3487648936786217	0.03860831440227267	0.02282474904315764	0.01097194455758307	0.01002889819615483	0.01065433635273702	0.07076293303101958	0.1915557157493959	0.07767035064326747	0.3089947932994303	0.214439592389266	0.05521173104527703	0.01451981962738099	0.01327921145961007	0.02729098879144472	-16.97117621626511	22.62915046417855	2.576545220354035	-0.429407301264189	-0.2915305416085498	-46.69072378635989	-0.05935248652965279	-0.0903401898049704	-0.2205509499963697
1.748	0.1398141673293771	0.2229113758948011	0.0701298197426221	0.4470536766318387	0.3182378236818305	0.1231417534890842	0.01113142617515825	0.01003758842092534	0.01074250590306098	0.0780478478458594	0.2199117432574577	0.0646118406357363	0.3818565133016669	0.2328327487235568	0.07575329837598407	0.01435890808593773	0.01313009247607979	0.02620784157211029	0.02179596103299355	0.2399313972226878	0.02752916279725659	0.834035829490227	0.6692393352714245	0.07346081140167571	0.01295483877504031	0.01005808676988568	0.01165405351135933	0.06168523234181814	0.2358118309120365	0.06679380775273908	0.3877183731221173	0.3230999073881056	0.1335011029755532	0.01758738132480941	0.01613249579217388	0.0453841073809824	-15.47546582318652	20.04649357281574	2.483109535252237	0.7717331745922406	0.4873816269300631	-40.48442346999415	0.12472114704876	0.1288895159535355	-0.1000051394391068
1.769	0.1258696618924818	0.2346683099108782	0.05787484681999171	0.4864748767836252	0.3034199839161407	0.09549966278962661	0.01141247523873043	0.01003808896416145	0.01088434601067223	0.0706277963957728	0.2195264610579963	0.06249674519717763	0.3813444859656149	0.2376493166827373	0.0765436758610402	0.01436686394417947	0.01325811229428379	0.02788630614583326	0.1330273923781528	0.2738802754556709	0.03769151310163494	0.4470162419335391	0.03533447072291949	0.02086597524015221	0.01199060858795959	0.01002978150931202	0.01093833616514402	0.05152610880172621	0.2132004418732836	0.05278451414589117	0.3870469978875087	0.2121083106609582	0.04427815391094732	0.01232612781835354	0.01178061535833168	0.02175478895493556	-12.70920541033587	15.37947658116246	2.287000774561155	-0.2820600252550385	-0.2368386156145811	-36.1667358573301	-0.04135972428994157	-0.06538595757217842	-0.1548874731011428
1.79	0.116592615734215	0.2450202829711048	0.05014211084066727	0.5052400371893437	0.247907733066424	0.07590927539617469	0.01270647911961987	0.01003911136355309	0.01109946892518868	0.06282410754783971	0.2238342676208123	0.05869271077447217	0.3960296026125278	0.2421658799228515	0.06731357064005614	0.01356000529754034	0.01266219884274127	0.02564692934985929	0.02505546670661675	0.2544068415258696	0.03006225652157245	0.7727206158714705	0.3672483160837932	0.06809612851272108	0.01901725451029573	0.01006190940442287	0.01233507711182814	0.04494767681502183	0.2655671034194662	0.05281288753989095	0.4884670479891234	0.3311507449374587	0.07627036561078374	0.01317063213912364	0.01245708563224867	0.0270792554527172	-8.096542155431997	7.68823147621229	1.869124088153106	0.5423788913258518	0.3368958478452672	-32.78921542892022	0.09628225988670398	0.08244096331835979	-0.2431647225255389
1.811	0.1014163553925436	0.2552231170520481	0.04409432404652174	0.5370710517313426	0.2198313728764264	0.06262929555323582	0.01191263328505027	0.01004007975208001	0.01128525778311873	0.05593465637459692	0.2332813065933398	0.05311333571590797	0.4208685605061078	0.2401353208408392	0.06068961862526968	0.01302399921648758	0.01226148420623408	0.02404337068105956	0.09214013102015853	0.2931070267360414	0.03410130217415707	0.5320835143784337	0.03257478939914527	0.02068071280381913	0.01793821328471152	0.01003234681095914	0.01136839363501798	0.04329222635268298	0.2514759867280744	0.03801963371289291	0.4740873533938263	0.1759199096663734	0.03165889029185139	0.01155829935591338	0.01106746302209877	0.01812749103625088	-4.225560244911378	1.449117161223065	1.242594844465212	-0.1935381032402392	-0.1731852938802847	-29.7450689059213	-0.01234485754840264	-0.04949791249607016	-0.3958146820761294
1.832	0.09108402556206394	0.2653476375875745	0.04016749559508778	0.5598948077737669	0.1749250412993718	0.05275270545300549	0.03249290525890255	0.01004189339106522	0.01162649693339179	0.05416985744542383	0.2427327817284071	0.05056503953984946	0.4363618627959925	0.2220306968542049	0.0527299660313009	0.01270677212064192	0.01192110784821735	0.02285477089813231	0.02621805102447223	0.2743649525294934	0.03023996673768738	0.774133605975251	0.2000370131931021	0.06126296719328989	0.1361395219099828	0.0100684162825848	0.01355003493229463	0.06077935880422033	0.2848364142592884	0.05902859735007696	0.4755022385559717	0.2219967643573585	0.05519941514605962	0.01328677476981156	0.01198309053542876	0.026149975066089	-2.028545328077019	-1.820583787924216	0.5616798639244478	0.3751255166015098	0.1953402002633106	-26.98346524851697	0.09461391752916617	0.02484786379491541	-0.5571345550484995
1.853	0.08463241609954729	0.2853014298346909	0.03562482500062824	0.6050210300376441	0.1481482104779658	0.04548342043014428	0.2254630705700508	0.01004323976026513	0.01192827059341234	0.06343118220829035	0.250688919539202	0.05003623207954864	0.4388155965997701	0.2004708005017658	0.04796571658859962	0.01259584934386416	0.01170566391152593	0.02219345835677088	0.09461888277744727	0.3637176363614218	0.02659856585803648	0.6732858637489341	0.02459958554810412	0.01751567638100339	0.9906681239982016	0.0100341085015613	0.01211638196144831	0.1019777714372271	0.2599050805323628	0.04725446548605584	0.4198030271125919	0.1080419210042393	0.03107284203507894	0.01216735042160619	0.01098511285366911	0.0183811119835927	-3.702344051970723	1.606671805659451	-0.1988137856171617	-0.1249508569514338	-0.08381689898701972	-24.56550493010225	-0.006311710887319863	-0.04245010187068603	-0.4845510078370813
1.874	0.08104036952803989	0.3036156135796688	0.03410796145058397	0.6313731544451411	0.1134233549718122	0.04125893209051282	0.4847938582068079	0.01004400604397338	0.01250116962602956	0.08710887867084355	0.2545360767725454	0.05514360627272744	0.4273132144384585	0.1726801043553441	0.04510271064238505	0.01290021637888628	0.01153490721645021	0.02165435281703016	0.03105127050266752	0.3034709307486766	0.03817483845235381	0.7383484618607842	0.09684782993541287	0.06374692631388215	0.9919056102665453	0.01006797277957803	0.01562718342847996	0.1649720478499762	0.2739531215893047	0.0903323674864243	0.3870703084831193	0.139300735745549	0.05642862349049996	0.0153196128600772	0.01179430925366491	0.02549227979879345	-8.906865785596397	10.99040871493186	-0.9300525084590435	0.2999486970185757	-0.0700425223786126	-22.70927505500403	0.07595464596234021	0.006244483488957489	-0.4289816903631532
1.895	0.08270113454071708	0.3407259309430582	0.02898242486987799	0.6926609895184668	0.09178339237040978	0.0371391603739748	0.6380458548046739	0.01004410594998295	0.01300444367013922	0.1237013451414646	0.2578188825641057	0.0581876688681177	0.4204353809583894	0.149692054570026	0.04277435358311352	0.01310912323258519	0.01138327640396826	0.02095050709934148	0.1178606167828264	0.5018597651632571	0.02023850085715408	0.8700377445273564	0.01803657148879135	0.014588250884638	0.9964360383334551	0.0100313364536521	0.0133137258926509	0.2226118891654203	0.265677798913995	0.04734409613823094	0.4242037064191026	0.07496177666325902	0.02700390066309526	0.01248855642899671	0.0107164407617455	0.01623942182189364	-15.42927435049091	22.32261286040349	-1.406652192883906	-0.1138165701785484	0.08736202946937299	-21.69407335517338	-0.01936553292891273	-0.02915573692620526	-0.4980480728204495
1.916	0.09107058767779008	0.3822633705836266	0.04280241077362057	0.7269641832031016	0.06868995850006236	0.03808872136239086	0.7483205880200672	0.01004217932070277	0.01387255895238127	0.1586249867120892	0.2666105738829857	0.05450107776414319	0.4318255549843477	0.1262597482586765	0.03703733321346606	0.0131295086048072	0.01116869135792135	0.01949826241533389	0.07389291617792149	0.4073370861281538	0.1346127637678669	0.6875794707090224	0.04590816670717515	0.08380023036475388	0.9938379070655242	0.01005721569875893	0.01862376352819991	0.2332747983507808	0.3169102561486472	0.05783572070314291	0.4955123903279844	0.09180561217495033	0.03250056304151809	0.01471457464234835	0.01114994035980232	0.01996891224872528	-22.42083275454864	34.22375245515	-1.220053488528164	0.1303783693797708	-0.03256555239137537	-21.78128766345764	0.05938695106584675	0.01750312986036798	-0.6944641746707095
1.937	0.0754853799539289	0.4922585974986967	0.04924611852018199	0.7727252309900046	0.03188854812255628	0.03879268494442174	0.826990693293811	0.01004065024150959	0.01462833739262248	0.160265200306174	0.2802038907621551	0.04940419619849085	0.463110222197806	0.1013538109724152	0.03171297293320044	0.01315713463754125	0.01102710853752351	0.01851778395956204	0.02329903690919866	0.9885183218588668	0.01093674324910451	0.9966329438442512	0.01114277265812827	0.01052128738118994	0.9964784701006397	0.01002823349714966	0.01524699225574773	0.1066471197547591	0.3009413669135917	0.02818449035162226	0.5789276187783922	0.05368322023420403	0.0190088526944594	0.0126970128507549	0.01063154423772494	0.01545615424646567	-20.24459074593452	30.2970148738273	0.004939315510527528	-0.5857295348895936	0.9897094591142753	-22.5810949175012	-0.01374800656899381	-0.06773285951403567	-0.9116200027757129
1.958	0.05412828053063919	0.6584688856228232	0.03126433988906159	0.8543825201107598	0.1608275632934292	0.02613652102503303	0.8813763572210342	0.01003940265147246	0.01624893571305423	0.1278518202252783	0.2777767350319192	0.04164064272963849	0.514684285235913	0.1233873921681332	0.03219855635676278	0.01361950301576285	0.01100123264809125	0.01836714704210995	0.01035892811446891	0.9906843463778052	0.01025076694393719	0.9991231945602858	0.9894365031578856	0.01051402800507561	0.9916937850330945	0.01005567938182839	0.02486905481630617	0.0247080761151852	0.2383240876819444	0.03251683375958458	0.6922778003601185	0.3284820483933462	0.05426316434272155	0.01713342253556992	0.01149324639142758	0.02254729215417369	-6.664555985908598	7.044595832365512	1.124108707269614	-6.018634247448068	-1.637681147108392	-24.14317230956852	0.06285967012493542	-0.2012887332556678	-1.041247105995468
1.979	0.03869907095624797	0.7757412402369515	0.02360234285743491	0.9029736130031463	0.4327273083541607	0.01995983530697492	0.9332521381598613	0.01002537980064221	0.01537741056753227	0.09169936694292125	0.2507013520988204	0.03569210638172241	0.5450615676058982	0.178865826047291	0.03723401113248995	0.01334698199535624	0.01076455997781489	0.01699536671156743	0.01017017195384939	0.9855865444047109	0.01014026399267821	0.999498076368005	0.9988868772305495	0.01055096872737091	0.9899369038269173	0.01004413375923588	0.02196812111702427	0.01912066397501104	0.1681464838699472	0.02439354258479828	0.557364997652439	0.2670360329510122	0.04292718022964429	0.015485740051729	0.01118928578166467	0.02009299307756263	48.24550777290655	-86.45349301754402	-1.630972885912092	5.371316357806303	-1.429298500189854	-25.40270096463082	0.04263822242105592	0.02136418623601592	-0.9390290412042893
2	0.02970161845246598	0.7510438681503949	0.01969200957742785	0.9284429909501941	0.5114754523350663	0.02029811729240077	0.8535741386095936	0.01014431614811912	0.03933859733172499	0.07640837046543983	0.2395017728318226	0.0379662622968428	0.5366911374471863	0.194270088309319	0.04122712393562665	0.0217399251393145	0.01316384579642079	0.0331498780797056	0.01696465696282819	0.329828744286789	0.01592110698172608	0.9544832337073886	0.3311985148687512	0.03407330307246085	0.3115232914104558	0.01074658837738135	0.162331217629872	0.08102270592993017	0.2884382311971176	0.06683518715529119	0.4961287421896671	0.1952429930893425	0.05877984545488778	0.06417938016810083	0.02533026219453177	0.1173754813222369	42.12758148175882	-80.40572425988466	-2.35486674634713	4.876800924699446	-1.3685616628044	-24.61442370599403	0.1834420364685635	-0.2197017794962034	-1.250350531167579
