Coordinates
version=1
nRows=56
nColumns=34
inDegrees=yes

Units are S.I. units (second, meters, Newtons, ...)
If the header above contains a line with 'inDegrees', this indicates whether rotational values are in degrees (yes) or radians (no).

endheader
time	pelvis_tilt	pelvis_list	pelvis_rotation	pelvis_tx	pelvis_ty	pelvis_tz	hip_flexion_l	hip_adduction_l	hip_rotation_l	hip_flexion_r	hip_adduction_r	hip_rotation_r	knee_angle_l_beta	knee_angle_r_beta	knee_angle_l	knee_angle_r	ankle_angle_l	ankle_angle_r	subtalar_angle_l	subtalar_angle_r	mtp_angle_l	mtp_angle_r	lumbar_ext	lumbar_bend	lumbar_rota	shoulder_flexion_r	shoulder_adduction_r	shoulder_rotation_r	elbow_flexion_r	shoulder_flexion_l	shoulder_adduction_l	shoulder_rotation_l	elbow_flexion_l
      0.22000000	     12.09615391	      8.67826817	     -4.42489304	      0.18208920	      0.99834632	     -0.21972178	     -3.05813742	     12.99739050	     -1.94402336	    -11.99143445	    -13.70683053	     -8.46696156	      0.08449005	      0.93992895	     -4.84092300	    -53.85396201	     -6.18813493	    -14.67678055	      0.00000000	      0.00000000	      0.00000000	      0.00000000	    -22.65428653	    -11.25600983	      2.68144014	      2.05971917	     -4.33548625	     -4.66739615	     33.26809808	     -6.60821328	     -4.45923911	      0.85763124	     28.82875724
      0.23000000	     12.01051911	      8.76478609	     -4.47314185	      0.19255250	      0.99907492	     -0.22082079	     -3.87809252	     13.22779038	     -1.95786217	    -10.10502159	    -14.05679359	     -7.87099494	      0.07677442	      0.98942292	     -4.39885006	    -56.68975728	     -5.73211005	    -14.20159801	      0.00000000	      0.00000000	      0.00000000	      0.00000000	    -22.57567873	    -11.34332534	      2.50105541	      1.96619571	     -4.19664097	     -4.35477662	     32.67809369	     -6.14221330	     -4.57048211	      1.00604630	     29.52656602
      0.24000000	     12.02839903	      8.67459278	     -4.45199701	      0.20293327	      1.00002907	     -0.22191303	     -4.89333255	     13.26385031	     -1.83456773	     -8.41387610	    -14.13053625	     -7.34624496	      0.06693446	      1.03284099	     -3.83506192	    -59.17742940	     -5.27437751	    -13.36425213	      0.00000000	      0.00000000	      0.00000000	      0.00000000	    -22.62601249	    -11.22310662	      2.31653632	      1.86661513	     -4.10386243	     -3.98660397	     32.09406756	     -5.64693375	     -4.66412157	      1.13059214	     30.24363884
      0.25000000	     11.93549557	      8.58623440	     -4.49012773	      0.21302654	      1.00082431	     -0.22287349	     -5.72951583	     13.29247143	     -1.86641015	     -6.53908888	    -14.13962954	     -6.70645599	      0.05828101	      1.07336809	     -3.33925612	    -61.49946116	     -4.91794278	    -12.29286017	      0.00000000	      0.00000000	      0.00000000	      0.00000000	    -22.56927853	    -11.11250096	      2.10404400	      1.87768462	     -4.03402690	     -3.34431500	     31.42596819	     -5.15447414	     -4.73684916	      1.08016136	     30.91602307
      0.26000000	     11.94984617	      8.33641504	     -4.44087177	      0.22320595	      1.00186932	     -0.22392345	     -6.75502206	     13.14932855	     -1.81782130	     -4.91144099	    -13.91872764	     -6.22723455	      0.04816138	      1.10690391	     -2.75944389	    -63.42092226	     -4.57105405	    -10.99953326	      0.00000000	      0.00000000	      0.00000000	      0.00000000	    -22.62004401	    -10.78117281	      1.78216482	      1.90279623	     -3.96336056	     -2.75718101	     30.86385143	     -4.72068746	     -4.78509406	      1.06166470	     31.63532046
      0.27000000	     12.09726829	      7.93729746	     -4.25475566	      0.23335330	      1.00325576	     -0.22493950	     -7.97819456	     12.81622030	     -1.47433788	     -3.56717826	    -13.45987825	     -5.94217472	      0.03715816	      1.13331823	     -2.12900599	    -64.93435168	     -4.26180131	     -9.72502201	      0.00000000	      0.00000000	      0.00000000	      0.00000000	    -22.86520432	    -10.26216581	      1.48979051	      1.79862973	     -3.86051057	     -2.58606278	     30.55215605	     -4.15931970	     -4.87168788	      1.22161661	     32.25388286
      0.28000000	     12.13217914	      7.50139315	     -4.06852720	      0.24354817	      1.00447593	     -0.22609823	     -9.06622900	     12.45001217	     -1.39515442	     -2.16211998	    -12.94093540	     -5.71363340	      0.02641375	      1.15450554	     -1.51339618	    -66.14829498	     -3.95746098	     -8.14017626	      0.00000000	      0.00000000	      0.00000000	      0.00000000	    -22.95644446	     -9.67560944	      1.25974298	      1.67277293	     -3.82760917	     -2.23574259	     30.15164088	     -3.62392417	     -4.90900628	      1.37946005	     32.98157721
      0.29000000	     12.18489626	      7.04927502	     -3.86972121	      0.25360706	      1.00574343	     -0.22714387	    -10.13777521	     12.04252551	     -1.19744507	     -0.80338381	    -12.38341607	     -5.56743749	      0.01648350	      1.17052891	     -0.94443496	    -67.06636660	     -3.69340098	     -6.83059850	      0.00000000	      0.00000000	      0.00000000	      0.00000000	    -23.07449074	     -9.06477744	      0.97046795	      1.55710733	     -3.75418870	     -1.99458366	     29.88078668	     -3.07751711	     -4.96869428	      1.50773230	     33.59302249
      0.30000000	     12.16237573	      6.50296931	     -3.61389340	      0.26393338	      1.00686304	     -0.22816568	    -11.15088804	     11.51811214	     -1.05789262	      0.49641009	    -11.67284359	     -5.52508519	      0.00632617	      1.18005775	     -0.36246305	    -67.61232875	     -3.39229094	     -5.30053353	      0.00000000	      0.00000000	      0.00000000	      0.00000000	    -23.06096358	     -8.33407730	      0.70144302	      1.37491048	     -3.70164972	     -1.66847123	     29.57716111	     -2.60291603	     -5.02994122	      1.63170660	     34.32069038
      0.31000000	     12.13677653	      5.94945199	     -3.31215301	      0.27419460	      1.00793421	     -0.22925243	    -12.13180527	     10.97359898	     -0.88767780	      1.73458635	    -10.95098406	     -5.58833779	     -0.00317583	      1.18420158	      0.18196152	    -67.84975259	     -3.09421960	     -3.98651652	      0.00000000	      0.00000000	      0.00000000	      0.00000000	    -23.04254343	     -7.56416939	      0.37927808	      1.18848114	     -3.65093366	     -1.40823483	     29.34943711	     -2.11698290	     -5.08546852	      1.72504578	     35.02369549
      0.32000000	     12.09275928	      5.36550955	     -2.94992186	      0.28451388	      1.00892608	     -0.23042485	    -13.07982118	     10.37779939	     -0.71146500	      2.88788873	    -10.18897296	     -5.77035751	     -0.01225094	      1.18242540	      0.70192741	    -67.74798479	     -2.78161082	     -2.77822265	      0.00000000	      0.00000000	      0.00000000	      0.00000000	    -22.99876503	     -6.73565054	      0.02354306	      0.96454673	     -3.60031493	     -1.20065837	     29.17175252	     -1.65198150	     -5.12800880	      1.80125345	     35.75459150
      0.33000000	     12.33940387	      4.60199725	     -2.36281455	      0.29488460	      1.01041578	     -0.23193165	    -14.34042941	      9.54689922	     -0.34273045	      3.49600355	     -9.26436970	     -6.31789823	     -0.02063853	      1.17196616	      1.18250042	    -67.14871461	     -2.43772661	     -1.81990183	      0.00000000	      0.00000000	      0.00000000	      0.00000000	    -23.29528990	     -5.62234631	     -0.69314792	      0.90055179	     -3.58463323	     -0.68072474	     28.89428135	     -1.33067693	     -5.12662237	      1.48885067	     36.67319649
      0.34000000	     12.15762092	      4.13779715	     -2.02622962	      0.30525612	      1.01085555	     -0.23306319	    -15.09548817	      9.06872967	     -0.27416483	      4.71039817	     -8.63355250	     -6.54409031	     -0.02936387	      1.16143982	      1.68242581	    -66.54559989	     -2.14024475	     -0.86386798	      0.00000000	      0.00000000	      0.00000000	      0.00000000	    -23.06002651	     -4.90745495	     -0.99984992	      0.57173525	     -3.51753037	     -0.69320536	     28.84187319	     -0.87302942	     -5.18745321	      1.60249466	     37.42378802
      0.35000000	     12.24057745	      3.40063050	     -1.43540054	      0.31552124	      1.01174482	     -0.23446205	    -16.08089411	      8.22889763	      0.06147574	      5.39064979	     -7.70714509	     -7.11268669	     -0.03558098	      1.14154028	      2.03864007	    -65.40544040	     -1.64521242	     -0.09605144	      0.00000000	      0.00000000	      0.00000000	      0.00000000	    -23.16716266	     -3.81256708	     -1.49313858	      0.29722406	     -3.46368860	     -0.82511456	     28.88320448	     -0.38592706	     -5.21821497	      1.61294479	     38.15218309
      0.36000000	     12.27549298	      2.84655283	     -0.93437277	      0.32591195	      1.01229038	     -0.23581521	    -17.03657653	      7.60331172	      0.23344097	      6.10279206	     -7.01118538	     -7.64305378	     -0.04341605	      1.11827384	      2.48755653	    -64.07237126	     -1.31396943	      0.56159886	      0.00000000	      0.00000000	      0.00000000	      0.00000000	    -23.17251602	     -2.93131604	     -1.91459058	     -0.04029048	     -3.42088678	     -1.01730316	     28.94407318	      0.07077261	     -5.27710608	      1.66814572	     38.96822798
      0.37000000	     12.03267302	      2.48125277	     -0.63222051	      0.33621790	      1.01211836	     -0.23681292	    -17.65305770	      7.21628027	      0.20387614	      7.16526817	     -6.48568632	     -7.94545814	     -0.05092703	      1.09313850	      2.91790407	    -62.63222275	     -1.07521859	      1.29468637	      0.00000000	      0.00000000	      0.00000000	      0.00000000	    -22.86947907	     -2.32209608	     -2.22603862	     -0.38169920	     -3.33807115	     -1.15769707	     28.98235508	      0.47939234	     -5.36798564	      1.83043462	     39.82244156
      0.38000000	     12.10230032	      1.85957557	     -0.08336021	      0.34649725	      1.01238946	     -0.23811044	    -18.57686525	      6.47426866	      0.43812995	      7.64741797	     -5.67518475	     -8.51923739	     -0.05687342	      1.05896294	      3.25860673	    -60.67410728	     -0.58681650	      1.78908353	      0.00000000	      0.00000000	      0.00000000	      0.00000000	    -22.92895310	     -1.34510615	     -2.66980712	     -0.70551298	     -3.28337409	     -1.54052913	     29.13294453	      0.94615271	     -5.42172623	      1.88705944	     40.61750689
      0.39000000	     12.11678698	      1.41826815	      0.33255163	      0.35674923	      1.01235342	     -0.23919315	    -19.42674240	      5.95304031	      0.49972655	      8.15935975	     -5.08442297	     -9.03600506	     -0.06318944	      1.02135382	      3.62048800	    -58.51926321	     -0.23280370	      2.22498649	      0.00000000	      0.00000000	      0.00000000	      0.00000000	    -22.91529417	     -0.60786773	     -3.00275037	     -1.03038682	     -3.22107886	     -1.89421684	     29.26330981	      1.40894263	     -5.50575229	      2.01011423	     41.44578510
      0.40000000	     12.03800613	      1.00537897	      0.65158664	      0.36704276	      1.01195187	     -0.24010134	    -20.16135235	      5.49228886	      0.48031983	      8.72384000	     -4.50542679	     -9.49604104	     -0.06904906	      0.97976150	      3.95621987	    -56.13619911	      0.12686829	      2.67862379	      0.00000000	      0.00000000	      0.00000000	      0.00000000	    -22.81178775	      0.06581997	     -3.30400816	     -1.36406368	     -3.14749528	     -2.24385389	     29.37202519	      1.79957518	     -5.60914271	      2.18639699	     42.29590674
      0.41000000	     12.09668847	      0.59108709	      1.00210439	      0.37725858	      1.01166748	     -0.24102913	    -21.02078575	      5.00604245	      0.44523857	      9.00805587	     -3.93179793	    -10.03082760	     -0.07424800	      0.93236550	      4.25409686	    -53.42060800	      0.48143186	      2.96910608	      0.00000000	      0.00000000	      0.00000000	      0.00000000	    -22.86514437	      0.75628104	     -3.57700831	     -1.66962504	     -3.09226383	     -2.65235602	     29.51835329	      2.25694369	     -5.70242719	      2.35049259	     43.10718834
      0.42000000	     11.82578039	      0.35435899	      1.14258697	      0.38744057	      1.01063504	     -0.24156004	    -21.47844062	      4.77570156	      0.23407278	      9.66578625	     -3.50001917	    -10.29858489	     -0.07814104	      0.88362906	      4.47715177	    -50.62821558	      0.78221325	      3.43889774	      0.00000000	      0.00000000	      0.00000000	      0.00000000	    -22.56109442	      1.18210710	     -3.79235441	     -1.92539259	     -3.02077810	     -2.92535341	     29.53621972	      2.59432094	     -5.86083667	      2.59780036	     43.99322164
      0.43000000	     11.99120347	     -0.09203050	      1.47747409	      0.39770638	      1.01029675	     -0.24232846	    -22.43150659	      4.24645932	      0.18517413	      9.59712728	     -2.84970552	    -10.84307934	     -0.08275485	      0.82579806	      4.74150348	    -47.31474360	      1.22380998	      3.49445112	      0.00000000	      0.00000000	      0.00000000	      0.00000000	    -22.75230052	      1.89181371	     -4.01044126	     -2.20819774	     -2.97300693	     -3.32121920	     29.67012695	      3.03858961	     -5.93374413	      2.71321387	     44.74129649
      0.44000000	     12.01940051	     -0.44444397	      1.63574584	      0.40794373	      1.00959235	     -0.24279116	    -23.19766278	      3.87369698	     -0.00126131	      9.62965888	     -2.28799233	    -11.29112135	     -0.08620149	      0.76551671	      4.93898161	    -43.86087688	      1.54896848	      3.65880875	      0.00000000	      0.00000000	      0.00000000	      0.00000000	    -22.78971596	      2.44970746	     -4.16103156	     -2.42959722	     -2.92885667	     -3.66998820	     29.75690068	      3.40268259	     -6.05057951	      2.92856502	     45.53420009
      0.45000000	     11.98854257	     -0.76636558	      1.75822764	      0.41825376	      1.00869805	     -0.24316662	    -23.87912349	      3.55133082	     -0.24282940	      9.62878516	     -1.72886310	    -11.66683387	     -0.08871317	      0.70169141	      5.08289023	    -40.20395617	      1.93100299	      3.75663516	      0.00000000	      0.00000000	      0.00000000	      0.00000000	    -22.76630758	      2.96003220	     -4.28181905	     -2.64129633	     -2.88986321	     -3.96798758	     29.79140116	      3.73099491	     -6.15916050	      3.12091767	     46.30316384
      0.46000000	     11.76589657	     -0.99491748	      1.75998477	      0.42857796	      1.00739028	     -0.24328753	    -24.28940400	      3.37731833	     -0.61084129	      9.78144132	     -1.23651146	    -11.87192241	     -0.08897387	      0.63616925	      5.09782744	    -36.44981315	      2.31759953	      3.95394242	      0.00000000	      0.00000000	      0.00000000	      0.00000000	    -22.54069059	      3.32640249	     -4.36265442	     -2.80961483	     -2.83541799	     -4.22411074	     29.70365488	      3.97533696	     -6.30401063	      3.36126031	     47.10977823
      0.47000000	     11.85500760	     -1.36539901	      1.86746117	      0.43908012	      1.00654376	     -0.24354352	    -25.08139614	      3.01525905	     -0.92338384	      9.38940212	     -0.59341351	    -12.31917959	     -0.09042569	      0.56491293	      5.18101029	    -32.36712648	      2.77609014	      3.78754877	      0.00000000	      0.00000000	      0.00000000	      0.00000000	    -22.63955370	      3.87375027	     -4.41711448	     -2.99758058	     -2.82157234	     -4.46008273	     29.70902470	      4.26585841	     -6.36392744	      3.48026298	     47.82774652
      0.48000000	     11.88491011	     -1.63102251	      1.92766448	      0.44959888	      1.00552659	     -0.24367770	    -25.74942245	      2.78099717	     -1.26631324	      8.98433956	     -0.03975454	    -12.66574550	     -0.08984011	      0.49267062	      5.14745898	    -28.22794719	      3.14149442	      3.62929184	      0.00000000	      0.00000000	      0.00000000	      0.00000000	    -22.69468280	      4.29561371	     -4.48713286	     -3.16089379	     -2.80330742	     -4.68223060	     29.70105277	      4.51138654	     -6.45805682	      3.63447760	     48.52945826
      0.49000000	     11.96476337	     -1.84425698	      2.01035391	      0.46025885	      1.00451722	     -0.24383089	    -26.45783784	      2.59058160	     -1.59251647	      8.41800555	      0.46864433	    -13.04992505	     -0.08850975	      0.41939253	      5.07123508	    -24.02942212	      3.44845800	      3.37000442	      0.00000000	      0.00000000	      0.00000000	      0.00000000	    -22.79068268	      4.67520165	     -4.57372485	     -3.34204818	     -2.79009019	     -4.86673586	     29.75910416	      4.73278071	     -6.53739526	      3.75552761	     49.17457299
      0.50000000	     11.88739208	     -2.02076284	      1.97945617	      0.47102089	      1.00315641	     -0.24374926	    -26.93468952	      2.48713087	     -2.00706999	      8.00067530	      0.96230917	    -13.26193245	     -0.08447576	      0.34835072	      4.84010477	    -19.95902622	      3.93305412	      3.04035938	      0.00000000	      0.00000000	      0.00000000	      0.00000000	    -22.71236307	      4.96954334	     -4.56522534	     -3.49106643	     -2.77209622	     -5.05178321	     29.63287342	      4.89475279	     -6.61452942	      3.89891893	     49.82773534
      0.51000000	     11.50624621	     -1.77127435	      1.80521897	      0.48178686	      1.00119533	     -0.24356189	    -27.03849655	      2.87703773	     -2.35215543	      7.98660391	      0.98577606	    -13.17606285	     -0.07860346	      0.28453884	      4.50364634	    -16.30287467	      4.17082625	      3.08641938	      0.00000000	      0.00000000	      0.00000000	      0.00000000	    -22.30123084	      4.78504876	     -4.60759599	     -3.69104688	     -2.74470734	     -5.13680759	     29.64012732	      5.00781159	     -6.71410842	      4.03846432	     50.34964975
      0.52000000	     11.92771735	     -2.26608168	      2.02460616	      0.49306464	      1.00052298	     -0.24367062	    -28.06247914	      2.32530996	     -2.73004979	      6.76687573	      1.84388333	    -13.82460528	     -0.07398876	      0.21357611	      4.23924360	    -12.23700947	      4.74569023	      2.11727478	      0.00000000	      0.00000000	      0.00000000	      0.00000000	    -22.71755266	      5.49085724	     -4.65316819	     -3.82468821	     -2.78748769	     -5.27913118	     29.55859115	      5.11244788	     -6.72119454	      4.07641371	     50.96493782
      0.53000000	     11.93485929	     -2.29797137	      2.04530970	      0.50422798	      0.99914477	     -0.24351687	    -28.55055423	      2.31071982	     -2.99531675	      6.16673462	      2.18959573	    -13.99242730	     -0.06611216	      0.15450913	      3.78794758	     -8.85272102	      5.12689566	      1.59269797	      0.00000000	      0.00000000	      0.00000000	      0.00000000	    -22.71901370	      5.65082777	     -4.69595384	     -3.97860343	     -2.78496553	     -5.37555148	     29.46804873	      5.16795831	     -6.77548168	      4.15795447	     51.49385694
      0.54000000	     11.76600898	     -2.19825460	      1.97134143	      0.51546416	      0.99742703	     -0.24326058	    -28.81058926	      2.46332176	     -3.29725880	      5.83058792	      2.37134016	    -13.80952203	     -0.05652735	      0.10465875	      3.23877860	     -5.99650471	      5.47987279	      1.29938698	      0.00000000	      0.00000000	      0.00000000	      0.00000000	    -22.49103728	      5.65635690	     -4.78826427	     -4.09546680	     -2.78733212	     -5.43428107	     29.42767941	      5.15802565	     -6.83202560	      4.27596189	     51.87073887
      0.55000000	     12.02842185	     -2.43490633	      2.11088114	      0.52701670	      0.99643983	     -0.24314851	    -29.54528751	      2.14716830	     -3.46768598	      4.94559110	      2.92539101	    -14.16138690	     -0.04679389	      0.05845609	      2.68109253	     -3.34928699	      5.87695471	      0.50105462	      0.00000000	      0.00000000	      0.00000000	      0.00000000	    -22.73006337	      6.05356487	     -4.79383819	     -4.23004818	     -2.84699204	     -5.41141368	     29.28482043	      5.15858629	     -6.79452414	      4.22769697	     52.35838965
      0.56000000	     11.87216877	     -2.34696020	      2.04387193	      0.53850211	      0.99481999	     -0.24277422	    -29.76600726	      2.23137258	     -3.61888046	      4.70808912	      3.06733281	    -13.80716484	     -0.03469135	      0.02681015	      1.98766801	     -1.53610856	      6.06902996	      0.40983439	      0.00000000	      0.00000000	      0.00000000	      0.00000000	    -22.52041303	      6.04399215	     -4.76892714	     -4.36564748	     -2.88245861	     -5.41998904	     29.16968061	      5.11137119	     -6.78477267	      4.28188007	     52.64336418
      0.57000000	     12.19418406	     -2.62812028	      2.22280175	      0.55017420	      0.99410622	     -0.24258758	    -30.48379197	      1.79915882	     -3.66115817	      3.86618953	      3.61903353	    -13.85365440	     -0.02182620	     -0.00155099	      1.25054933	      0.08886521	      6.40445410	     -0.52363909	      0.00000000	      0.00000000	      0.00000000	      0.00000000	    -22.82532662	      6.51869960	     -4.90636300	     -4.36204786	     -2.95843989	     -5.25312956	     28.96349673	      4.98113103	     -6.75157506	      4.15109265	     53.00919909
      0.58000000	     12.22680790	     -2.70923870	      2.20422995	      0.56173690	      0.99304882	     -0.24215688	    -30.80528490	      1.63739624	     -3.67918801	      3.51726172	      3.88582995	    -13.36530739	     -0.00592278	     -0.01649638	      0.33935049	      0.94517304	      6.58606821	     -1.00188761	      0.00000000	      0.00000000	      0.00000000	      0.00000000	    -22.84493507	      6.70746488	     -4.86450140	     -4.37851905	     -3.02903574	     -5.18043073	     28.73257965	      4.87423344	     -6.68934700	      4.10926035	     53.20474882
      0.59000000	     12.34896899	     -2.88577089	      2.26315006	      0.57349215	      0.99229773	     -0.24172961	    -31.18720605	      1.31491629	     -3.65638102	      3.12477262	      4.22374249	    -12.85791491	      0.01125601	     -0.02291289	     -0.64492192	      1.31281171	      6.63347056	     -1.54420602	      0.00000000	      0.00000000	      0.00000000	      0.00000000	    -22.94201044	      7.01553285	     -4.85231465	     -4.37429891	     -3.10939514	     -5.04898767	     28.48490514	      4.71389160	     -6.59051770	      4.01412062	     53.32779397
      0.60000000	     12.43599705	     -3.09110374	      2.35756599	      0.58535947	      0.99167835	     -0.24133277	    -31.50407031	      0.92267938	     -3.45003918	      2.85709898	      4.54530913	    -12.22423542	      0.02882718	     -0.02023483	     -1.65167547	      1.15937053	      6.27369977	     -1.90543621	      0.00000000	      0.00000000	      0.00000000	      0.00000000	    -22.98853579	      7.35947184	     -4.81687869	     -4.39613628	     -3.19159158	     -4.99030353	     28.28010769	      4.53736423	     -6.46289029	      3.96605543	     53.34891134
      0.61000000	     12.66652579	     -3.36027733	      2.41915390	      0.59724884	      0.99147062	     -0.24079838	    -31.84500730	      0.46670632	     -3.45097750	      2.46916291	      4.92736814	    -11.60427796	      0.05131100	     -0.01226630	     -2.93990346	      0.70280709	      6.18045487	     -2.71038530	      0.00000000	      0.00000000	      0.00000000	      0.00000000	    -23.20659047	      7.75666261	     -4.79203451	     -4.28199080	     -3.30201692	     -4.71954327	     27.90780471	      4.28308136	     -6.30430478	      3.71389788	     53.38087837
      0.62000000	     12.83110922	     -3.62824575	      2.58290302	      0.60945655	      0.99137993	     -0.24036426	    -32.10746587	     -0.06378381	     -3.18970015	      2.17911625	      5.27353751	    -10.85440251	      0.07307407	      0.00152659	     -4.18683558	     -0.08746718	      5.46184763	     -3.21047542	      0.00000000	      0.00000000	      0.00000000	      0.00000000	    -23.30407725	      8.18146626	     -4.80046913	     -4.26738470	     -3.38067177	     -4.64437709	     27.68394111	      3.98939746	     -6.13925381	      3.63197067	     53.25570683
      0.63000000	     13.06594834	     -3.90155965	      2.72645170	      0.62159125	      0.99163507	     -0.23986813	    -32.29291467	     -0.60027044	     -3.06982445	      1.87642321	      5.61842009	    -10.14380999	      0.09943529	      0.01997296	     -5.69722256	     -1.14436610	      4.66402620	     -3.82940651	      0.00000000	      0.00000000	      0.00000000	      0.00000000	    -23.49656125	      8.57970919	     -4.77211456	     -4.19133278	     -3.45261386	     -4.54448833	     27.39982038	      3.68856359	     -5.91629361	      3.48099033	     53.06413698
      0.64000000	     12.98069598	     -4.07245971	      2.54782606	      0.63361994	      0.99164002	     -0.23894225	    -31.92438492	     -0.88144675	     -3.43502628	      2.06824491	      5.81728003	     -9.16956879	      0.13336310	      0.04572841	     -7.64114267	     -2.62004481	      3.93985006	     -4.35544140	      0.00000000	      0.00000000	      0.00000000	      0.00000000	    -23.37838884	      8.78600781	     -4.92818025	     -3.72049829	     -3.64385375	     -3.40040165	     26.56549884	      2.98680571	     -5.65615057	      2.53069990	     53.11245095
      0.65000000	     13.30040751	     -4.33386486	      2.75923323	      0.64599191	      0.99247457	     -0.23846653	    -31.94615785	     -1.47774380	     -3.41104726	      1.63894943	      6.14667487	     -8.53351918	      0.16651930	      0.06700823	     -9.54085331	     -3.83928871	      2.59361104	     -4.82291122	      0.00000000	      0.00000000	      0.00000000	      0.00000000	    -23.62110418	      9.19929533	     -4.91314581	     -3.65690163	     -3.70020331	     -3.38555250	     26.34332562	      2.62015234	     -5.41505945	      2.40942657	     52.76743848
      0.66000000	     13.61324419	     -4.54463851	      2.93314124	      0.65825788	      0.99353823	     -0.23788147	    -31.74347061	     -2.03491900	     -3.67729434	      1.22526746	      6.42600666	     -7.96398370	      0.20593163	      0.08945273	    -11.79901308	     -5.12526406	      1.02030906	     -5.17026676	      0.00000000	      0.00000000	      0.00000000	      0.00000000	    -23.87955558	      9.53433554	     -4.85974224	     -3.55630463	     -3.75767514	     -3.35313909	     26.09889893	      2.24414027	     -5.16636551	      2.20788697	     52.34940194
      0.67000000	     13.40539301	     -4.59196779	      2.68364028	      0.67033106	      0.99399664	     -0.23665730	    -30.71680604	     -2.28641322	     -4.72669560	      1.47665164	      6.50620424	     -7.20676963	      0.25417757	      0.11590818	    -14.56330193	     -6.64104975	     -0.56839359	     -5.23274653	      0.00000000	      0.00000000	      0.00000000	      0.00000000	    -23.63697648	      9.54930163	     -4.69734215	     -3.31335288	     -3.81505767	     -3.06044856	     25.62844103	      1.67045759	     -4.86600716	      1.68204957	     51.95673459
      0.68000000	     13.33913361	     -4.68974285	      2.63135118	      0.68241754	      0.99481309	     -0.23564463	    -29.67811804	     -2.75226066	     -5.66282797	      1.45035739	      6.66299804	     -6.51721750	      0.30592917	      0.13883335	    -17.52845012	     -7.95456507	     -2.50826685	     -4.98197153	      0.00000000	      0.00000000	      0.00000000	      0.00000000	    -23.50489266	      9.65712769	     -4.66290282	     -3.06253079	     -3.87642490	     -2.64625466	     25.25630480	      1.11961130	     -4.56768194	      1.21167320	     51.45675486
      0.69000000	     13.61860953	     -4.81474877	      2.79715934	      0.69447449	      0.99630473	     -0.23477755	    -28.84296406	     -3.45347744	     -6.74536007	      0.86197637	      6.88312658	     -6.34802551	      0.36054786	      0.15494260	    -20.65787090	     -8.87755697	     -4.83647573	     -4.74256173	      0.00000000	      0.00000000	      0.00000000	      0.00000000	    -23.75067478	      9.85432085	     -4.62273878	     -2.92082496	     -3.87876861	     -2.62148790	     25.14030776	      0.66695906	     -4.33708078	      0.99374298	     50.91695127
      0.70000000	     13.59026362	     -5.01698386	      2.85508400	      0.70640991	      0.99737700	     -0.23364946	    -27.48967180	     -4.29507258	     -8.10239190	      0.58685867	      7.18350946	     -6.11587876	      0.42030664	      0.17024464	    -24.08179669	     -9.75429941	     -7.25247255	     -4.30413392	      0.00000000	      0.00000000	      0.00000000	      0.00000000	    -23.67081266	     10.08307767	     -4.51492122	     -2.76231575	     -3.87932306	     -2.59784618	     25.04408504	      0.15189124	     -4.07155961	      0.71739579	     50.33885041
      0.71000000	     13.41299547	     -5.25593951	      2.88282499	      0.71805695	      0.99821596	     -0.23235363	    -25.79516837	     -5.26697008	     -9.42770110	      0.40529247	      7.53878123	     -5.77062809	      0.48462250	      0.18259907	    -27.76682388	    -10.46215585	     -9.51251126	     -3.66626109	      0.00000000	      0.00000000	      0.00000000	      0.00000000	    -23.46134706	     10.31537306	     -4.36130968	     -2.58943122	     -3.89842955	     -2.54154571	     25.00417425	     -0.34186275	     -3.81852764	      0.42185153	     49.62185270
      0.72000000	     13.33223387	     -5.51642813	      2.99172250	      0.72958772	      0.99918860	     -0.23100140	    -24.13043168	     -6.39352141	    -10.63875963	      0.00379227	      7.93857901	     -5.67211327	      0.54881712	      0.19095059	    -31.44490477	    -10.94066279	    -11.81242982	     -2.95048846	      0.00000000	      0.00000000	      0.00000000	      0.00000000	    -23.35661594	     10.56236969	     -4.21547312	     -2.43792453	     -3.89237449	     -2.51254133	     25.08806688	     -0.80135264	     -3.61035057	      0.23521315	     48.93690890
      0.73000000	     13.07727550	     -5.81973325	      3.06128791	      0.74070417	      0.99982686	     -0.22946760	    -22.15066570	     -7.58396608	    -11.59467697	     -0.27277410	      8.39168889	     -5.59313649	      0.61512264	      0.19570755	    -35.24393108	    -11.21321674	    -13.59837067	     -2.20972861	      0.00000000	      0.00000000	      0.00000000	      0.00000000	    -23.11616396	     10.84365261	     -4.01570203	     -2.27462519	     -3.87702699	     -2.50509074	     25.24269313	     -1.20805720	     -3.44126381	      0.07407354	     48.10128048
      0.74000000	     13.12949811	     -6.05546319	      3.21670076	      0.75168578	      1.00093384	     -0.22818849	    -20.52499391	     -8.72381633	    -12.24002291	     -1.00482164	      8.78962826	     -5.52255596	      0.67647514	      0.19660596	    -38.75917071	    -11.26469176	    -15.33436179	     -1.39563494	      0.00000000	      0.00000000	      0.00000000	      0.00000000	    -23.22147395	     11.07744660	     -3.82741718	     -2.11069453	     -3.89958420	     -2.47904143	     25.50629481	     -1.57011075	     -3.29651157	     -0.00306957	     47.39050116
      0.75000000	     12.81129162	     -6.39212738	      3.37896818	      0.76248971	      1.00136225	     -0.22681869	    -18.39022124	     -9.96372383	    -12.62792129	     -1.37951409	      9.28727446	     -5.71645440	      0.73902944	      0.19469167	    -42.34326765	    -11.15501115	    -16.25286334	     -0.75802541	      0.00000000	      0.00000000	      0.00000000	      0.00000000	    -22.90498477	     11.41080578	     -3.65141889	     -1.97763154	     -3.91817262	     -2.50466265	     25.87647014	     -1.91802966	     -3.16468508	      0.01507487	     46.47139988
      0.76000000	     12.67371922	     -6.62822400	      3.53587446	      0.77298571	      1.00208577	     -0.22551998	    -16.44914815	    -10.98607708	    -12.63439563	     -2.02513868	      9.69196845	     -5.77280941	      0.79701113	      0.19024176	    -45.66537418	    -10.90005008	    -16.71475225	     -0.06378563	      0.00000000	      0.00000000	      0.00000000	      0.00000000	    -22.85726902	     11.61846421	     -3.43880305	     -1.81016895	     -3.93982533	     -2.49512534	     26.30058519	     -2.18040580	     -3.08324504	      0.11242887	     45.56031251
      0.77000000	     12.46091904	     -6.79272238	      3.71885959	      0.78332040	      1.00266557	     -0.22442126	    -14.38963009	    -11.86025913	    -12.43629543	     -2.63270516	     10.00760748	     -5.96730135	      0.85224756	      0.18371615	    -48.83018803	    -10.52615999	    -16.46922246	      0.45401912	      0.00000000	      0.00000000	      0.00000000	      0.00000000	    -22.70455261	     11.77651589	     -3.21604712	     -1.67846123	     -3.98536548	     -2.52536117	     26.76073201	     -2.37820855	     -3.01703203	      0.34659276	     44.55650641
