Model Marker Errors from IK
version=1
nRows=56
nColumns=4
inDegrees=no
endheader
time	total_squared_error	marker_error_RMS	marker_error_max
      0.22000000	      0.01966904	      0.02217490	      0.04550569
      0.23000000	      0.01946116	      0.02205740	      0.04544818
      0.24000000	      0.01919697	      0.02190717	      0.04547902
      0.25000000	      0.01888770	      0.02172999	      0.04527838
      0.26000000	      0.01852822	      0.02152221	      0.04511551
      0.27000000	      0.01814297	      0.02129728	      0.04482160
      0.28000000	      0.01774642	      0.02106325	      0.04442150
      0.29000000	      0.01735443	      0.02082932	      0.04395020
      0.30000000	      0.01698445	      0.02060610	      0.04351363
      0.31000000	      0.01665214	      0.02040352	      0.04303564
      0.32000000	      0.01637152	      0.02023087	      0.04251202
      0.33000000	      0.01614921	      0.02009304	      0.04215475
      0.34000000	      0.01599322	      0.01999576	      0.04174113
      0.35000000	      0.01590433	      0.01994012	      0.04138562
      0.36000000	      0.01588036	      0.01992508	      0.04118559
      0.37000000	      0.01591837	      0.01994891	      0.04096335
      0.38000000	      0.01601289	      0.02000806	      0.04073914
      0.39000000	      0.01616273	      0.02010145	      0.04057351
      0.40000000	      0.01634761	      0.02021609	      0.04052496
      0.41000000	      0.01658142	      0.02036015	      0.04047035
      0.42000000	      0.01685135	      0.02052520	      0.04044366
      0.43000000	      0.01716633	      0.02071614	      0.04046786
      0.44000000	      0.01752123	      0.02092918	      0.04039923
      0.45000000	      0.01792598	      0.02116954	      0.04047472
      0.46000000	      0.01837177	      0.02143115	      0.04040211
      0.47000000	      0.01886546	      0.02171719	      0.04057025
      0.48000000	      0.01938328	      0.02201323	      0.04035934
      0.49000000	      0.01993256	      0.02232295	      0.04067588
      0.50000000	      0.02047252	      0.02262329	      0.04207027
      0.51000000	      0.02101985	      0.02292370	      0.04371645
      0.52000000	      0.02154219	      0.02320678	      0.04513163
      0.53000000	      0.02202199	      0.02346380	      0.04607820
      0.54000000	      0.02247321	      0.02370296	      0.04717848
      0.55000000	      0.02287478	      0.02391379	      0.04804773
      0.56000000	      0.02321740	      0.02409222	      0.04868869
      0.57000000	      0.02349570	      0.02423618	      0.04903012
      0.58000000	      0.02372079	      0.02435200	      0.04951703
      0.59000000	      0.02388828	      0.02443782	      0.04920553
      0.60000000	      0.02403057	      0.02451049	      0.04904494
      0.61000000	      0.02415837	      0.02457558	      0.04873622
      0.62000000	      0.02428720	      0.02464102	      0.04832634
      0.63000000	      0.02442342	      0.02471003	      0.04787306
      0.64000000	      0.02457012	      0.02478413	      0.04739108
      0.65000000	      0.02472262	      0.02486092	      0.04696066
      0.66000000	      0.02487717	      0.02493851	      0.04657629
      0.67000000	      0.02502811	      0.02501405	      0.04610896
      0.68000000	      0.02516230	      0.02508102	      0.04590719
      0.69000000	      0.02527609	      0.02513766	      0.04557812
      0.70000000	      0.02535511	      0.02517693	      0.04537953
      0.71000000	      0.02539214	      0.02519530	      0.04527517
      0.72000000	      0.02538227	      0.02519041	      0.04514714
      0.73000000	      0.02532244	      0.02516070	      0.04512418
      0.74000000	      0.02521416	      0.02510685	      0.04515798
      0.75000000	      0.02506672	      0.02503334	      0.04510415
      0.76000000	      0.02486263	      0.02493122	      0.04533816
      0.77000000	      0.02462696	      0.02481278	      0.04520112
