Model Marker Errors from IK
version=1
nRows=56
nColumns=4
inDegrees=no
endheader
time	total_squared_error	marker_error_RMS	marker_error_max
      0.22000000	      0.01312255	      0.01811253	      0.04155406
      0.23000000	      0.01296580	      0.01800403	      0.04167979
      0.24000000	      0.01283745	      0.01791469	      0.04179899
      0.25000000	      0.01273300	      0.01784167	      0.04175303
      0.26000000	      0.01265190	      0.01778475	      0.04171102
      0.27000000	      0.01259210	      0.01774268	      0.04168791
      0.28000000	      0.01254600	      0.01771016	      0.04162070
      0.29000000	      0.01251366	      0.01768732	      0.04145075
      0.30000000	      0.01249014	      0.01767069	      0.04135963
      0.31000000	      0.01247735	      0.01766165	      0.04120646
      0.32000000	      0.01247470	      0.01765977	      0.04103797
      0.33000000	      0.01247821	      0.01766225	      0.04080473
      0.34000000	      0.01249960	      0.01767739	      0.04069900
      0.35000000	      0.01253085	      0.01769947	      0.04047976
      0.36000000	      0.01257866	      0.01773321	      0.04039347
      0.37000000	      0.01264473	      0.01777971	      0.04030933
      0.38000000	      0.01272017	      0.01783268	      0.04020491
      0.39000000	      0.01281095	      0.01789620	      0.04014074
      0.40000000	      0.01291304	      0.01796736	      0.04013198
      0.41000000	      0.01302318	      0.01804382	      0.04008920
      0.42000000	      0.01314328	      0.01812683	      0.04002990
      0.43000000	      0.01326194	      0.01820847	      0.03999846
      0.44000000	      0.01338541	      0.01829304	      0.03991125
      0.45000000	      0.01351004	      0.01837800	      0.03981523
      0.46000000	      0.01363541	      0.01846308	      0.03966354
      0.47000000	      0.01375150	      0.01854151	      0.03955359
      0.48000000	      0.01385886	      0.01861375	      0.03940434
      0.49000000	      0.01395161	      0.01867593	      0.03927830
      0.50000000	      0.01402860	      0.01872739	      0.03913830
      0.51000000	      0.01410011	      0.01877506	      0.03955648
      0.52000000	      0.01412950	      0.01879462	      0.03900548
      0.53000000	      0.01416039	      0.01881515	      0.03916753
      0.54000000	      0.01418657	      0.01883253	      0.03879801
      0.55000000	      0.01419856	      0.01884049	      0.03974716
      0.56000000	      0.01421513	      0.01885148	      0.03931643
      0.57000000	      0.01422020	      0.01885484	      0.04059604
      0.58000000	      0.01423337	      0.01886357	      0.04086723
      0.59000000	      0.01425614	      0.01887865	      0.04144392
      0.60000000	      0.01429972	      0.01890748	      0.04191821
      0.61000000	      0.01436740	      0.01895218	      0.04267335
      0.62000000	      0.01447780	      0.01902485	      0.04313066
      0.63000000	      0.01463835	      0.01913005	      0.04360483
      0.64000000	      0.01484862	      0.01926696	      0.04312521
      0.65000000	      0.01514629	      0.01945912	      0.04340207
      0.66000000	      0.01553003	      0.01970408	      0.04348873
      0.67000000	      0.01597033	      0.01998145	      0.04214341
      0.68000000	      0.01645575	      0.02028284	      0.04113123
      0.69000000	      0.01692031	      0.02056715	      0.04085357
      0.70000000	      0.01727854	      0.02078373	      0.04034865
      0.71000000	      0.01745371	      0.02088882	      0.04004949
      0.72000000	      0.01740686	      0.02086076	      0.04042177
      0.73000000	      0.01713105	      0.02069484	      0.04071251
      0.74000000	      0.01667601	      0.02041814	      0.04109795
      0.75000000	      0.01609768	      0.02006096	      0.04143733
      0.76000000	      0.01548048	      0.01967262	      0.04174492
      0.77000000	      0.01488710	      0.01929190	      0.04200890
