Moment_knee_angle_l
version=1
nRows=55
nColumns=19
inDegrees=no

This analysis gathers basic information about muscles during a simulation (e.g., forces, tendon lengths, moment arms, etc).
Units are S.I. units (second, meters, Newtons, ...)
If the header above contains a line with 'inDegrees', this indicates whether rotational values are in degrees (yes) or radians (no).

endheader
time	hamstrings_r	bifemsh_r	glut_max_r	iliopsoas_r	rect_fem_r	vasti_r	gastroc_r	soleus_r	dorsiflexors_r	hamstrings_l	bifemsh_l	glut_max_l	iliopsoas_l	rect_fem_l	vasti_l	gastroc_l	soleus_l	dorsiflexors_l
      0.23000000	      0.00000000	      0.00000000	      0.00000000	      0.00000000	      0.00000000	      0.00000000	      0.00000000	      0.00000000	      0.00000000	    -77.89704430	    -10.01285000	      0.00000000	      0.00000000	     62.90502604	    224.64449784	    -94.59518875	     -0.00000000	     -0.00000000
      0.24000000	      0.00000000	      0.00000000	      0.00000000	      0.00000000	      0.00000000	      0.00000000	      0.00000000	      0.00000000	      0.00000000	    -77.01584282	     -9.84826604	      0.00000000	      0.00000000	     63.15755387	    227.26284063	    -96.26919503	      0.00000000	      0.00000000
      0.25000000	      0.00000000	      0.00000000	      0.00000000	      0.00000000	      0.00000000	      0.00000000	      0.00000000	      0.00000000	      0.00000000	    -76.21121680	     -9.70191879	      0.00000000	      0.00000000	     63.40690792	    229.78369377	    -97.72408258	      0.00000000	      0.00000000
      0.26000000	      0.00000000	      0.00000000	      0.00000000	      0.00000000	      0.00000000	      0.00000000	      0.00000000	      0.00000000	      0.00000000	    -75.16206229	     -9.50928433	      0.00000000	      0.00000000	     63.81415269	    233.34425007	    -99.59050564	      0.00000000	      0.00000000
      0.27000000	      0.00000000	      0.00000000	      0.00000000	      0.00000000	      0.00000000	      0.00000000	      0.00000000	      0.00000000	      0.00000000	    -74.32991669	     -9.36097597	      0.00000000	      0.00000000	     64.13674942	    236.24903969	   -100.99326287	     -0.00000000	      0.00000000
      0.28000000	      0.00000000	      0.00000000	      0.00000000	      0.00000000	      0.00000000	      0.00000000	      0.00000000	      0.00000000	      0.00000000	    -73.36370767	     -9.18946409	      0.00000000	      0.00000000	     64.53960692	    239.75954635	   -102.57907020	     -0.00000000	      0.00000000
      0.29000000	      0.00000000	      0.00000000	      0.00000000	      0.00000000	      0.00000000	      0.00000000	      0.00000000	      0.00000000	      0.00000000	    -72.44467692	     -9.02854353	      0.00000000	      0.00000000	     64.92740765	    243.17806107	   -104.03167664	     -0.00000000	     -0.00000000
      0.30000000	      0.00000000	      0.00000000	      0.00000000	      0.00000000	      0.00000000	      0.00000000	      0.00000000	      0.00000000	      0.00000000	    -71.62586705	     -8.88744109	      0.00000000	      0.00000000	     64.42636117	    240.11769055	   -105.27842502	      0.00000000	      0.00000000
      0.31000000	      0.00000000	      0.00000000	      0.00000000	      0.00000000	      0.00000000	      0.00000000	      0.00000000	      0.00000000	      0.00000000	    -70.85700056	     -8.75626434	      0.00000000	      0.00000000	     62.90456767	    237.73293836	   -106.41598730	      0.00000000	      0.00000000
      0.32000000	      0.00000000	      0.00000000	      0.00000000	      0.00000000	      0.00000000	      0.00000000	      0.00000000	      0.00000000	      0.00000000	    -69.99432348	     -8.60919907	      0.00000000	      0.00000000	     61.26749207	    234.04726245	   -107.66792003	      0.00000000	      0.00000000
      0.33000000	      0.00000000	      0.00000000	      0.00000000	      0.00000000	      0.00000000	      0.00000000	      0.00000000	      0.00000000	      0.00000000	    -69.36934460	     -8.50441901	      0.00000000	      0.00000000	     60.04993163	    230.81342013	   -108.54375963	     -0.00000000	     -0.00000000
      0.34000000	      0.00000000	      0.00000000	      0.00000000	      0.00000000	      0.00000000	      0.00000000	      0.00000000	      0.00000000	      0.00000000	    -68.66122722	     -8.38594671	      0.00000000	      0.00000000	     58.51353224	    226.64632034	   -109.51953858	     -0.00000000	      0.00000000
      0.35000000	      0.00000000	      0.00000000	      0.00000000	      0.00000000	      0.00000000	      0.00000000	      0.00000000	      0.00000000	      0.00000000	    -68.01842842	     -8.27968726	      0.00000000	      0.00000000	     56.98584290	    222.45758213	   -110.38180370	     -0.00000000	     -0.00000000
      0.36000000	      0.00000000	      0.00000000	      0.00000000	      0.00000000	      0.00000000	      0.00000000	      0.00000000	      0.00000000	      0.00000000	    -67.51172873	     -8.19652301	      0.00000000	      0.00000000	     55.69368733	    218.88775652	   -111.04936915	     -0.00000000	      0.00000000
      0.37000000	      0.00000000	      0.00000000	      0.00000000	      0.00000000	      0.00000000	      0.00000000	      0.00000000	      0.00000000	      0.00000000	    -66.96371790	     -8.10718878	      0.00000000	      0.00000000	     54.21172068	    214.77346533	   -111.75895644	     -0.00000000	     -0.00000000
      0.38000000	      0.00000000	      0.00000000	      0.00000000	      0.00000000	      0.00000000	      0.00000000	      0.00000000	      0.00000000	      0.00000000	    -66.39808450	     -8.01599587	      0.00000000	      0.00000000	     52.59695894	    210.28050918	   -112.47323494	      0.00000000	      0.00000000
      0.39000000	      0.00000000	      0.00000000	      0.00000000	      0.00000000	      0.00000000	      0.00000000	      0.00000000	      0.00000000	      0.00000000	    -66.08984315	     -7.97166347	      0.00000000	      0.00000000	     51.74400434	    207.99113354	   -112.81934618	     -0.00000000	      0.00000000
      0.40000000	      0.00000000	      0.00000000	      0.00000000	      0.00000000	      0.00000000	      0.00000000	      0.00000000	      0.00000000	      0.00000000	    -65.52861538	     -7.88082115	      0.00000000	      0.00000000	     49.99611713	    203.08867351	   -113.52046622	     -0.00000000	      0.00000000
      0.41000000	      0.00000000	      0.00000000	      0.00000000	      0.00000000	      0.00000000	      0.00000000	      0.00000000	      0.00000000	      0.00000000	    -65.23432158	     -7.83858320	      0.00000000	      0.00000000	     49.12855821	    200.74802328	   -113.84588686	      0.00000000	      0.00000000
      0.42000000	      0.00000000	      0.00000000	      0.00000000	      0.00000000	      0.00000000	      0.00000000	      0.00000000	      0.00000000	      0.00000000	    -64.83485315	     -7.77841086	      0.00000000	      0.00000000	     47.93446935	    197.50114094	   -114.30825456	     -0.00000000	      0.00000000
      0.43000000	      0.00000000	      0.00000000	      0.00000000	      0.00000000	      0.00000000	      0.00000000	      0.00000000	      0.00000000	      0.00000000	    -64.60223583	     -7.74624838	      0.00000000	      0.00000000	     47.28891195	    195.80953160	   -114.55479444	     -0.00000000	     -0.00000000
      0.44000000	      0.00000000	      0.00000000	      0.00000000	      0.00000000	      0.00000000	      0.00000000	      0.00000000	      0.00000000	      0.00000000	    -64.33184028	     -7.71286467	      0.00000000	      0.00000000	     46.59952885	    194.08580605	   -114.81554644	      0.00000000	      0.00000000
      0.45000000	      0.00000000	      0.00000000	      0.00000000	      0.00000000	      0.00000000	      0.00000000	      0.00000000	      0.00000000	      0.00000000	    -64.18404036	     -7.69480341	      0.00000000	      0.00000000	     46.22891546	    193.16681403	   -114.95690083	     -0.00000000	     -0.00000000
      0.46000000	      0.00000000	      0.00000000	      0.00000000	      0.00000000	      0.00000000	      0.00000000	      0.00000000	      0.00000000	      0.00000000	    -64.08032339	     -7.69407719	      0.00000000	      0.00000000	     46.12219443	    193.13006142	   -114.98043385	     -0.00000000	      0.00000000
      0.47000000	      0.00000000	      0.00000000	      0.00000000	      0.00000000	      0.00000000	      0.00000000	      0.00000000	      0.00000000	      0.00000000	    -64.04109988	     -7.69420142	      0.00000000	      0.00000000	     46.08740370	    193.13634704	   -114.98779455	     -0.00000000	      0.00000000
      0.48000000	      0.00000000	      0.00000000	      0.00000000	      0.00000000	      0.00000000	      0.00000000	      0.00000000	      0.00000000	      0.00000000	    -64.04278224	     -7.71768713	      0.00000000	      0.00000000	     46.39404796	    194.33279281	   -114.83209151	      0.00000000	      0.00000000
      0.49000000	      0.00000000	      0.00000000	      0.00000000	      0.00000000	      0.00000000	      0.00000000	      0.00000000	      0.00000000	      0.00000000	    -64.13701693	     -7.73995838	      0.00000000	      0.00000000	     46.77379574	    195.48225943	   -114.67760252	     -0.00000000	     -0.00000000
      0.50000000	      0.00000000	      0.00000000	      0.00000000	      0.00000000	      0.00000000	      0.00000000	      0.00000000	      0.00000000	      0.00000000	    -64.21329706	     -7.78294827	      0.00000000	      0.00000000	     47.42596259	    197.74224208	   -114.37479594	     -0.00000000	      0.00000000
      0.51000000	      0.00000000	      0.00000000	      0.00000000	      0.00000000	      0.00000000	      0.00000000	      0.00000000	      0.00000000	      0.00000000	    -64.53473651	     -7.84593271	      0.00000000	      0.00000000	     48.59215115	    201.15196912	   -113.91896332	      0.00000000	      0.00000000
      0.52000000	      0.00000000	      0.00000000	      0.00000000	      0.00000000	      0.00000000	      0.00000000	      0.00000000	      0.00000000	      0.00000000	    -64.90525867	     -7.92559611	      0.00000000	      0.00000000	     50.05275781	    205.54026689	   -113.34563512	     -0.00000000	     -0.00000000
      0.53000000	      0.00000000	      0.00000000	      0.00000000	      0.00000000	      0.00000000	      0.00000000	      0.00000000	      0.00000000	      0.00000000	    -65.29725572	     -8.02463610	      0.00000000	      0.00000000	     51.72156803	    210.71873835	   -112.61374897	      0.00000000	     -0.00000000
      0.54000000	      0.00000000	      0.00000000	      0.00000000	      0.00000000	      0.00000000	      0.00000000	      0.00000000	      0.00000000	      0.00000000	    -65.77803632	     -8.12802632	      0.00000000	      0.00000000	     53.40491708	    215.75875665	   -111.83622346	      0.00000000	      0.00000000
      0.55000000	      0.00000000	      0.00000000	      0.00000000	      0.00000000	      0.00000000	      0.00000000	      0.00000000	      0.00000000	      0.00000000	    -66.36740452	     -8.25150314	      0.00000000	      0.00000000	     55.26684541	    221.27618523	   -110.88626882	     -0.00000000	      0.00000000
      0.56000000	      0.00000000	      0.00000000	      0.00000000	      0.00000000	      0.00000000	      0.00000000	      0.00000000	      0.00000000	      0.00000000	    -67.08219438	     -8.39848013	      0.00000000	      0.00000000	     57.26236903	    227.11245333	   -109.72645868	      0.00000000	     -0.00000000
      0.57000000	      0.00000000	      0.00000000	      0.00000000	      0.00000000	      0.00000000	      0.00000000	      0.00000000	      0.00000000	      0.00000000	    -67.96176906	     -8.57917539	      0.00000000	      0.00000000	     59.36767550	    233.16451109	   -108.25370920	      0.00000000	      0.00000000
      0.58000000	      0.00000000	      0.00000000	      0.00000000	      0.00000000	      0.00000000	      0.00000000	      0.00000000	      0.00000000	      0.00000000	    -68.88641778	     -8.76098991	      0.00000000	      0.00000000	     61.29979065	    237.83338910	   -106.72034591	     -0.00000000	     -0.00000000
      0.59000000	      0.00000000	      0.00000000	      0.00000000	      0.00000000	      0.00000000	      0.00000000	      0.00000000	      0.00000000	      0.00000000	    -69.98427693	     -8.98335873	      0.00000000	      0.00000000	     63.24218758	    244.15668270	   -104.80778519	      0.00000000	      0.00000000
      0.60000000	      0.00000000	      0.00000000	      0.00000000	      0.00000000	      0.00000000	      0.00000000	      0.00000000	      0.00000000	      0.00000000	    -71.18870753	     -9.22124988	      0.00000000	      0.00000000	     62.48876302	    239.09785455	   -102.66415870	      0.00000000	      0.00000000
      0.61000000	      0.00000000	      0.00000000	      0.00000000	      0.00000000	      0.00000000	      0.00000000	      0.00000000	      0.00000000	      0.00000000	    -72.48538301	     -9.47922887	      0.00000000	      0.00000000	     61.71960965	    233.92217934	   -100.25487023	     -0.00000000	     -0.00000000
      0.62000000	      0.00000000	      0.00000000	      0.00000000	      0.00000000	      0.00000000	      0.00000000	      0.00000000	      0.00000000	      0.00000000	    -73.97427369	     -9.77354341	      0.00000000	      0.00000000	     60.96378691	    228.52864728	    -97.39019107	      0.00000000	     -0.00000000
      0.63000000	      0.00000000	      0.00000000	      0.00000000	      0.00000000	      0.00000000	      0.00000000	      0.00000000	      0.00000000	      0.00000000	    -75.59247785	    -10.09450945	      0.00000000	      0.00000000	     60.34189259	    223.43910175	    -94.12297951	      0.00000000	      0.00000000
      0.64000000	      0.00000000	      0.00000000	      0.00000000	      0.00000000	      0.00000000	      0.00000000	      0.00000000	      0.00000000	      0.00000000	    -77.39797246	    -10.45372435	      0.00000000	      0.00000000	     59.99441385	    218.98613956	    -90.29181621	      0.00000000	      0.00000000
      0.65000000	      0.00000000	      0.00000000	      0.00000000	      0.00000000	      0.00000000	      0.00000000	      0.00000000	      0.00000000	      0.00000000	    -79.31102919	    -10.83651890	      0.00000000	      0.00000000	     60.16007056	    216.06203015	    -85.98573341	      0.00000000	     -0.00000000
      0.66000000	      0.00000000	      0.00000000	      0.00000000	      0.00000000	      0.00000000	      0.00000000	      0.00000000	      0.00000000	      0.00000000	    -81.38163139	    -11.25508057	      0.00000000	      0.00000000	     60.96353929	    214.99814931	    -81.01955368	     -0.00000000	      0.00000000
      0.67000000	      0.00000000	      0.00000000	      0.00000000	      0.00000000	      0.00000000	      0.00000000	      0.00000000	      0.00000000	      0.00000000	    -83.65102207	    -11.72436623	      0.00000000	      0.00000000	     61.81987796	    214.10497767	    -75.13442643	     -0.00000000	      0.00000000
      0.68000000	      0.00000000	      0.00000000	      0.00000000	      0.00000000	      0.00000000	      0.00000000	      0.00000000	      0.00000000	      0.00000000	    -86.01309324	    -12.21868349	      0.00000000	      0.00000000	     62.36889545	    212.53360754	    -68.52312891	      0.00000000	      0.00000000
      0.69000000	      0.00000000	      0.00000000	      0.00000000	      0.00000000	      0.00000000	      0.00000000	      0.00000000	      0.00000000	      0.00000000	    -88.27278178	    -12.72040341	      0.00000000	      0.00000000	     62.20094485	    209.26479280	    -61.36573394	      0.00000000	     -0.00000000
      0.70000000	      0.00000000	      0.00000000	      0.00000000	      0.00000000	      0.00000000	      0.00000000	      0.00000000	      0.00000000	      0.00000000	    -90.55735878	    -13.24878152	      0.00000000	      0.00000000	     61.23082364	    203.95245953	    -53.28770510	      0.00000000	      0.00000000
      0.71000000	      0.00000000	      0.00000000	      0.00000000	      0.00000000	      0.00000000	      0.00000000	      0.00000000	      0.00000000	      0.00000000	    -92.73010808	    -13.78494702	      0.00000000	      0.00000000	     59.90621166	    198.53013229	    -44.47920274	     -0.00000000	      0.00000000
      0.72000000	      0.00000000	      0.00000000	      0.00000000	      0.00000000	      0.00000000	      0.00000000	      0.00000000	      0.00000000	      0.00000000	    -94.58116153	    -14.28864394	      0.00000000	      0.00000000	     58.07297133	    192.48700047	    -35.54584874	     -0.00000000	      0.00000000
      0.73000000	      0.00000000	      0.00000000	      0.00000000	      0.00000000	      0.00000000	      0.00000000	      0.00000000	      0.00000000	      0.00000000	    -96.17826891	    -14.77403846	      0.00000000	      0.00000000	     55.60941785	    185.01195710	    -26.24086059	      0.00000000	     -0.00000000
      0.74000000	      0.00000000	      0.00000000	      0.00000000	      0.00000000	      0.00000000	      0.00000000	      0.00000000	      0.00000000	      0.00000000	    -97.44205532	    -15.22346481	      0.00000000	      0.00000000	     53.14999691	    177.65550181	    -16.89006250	      0.00000000	     -0.00000000
      0.75000000	      0.00000000	      0.00000000	      0.00000000	      0.00000000	      0.00000000	      0.00000000	      0.00000000	      0.00000000	      0.00000000	    -98.33498017	    -15.62236558	      0.00000000	      0.00000000	     50.84146589	    170.88290524	     -7.85571724	     -0.00000000	     -0.00000000
      0.76000000	      0.00000000	      0.00000000	      0.00000000	      0.00000000	      0.00000000	      0.00000000	      0.00000000	      0.00000000	      0.00000000	    -98.94142644	    -15.99680790	      0.00000000	      0.00000000	     48.57047895	    164.20208055	      1.43390216	     -0.00000000	     -0.00000000
      0.77000000	      0.00000000	      0.00000000	      0.00000000	      0.00000000	      0.00000000	      0.00000000	      0.00000000	      0.00000000	      0.00000000	    -99.18460639	    -16.29590517	      0.00000000	      0.00000000	     46.51300382	    158.28554506	      9.59516268	     -0.00000000	     -0.00000000
