PassiveFiberForceAlongTendon
version=1
nRows=55
nColumns=19
inDegrees=no

This analysis gathers basic information about muscles during a simulation (e.g., forces, tendon lengths, moment arms, etc).
Units are S.I. units (second, meters, Newtons, ...)
If the header above contains a line with 'inDegrees', this indicates whether rotational values are in degrees (yes) or radians (no).

endheader
time	hamstrings_r	bifemsh_r	glut_max_r	iliopsoas_r	rect_fem_r	vasti_r	gastroc_r	soleus_r	dorsiflexors_r	hamstrings_l	bifemsh_l	glut_max_l	iliopsoas_l	rect_fem_l	vasti_l	gastroc_l	soleus_l	dorsiflexors_l
      0.23000000	     -2.67592302	     -3.86015834	     62.74885262	     70.25966234	     64.70455569	     61.88081081	      2.01926949	    -28.60259197	     -5.86398826	     -7.83231472	      3.04392390	     41.67163983	     72.76222035	      4.00503380	    -11.66242094	     26.01138956	      6.13309460	     -1.34264474
      0.24000000	     -0.53896539	     -3.45113541	     66.00886497	     67.45778898	     64.20973711	     58.24576329	      3.83270814	    -28.22995548	     -4.93898896	     -8.19678804	      2.93716804	     38.82648803	     74.42930118	      4.52980447	     -9.73301155	     21.92131589	      2.89512497	     -1.04503245
      0.25000000	      1.55134732	     -3.00771975	     69.16602027	     64.84314320	     63.23612940	     54.47411285	     23.59186333	      7.70633773	     -9.16838663	     -7.81905244	      3.13093355	     35.03510171	     76.62728632	      2.82304133	    -12.57571198	     22.17549153	     -2.06587981	     -0.68340478
      0.26000000	      4.34925384	     -2.55191426	     73.37729759	     61.88117947	     61.21789785	     50.68473357	     51.88263256	     62.14638347	    -14.44194764	     -6.10792545	      3.15600984	     33.57183580	     77.97082044	      1.71247891	    -12.70141697	     20.63665940	     -5.01850356	     -0.46923719
      0.27000000	      6.47650996	     -2.02676738	     76.33501267	     59.60365196	     58.90311329	     46.22736709	     39.96948417	     43.22939147	    -10.22691135	     -6.77418758	      3.02800608	     31.48079672	     79.61065809	      2.65301640	    -10.36162407	     16.46528713	     -7.56024494	     -0.29845541
      0.28000000	      8.97816677	     -1.53511134	     79.84885522	     57.27522736	     55.93015659	     42.01411419	     44.23845149	     55.08953187	    -10.20229398	     -6.28278599	      3.19749016	     28.60668065	     81.70454194	      1.01124576	    -12.90656479	     19.05812347	     -8.30060558	     -0.24017072
      0.29000000	     11.54211868	     -1.10538287	     83.78730070	     54.91916041	     52.52411646	     38.28973893	     44.47171309	     59.60780685	     -9.26162926	     -5.53722224	      3.07251130	     28.02932596	     82.88458072	      1.50805439	    -10.50518868	     14.97001739	    -10.56876830	     -0.09864941
      0.30000000	     14.56361034	     -0.70010933	     88.36317877	     52.44895952	     48.45314041	     34.66990765	     43.65069765	     62.38657057	     -8.24464649	     -4.31803823	      2.98332629	     27.94632370	     83.84891104	      1.71400846	     -8.38011618	     12.56972120	    -11.09051884	     -0.06316306
      0.31000000	     17.13187560	     -0.22026119	     91.95690946	     50.58952324	     44.16671431	     30.17138066	     31.71158906	     47.35476466	     -5.81758986	     -4.36658511	      3.08879756	     25.78471264	     85.63840458	      0.95327624	     -9.62072630	     15.98156040	     -8.55278217	     -0.20518057
      0.32000000	     20.32119939	      0.14582170	     96.79381073	     48.35675445	     39.40268179	     26.63722029	     29.36204227	     47.72383033	     -5.13194604	     -2.97691624	      3.01129765	     26.07678299	     86.51448925	      1.14146568	     -7.68783929	     13.91016229	     -8.62933050	     -0.18962860
      0.33000000	     23.63019129	      0.53447456	    101.89825321	     46.18596224	     34.22157445	     22.78555508	     27.08543366	     48.19434503	     -4.41488782	     -1.73868338	      2.91357814	     26.77123957	     87.02901634	      1.52183050	     -5.63157744	     11.23600192	     -9.06111195	     -0.15799859
      0.34000000	     25.49674617	      1.01959961	    104.78546945	     45.20160021	     29.72560627	     17.86603849	     11.58481455	     28.36130653	     -2.63986153	     -2.73357430	      3.01873600	     24.18820470	     88.94315414	      1.13229061	     -6.80018635	     14.80531762	     -6.20917790	     -0.30816773
      0.35000000	     29.26963215	      1.36979781	    110.43690414	     43.10360890	     24.12781943	     14.18447405	     13.54780794	     34.70039447	     -2.68953651	     -0.96467475	      2.89092544	     25.66574949	     89.20345463	      1.58960487	     -4.31292105	     11.90033975	     -5.63501032	     -0.32539041
      0.36000000	     32.35366435	      1.85451868	    114.90361517	     41.74012208	     18.65739256	      9.11216825	      3.85657668	     23.58126534	     -1.78541671	     -0.52135726	      2.84300284	     25.68831271	     89.88020257	      1.86298320	     -3.22597905	     11.80000108	     -3.30173223	     -0.43569251
      0.37000000	     34.15024998	      2.33793031	    118.05354053	     41.09410434	     13.96416576	      3.94842024	      0.47333975	     21.63944110	     -1.51754589	     -1.24264160	      2.98267773	     23.41637282	     91.53590089	      1.16283514	     -4.97094548	     16.11409269	     -0.52441230	     -0.55940114
      0.38000000	     36.15345128	      2.93166210	    120.55019275	     40.80720829	      9.06967280	     -2.40796682	    -15.98170995	      0.38918151	     -0.43378693	     -2.12958234	      2.76698139	     23.29840089	     92.40213511	      3.02842039	     -1.38658526	      8.13597719	     -4.98427080	     -0.29970479
      0.39000000	     39.04404457	      3.43109241	    123.99164421	     40.06032827	      3.74612139	     -8.02831778	     -6.76306794	     15.54284998	     -1.07402015	     -1.46316165	      2.84377067	     22.73264250	     93.37379600	      2.30290969	     -2.34489078	     13.07209611	      0.96365728	     -0.59029238
      0.40000000	     42.69420859	      4.01117171	    127.74951984	     39.25430951	     -2.14927864	    -14.62238295	     -9.05643940	     12.76694624	     -0.82863178	     -0.45646722	      2.87099532	     22.87599488	     94.07936339	      1.89569870	     -2.38340157	     12.66005188	      0.14377556	     -0.51155006
      0.41000000	     43.22844467	      4.66525854	    127.95816967	     40.05849814	     -6.38857615	    -22.26889903	    -16.66164431	      1.95044329	     -0.38811855	     -2.51006092	      2.74689861	     21.25829554	     95.41679683	      3.34254235	     -0.47979366	     11.33357144	      3.30478913	     -0.64148705
      0.42000000	     48.25069033	      5.18187946	    131.97497271	     38.91768075	    -12.95986886	    -28.89812461	    -11.37365251	      7.23908255	     -0.53675789	      0.03563169	      2.80595001	     22.63028273	     95.66429148	      2.23763922	     -1.09955194	     11.57739123	      2.19411598	     -0.54476457
      0.43000000	     46.52129944	      5.92914847	    129.19692264	     41.05713198	    -16.19822050	    -38.32669930	    -18.64367984	     -5.36535190	     -0.07901634	     -3.77125036	      2.68550192	     19.46018191	     97.51686949	      4.11341104	      0.65434885	      9.64471735	      4.08944832	     -0.60698913
      0.44000000	     51.72677734	      6.35798668	    131.59865781	     40.16216316	    -22.73746372	    -45.03627966	     -7.17699148	      2.43316994	     -0.33652377	     -0.81682498	      2.72540599	     21.26143422	     97.76277259	      3.00069211	      0.20860776	      9.48146410	      2.82636997	     -0.50776742
      0.45000000	     49.51431705	      7.03419871	    127.69886624	     42.60161268	    -25.79736896	    -54.90371282	    -10.29546107	    -12.50126698	      0.17669745	     -4.48376933	      2.59852856	     18.32062697	     99.42893845	      4.82848672	      1.97030950	      8.33785455	      6.15839334	     -0.62707277
      0.46000000	     53.99479819	      7.27734779	    128.10261417	     42.07238609	    -31.70689030	    -60.87646077	      6.78912596	     -2.37747547	     -0.16974272	     -1.44171781	      2.59839619	     20.44147427	     99.66866086	      3.94516749	      1.97385927	      7.70089069	      5.36361124	     -0.54418301
      0.47000000	     49.83982446	      7.80220789	    122.13104534	     45.20123471	    -33.81816979	    -70.71305323	      5.47642361	    -19.75614856	      0.42411039	     -5.86194036	      2.52659075	     16.45175580	    101.63416561	      5.60451802	      2.94048506	      4.52835862	      2.82541077	     -0.42333610
      0.48000000	     52.33544390	      7.76591714	    119.73310617	     45.31401484	    -37.97370300	    -74.28524548	     24.37991661	     -9.59011066	      0.07080408	     -3.43577150	      2.46775072	     18.24889683	    102.28194588	      5.27539246	      3.68678398	      4.81098496	      5.51235463	     -0.49125946
      0.49000000	     49.72874967	      7.86208163	    115.98891474	     47.09803048	    -38.77352841	    -78.50873529	     27.08313567	    -21.96884393	      0.51061027	     -5.37408550	      2.44720828	     16.31525894	    103.31646882	      5.92192335	      3.92254957	      2.44554572	      2.18144337	     -0.34878733
      0.50000000	     42.39960246	      7.76654088	    104.63796725	     51.03896311	    -36.69695022	    -80.25136001	     35.09114573	    -27.31702248	      0.74109724	     -9.48737168	      2.31100818	     12.14395336	    106.59237152	      7.86688185	      5.71852460	      1.20191071	      4.81183983	     -0.41659890
      0.51000000	     56.70485817	      6.93371093	    117.27278066	     44.65008098	    -40.09906126	    -69.71042880	     51.25855021	     -7.42702796	     -0.02782559	      2.55085508	      2.23279359	     24.21401511	    102.19325850	      5.26473524	      6.72329692	      2.31125115	      8.89959290	     -0.53175569
      0.52000000	     35.50190013	      6.96847852	     97.95421539	     53.30389458	    -29.82187013	    -70.08832762	     28.63968011	    -54.52030119	      1.89885591	    -11.66885446	      2.10707679	     10.62314746	    108.07589121	      9.91960971	      8.42739176	      4.02530297	     15.25246442	     -0.68181919
      0.53000000	     34.10781593	      6.19988572	     95.18816883	     53.28320098	    -25.88622990	    -59.21628774	     33.63073468	    -46.25828503	      1.72146404	     -9.81678980	      2.03772850	     11.85827674	    109.14803371	      9.97755156	      9.34814874	     -0.56873641	      9.12395916	     -0.44795197
      0.54000000	     36.07550506	      5.42202303	     97.56259345	     51.50550190	    -23.23274895	    -48.60618499	     36.81949519	    -32.27850601	      1.09898568	     -6.17891117	      1.95240701	     15.46598720	    108.61380512	      9.76606693	     10.52934264	     -1.24157819	      9.73590154	     -0.43076346
      0.55000000	     31.05587850	      4.79571241	     94.42779441	     52.43045079	    -17.95247671	    -39.51983255	     29.75463800	    -32.82606392	      1.16018216	     -7.42870791	      1.81768242	     14.49096445	    109.81766149	     11.24178208	     12.48838018	     -5.16742195	      6.57049383	     -0.31657555
      0.56000000	     24.51919283	      4.26748254	     90.08937373	     53.99319484	    -12.10848654	    -30.28933694	     14.88867337	    -45.23743468	      1.88629015	     -9.88405899	      1.58976069	     12.85514257	    111.26328685	     13.85286495	     15.97214326	     -9.35144671	      5.52375903	     -0.26967027
      0.57000000	     23.84845193	      3.40118177	     92.09945720	     52.54376868	     -5.68178653	    -14.21130144	     13.24858520	    -21.90632087	      0.56376731	     -8.00254419	      1.46825178	     14.82936998	    111.46806546	     14.56638059	     17.79086973	    -18.86589142	     -6.71851683	      0.04298360
      0.58000000	     20.68485689	      3.04069455	     91.05156465	     52.88808528	     -1.94650502	     -7.67342413	     -3.22910070	    -37.53583414	      1.50392224	     -8.63717080	      1.30585436	     14.71026836	    112.00070350	     16.29665580	     20.26450479	    -16.51181240	     -0.38806404	     -0.11452678
      0.59000000	     14.33579886	      2.69710639	     86.39694043	     54.67505216	      2.52433912	     -1.74773915	    -17.97052285	    -51.96327680	      2.50527172	    -10.93923218	      1.01716452	     13.37791516	    113.38727814	     19.59239785	     24.98080011	    -22.55440101	     -3.47526011	     -0.03277245
      0.60000000	     14.45680558	      1.92141752	     90.23233547	     52.71719631	      6.81919695	     10.28751272	    -21.36940917	    -30.57629355	      1.09460210	     -9.03570678	      0.88475559	     15.60841352	    113.05336144	     19.72223440	     25.87711493	    -33.94538520	    -18.10107832	      0.32494987
      0.61000000	      9.69625919	      1.63476441	     87.60327451	     53.78863411	     10.21533528	     14.69248292	    -35.79883675	    -47.29197541	      2.28057374	    -10.77453288	      0.57262172	     15.05011654	    113.80795428	     22.22300289	     29.55179152	    -37.92602705	    -18.33380377	      0.33967826
      0.62000000	      7.89192413	      1.14513156	     88.54277984	     53.23590498	     13.82857459	     22.50727508	    -40.83269934	    -41.59348298	      1.88858139	    -10.45547468	      0.26215010	     16.70905898	    113.51577588	     24.04643199	     32.80593845	    -49.52861206	    -29.99637361	      0.67681921
      0.63000000	      4.95601668	      0.85385555	     87.57437333	     53.59578047	     16.85959527	     27.47581759	    -45.77470973	    -44.24774755	      2.10295374	    -11.10393837	     -0.10271433	     17.63584154	    113.36674659	     26.45776294	     36.61232812	    -57.40787637	    -36.34936285	      0.92052684
      0.64000000	      2.89219960	      0.55275042	     87.27865210	     53.64584518	     18.68684349	     30.84394059	    -46.61507473	    -40.28949813	      1.78772130	    -11.24388897	     -0.50862340	     19.38739742	    112.67353986	     29.01800495	     40.73724056	    -69.06287025	    -48.62847522	      1.42239756
      0.65000000	      3.25319324	      0.23251548	     89.15835258	     52.73245528	     19.42291452	     34.09130850	    -46.39930850	    -35.09802712	      1.34346213	     -9.96380293	     -0.88328731	     22.62888072	    111.11766252	     31.11235097	     44.35489272	    -84.57253017	    -69.31311598	      2.42471888
      0.66000000	     -1.03184520	      0.26844162	     85.55263224	     54.37302376	     20.00517033	     31.63929231	    -38.33249523	    -26.90589859	      0.63965048	    -11.99189471	     -1.49428405	     23.62862705	    110.06559757	     35.99977467	     51.47642747	    -90.79178709	    -74.31617321	      3.02705098
      0.67000000	      2.83259275	      0.15886372	     88.45896188	     52.93025609	     18.08548107	     31.76709301	    -27.33393348	     -8.74744459	     -0.88965714	     -9.30515292	     -2.14422219	     30.37698156	    106.56123428	     39.98900021	     58.87340145	   -103.92405482	    -91.90401571	      4.39503471
      0.68000000	      1.12105266	      0.18339631	     87.45418821	     53.45188014	     17.98580774	     29.99955387	    -21.05592144	     -2.01580216	     -1.35325140	     -9.62871022	     -2.58810138	     32.65572961	    103.88838399	     43.22699070	     63.03681790	   -110.62651053	   -106.90411075	      6.02800448
      0.69000000	     -4.65517607	      0.50598264	     80.03914445	     56.70784340	     18.23304054	     24.30766746	    -11.75218125	      3.63615508	     -1.72089686	    -12.41866239	     -3.13458293	     32.31247755	    102.66520744	     47.89023443	     68.09868016	   -120.12357063	   -126.80421919	      8.29915896
      0.70000000	      1.84867845	      0.54352660	     83.88845324	     54.81143441	     14.79135477	     23.08657040	     -0.02097643	     20.94408586	     -2.84647956	     -8.50673796	     -3.87411227	     41.66393580	     97.07426440	     51.35729414	     74.90147962	   -123.71859224	   -137.55485111	     10.22886870
      0.71000000	     -2.07351493	      0.84907107	     78.44027986	     57.22893703	     14.65331062	     18.16997150	      4.54265994	     20.63892557	     -2.55371133	     -9.86676593	     -4.21582564	     42.40774036	     94.36564477	     54.10980773	     76.37265858	   -118.21739760	   -139.34207749	     11.14017845
      0.72000000	     -4.64150546	      1.28188500	     72.05971240	     59.93884471	     13.28834081	     11.67896623	     12.33745009	     23.84435769	     -2.50619182	    -10.26764313	     -4.44476628	     43.62376936	     91.79255928	     56.20947347	     76.47965995	   -117.56897738	   -150.85061537	     12.86400303
      0.73000000	     -0.43798503	      1.36429879	     72.92027401	     59.37112415	     10.82618755	     10.34977403	     18.46818151	     31.63818949	     -2.69875611	     -6.78519833	     -4.81768603	     51.05953474	     86.51877095	     57.47678173	     78.07772328	   -110.90842167	   -150.35668720	     12.93288862
      0.74000000	     -7.66648508	      1.98045025	     61.71525699	     64.31850893	     10.58465051	      1.46934917	     15.94422608	     15.55510077	     -1.51009245	     -9.79913971	     -4.69531602	     47.63827961	     85.45520229	     59.40974388	     74.31750294	    -84.70390608	   -116.25812732	      8.36224323
      0.75000000	     -2.40252723	      1.98960584	     62.36074579	     63.88072054	      8.04664742	      1.47688529	     20.51882178	     22.57241991	     -1.75449616	     -5.15208271	     -4.85590615	     55.65427922	     80.40055912	     59.94215248	     74.39589264	    -73.71582225	   -107.69609069	      6.88619766
      0.76000000	      2.28435252	      1.92280559	     65.22693863	     62.57733923	      6.32491392	      2.46349905	     25.16582747	     30.64917903	     -1.89095929	     -0.30440306	     -4.81004445	     64.14139669	     74.18139462	     58.92756277	     72.68900073	    -72.78584433	   -120.05897003	      7.88734720
      0.77000000	    -21.21834768	      3.25711161	     35.41940152	     75.93482715	      8.80727340	    -16.49891651	      9.40073672	    -17.96013424	      0.38730927	    -12.78155018	     -3.79756686	     43.95594692	     80.52090929	     63.86813720	     61.51501241	    -22.87073011	    -35.51648121	     -3.77484253
