MomentArm_hip_flexion_l
version=1
nRows=55
nColumns=19
inDegrees=no

This analysis gathers basic information about muscles during a simulation (e.g., forces, tendon lengths, moment arms, etc).
Units are S.I. units (second, meters, Newtons, ...)
If the header above contains a line with 'inDegrees', this indicates whether rotational values are in degrees (yes) or radians (no).

endheader
time	hamstrings_r	bifemsh_r	glut_max_r	iliopsoas_r	rect_fem_r	vasti_r	gastroc_r	soleus_r	dorsiflexors_r	hamstrings_l	bifemsh_l	glut_max_l	iliopsoas_l	rect_fem_l	vasti_l	gastroc_l	soleus_l	dorsiflexors_l
      0.23000000	      0.00000000	      0.00000000	      0.00000000	      0.00000000	      0.00000000	      0.00000000	      0.00000000	      0.00000000	      0.00000000	     -0.08434036	      0.00000000	     -0.08073961	      0.02910927	      0.03157416	      0.00000000	      0.00000000	     -0.00000000	     -0.00000000
      0.24000000	      0.00000000	      0.00000000	      0.00000000	      0.00000000	      0.00000000	      0.00000000	      0.00000000	      0.00000000	      0.00000000	     -0.08381103	      0.00000000	     -0.08101460	      0.02885008	      0.03070608	     -0.00000000	      0.00000000	      0.00000000	      0.00000000
      0.25000000	      0.00000000	      0.00000000	      0.00000000	      0.00000000	      0.00000000	      0.00000000	      0.00000000	      0.00000000	      0.00000000	     -0.08324062	     -0.00000000	     -0.08125989	      0.02858711	      0.02983526	      0.00000000	      0.00000000	      0.00000000	      0.00000000
      0.26000000	      0.00000000	      0.00000000	      0.00000000	      0.00000000	      0.00000000	      0.00000000	      0.00000000	      0.00000000	      0.00000000	     -0.08264098	     -0.00000000	     -0.08147546	      0.02832053	      0.02898268	     -0.00000000	     -0.00000000	      0.00000000	      0.00000000
      0.27000000	      0.00000000	      0.00000000	      0.00000000	      0.00000000	      0.00000000	      0.00000000	      0.00000000	      0.00000000	      0.00000000	     -0.08206097	      0.00000000	     -0.08164522	      0.02807556	      0.02820200	      0.00000000	      0.00000000	     -0.00000000	      0.00000000
      0.28000000	      0.00000000	      0.00000000	      0.00000000	      0.00000000	      0.00000000	      0.00000000	      0.00000000	      0.00000000	      0.00000000	     -0.08142463	      0.00000000	     -0.08179641	      0.02781570	      0.02739054	      0.00000000	     -0.00000000	     -0.00000000	      0.00000000
      0.29000000	      0.00000000	      0.00000000	      0.00000000	      0.00000000	      0.00000000	      0.00000000	      0.00000000	      0.00000000	      0.00000000	     -0.08079780	     -0.00000000	     -0.08191308	      0.02756866	      0.02662869	     -0.00000000	     -0.00000000	     -0.00000000	     -0.00000000
      0.30000000	      0.00000000	      0.00000000	      0.00000000	      0.00000000	      0.00000000	      0.00000000	      0.00000000	      0.00000000	      0.00000000	     -0.08020340	     -0.00000000	     -0.08199721	      0.02734192	      0.02590479	     -0.00000000	     -0.00000000	      0.00000000	      0.00000000
      0.31000000	      0.00000000	      0.00000000	      0.00000000	      0.00000000	      0.00000000	      0.00000000	      0.00000000	      0.00000000	      0.00000000	     -0.07963553	      0.00000000	     -0.08205588	      0.02713090	      0.02520117	      0.00000000	      0.00000000	      0.00000000	      0.00000000
      0.32000000	      0.00000000	      0.00000000	      0.00000000	      0.00000000	      0.00000000	      0.00000000	      0.00000000	      0.00000000	      0.00000000	     -0.07903561	      0.00000000	     -0.08209672	      0.02691224	      0.02447520	     -0.00000000	      0.00000000	      0.00000000	      0.00000000
      0.33000000	      0.00000000	      0.00000000	      0.00000000	      0.00000000	      0.00000000	      0.00000000	      0.00000000	      0.00000000	      0.00000000	     -0.07856432	      0.00000000	     -0.08211422	      0.02674464	      0.02392293	     -0.00000000	      0.00000000	     -0.00000000	     -0.00000000
      0.34000000	      0.00000000	      0.00000000	      0.00000000	      0.00000000	      0.00000000	      0.00000000	      0.00000000	      0.00000000	      0.00000000	     -0.07804728	      0.00000000	     -0.08211960	      0.02656347	      0.02332802	     -0.00000000	     -0.00000000	     -0.00000000	      0.00000000
      0.35000000	      0.00000000	      0.00000000	      0.00000000	      0.00000000	      0.00000000	      0.00000000	      0.00000000	      0.00000000	      0.00000000	     -0.07755521	      0.00000000	     -0.08211181	      0.02639434	      0.02277583	      0.00000000	      0.00000000	     -0.00000000	     -0.00000000
      0.36000000	      0.00000000	      0.00000000	      0.00000000	      0.00000000	      0.00000000	      0.00000000	      0.00000000	      0.00000000	      0.00000000	     -0.07716108	      0.00000000	     -0.08209685	      0.02626082	      0.02234172	      0.00000000	     -0.00000000	     -0.00000000	      0.00000000
      0.37000000	      0.00000000	      0.00000000	      0.00000000	      0.00000000	      0.00000000	      0.00000000	      0.00000000	      0.00000000	      0.00000000	     -0.07672764	     -0.00000000	     -0.08207172	      0.02611590	      0.02187230	      0.00000000	      0.00000000	     -0.00000000	     -0.00000000
      0.38000000	      0.00000000	      0.00000000	      0.00000000	      0.00000000	      0.00000000	      0.00000000	      0.00000000	      0.00000000	      0.00000000	     -0.07625984	      0.00000000	     -0.08203473	      0.02596187	      0.02137584	      0.00000000	      0.00000000	      0.00000000	      0.00000000
      0.39000000	      0.00000000	      0.00000000	      0.00000000	      0.00000000	      0.00000000	      0.00000000	      0.00000000	      0.00000000	      0.00000000	     -0.07582282	      0.00000000	     -0.08199237	      0.02582349	      0.02093803	      0.00000000	      0.00000000	     -0.00000000	      0.00000000
      0.40000000	      0.00000000	      0.00000000	      0.00000000	      0.00000000	      0.00000000	      0.00000000	      0.00000000	      0.00000000	      0.00000000	     -0.07539461	     -0.00000000	     -0.08194118	      0.02568498	      0.02049317	     -0.00000000	     -0.00000000	     -0.00000000	      0.00000000
      0.41000000	      0.00000000	      0.00000000	      0.00000000	      0.00000000	      0.00000000	      0.00000000	      0.00000000	      0.00000000	      0.00000000	     -0.07498659	      0.00000000	     -0.08188666	      0.02555853	      0.02009560	      0.00000000	     -0.00000000	      0.00000000	      0.00000000
      0.42000000	      0.00000000	      0.00000000	      0.00000000	      0.00000000	      0.00000000	      0.00000000	      0.00000000	      0.00000000	      0.00000000	     -0.07453883	     -0.00000000	     -0.08181820	      0.02541988	      0.01965868	      0.00000000	      0.00000000	     -0.00000000	      0.00000000
      0.43000000	      0.00000000	      0.00000000	      0.00000000	      0.00000000	      0.00000000	      0.00000000	      0.00000000	      0.00000000	      0.00000000	     -0.07418082	     -0.00000000	     -0.08175834	      0.02531161	      0.01932125	      0.00000000	      0.00000000	     -0.00000000	     -0.00000000
      0.44000000	      0.00000000	      0.00000000	      0.00000000	      0.00000000	      0.00000000	      0.00000000	      0.00000000	      0.00000000	      0.00000000	     -0.07362799	     -0.00000000	     -0.08165688	      0.02514776	      0.01881527	     -0.00000000	      0.00000000	      0.00000000	      0.00000000
      0.45000000	      0.00000000	      0.00000000	      0.00000000	      0.00000000	      0.00000000	      0.00000000	      0.00000000	      0.00000000	      0.00000000	     -0.07332082	      0.00000000	     -0.08159541	      0.02505766	      0.01853802	     -0.00000000	      0.00000000	     -0.00000000	     -0.00000000
      0.46000000	      0.00000000	      0.00000000	      0.00000000	      0.00000000	      0.00000000	      0.00000000	      0.00000000	      0.00000000	      0.00000000	     -0.07268823	      0.00000000	     -0.08146030	      0.02487764	      0.01799265	      0.00000000	      0.00000000	     -0.00000000	      0.00000000
      0.47000000	      0.00000000	      0.00000000	      0.00000000	      0.00000000	      0.00000000	      0.00000000	      0.00000000	      0.00000000	      0.00000000	     -0.07243517	     -0.00000000	     -0.08140221	      0.02480637	      0.01777756	     -0.00000000	      0.00000000	     -0.00000000	      0.00000000
      0.48000000	      0.00000000	      0.00000000	      0.00000000	      0.00000000	      0.00000000	      0.00000000	      0.00000000	      0.00000000	      0.00000000	     -0.07162414	      0.00000000	     -0.08120266	      0.02458289	      0.01710987	     -0.00000000	      0.00000000	      0.00000000	      0.00000000
      0.49000000	      0.00000000	      0.00000000	      0.00000000	      0.00000000	      0.00000000	      0.00000000	      0.00000000	      0.00000000	      0.00000000	     -0.07144229	      0.00000000	     -0.08115644	      0.02453503	      0.01697056	     -0.00000000	     -0.00000000	     -0.00000000	     -0.00000000
      0.50000000	      0.00000000	      0.00000000	      0.00000000	      0.00000000	      0.00000000	      0.00000000	      0.00000000	      0.00000000	      0.00000000	     -0.07041999	     -0.00000000	     -0.08086745	      0.02426106	      0.01616069	     -0.00000000	      0.00000000	     -0.00000000	      0.00000000
      0.51000000	      0.00000000	      0.00000000	      0.00000000	      0.00000000	      0.00000000	      0.00000000	      0.00000000	      0.00000000	      0.00000000	     -0.07025544	     -0.00000000	     -0.08082419	      0.02422321	      0.01605953	     -0.00000000	      0.00000000	      0.00000000	      0.00000000
      0.52000000	      0.00000000	      0.00000000	      0.00000000	      0.00000000	      0.00000000	      0.00000000	      0.00000000	      0.00000000	      0.00000000	     -0.06982117	      0.00000000	     -0.08069614	      0.02411517	      0.01575295	      0.00000000	      0.00000000	     -0.00000000	     -0.00000000
      0.53000000	      0.00000000	      0.00000000	      0.00000000	      0.00000000	      0.00000000	      0.00000000	      0.00000000	      0.00000000	      0.00000000	     -0.06884429	     -0.00000000	     -0.08037628	      0.02386737	      0.01503759	     -0.00000000	     -0.00000000	      0.00000000	     -0.00000000
      0.54000000	      0.00000000	      0.00000000	      0.00000000	      0.00000000	      0.00000000	      0.00000000	      0.00000000	      0.00000000	      0.00000000	     -0.06828828	     -0.00000000	     -0.08018740	      0.02373320	      0.01466005	     -0.00000000	      0.00000000	      0.00000000	      0.00000000
      0.55000000	      0.00000000	      0.00000000	      0.00000000	      0.00000000	      0.00000000	      0.00000000	      0.00000000	      0.00000000	      0.00000000	     -0.06773084	     -0.00000000	     -0.07999193	      0.02360214	      0.01429547	     -0.00000000	     -0.00000000	     -0.00000000	      0.00000000
      0.56000000	      0.00000000	      0.00000000	      0.00000000	      0.00000000	      0.00000000	      0.00000000	      0.00000000	      0.00000000	      0.00000000	     -0.06716747	      0.00000000	     -0.07978901	      0.02347338	      0.01394143	      0.00000000	      0.00000000	      0.00000000	     -0.00000000
      0.57000000	      0.00000000	      0.00000000	      0.00000000	      0.00000000	      0.00000000	      0.00000000	      0.00000000	      0.00000000	      0.00000000	     -0.06650270	      0.00000000	     -0.07953957	      0.02332391	      0.01353176	     -0.00000000	      0.00000000	      0.00000000	      0.00000000
      0.58000000	      0.00000000	      0.00000000	      0.00000000	      0.00000000	      0.00000000	      0.00000000	      0.00000000	      0.00000000	      0.00000000	     -0.06612610	      0.00000000	     -0.07940749	      0.02324825	      0.01333626	     -0.00000000	      0.00000000	     -0.00000000	     -0.00000000
      0.59000000	      0.00000000	      0.00000000	      0.00000000	      0.00000000	      0.00000000	      0.00000000	      0.00000000	      0.00000000	      0.00000000	     -0.06548767	     -0.00000000	     -0.07916012	      0.02311234	      0.01295212	      0.00000000	      0.00000000	      0.00000000	      0.00000000
      0.60000000	      0.00000000	      0.00000000	      0.00000000	      0.00000000	      0.00000000	      0.00000000	      0.00000000	      0.00000000	      0.00000000	     -0.06506567	      0.00000000	     -0.07900897	      0.02303267	      0.01262538	      0.00000000	      0.00000000	      0.00000000	      0.00000000
      0.61000000	      0.00000000	      0.00000000	      0.00000000	      0.00000000	      0.00000000	      0.00000000	      0.00000000	      0.00000000	      0.00000000	     -0.06461813	      0.00000000	     -0.07884597	      0.02294936	      0.01228017	      0.00000000	      0.00000000	     -0.00000000	     -0.00000000
      0.62000000	      0.00000000	      0.00000000	      0.00000000	      0.00000000	      0.00000000	      0.00000000	      0.00000000	      0.00000000	      0.00000000	     -0.06428095	     -0.00000000	     -0.07874109	      0.02289711	      0.01201111	      0.00000000	      0.00000000	      0.00000000	     -0.00000000
      0.63000000	      0.00000000	      0.00000000	      0.00000000	      0.00000000	      0.00000000	      0.00000000	      0.00000000	      0.00000000	      0.00000000	     -0.06401866	     -0.00000000	     -0.07867721	      0.02286577	      0.01179431	     -0.00000000	     -0.00000000	      0.00000000	      0.00000000
      0.64000000	      0.00000000	      0.00000000	      0.00000000	      0.00000000	      0.00000000	      0.00000000	      0.00000000	      0.00000000	      0.00000000	     -0.06388744	      0.00000000	     -0.07868512	      0.02286964	      0.01166930	     -0.00000000	      0.00000000	      0.00000000	      0.00000000
      0.65000000	      0.00000000	      0.00000000	      0.00000000	      0.00000000	      0.00000000	      0.00000000	      0.00000000	      0.00000000	      0.00000000	     -0.06393674	      0.00000000	     -0.07878461	      0.02291867	      0.01167479	     -0.00000000	      0.00000000	      0.00000000	     -0.00000000
      0.66000000	      0.00000000	      0.00000000	      0.00000000	      0.00000000	      0.00000000	      0.00000000	      0.00000000	      0.00000000	      0.00000000	     -0.06420004	     -0.00000000	     -0.07898792	      0.02302176	      0.01183841	      0.00000000	      0.00000000	     -0.00000000	      0.00000000
      0.67000000	      0.00000000	      0.00000000	      0.00000000	      0.00000000	      0.00000000	      0.00000000	      0.00000000	      0.00000000	      0.00000000	     -0.06461561	     -0.00000000	     -0.07925792	      0.02316522	      0.01212081	     -0.00000000	      0.00000000	     -0.00000000	      0.00000000
      0.68000000	      0.00000000	      0.00000000	      0.00000000	      0.00000000	      0.00000000	      0.00000000	      0.00000000	      0.00000000	      0.00000000	     -0.06558546	      0.00000000	     -0.07974228	      0.02344468	      0.01281170	      0.00000000	      0.00000000	      0.00000000	      0.00000000
      0.69000000	      0.00000000	      0.00000000	      0.00000000	      0.00000000	      0.00000000	      0.00000000	      0.00000000	      0.00000000	      0.00000000	     -0.06627541	     -0.00000000	     -0.08007370	      0.02365607	      0.01331477	      0.00000000	      0.00000000	      0.00000000	     -0.00000000
      0.70000000	      0.00000000	      0.00000000	      0.00000000	      0.00000000	      0.00000000	      0.00000000	      0.00000000	      0.00000000	      0.00000000	     -0.06738409	     -0.00000000	     -0.08051694	      0.02397284	      0.01413368	     -0.00000000	      0.00000000	      0.00000000	      0.00000000
      0.71000000	      0.00000000	      0.00000000	      0.00000000	      0.00000000	      0.00000000	      0.00000000	      0.00000000	      0.00000000	      0.00000000	     -0.06875772	     -0.00000000	     -0.08097504	      0.02435849	      0.01516573	     -0.00000000	     -0.00000000	     -0.00000000	      0.00000000
      0.72000000	      0.00000000	      0.00000000	      0.00000000	      0.00000000	      0.00000000	      0.00000000	      0.00000000	      0.00000000	      0.00000000	     -0.06995317	      0.00000000	     -0.08130977	      0.02469913	      0.01607403	      0.00000000	     -0.00000000	     -0.00000000	      0.00000000
      0.73000000	      0.00000000	      0.00000000	      0.00000000	      0.00000000	      0.00000000	      0.00000000	      0.00000000	      0.00000000	      0.00000000	     -0.07134899	     -0.00000000	     -0.08162079	      0.02509414	      0.01715303	     -0.00000000	     -0.00000000	      0.00000000	     -0.00000000
      0.74000000	      0.00000000	      0.00000000	      0.00000000	      0.00000000	      0.00000000	      0.00000000	      0.00000000	      0.00000000	      0.00000000	     -0.07276797	     -0.00000000	     -0.08185839	      0.02549901	      0.01827316	      0.00000000	     -0.00000000	      0.00000000	     -0.00000000
      0.75000000	      0.00000000	      0.00000000	      0.00000000	      0.00000000	      0.00000000	      0.00000000	      0.00000000	      0.00000000	      0.00000000	     -0.07391475	      0.00000000	     -0.08199536	      0.02583241	      0.01918466	      0.00000000	     -0.00000000	     -0.00000000	     -0.00000000
      0.76000000	      0.00000000	      0.00000000	      0.00000000	      0.00000000	      0.00000000	      0.00000000	      0.00000000	      0.00000000	      0.00000000	     -0.07567703	      0.00000000	     -0.08210751	      0.02634809	      0.02068769	     -0.00000000	      0.00000000	     -0.00000000	     -0.00000000
      0.77000000	      0.00000000	      0.00000000	      0.00000000	      0.00000000	      0.00000000	      0.00000000	      0.00000000	      0.00000000	      0.00000000	     -0.07674719	     -0.00000000	     -0.08211809	      0.02667146	      0.02160700	     -0.00000000	      0.00000000	     -0.00000000	     -0.00000000
