MuscleActuatorPower
version=1
nRows=55
nColumns=19
inDegrees=no

This analysis gathers basic information about muscles during a simulation (e.g., forces, tendon lengths, moment arms, etc).
Units are S.I. units (second, meters, Newtons, ...)
If the header above contains a line with 'inDegrees', this indicates whether rotational values are in degrees (yes) or radians (no).

endheader
time	hamstrings_r	bifemsh_r	glut_max_r	iliopsoas_r	rect_fem_r	vasti_r	gastroc_r	soleus_r	dorsiflexors_r	hamstrings_l	bifemsh_l	glut_max_l	iliopsoas_l	rect_fem_l	vasti_l	gastroc_l	soleus_l	dorsiflexors_l
      0.23000000	     78.86066712	     75.60623120	   -404.29996370	    104.52532424	   -110.73914253	   -640.15734933	   -280.47499417	   -248.18852332	     72.09885487	    264.23762266	    -14.23553158	    386.49569390	   -106.14467007	     -6.89712257	    319.38297716	   -233.70140113	   -146.83163199	     31.64117770
      0.24000000	     28.45334513	     69.76521627	   -409.30409699	    107.33969325	    -82.85085064	   -562.71078985	   -266.43830545	   -216.71927090	     62.56588959	    262.05485905	    -12.15194654	    371.63236413	   -100.81057759	    -11.84272031	    280.42356674	   -200.78607754	   -121.17841719	     25.71360657
      0.25000000	    -21.13154249	     62.96972909	   -409.19865753	    108.83997890	    -56.45644176	   -485.95541085	   -384.45406659	   -396.41299910	    113.81049065	    248.98338788	    -14.32614282	    379.97127579	   -101.82480550	      4.71252497	    339.30545959	   -201.54994469	    -84.51392429	     17.73842296
      0.26000000	    -86.53145618	     55.49378020	   -423.52654708	    114.30748854	    -27.96883805	   -411.66659456	   -551.16459269	   -658.19639300	    186.06980633	    216.99491017	    -13.98691025	    347.68457111	    -92.05952652	     15.03565935	    343.21879240	   -188.50367719	    -61.97414094	     12.89147718
      0.27000000	   -134.03138245	     46.05135436	   -408.96722958	    112.00382872	     -3.79845742	   -330.18469674	   -438.98315981	   -507.50347371	    140.98524337	    221.54447272	    -11.68412642	    336.70240713	    -88.19676965	      5.92774758	    294.87989866	   -155.19998953	    -42.95627040	      8.88514623
      0.28000000	   -187.43757913	     36.63268702	   -403.11072886	    111.97130131	     19.76268125	   -255.50662635	   -449.01052724	   -548.83607979	    149.67193804	    208.84791118	    -13.43458828	    341.88869776	    -88.56237970	     21.38699385	    350.51780613	   -174.78749559	    -36.56430217	      7.52384740
      0.29000000	   -238.48975741	     27.96380425	   -400.62412214	    112.86586395	     41.02247628	   -190.86542652	   -433.10821676	   -552.14326847	    147.10350549	    192.83385273	    -11.14286666	    308.07510673	    -78.98193347	     16.30167885	    300.12600580	   -141.93133365	    -19.93290749	      4.08860970
      0.30000000	   -295.38561187	     19.39138034	   -405.77354240	    115.93500294	     62.85139423	   -130.27324589	   -413.33166663	   -552.23824931	    143.21455312	    170.07159652	     -9.42325320	    270.79936533	    -68.78382929	     13.78446311	    254.59406978	   -122.31677298	    -15.73685858	      3.22070150
      0.31000000	   -337.90883296	      8.86550411	   -386.65657067	    112.03863468	     81.58479892	    -58.98640388	   -315.76462331	   -444.08949977	    111.74475678	    167.27292327	    -10.43507448	    279.24833743	    -70.33214188	     20.30411625	    283.31270320	   -149.21080885	    -32.94797606	      6.72549961
      0.32000000	   -389.53944073	      0.72708096	   -390.43815266	    114.65469556	    101.10847062	     -4.82381490	   -291.44354638	   -438.87755349	    107.39525006	    142.46975209	     -8.86692192	    239.95456923	    -59.91862672	     17.50785817	    241.05364329	   -132.20907726	    -31.35121752	      6.36945221
      0.33000000	   -438.67845598	     -7.86697135	   -389.24601584	    115.91181581	    120.48906223	     52.29755393	   -267.90185183	   -436.55854514	    102.94668304	    120.73656120	     -7.16705847	    201.65213562	    -50.02993781	     13.16346786	    194.51690663	   -110.26704718	    -27.62712391	      5.59569352
      0.34000000	   -457.21576686	    -18.32141898	   -348.73661985	    105.18362105	    132.50837552	    122.90541379	   -149.43366337	   -296.83772821	     67.79462691	    133.59497329	     -8.22470383	    227.62777968	    -56.08828202	     16.17566187	    222.28842199	   -139.20586027	    -46.71476437	      9.41389877
      0.35000000	   -509.42488998	    -25.40750575	   -358.54904579	    109.48176562	    152.81776279	    172.95734043	   -160.79815110	   -338.68811379	     74.91061569	    103.71280251	     -6.11223738	    175.46218362	    -42.96328586	     11.04914774	    164.22281501	   -115.23098879	    -49.55593264	      9.92521080
      0.36000000	   -545.45428628	    -34.86730266	   -339.70326957	    105.01778521	    170.51430555	    242.15199288	    -86.22637071	   -256.78497932	     54.77014816	     94.97227313	     -5.18024701	    157.67089866	    -38.41865685	      7.85124143	    138.33824969	   -114.31522770	    -64.76852283	     12.87547272
      0.37000000	   -557.30948790	    -43.56901919	   -301.32026971	     94.19265532	    181.82383017	    310.69296516	    -59.91239086	   -240.99776655	     49.92852044	    104.32449549	     -6.81396443	    184.96226191	    -44.83357767	     14.14745939	    180.51371356	   -150.47827562	    -82.92221634	     16.31770500
      0.38000000	   -572.39128034	    -53.71410847	   -257.86633739	     81.40315069	    195.80866240	    395.59960945	     62.87287955	    -79.52917843	     16.03695696	    116.24538419	     -3.55039486	    168.69524511	    -40.66771701	     -4.71993873	     93.13613078	    -83.37400436	    -49.17269161	      9.58162944
      0.39000000	   -601.52364347	    -61.08383341	   -241.08633110	     76.75248476	    214.30023936	    467.64736315	     -7.27237351	   -193.47126915	     38.62276163	    103.74170864	     -4.46518905	    163.88292422	    -39.31733670	      2.31051876	    116.50262644	   -125.30488277	    -90.95769403	     17.58080586
      0.40000000	   -641.00758944	    -69.31418569	   -228.05412581	     73.21157648	    238.37127205	    553.87694634	     10.94294123	   -170.24126621	     32.60999933	     86.33036693	     -4.54992362	    145.28865565	    -34.69106189	      5.70612604	    117.25148117	   -122.18211874	    -82.85682927	     15.77007028
      0.41000000	   -628.35715076	    -78.02558859	   -162.21965076	     52.42914217	    249.30424840	    655.19603337	     65.40008432	    -85.08778587	     16.15181996	    116.97504621	     -2.70949936	    164.04279687	    -39.00216343	     -8.67600136	     69.39093783	   -110.96575763	   -104.67900456	     19.70376790
      0.42000000	   -686.73606957	    -83.64423531	   -177.44597162	     57.67265137	    282.82199676	    741.28071668	     26.03722822	   -124.88079299	     23.03461187	     75.02817406	     -3.33150121	    121.48603359	    -28.75138542	      1.92638468	     84.58993776	   -113.53735873	    -94.27810394	     17.40453416
      0.43000000	   -635.76339899	    -92.61577075	    -71.20823877	     23.25951882	    288.18597020	    871.47077888	     77.96393227	    -23.79208655	      4.36538686	    133.91798350	     -1.57499969	    174.49916076	    -41.15189540	    -16.66784777	     39.81281465	    -96.76918300	   -107.18771542	     19.54782254
      0.44000000	   -693.97756895	    -95.68254415	    -96.71719719	     31.64659742	    326.42455243	    961.38632505	     -4.11811644	    -85.06986031	     15.36817960	     84.86790457	     -2.01888183	    121.44497927	    -28.49015978	     -5.63732624	     50.80295381	    -95.68124317	    -95.61348040	     17.05702479
      0.45000000	   -632.90783617	   -102.48827277	     10.59129505	     -3.47629438	    334.81797427	   1104.74038107	     18.68472511	     35.82351404	     -6.45454280	    142.12562319	     -0.21922510	    172.48103442	    -40.34826685	    -23.65845527	      5.50332626	    -85.62756904	   -119.88986891	     21.10373606
      0.46000000	   -676.70589111	   -102.03332286	    -18.68681313	      6.12155477	    373.13904779	   1191.15905089	   -107.36359938	    -46.08372779	      8.31033982	     91.16401543	     -0.21514578	    112.15979866	    -26.09210630	    -14.49957502	      5.40040297	    -80.15499287	   -111.84633899	     19.14197267
      0.47000000	   -583.19039070	   -105.96317954	    105.16417421	    -34.48940524	    378.97692868	   1347.55345490	    -95.28627985	     94.58081349	    -17.02954298	    161.06251600	      0.77103009	    187.11175795	    -43.43471658	    -30.66267417	    -19.35404679	    -51.26189077	    -91.21031140	     15.40913692
      0.48000000	   -596.43035097	   -101.10434102	     79.36601375	    -25.86336915	    408.07229108	   1410.64048093	   -233.96390495	      9.82326608	     -1.80482683	    119.34651183	      1.50650199	    130.42015799	    -30.07573428	    -26.57063774	    -37.93399942	    -53.87425866	   -110.69357318	     18.21451322
      0.49000000	   -523.70664926	    -98.59590523	    145.88492864	    -47.52595923	    408.89812970	   1494.25393832	   -250.26896504	    109.33503429	    -20.02584729	    149.94564175	      1.71950281	    165.96496320	    -38.21983493	    -32.51021126	    -43.42817853	    -32.00826611	    -83.35341462	     13.50954587
      0.50000000	   -394.68689178	    -93.10539778	    247.47343673	    -79.78643078	    386.35961443	   1548.27694125	   -308.07008187	    143.97869316	    -27.37572976	    213.85521011	      3.45762859	    229.13811492	    -52.36513024	    -50.25427276	    -87.84835852	    -20.38333285	   -103.12832808	     16.30989523
      0.51000000	   -572.58633573	    -77.57971397	     -7.46126784	      2.40110489	    418.94208924	   1387.28267578	   -428.42615571	    -11.74538027	      2.23244218	     17.14525789	      4.33652588	    -22.94396899	      5.23802667	    -23.95177185	   -111.17871543	    -30.67383388	   -135.52408704	     20.96297275
      0.52000000	   -234.69096539	    -74.77642052	    301.55094801	    -96.54443599	    320.16010357	   1428.71637570	   -253.50495827	    346.86210358	    -67.83115240	    247.83376370	      5.81641268	    249.12136847	    -56.70970265	    -67.72785614	   -150.84127389	    -46.62965398	   -187.57334324	     27.75609660
      0.53000000	   -201.76137100	    -60.80335726	    247.52585463	    -78.38905778	    282.80397223	   1257.82790909	   -291.26452952	    265.54195599	    -54.65177079	    215.58424908	      6.45957328	    204.92023896	    -46.35219748	    -66.06910955	   -169.62178911	     -3.52774439	   -135.90704728	     19.31791835
      0.54000000	   -214.04655861	    -47.40152117	    147.92098962	    -46.56968074	    258.32753022	   1078.27109219	   -316.11437181	    154.18731034	    -32.47711663	    154.16751919	      7.30779446	    120.13993233	    -27.08608721	    -62.01445636	   -193.98567202	      2.81338397	   -140.87847915	     19.24779908
      0.55000000	   -128.92768716	    -36.63398860	    154.72732991	    -48.43486766	    205.58788609	    916.96195395	   -260.52831767	    151.32150380	    -32.54481574	    173.62093699	      8.77201576	    131.05629523	    -29.45588002	    -73.68058434	   -235.23449628	     39.44665412	   -112.94485739	     14.85545758
      0.56000000	    -26.76753068	    -27.73752917	    188.29656022	    -58.62529355	    144.77278834	    738.52932108	   -141.30404763	    233.28683915	    -51.14841723	    213.60583965	     11.44620818	    156.26555781	    -35.01907535	    -95.44449234	   -309.52938897	     77.80246126	   -103.23290043	     13.12092761
      0.57000000	    -17.24915216	    -14.60151125	     97.93548266	    -30.30665601	     75.41607023	    390.79518515	   -127.75846973	     59.38625441	    -13.30581484	    180.79652324	     12.54408173	    104.85401090	    -23.42135361	    -98.17397133	   -340.92258862	    163.40672616	      7.37044181	     -0.91881302
      0.58000000	     30.62946197	     -9.10245362	    101.01096139	    -31.19708853	     33.88436211	    242.60757142	      6.56294940	    168.41835050	    -37.83151971	    190.80448644	     14.20141454	    102.32161123	    -22.81944230	   -110.31847219	   -385.52384890	    138.38684365	    -49.80978854	      6.22901607
      0.59000000	    115.86548582	     -3.92564297	    142.07513869	    -43.63492110	    -16.36092053	    103.95036248	    124.83988165	    254.49135958	    -58.88093459	    229.48733673	     17.47523854	    121.48667346	    -27.01934639	   -135.69329028	   -474.95557061	    189.40475710	    -20.83320755	      2.53808768
      0.60000000	    107.13052599	      6.73035589	     49.08725136	    -15.03784290	    -63.61324857	   -178.62642464	    150.51471544	    102.48059712	    -23.95883772	    196.23643559	     18.53533042	     69.47744705	    -15.42838425	   -132.68259609	   -480.60271596	    282.57216685	    109.80789287	    -13.71312135
      0.61000000	    166.51292240	     10.32600029	     77.94305006	    -23.81671772	    -98.96295464	   -275.60429477	    261.65446893	    207.42418433	    -49.28758191	    226.26856640	     22.02566083	     75.99048351	    -16.84842019	   -150.95316329	   -543.53478045	    308.20967047	    108.60203585	    -13.99454627
      0.62000000	    181.40115978	     16.51671167	     44.29209711	    -13.50724543	   -134.45847841	   -442.28856974	    295.55688588	    161.17750873	    -38.80953544	    220.73126214	     25.38353791	     37.72935153	     -8.35732747	   -162.00128150	   -593.52737666	    394.43897788	    204.62957725	    -27.69289061
      0.63000000	    211.56618434	     19.75624653	     49.48256812	    -15.06528175	   -161.38192457	   -533.66580567	    326.65147854	    170.02895307	    -41.50854936	    232.61345481	     29.42728845	     16.20631655	     -3.58781551	   -177.45573865	   -651.36467812	    445.32012095	    247.89150209	    -35.74998513
      0.64000000	    228.34797461	     23.04791602	     42.05375514	    -12.78241621	   -175.98980641	   -588.78422037	    325.60621947	    136.96876313	    -33.78086019	    235.83794365	     33.94539472	    -20.53925779	      4.54736914	   -192.87282208	   -711.09307067	    522.76753220	    334.04080673	    -51.68693359
      0.65000000	    210.00451413	     26.49304152	      0.32354179	     -0.09826375	   -178.72976924	   -637.00268379	    315.98757005	     96.73557706	    -24.07199747	    213.31612117	     37.98452598	    -85.82028571	     19.01720918	   -202.76969995	   -757.34780435	    624.67491729	    472.43101832	    -79.71834985
      0.66000000	    260.66368272	     24.95193028	     63.28100301	    -19.20660755	   -179.91087849	   -566.86863080	    248.18815496	     40.69205291	    -10.16557069	    251.94683179	     45.29760802	   -100.12383883	     22.22921498	   -235.79194897	   -865.28939819	    650.46081235	    476.41772964	    -87.71969214
      0.67000000	    190.46199940	     25.54569366	     -6.88494978	      2.08557107	   -156.25418980	   -553.46444265	    160.47638378	    -77.24128813	     19.29508007	    203.09574359	     53.11234798	   -232.23455146	     51.70461966	   -257.41358856	   -969.91324366	    726.04217984	    569.26719740	   -112.84362299
      0.68000000	    207.52963803	     24.24550330	     21.21489379	     -6.43391498	   -151.61394236	   -503.25726063	    110.64010708	   -116.46910633	     28.85236203	    210.30667503	     58.05241395	   -259.65432218	     58.15138211	   -269.73380565	  -1009.77236807	    748.22734573	    627.47435922	   -134.14737591
      0.69000000	    280.14352854	     18.91893790	    132.26821108	    -39.96226986	   -150.08229923	   -381.08354242	     39.04249623	   -149.91085718	     36.86116082	    266.58906860	     64.60134909	   -236.37092272	     53.19314109	   -290.84098941	  -1062.76408835	    787.79846829	    710.84577659	   -161.78098488
      0.70000000	    173.64124702	     17.73876880	     38.76147201	    -11.67908404	   -113.41944171	   -349.55062335	    -48.52968945	   -258.26499314	     62.46983387	    191.96768239	     74.12721820	   -404.86372562	     91.82266844	   -297.29255180	  -1141.11840770	    776.72792808	    718.83850841	   -173.53073799
      0.71000000	    223.86355574	     12.84822807	    124.05589153	    -37.29028096	   -109.42734618	   -249.12311506	    -81.73307781	   -250.70855557	     59.43661722	    221.08358796	     78.13903905	   -386.16050676	     88.48625053	   -293.47912242	  -1125.35461589	    698.78117086	    674.30261912	   -169.73030890
      0.72000000	    251.99958772	      6.37229157	    199.65679260	    -59.64651836	    -93.78195386	   -122.47590851	   -138.52357566	   -267.78181792	     62.04996055	    232.23543057	     80.82889268	   -378.93582711	     87.68258871	   -280.76632150	  -1088.87247546	    649.81241149	    680.75954941	   -177.71188839
      0.73000000	    180.72395544	      5.00667205	    140.69195037	    -41.78058050	    -68.29020999	    -95.73766423	   -182.58631630	   -318.29092299	     71.72065726	    162.22394066	     86.06214049	   -490.24617760	    114.81392009	   -258.27316318	  -1077.73680735	    557.03725917	    615.63096970	   -165.14845476
      0.74000000	    281.33338686	     -3.81760501	    305.43578570	    -90.07634170	    -64.43639542	     72.89444477	   -161.28133493	   -201.04842685	     43.94756159	    228.19590608	     84.13497805	   -375.86361552	     89.18652067	   -240.26650776	   -981.84230282	    330.62805986	    362.51706118	    -99.16881069
      0.75000000	    192.50184754	     -3.73516065	    219.09214966	    -63.89507021	    -38.96780118	     71.70994086	   -194.32917801	   -249.65819057	     53.42883650	    130.62909481	     86.93599277	   -497.55951230	    119.40690065	   -208.72785307	   -950.93633131	    229.86886248	    284.79510811	    -78.59039367
      0.76000000	    118.09521709	     -2.74510925	    138.20323104	    -40.14054694	    -22.01851284	     52.75677983	   -227.91506958	   -307.91088946	     63.19107104	     24.72507962	     86.90125177	   -598.98528256	    146.41687638	   -167.66687498	   -892.01335898	    196.66514728	    313.30778546	    -87.41479729
      0.77000000	    464.93150276	    -21.27683196	    628.64296257	   -180.26044752	    -44.79568884	    413.39484349	   -105.15691637	     59.44289781	    -11.96614581	    302.20751129	     71.09624764	   -150.35751645	     37.19991001	   -177.71343819	   -690.57276591	   -155.91648904	   -174.83972316	     48.90447868
