FiberActivePower
version=1
nRows=55
nColumns=19
inDegrees=no

This analysis gathers basic information about muscles during a simulation (e.g., forces, tendon lengths, moment arms, etc).
Units are S.I. units (second, meters, Newtons, ...)
If the header above contains a line with 'inDegrees', this indicates whether rotational values are in degrees (yes) or radians (no).

endheader
time	hamstrings_r	bifemsh_r	glut_max_r	iliopsoas_r	rect_fem_r	vasti_r	gastroc_r	soleus_r	dorsiflexors_r	hamstrings_l	bifemsh_l	glut_max_l	iliopsoas_l	rect_fem_l	vasti_l	gastroc_l	soleus_l	dorsiflexors_l
      0.23000000	     -0.03540026	     -0.77571159	    -43.86904093	      8.76856619	    -13.16971612	    -39.88058204	     14.64328897	     14.88105057	     -0.26310589	     11.15019105	     -1.01169689	     27.12323847	    -11.60041817	     -0.11826923	     -0.27869961	     -1.52063632	      5.55162890	     -0.01700655
      0.24000000	      0.02002922	     -0.63649714	    -45.02842520	      8.99887765	     -9.42008540	    -36.19471814	     13.98587194	     13.46140259	     -0.18421484	     10.39920478	     -0.86267110	     26.24120637	    -10.94966883	     -0.21024093	     -0.13982186	     -1.14416606	      4.54705463	     -0.00805151
      0.25000000	     -0.03885772	     -0.49431014	    -45.49181764	      9.13153152	     -6.13052336	    -31.88130042	     14.26606512	     16.92436192	     -0.72435892	      9.34230311	     -1.03829116	     26.45000905	    -11.05882722	      0.07739044	     -0.39186099	     -1.28444007	      3.25247279	     -0.00060810
      0.26000000	     -0.29157741	     -0.36171922	    -47.85502669	      9.53978479	     -2.88046089	    -27.28980901	      9.30578193	     11.15356004	     -1.98182285	      7.95079654	     -1.02269340	     24.64455344	     -9.88432561	      0.22451621	     -0.42252673	     -1.15459165	      2.39951172	      0.00166675
      0.27000000	     -0.60949992	     -0.22808082	    -46.31609281	      9.39738607	     -0.37296122	    -21.86547285	     11.74529673	     14.47946143	     -1.03461814	      7.42976068	     -0.85011368	     23.87665075	     -9.41668322	      0.09302183	     -0.22423695	     -0.70268580	      1.68173425	      0.00231770
      0.28000000	     -1.11332837	     -0.12738075	    -45.86762541	      9.40904510	      1.84775581	    -16.80975611	     10.49322740	     12.91514834	     -1.10318164	      6.54419608	     -0.99520190	     23.91277141	     -9.44096077	      0.29414074	     -0.47407758	     -1.02225508	      1.41983524	      0.00228448
      0.29000000	     -1.76011137	     -0.06104449	    -45.81249291	      9.48165998	      3.66203956	    -12.44470492	      9.45665172	     11.97563945	     -0.98177983	      5.67284580	     -0.82118517	     21.92711146	     -8.31827433	      0.22474324	     -0.26114912	     -0.59803615	      0.78590925	      0.00169156
      0.30000000	     -2.68366645	     -0.01848771	    -46.73115626	      9.70190494	      5.33687948	     -8.38733897	      8.13905736	     10.95179637	     -0.84708545	      4.76559348	     -0.69211265	     19.66182324	     -7.15099880	      0.18282133	     -0.11359822	     -0.40131888	      0.61962763	      0.00141843
      0.31000000	     -3.57001726	      0.00461681	    -44.30154021	      9.42796838	      6.62186223	     -3.71571469	      7.62432972	     11.40237107	     -0.45032016	      4.31369740	     -0.77494077	     19.96882558	     -7.30896902	      0.23395731	     -0.21234057	     -0.72242492	      1.25026577	      0.00219400
      0.32000000	     -4.83178139	      0.00120281	    -44.90012098	      9.60772147	      7.80555555	     -0.29781108	      6.32646683	     10.20132741	     -0.37820563	      3.52062193	     -0.65658861	     17.51937698	     -6.14287834	      0.18382256	     -0.08927196	     -0.53493062	      1.17249114	      0.00213759
      0.33000000	     -6.29217982	     -0.02256501	    -44.76931599	      9.68589692	      8.81758399	      3.14874508	      4.84904152	      8.45376177	     -0.30810513	      2.89374732	     -0.52778149	     15.03917312	     -5.06414012	      0.13280471	      0.00909590	     -0.32653064	      1.02796306	      0.00200761
      0.34000000	     -7.10099564	     -0.08059373	    -39.34319700	      8.91139061	      9.35043719	      7.13490079	      3.60201063	      7.39517564	     -0.10931917	      2.87464795	     -0.61190108	     16.52502316	     -5.70373545	      0.14424906	     -0.05194287	     -0.63511066	      1.65218291	      0.00222850
      0.35000000	     -9.07200882	     -0.14037085	    -40.55979628	      9.20332604	     10.10290417	      9.71828487	      3.17995314	      6.18520683	     -0.12572800	      2.20070236	     -0.45105849	     13.13737650	     -4.29697561	      0.09556111	      0.04547545	     -0.38975708	      1.70401129	      0.00217794
      0.36000000	    -10.79474743	     -0.24706991	    -37.97235014	      8.86413643	     10.57608646	     12.97974057	      1.95350602	      4.84470414	     -0.05401556	      1.92965130	     -0.38134795	     11.88715298	     -3.81649617	      0.06592688	      0.06801396	     -0.38786740	      2.10600781	      0.00164461
      0.37000000	    -11.80034184	     -0.37761114	    -32.93860785	      8.05214278	     10.73552788	     15.76058253	      1.39854453	      3.97526906	     -0.03953223	      1.93378152	     -0.50776482	     13.58942506	     -4.47800732	      0.10338518	      0.01738741	     -0.79612342	      2.50284537	      0.00039247
      0.38000000	    -13.10299392	     -0.57041987	    -27.46690648	      7.06481933	     10.83932009	     18.64297958	     -2.01726552	      1.75396775	      0.00085165	      1.93090348	     -0.26047875	     12.45671141	     -4.03487052	     -0.03988500	      0.07887091	     -0.16224286	      1.52064929	      0.00215092
      0.39000000	    -15.44680777	     -0.75248458	    -25.34806919	      6.68801989	     10.85246728	     20.31614193	      0.20828189	      2.94355839	     -0.01777656	      1.63016421	     -0.32977327	     12.07039242	     -3.88784407	      0.01792831	      0.07354959	     -0.51096950	      2.50931627	     -0.00017463
      0.40000000	    -19.44247035	     -0.99212624	    -23.69793838	      6.39432479	     10.67037281	     21.64244263	     -0.31405792	      2.16071511	     -0.00930728	      1.32710685	     -0.33713732	     10.77804133	     -3.40597717	      0.03975662	      0.07079093	     -0.48381270	      2.17811301	      0.00070545
      0.41000000	    -22.41029213	     -1.29658066	    -16.19858311	      4.69630922	     10.28088293	     22.15906822	     -2.29481935	      1.35296871	      0.00097043	      1.50995245	     -0.19891641	     11.94285208	     -3.84152813	     -0.07032946	      0.06964623	     -0.38039164	      2.50129046	     -0.00125084
      0.42000000	    -32.11303920	     -1.55623019	    -17.79430320	      5.12144779	      9.53862302	     21.12000371	     -0.83893036	      1.48783005	     -0.00160630	      1.01305283	     -0.24589705	      9.05918777	     -2.79331578	      0.01344456	      0.07259160	     -0.40634274	      2.11652682	      0.00007512
      0.43000000	    -36.18004493	     -1.99906370	     -6.69416678	      2.15422711	      8.96030415	     18.88537559	     -2.99457123	      0.37944456	      0.00127155	      1.36454703	     -0.11518713	     12.47490215	     -4.04926036	     -0.14184162	      0.04888928	     -0.26966904	      2.20761552	     -0.00098151
      0.44000000	    -49.94913484	     -2.31713676	     -9.21686142	      2.89878199	      7.55464449	     14.69348033	      0.11856528	      1.04129001	      0.00124703	      0.91684180	     -0.14817474	      8.95141303	     -2.75638648	     -0.04285307	      0.05717944	     -0.26370537	      1.83257094	      0.00033094
      0.45000000	    -52.37432640	     -2.97617709	      0.94263980	     -0.33200489	      6.63630506	      8.52480449	     -0.57792252	     -0.61495305	     -0.00314475	      1.11582658	     -0.01593053	     12.21422380	     -3.95217512	     -0.21654104	      0.00825386	     -0.19642121	      2.01962233	     -0.00169271
      0.46000000	    -64.31334565	     -3.56732640	     -1.69712800	      0.57836633	      4.36642984	      1.49896311	      2.17800063	      0.63493433	      0.00176818	      0.76821461	     -0.01563405	      8.22511255	     -2.50738252	     -0.12601960	      0.00810281	     -0.16488774	      1.68356019	     -0.00047276
      0.47000000	    -58.07263567	     -4.72059936	      8.79500638	     -3.41538650	      2.66349431	     -7.50434356	      1.76806188	     -1.85047728	     -0.01163407	      0.84415410	      0.05570439	     12.96898869	     -4.25381215	     -0.31306634	     -0.03305240	     -0.03749846	      1.37451347	      0.00102625
      0.48000000	    -63.03404152	     -5.54882135	      6.79422641	     -2.54170131	     -0.84915420	    -14.05632656	      1.32432574	     -0.17194964	     -0.00074113	      0.63701988	      0.10829285	      9.32613351	     -2.89083443	     -0.27947289	     -0.07103830	     -0.04696781	      1.37969997	      0.00008075
      0.49000000	    -55.98232150	     -6.48348086	     11.92802195	     -4.78635059	     -4.14916738	    -19.62075218	     -0.04267657	     -2.35244407	     -0.01518421	      0.57961687	      0.12336705	     11.54745690	     -3.70572537	     -0.36946484	     -0.08372383	      0.00374797	      1.06201966	      0.00152230
      0.50000000	    -40.05662577	     -7.04940148	     18.92987455	     -8.34719844	     -5.94013878	    -22.88229194	     -2.14287097	     -3.80539918	     -0.02618465	      0.03317654	      0.24518813	     15.03431692	     -5.13811487	     -0.70522313	     -0.20399638	      0.01283573	      1.08861329	      0.00084932
      0.51000000	    -66.16418542	     -6.17783927	     -0.68246456	      0.22920230	    -10.58285526	    -18.00930715	     -7.55587478	      0.22753491	      0.00077344	      0.11858915	      0.30529800	     -1.78855537	      0.47989185	     -0.30215999	     -0.28363594	      0.00487715	      1.10557234	     -0.00094215
      0.52000000	    -22.54369339	     -6.39666613	     22.22609667	    -10.29837510	     -6.39398215	    -19.08344937	     -2.24204196	    -13.43112282	     -0.12804104	     -0.46099063	      0.40479427	     15.99509421	     -5.57908678	     -1.22279554	     -0.44260940	     -0.02703201	      0.81886277	     -0.00484020
      0.53000000	    -19.09577460	     -5.22359328	     19.18135840	     -8.22921759	     -5.10734250	    -14.04490554	     -3.40698078	    -11.19935021	     -0.09697824	     -0.33270359	      0.44635426	     13.46606647	     -4.48960497	     -1.35041497	     -0.53503100	      0.00476633	      0.69003611	      0.00004066
      0.54000000	    -20.66457583	     -4.00160133	     12.37585130	     -4.73067904	     -4.24954606	     -9.68969810	     -4.27849204	     -6.18233941	     -0.04205664	      0.02380388	      0.50058990	      8.34845659	     -2.56008028	     -1.40447981	     -0.66575445	     -0.00459432	      0.54440579	      0.00015576
      0.55000000	    -11.76449256	     -3.02793099	     12.92213672	     -4.93673875	     -2.55319073	     -6.52607521	     -2.78380150	     -6.55710692	     -0.04418027	     -0.15269557	      0.59285678	      8.98719186	     -2.78594260	     -2.00288707	     -0.91333688	     -0.12990369	      0.45572730	      0.00136435
      0.56000000	     -2.25327895	     -2.23870804	     15.39253013	     -6.04930105	     -1.13684448	     -3.83859997	     -0.61804888	    -11.96613874	     -0.09962537	     -0.54174016	      0.75643737	     10.46655129	     -3.32679956	     -3.23189245	     -1.44507443	     -0.39466010	      0.38640457	      0.00162085
      0.57000000	     -1.43959626	     -1.11549941	      8.54824562	     -3.03426670	     -0.21237461	     -0.69910876	     -0.47725330	     -2.67371578	     -0.01218060	     -0.31295554	      0.81735709	      7.23746668	     -2.18949355	     -3.94770852	     -1.74164711	     -1.48981060	     -0.05258021	     -0.00033816
      0.58000000	      2.44944291	     -0.67853642	      8.80492677	     -3.12772277	      0.00383869	     -0.09942098	     -0.02177968	     -8.77424889	     -0.06294666	     -0.42671037	      0.90842924	      7.05219666	     -2.12904224	     -5.26536354	     -2.19498208	     -1.13335120	      0.26276447	      0.00151913
      0.59000000	      8.47265236	     -0.28545597	     12.06498271	     -4.44049554	     -0.05996835	      0.08743706	     -1.21720028	    -16.08101010	     -0.14636149	     -0.84778802	      1.08260145	      8.21324929	     -2.52781084	     -7.91184832	     -3.21861071	     -2.04382880	      0.12125483	      0.00077380
      0.60000000	      7.86636861	      0.45856177	      4.43896865	     -1.48211062	     -0.45478739	     -0.61596421	     -1.70219083	     -5.69387398	     -0.03297283	     -0.54149735	      1.12661538	      4.85216191	     -1.42165721	     -8.41724260	     -3.38084885	     -4.43734656	     -1.16134572	     -0.00810967
      0.61000000	     11.38464473	      0.68461250	      6.92228810	     -2.37218182	     -0.98792959	     -1.22114401	     -4.64681635	    -13.62590740	     -0.11511008	     -0.86849217	      1.28794473	      5.26452453	     -1.55300184	    -10.77293495	     -4.29459145	     -5.40420559	     -1.21806292	     -0.00850563
      0.62000000	     12.08435473	      1.04318998	      4.02244684	     -1.32985460	     -1.75802823	     -2.72992882	     -6.00629735	    -10.51574321	     -0.07915871	     -0.83063391	      1.42226103	      2.67561059	     -0.76176579	    -12.72977250	     -5.16042991	     -8.93713773	     -3.24569179	     -0.02444580
      0.63000000	     13.45729902	      1.20669891	      4.48064412	     -1.48630556	     -2.55469609	     -3.90931286	     -7.58998513	    -11.65830823	     -0.09245254	     -0.98020038	      1.56284578	      1.16398554	     -0.32494599	    -15.29560441	     -6.26924809	    -11.72834946	     -4.91119279	     -0.03889523
      0.64000000	     14.05182266	      1.35627165	      3.82748862	     -1.25804757	     -3.10708798	     -4.78671251	     -8.14109203	     -9.33758890	     -0.06724604	     -1.03226847	      1.68732668	     -1.51047405	      0.40774311	    -18.05341019	     -7.57398216	    -16.64113326	     -8.96976874	     -0.07761226
      0.65000000	     13.03203412	      1.49306788	      0.03023196	     -0.00952910	     -3.36300135	     -5.68546602	     -8.71889202	     -6.46762101	     -0.03972669	     -0.80010596	      1.75546034	     -6.58277911	      1.67570855	    -20.21506231	     -8.78400826	    -24.81227002	    -18.66604194	     -0.18496379
      0.66000000	     14.96575419	      1.39342012	      5.68311607	     -1.90482395	     -3.63542456	     -4.81492682	     -6.81194755	     -2.57547031	     -0.01114768	     -1.24260317	      1.85829458	     -7.77948539	      1.95414686	    -25.60840075	    -11.56054343	    -30.53739870	    -23.93927309	     -0.24830841
      0.67000000	     11.71448462	      1.39050103	     -0.64650504	      0.20179675	     -3.13865437	     -4.76982135	     -4.12361819	      4.17432030	     -0.00230626	     -0.71752296	      1.86325568	    -19.54630804	      4.38346547	    -29.79269580	    -14.83180821	    -47.49741658	    -37.95490550	     -0.44584205
      0.68000000	     12.35054470	      1.30096424	      1.95732982	     -0.62874221	     -3.31592354	     -4.19622572	     -2.75547281	      5.78455480	     -0.01442867	     -0.79053673	      1.72235112	    -22.42726011	      4.91099845	    -32.67261460	    -16.87083595	    -68.75925589	    -53.10817195	     -0.71032703
      0.69000000	     14.83639212	      1.03374253	     11.35444328	     -4.06009471	     -3.73837529	     -2.73865269	     -0.85586424	      6.88630428	     -0.02958077	     -1.42514054	      1.49789727	    -20.34316032	      4.53882403	    -37.14892495	    -19.83308989	    -94.61057949	    -73.01681582	     -1.15693888
      0.70000000	     10.30932240	      0.95885736	      3.54063895	     -1.14931612	     -2.81724626	     -2.44643019	      0.75351600	      9.12082270	     -0.10732327	     -0.62734547	      1.12180299	    -38.36070596	      7.46759826	    -39.34009055	    -24.74575370	   -108.00597187	    -82.93095876	     -1.51933905
      0.71000000	     12.24849964	      0.70670196	     10.71763302	     -3.77967333	     -3.03065245	     -1.49334972	      0.99214758	      8.30552874	     -0.08961878	     -0.89609112	      0.66350748	    -36.83004034	      7.27786877	    -39.76240670	    -27.65598818	   -100.17372222	    -81.22072610	     -1.62117520
      0.72000000	     12.89394498	      0.36265063	     16.36949806	     -6.20028947	     -2.77332013	     -0.56511462	      0.88490862	      7.71026269	     -0.09264219	     -1.00344671	      0.20019384	    -36.51066635	      7.26066097	    -38.49936919	    -30.77637963	    -94.96573973	    -86.99764586	     -1.95558773
      0.73000000	      9.85280269	      0.28573569	     12.02876882	     -4.26120800	     -2.03447199	     -0.41625756	      0.22726535	      6.93818679	     -0.11983535	     -0.40107635	     -0.31443419	    -50.45904935	      9.20275826	    -35.33312738	    -36.12797245	    -79.66093028	    -79.31725443	     -1.84040571
      0.74000000	     12.96197297	     -0.23023382	     23.13503102	     -9.67965271	     -2.04589414	      0.17522170	      0.08195009	      5.06946115	     -0.03298203	     -0.94511147	     -0.58727143	    -37.34400393	      7.46279451	    -32.79505700	    -37.55775328	    -41.27871413	    -41.15632315	     -0.75226380
      0.75000000	      9.54588967	     -0.22664044	     17.70452909	     -6.68352876	     -1.21100433	      0.17060243	     -0.58691643	      4.91134093	     -0.05126161	     -0.21780214	     -0.87901549	    -52.90887127	      9.61580115	    -27.82794281	    -41.98671373	    -26.64521649	    -31.00652367	     -0.50672248
      0.76000000	      6.30233058	     -0.16574308	     11.81916747	     -4.09160459	     -0.66420092	      0.13669224	     -1.49073961	      3.67913214	     -0.06911103	      0.02340809	     -1.00690261	    -67.79301423	     11.40875277	    -21.39892588	    -44.43026204	    -22.41749750	    -35.69787217	     -0.63795899
      0.77000000	     13.29926226	     -1.44895811	     35.54371307	    -21.15265952	     -1.51957113	     -0.67222669	     -0.01738464	     -1.71616055	     -0.00842023	     -1.76172461	     -0.64949456	    -13.97810691	      3.39071186	    -23.12379474	    -35.71486132	     11.00737013	     11.62090044	     -0.09800596
