PennationAngularVelocity
version=1
nRows=55
nColumns=19
inDegrees=no

This analysis gathers basic information about muscles during a simulation (e.g., forces, tendon lengths, moment arms, etc).
Units are S.I. units (second, meters, Newtons, ...)
If the header above contains a line with 'inDegrees', this indicates whether rotational values are in degrees (yes) or radians (no).

endheader
time	hamstrings_r	bifemsh_r	glut_max_r	iliopsoas_r	rect_fem_r	vasti_r	gastroc_r	soleus_r	dorsiflexors_r	hamstrings_l	bifemsh_l	glut_max_l	iliopsoas_l	rect_fem_l	vasti_l	gastroc_l	soleus_l	dorsiflexors_l
      0.23000000	      0.59399759	      2.33001577	     -0.50766480	      0.12061725	     -0.21383572	     -0.65138296	     -0.42290299	     -0.64295562	      1.34281285	      0.50530434	     -0.18448075	      0.42407188	     -0.13080564	     -0.04305180	      0.72430343	     -0.94038857	     -0.71278968	      1.11960704
      0.24000000	      0.21621189	      2.29546385	     -0.50169153	      0.12521255	     -0.15726520	     -0.55709730	     -0.41948205	     -0.58010710	      1.21447748	      0.51552854	     -0.15605626	      0.41649714	     -0.12290881	     -0.07382149	      0.64807177	     -0.85023598	     -0.60045275	      0.92372592
      0.25000000	     -0.16076209	      2.20130037	     -0.48986171	      0.12835356	     -0.10584073	     -0.46987785	     -0.63011426	     -1.09087584	      2.28705406	      0.50441837	     -0.18253549	      0.43494608	     -0.12285925	      0.02928104	      0.79754614	     -0.89012672	     -0.42469940	      0.64369526
      0.26000000	     -0.65201316	      2.04926867	     -0.49495510	      0.13635290	     -0.05204802	     -0.39014016	     -0.97419634	     -1.94435762	      4.07960969	      0.45110098	     -0.17642671	      0.40648486	     -0.10995659	      0.09392972	      0.82512972	     -0.87427110	     -0.31494369	      0.47152428
      0.27000000	     -0.99052828	      1.78331992	     -0.46668736	      0.13517371	     -0.00704926	     -0.30780486	     -0.83635040	     -1.60880831	      3.36229213	      0.47228221	     -0.14627248	      0.40126036	     -0.10440197	      0.03708660	      0.72146745	     -0.74678613	     -0.21981571	      0.32655878
      0.28000000	     -1.34738731	      1.47452356	     -0.44964559	      0.13669669	      0.03672701	     -0.23514955	     -0.91717353	     -1.85821948	      3.85004709	      0.45650510	     -0.16676299	      0.41570795	     -0.10387590	      0.13448797	      0.87537374	     -0.87678683	     -0.18828543	      0.27772603
      0.29000000	     -1.65197678	      1.16046023	     -0.43690322	      0.13941350	      0.07665100	     -0.17394693	     -0.95211697	     -2.01015327	      4.09858524	      0.43148910	     -0.13724674	      0.38173640	     -0.09185989	      0.10308101	      0.76427497	     -0.73927640	     -0.10303344	      0.15131415
      0.30000000	     -1.95514277	      0.82292524	     -0.43280263	      0.14491552	      0.11851251	     -0.11789736	     -0.97574893	     -2.16212447	      4.30425224	      0.38883580	     -0.11529836	      0.34136019	     -0.07939983	      0.08799961	      0.66080951	     -0.65845535	     -0.08156072	      0.11941002
      0.31000000	     -2.11810183	      0.38139857	     -0.40343183	      0.14175366	      0.15584695	     -0.05315918	     -0.79643328	     -1.86548783	      3.59772941	      0.39004144	     -0.12691036	      0.35763532	     -0.08063620	      0.13156690	      0.75002833	     -0.82931106	     -0.17129070	      0.24987580
      0.32000000	     -2.29909005	      0.03140567	     -0.39903121	      0.14677521	      0.19628946	     -0.00434193	     -0.77334789	     -1.95181151	      3.64314849	      0.33867830	     -0.10712797	      0.31236217	     -0.06822640	      0.11559039	      0.65235299	     -0.76401606	     -0.16389112	      0.23752774
      0.33000000	     -2.41585308	     -0.33885327	     -0.38936203	      0.15025367	      0.23868985	      0.04711359	     -0.75159369	     -2.07473407	      3.69543889	      0.29138519	     -0.08619206	      0.26578061	     -0.05667396	      0.08803242	      0.53467662	     -0.65519090	     -0.14493615	      0.20916806
      0.34000000	     -2.34256419	     -0.77912384	     -0.34210830	      0.13794914	      0.26860764	      0.11115853	     -0.43512635	     -1.48386818	      2.53262676	      0.32754357	     -0.09840624	      0.30404652	     -0.06319108	      0.10987029	      0.62180340	     -0.85587699	     -0.24650250	      0.35325371
      0.35000000	     -2.41848099	     -1.05833873	     -0.34523951	      0.14524250	      0.31800177	      0.15743975	     -0.48200291	     -1.77199833	      2.89383566	      0.25807918	     -0.07280227	      0.23728930	     -0.04816281	      0.07609396	      0.46660021	     -0.73244364	     -0.26331995	      0.37414563
      0.36000000	     -2.38550134	     -1.41196630	     -0.32106281	      0.14096731	      0.36578016	      0.22242226	     -0.26533795	     -1.40733551	      2.18404324	      0.23909401	     -0.06148753	      0.21531455	     -0.04290150	      0.05466744	      0.39785667	     -0.74872698	     -0.34702521	      0.48798333
      0.37000000	     -2.24369310	     -1.70006178	     -0.28009134	      0.12780426	      0.40330110	      0.28889312	     -0.18647431	     -1.36633805	      2.03450357	      0.26595898	     -0.08058232	      0.25525500	     -0.04985783	      0.09968982	      0.52593102	     -1.02100626	     -0.44923164	      0.62282635
      0.38000000	     -2.12207019	     -2.00358917	     -0.23622644	      0.11152265	      0.45041299	      0.37358304	      0.19653870	     -0.46424741	      0.66507407	      0.30036668	     -0.04183225	      0.23541229	     -0.04502947	     -0.03366212	      0.27495104	     -0.58616862	     -0.26919425	      0.36812556
      0.39000000	     -2.05291887	     -2.15910484	     -0.21810314	      0.10604428	      0.51317068	      0.45030709	     -0.02240400	     -1.14113238	      1.61138836	      0.27196257	     -0.05251736	      0.23098578	     -0.04336762	      0.01651232	      0.34613111	     -0.90032644	     -0.50215892	      0.67897595
      0.40000000	     -2.00858166	     -2.30985938	     -0.20378786	      0.10201119	      0.59729196	      0.54556312	      0.03407062	     -1.04502071	      1.39084929	      0.22888553	     -0.05332172	      0.20682158	     -0.03812026	      0.04132900	      0.35291414	     -0.91643441	     -0.46463475	      0.61482216
      0.41000000	     -1.80903008	     -2.43132710	     -0.14352708	      0.07356113	      0.65692138	      0.66350582	      0.20012133	     -0.52662860	      0.69187810	      0.31415317	     -0.03170083	      0.23563719	     -0.04271173	     -0.06300757	      0.21011961	     -0.85334002	     -0.59344016	      0.77314628
      0.42000000	     -1.81977232	     -2.42722377	     -0.15571156	      0.08139050	      0.78744361	      0.77502632	      0.07958219	     -0.79249913	      0.99930301	      0.20415450	     -0.03888721	      0.17623732	     -0.03137015	      0.01408038	      0.25834010	     -0.90856641	     -0.54443660	      0.69022229
      0.43000000	     -1.54787379	     -2.48946566	     -0.06203099	      0.03299710	      0.85470060	      0.94605092	      0.23449051	     -0.15165630	      0.18979455	      0.36846900	     -0.01836154	      0.25509364	     -0.04477269	     -0.12202782	      0.12214399	     -0.79260145	     -0.62595906	      0.78009742
      0.44000000	     -1.56651950	     -2.37365147	     -0.08403880	      0.04497757	      1.03426030	      1.09021492	     -0.01269590	     -0.54920159	      0.67227228	      0.23767689	     -0.02350630	      0.17960295	     -0.03086564	     -0.04123284	      0.15659737	     -0.81148921	     -0.56936711	      0.68795981
      0.45000000	     -1.31601660	     -2.34438498	      0.00916133	     -0.00495689	      1.14823954	      1.31616981	      0.05742878	      0.23176511	     -0.28263481	      0.40189978	     -0.00255073	      0.25670261	     -0.04361185	     -0.17296373	      0.01700692	     -0.74101014	     -0.72212245	      0.85631968
      0.46000000	     -1.31564063	     -2.14738439	     -0.01620970	      0.00871089	      1.38718974	      1.50289002	     -0.33244232	     -0.29793914	      0.36377863	      0.26340026	     -0.00250320	      0.16904809	     -0.02807473	     -0.10504695	      0.01669057	     -0.71567548	     -0.68935220	      0.78589285
      0.47000000	     -1.05071673	     -2.05940772	      0.09107279	     -0.04913686	      1.55432507	      1.81016929	     -0.30207063	      0.61223908	     -0.74589134	      0.46932978	      0.00897089	      0.28342461	     -0.04665217	     -0.22135109	     -0.05981486	     -0.46405367	     -0.56791718	      0.63582463
      0.48000000	     -1.01845270	     -1.81311647	      0.06937572	     -0.03660062	      1.84394274	      2.03870207	     -0.76142175	      0.06254486	     -0.07842524	      0.35765540	      0.01754377	      0.20064959	     -0.03212663	     -0.18870651	     -0.11685004	     -0.49790000	     -0.70309069	      0.75877574
      0.49000000	     -0.83616776	     -1.64641540	      0.12757748	     -0.06723539	      2.07847072	      2.32709970	     -0.86299876	      0.69794083	     -0.87128401	      0.45257253	      0.02004134	      0.25618384	     -0.04077870	     -0.22916898	     -0.13335422	     -0.29846511	     -0.53529377	      0.56565157
      0.50000000	     -0.60728849	     -1.44853358	      0.21975120	     -0.11166126	      2.18746274	      2.62625542	     -1.11480862	      0.88979940	     -1.17175907	      0.66842865	      0.04036652	      0.36045242	     -0.05550639	     -0.34642444	     -0.26811901	     -0.19229378	     -0.67375428	      0.68818538
      0.51000000	     -0.83520962	     -1.13880553	     -0.00664349	      0.00335398	      2.68880228	      2.55016141	     -1.69168471	     -0.07261066	      0.09557089	      0.05406039	      0.05075141	     -0.03618672	      0.00554730	     -0.16243286	     -0.33630347	     -0.29025057	     -0.89868507	      0.89024134
      0.52000000	     -0.32924787	     -1.04191980	      0.27054199	     -0.13415216	      2.31028780	      2.84719403	     -1.07852296	      2.08808504	     -2.86272817	      0.79571273	      0.06828458	      0.39583150	     -0.05990640	     -0.44883570	     -0.45112046	     -0.44857870	     -1.27920968	      1.19242920
      0.53000000	     -0.27815094	     -0.80926357	      0.22568061	     -0.10773564	      2.24819390	      2.71369110	     -1.31223515	      1.51654440	     -2.23700674	      0.71725288	      0.07613589	      0.33115307	     -0.04868658	     -0.42373649	     -0.50012486	     -0.03411406	     -0.94904778	      0.83755628
      0.54000000	     -0.28870363	     -0.60921590	      0.13605259	     -0.06363016	      2.25680500	      2.49107084	     -1.53595479	      0.85775430	     -1.30768752	      0.52478084	      0.08649610	      0.19592311	     -0.02836399	     -0.38645056	     -0.56347785	      0.02724665	     -1.00541612	      0.84118913
      0.55000000	     -0.17130381	     -0.45809684	      0.14352910	     -0.06580753	      1.94890100	      2.25086322	     -1.35501178	      0.82092581	     -1.28903491	      0.60540956	      0.10435918	      0.21562695	     -0.03075538	     -0.44430599	     -0.67112341	      0.37943373	     -0.82205631	      0.65366645
      0.56000000	     -0.03526550	     -0.33987938	      0.17608452	     -0.07923424	      1.46793270	      1.90792808	     -0.77496743	      1.23485414	     -1.99215571	      0.76428364	      0.13702418	      0.25934212	     -0.03646016	     -0.55426885	     -0.86424377	      0.73575368	     -0.76402921	      0.58053544
      0.57000000	     -0.02273260	     -0.17642420	      0.09242261	     -0.04072032	      0.81725037	      1.05803773	     -0.72021889	      0.30522609	     -0.50746745	      0.66726294	      0.15135305	      0.17577041	     -0.02430579	     -0.54482852	     -0.92675941	      1.49066859	      0.05504554	     -0.04077032
      0.58000000	      0.04027893	     -0.10928719	      0.09560605	     -0.04183783	      0.38001286	      0.67124989	      0.03794877	      0.86250335	     -1.43904838	      0.72069080	      0.17275339	      0.17239416	     -0.02364248	     -0.58663280	     -1.01989297	      1.20146350	     -0.37145794	      0.27627206
      0.59000000	      0.15377866	     -0.04688700	      0.13560839	     -0.05820651	     -0.18634478	      0.29289032	      0.70258156	      1.24724415	     -2.16627200	      0.89656226	      0.21478195	      0.20654384	     -0.02791257	     -0.68606797	     -1.21616714	      1.57823945	     -0.15721982	      0.11298564
      0.60000000	      0.14347151	      0.08051306	      0.04703195	     -0.02001156	     -0.71077213	     -0.50052174	      0.82434342	      0.49399787	     -0.86997156	      0.78954158	      0.23043684	      0.11874681	     -0.01591153	     -0.64683999	     -1.19566572	      2.18804565	      0.81942099	     -0.60833336
      0.61000000	      0.22604586	      0.12417265	      0.07496860	     -0.03161746	     -1.05948302	     -0.75841900	      1.35510640	      0.97313450	     -1.75054666	      0.94034769	      0.27739661	      0.13059593	     -0.01734560	     -0.70805643	     -1.31134389	      2.20323894	      0.79847529	     -0.61785978
      0.62000000	      0.25025302	      0.20032782	      0.04273000	     -0.01789778	     -1.35468039	     -1.18208815	      1.43532272	      0.73871111	     -1.35152220	      0.94833595	      0.32466276	      0.06506494	     -0.00859454	     -0.72864811	     -1.38355791	      2.55995709	      1.46776332	     -1.21242079
      0.63000000	      0.29744215	      0.24244161	      0.04785646	     -0.01993142	     -1.50737068	     -1.37200319	      1.47023291	      0.75960337	     -1.41374690	      1.03468689	      0.38310975	      0.02800584	     -0.00368724	     -0.76361174	     -1.46349325	      2.59041199	      1.71666196	     -1.54508666
      0.64000000	      0.32788337	      0.28669868	      0.04077347	     -0.01688508	     -1.54921996	     -1.46344016	      1.36401873	      0.59985042	     -1.13029242	      1.08763840	      0.45129095	     -0.03548448	      0.00467376	     -0.79118452	     -1.53419281	      2.69665062	      2.21459970	     -2.19480057
      0.65000000	      0.30813751	      0.33491579	      0.00031407	     -0.00012971	     -1.47854264	     -1.52509153	      1.23035676	      0.41604805	     -0.79224706	      1.01919717	      0.51712431	     -0.14778837	      0.01956581	     -0.79156500	     -1.56557182	      2.81272089	      2.94427200	     -3.29087779
      0.66000000	      0.39097948	      0.32081911	      0.06148958	     -0.02533681	     -1.40175509	     -1.30849232	      0.91060232	      0.17359205	     -0.33205351	      1.24702675	      0.63404384	     -0.17124944	      0.02292006	     -0.87268646	     -1.70703803	      2.53532502	      2.75793539	     -3.48354869
      0.67000000	      0.29284197	      0.33379417	     -0.00670999	      0.00274620	     -1.14996568	     -1.23659460	      0.56340468	     -0.32955089	      0.63033571	      1.04553470	      0.76880346	     -0.39344502	      0.05347416	     -0.89732841	     -1.81518450	      2.45649132	      3.05966066	     -4.28541445
      0.68000000	      0.32433759	      0.32222220	      0.02063899	     -0.00848120	     -1.06414383	     -1.08869923	      0.37866824	     -0.50555888	      0.95763277	      1.11456696	      0.87325043	     -0.43175998	      0.06050630	     -0.88479008	     -1.78697314	      2.18155409	      3.07874076	     -4.78447967
      0.69000000	      0.45006137	      0.25498873	      0.12941688	     -0.05249394	     -1.00202753	     -0.80368052	      0.13121749	     -0.66046840	      1.24001268	      1.47383271	      1.01415556	     -0.38748776	      0.05560660	     -0.89504322	     -1.77645355	      2.00126790	      3.18377913	     -5.37217884
      0.70000000	      0.28525489	      0.24200769	      0.03808364	     -0.01530283	     -0.72746624	     -0.72168810	     -0.16368492	     -1.17393062	      2.16005760	      1.10102455	      1.22284940	     -0.64958084	      0.09667992	     -0.85763587	     -1.79633236	      1.71521279	      2.90073379	     -5.25676373
      0.71000000	      0.37497912	      0.17715314	      0.12232741	     -0.04875401	     -0.67852826	     -0.50518013	     -0.27901654	     -1.18081627	      2.11786555	      1.31095286	      1.36328422	     -0.60339861	      0.09401118	     -0.79466922	     -1.66685192	      1.37257997	      2.48926042	     -4.71634376
      0.72000000	      0.43323118	      0.08840989	      0.19873549	     -0.07754458	     -0.56356474	     -0.24580403	     -0.48406145	     -1.30926516	      2.27861264	      1.43229369	      1.49578684	     -0.57829581	      0.09392839	     -0.71633513	     -1.52275513	      1.14714182	      2.29325102	     -4.48758386
      0.73000000	      0.31781578	      0.06972066	      0.14133030	     -0.05402423	     -0.40068379	     -0.19097449	     -0.65950562	     -1.62280273	      2.71922061	      1.03459205	      1.69769576	     -0.72776045	      0.12421622	     -0.62390235	     -1.42562016	      0.90075331	      1.91488425	     -3.81754361
      0.74000000	      0.50607855	     -0.05321866	      0.31011256	     -0.11574957	     -0.37087332	      0.14515522	     -0.60529839	     -1.06840738	      1.71638270	      1.50036144	      1.77467753	     -0.54219863	      0.09751418	     -0.55279387	     -1.23300898	      0.50007182	      1.05681697	     -2.12700337
      0.75000000	      0.35678761	     -0.05186366	      0.22631998	     -0.08129810	     -0.22066725	      0.14372815	     -0.75507187	     -1.36270178	      2.12482576	      0.89132810	      1.96202218	     -0.70083942	      0.13173994	     -0.45954216	     -1.13940245	      0.33636275	      0.80461892	     -1.62427097
      0.76000000	      0.22148088	     -0.03808824	      0.14367179	     -0.05089104	     -0.12375936	      0.10587013	     -0.93090713	     -1.76402812	      2.59146896	      0.16980485	      2.10913297	     -0.81278765	      0.16391522	     -0.35649718	     -1.02132117	      0.27815828	      0.84884759	     -1.71788557
      0.77000000	      0.89902290	     -0.29295179	      0.66673392	     -0.22601630	     -0.24938064	      0.84029606	     -0.44614146	      0.34761132	     -0.49676771	      2.13015781	      1.84469244	     -0.19924625	      0.04204674	     -0.36609159	     -0.76132819	     -0.21967703	     -0.46897800	      0.94946031
