FiberVelocity
version=1
nRows=55
nColumns=19
inDegrees=no

This analysis gathers basic information about muscles during a simulation (e.g., forces, tendon lengths, moment arms, etc).
Units are S.I. units (second, meters, Newtons, ...)
If the header above contains a line with 'inDegrees', this indicates whether rotational values are in degrees (yes) or radians (no).

endheader
time	hamstrings_r	bifemsh_r	glut_max_r	iliopsoas_r	rect_fem_r	vasti_r	gastroc_r	soleus_r	dorsiflexors_r	hamstrings_l	bifemsh_l	glut_max_l	iliopsoas_l	rect_fem_l	vasti_l	gastroc_l	soleus_l	dorsiflexors_l
      0.23000000	     -0.03175065	     -0.18811033	      0.18210069	     -0.06517457	      0.08378815	      0.12263746	     -0.11369829	     -0.06150043	     -0.04554682	     -0.13161857	      0.03973188	     -0.17621890	      0.06643224	      0.00490673	     -0.05306502	     -0.09044023	     -0.03277232	     -0.01426624
      0.24000000	     -0.01141803	     -0.17074920	      0.18475238	     -0.06691033	      0.06271188	      0.10808805	     -0.10789715	     -0.05352281	     -0.03906912	     -0.13030321	      0.03394062	     -0.16916107	      0.06311268	      0.00842607	     -0.04633330	     -0.07742818	     -0.02691839	     -0.01141435
      0.25000000	      0.00847613	     -0.15155843	      0.18508371	     -0.06782584	      0.04274534	      0.09355244	     -0.15553350	     -0.09761425	     -0.07034017	     -0.12357179	      0.04003760	     -0.17266338	      0.06376597	     -0.00335385	     -0.05577473	     -0.07748437	     -0.01871126	     -0.00778939
      0.26000000	      0.03483432	     -0.13136739	      0.19195406	     -0.07121105	      0.02117979	      0.07939702	     -0.22253313	     -0.16078569	     -0.11175150	     -0.10751307	      0.03911976	     -0.15771758	      0.05766660	     -0.01069588	     -0.05602115	     -0.07219632	     -0.01368381	     -0.00561179
      0.27000000	      0.05434075	     -0.10732446	      0.18571833	     -0.06975370	      0.00287661	      0.06377616	     -0.17686004	     -0.12290187	     -0.08200762	     -0.10958049	      0.03269787	     -0.15248953	      0.05526035	     -0.00421628	     -0.04785853	     -0.05926450	     -0.00946858	     -0.00384685
      0.28000000	      0.07673744	     -0.08421420	      0.18339229	     -0.06971130	     -0.01496602	      0.04940786	     -0.18051128	     -0.13174310	     -0.08420969	     -0.10312040	      0.03762056	     -0.15457054	      0.05550308	     -0.01520560	     -0.05649980	     -0.06650933	     -0.00804711	     -0.00324140
      0.29000000	      0.09885218	     -0.06355334	      0.18258139	     -0.07024520	     -0.03106201	      0.03693955	     -0.17369267	     -0.13113454	     -0.07944768	     -0.09505369	      0.03122116	     -0.13905135	      0.04950999	     -0.01158461	     -0.04805257	     -0.05382708	     -0.00438270	     -0.00175616
      0.30000000	      0.12418090	     -0.04368461	      0.18523991	     -0.07213110	     -0.04758099	      0.02522795	     -0.16533692	     -0.12962919	     -0.07389020	     -0.08370093	      0.02641594	     -0.12203782	      0.04312582	     -0.00978779	     -0.04048595	     -0.04624717	     -0.00345780	     -0.00138046
      0.31000000	      0.14429898	     -0.01986170	      0.17680043	     -0.06968266	     -0.06174461	      0.01142707	     -0.12598552	     -0.10294982	     -0.05489147	     -0.08220165	      0.02926530	     -0.12566232	      0.04410441	     -0.01439849	     -0.04472528	     -0.05624266	     -0.00723389	     -0.00287563
      0.32000000	      0.16900280	     -0.00162620	      0.17879648	     -0.07128543	     -0.07649177	      0.00093459	     -0.11603850	     -0.10062475	     -0.05051261	     -0.06990890	      0.02487938	     -0.10781538	      0.03758092	     -0.01239500	     -0.03773467	     -0.04963977	     -0.00687370	     -0.00271146
      0.33000000	      0.19349575	      0.01761582	      0.17852039	     -0.07204050	     -0.09111030	     -0.01013160	     -0.10640590	     -0.09870072	     -0.04584018	     -0.05917430	      0.02011651	     -0.09049845	      0.03138291	     -0.00930851	     -0.03026255	     -0.04128129	     -0.00605171	     -0.00237533
      0.34000000	      0.20483385	      0.04124001	      0.16015617	     -0.06535005	     -0.10014329	     -0.02380244	     -0.05925093	     -0.06633717	     -0.02886592	     -0.06539383	      0.02309362	     -0.10202422	      0.03518812	     -0.01142229	     -0.03433709	     -0.05192273	     -0.01021757	     -0.00397754
      0.35000000	      0.23162526	      0.05765993	      0.16486931	     -0.06799693	     -0.11541712	     -0.03347710	     -0.06366881	     -0.07484488	     -0.03056599	     -0.05070547	      0.01716770	     -0.07854766	      0.02695732	     -0.00779219	     -0.02520178	     -0.04281907	     -0.01081944	     -0.00417016
      0.36000000	      0.25157745	      0.07997811	      0.15639537	     -0.06520104	     -0.12868266	     -0.04683348	     -0.03409776	     -0.05605386	     -0.02135366	     -0.04638759	      0.01455358	     -0.07051486	      0.02410816	     -0.00553117	     -0.02111860	     -0.04232957	     -0.01410994	     -0.00537350
      0.37000000	      0.26038842	      0.10127394	      0.13887342	     -0.05846073	     -0.13709656	     -0.06002494	     -0.02367851	     -0.05210907	     -0.01880584	     -0.05090189	      0.01914840	     -0.08263271	      0.02813654	     -0.00995543	     -0.02739961	     -0.05548028	     -0.01801159	     -0.00674907
      0.38000000	      0.27054444	      0.12674757	      0.11895644	     -0.05050768	     -0.14749412	     -0.07632278	      0.02484310	     -0.01704837	     -0.00585872	     -0.05665336	      0.00997982	     -0.07527977	      0.02552493	      0.00331748	     -0.01405281	     -0.03060008	     -0.01065061	     -0.00392918
      0.39000000	      0.28730200	      0.14654544	      0.11130289	     -0.04760941	     -0.16123796	     -0.09006246	     -0.00287566	     -0.04134304	     -0.01395551	     -0.05049637	      0.01255279	     -0.07305705	      0.02467973	     -0.00162365	     -0.01752685	     -0.04585736	     -0.01965547	     -0.00715957
      0.40000000	      0.30915074	      0.16907111	      0.10536630	     -0.04540076	     -0.17910620	     -0.10644288	      0.00432479	     -0.03592067	     -0.01128459	     -0.04197977	      0.01279424	     -0.06470071	      0.02177785	     -0.00400450	     -0.01753205	     -0.04445004	     -0.01782675	     -0.00633955
      0.41000000	      0.30569516	      0.19361309	      0.07499457	     -0.03250571	     -0.18702517	     -0.12557756	      0.02586935	     -0.01790463	     -0.00553889	     -0.05681611	      0.00761991	     -0.07298263	      0.02448628	      0.00608711	     -0.01034585	     -0.04022448	     -0.02245171	     -0.00784914
      0.42000000	      0.33667809	      0.21099203	      0.08207447	     -0.03574992	     -0.21178188	     -0.14162396	      0.01029975	     -0.02605573	     -0.00768273	     -0.03639890	      0.00937069	     -0.05399208	      0.01805230	     -0.00135068	     -0.01255973	     -0.04091107	     -0.02011189	     -0.00682645
      0.43000000	      0.31391693	      0.23736139	      0.03295050	     -0.01441558	     -0.21531659	     -0.16584537	      0.03086515	     -0.00495644	     -0.00144878	     -0.06490226	      0.00443047	     -0.07748834	      0.02584009	      0.01168470	     -0.00589810	     -0.03474213	     -0.02278919	     -0.00759480
      0.44000000	      0.34465289	      0.24890550	      0.04476113	     -0.01961248	     -0.24327559	     -0.18208372	     -0.00162834	     -0.01764250	     -0.00502792	     -0.04106269	      0.00567961	     -0.05386074	      0.01789140	      0.00395232	     -0.00750866	     -0.03415712	     -0.02020691	     -0.00651800
      0.45000000	      0.31613611	      0.27023941	     -0.00490301	      0.00215415	     -0.24872188	     -0.20803949	      0.00738921	      0.00742373	      0.00210663	     -0.06870331	      0.00061676	     -0.07644151	      0.02533955	      0.01658770	     -0.00081235	     -0.03046418	     -0.02524656	     -0.00798609
      0.46000000	      0.33947711	      0.27241456	      0.00864921	     -0.00379358	     -0.27618991	     -0.22272416	     -0.04244316	     -0.00955232	     -0.00271444	     -0.04397697	      0.00060529	     -0.04963765	      0.01638820	      0.01017539	     -0.00079712	     -0.02836174	     -0.02337780	     -0.00710205
      0.47000000	      0.29388870	      0.28595815	     -0.04868009	      0.02137257	     -0.27915407	     -0.24986447	     -0.03762368	      0.01959618	      0.00555466	     -0.07763064	     -0.00216920	     -0.08276187	      0.02728210	      0.02152590	      0.00285676	     -0.01809329	     -0.01899998	     -0.00566717
      0.48000000	      0.30145185	      0.27553298	     -0.03671785	      0.01603066	     -0.29898876	     -0.25878643	     -0.09225370	      0.00204722	      0.00059975	     -0.05736199	     -0.00423811	     -0.05758371	      0.01889361	      0.01868322	      0.00560853	     -0.01894287	     -0.02290221	     -0.00658478
      0.49000000	      0.26561501	      0.27083172	     -0.06749035	      0.02945788	     -0.29741577	     -0.27085419	     -0.09837061	      0.02276543	      0.00663534	     -0.07201616	     -0.00483704	     -0.07324941	      0.02401041	      0.02287628	      0.00643087	     -0.01123564	     -0.01717918	     -0.00483765
      0.50000000	      0.20053963	      0.25759852	     -0.11438247	      0.04947107	     -0.27889666	     -0.27639089	     -0.12075096	      0.03031168	      0.00940321	     -0.10233312	     -0.00972533	     -0.10090659	      0.03290193	      0.03543763	      0.01304764	     -0.00713912	     -0.02112415	     -0.00575446
      0.51000000	      0.29165155	      0.21582229	      0.00344803	     -0.00148888	     -0.29937714	     -0.24369043	     -0.16700928	     -0.00247248	     -0.00076654	     -0.00819651	     -0.01219534	      0.01010081	     -0.00329121	      0.01691577	      0.01658454	     -0.01073702	     -0.02760765	     -0.00730171
      0.52000000	      0.11974749	      0.20898291	     -0.13928940	      0.05987546	     -0.22631086	     -0.24645137	     -0.09831609	      0.07364963	      0.02397699	     -0.11824454	     -0.01635354	     -0.10957534	      0.03563461	      0.04793297	      0.02262294	     -0.01626953	     -0.03780188	     -0.00943749
      0.53000000	      0.10302260	      0.17058194	     -0.11422030	      0.04863267	     -0.19787262	     -0.21265693	     -0.11248181	      0.05729432	      0.02042936	     -0.10244255	     -0.01815680	     -0.08994832	      0.02913023	      0.04689428	      0.02560791	     -0.00122959	     -0.02713050	     -0.00643706
      0.54000000	      0.10939576	      0.13335375	     -0.06822021	      0.02889721	     -0.17873502	     -0.17879642	     -0.12134280	      0.03351883	      0.01247263	     -0.07306110	     -0.02053491	     -0.05267525	      0.01702359	      0.04412427	      0.02948414	      0.00098031	     -0.02786785	     -0.00629675
      0.55000000	      0.06593351	      0.10327862	     -0.07132065	      0.03005986	     -0.14071472	     -0.14917736	     -0.09941543	      0.03312363	      0.01281814	     -0.08204012	     -0.02464041	     -0.05739791	      0.01851428	      0.05256648	      0.03603564	      0.01376363	     -0.02215205	     -0.00478073
      0.56000000	      0.01369359	      0.07831625	     -0.08674923	      0.03639025	     -0.09812345	     -0.11805000	     -0.05365385	      0.05139851	      0.02063720	     -0.10060891	     -0.03213784	     -0.06836369	      0.02201246	      0.06829604	      0.04784983	      0.02723706	     -0.02009554	     -0.00416475
      0.57000000	      0.00882412	      0.04126939	     -0.04509275	      0.01881555	     -0.05057804	     -0.06137785	     -0.04837993	      0.01318232	      0.00552164	     -0.08481393	     -0.03520039	     -0.04581321	      0.01472344	      0.07048893	      0.05327472	      0.05759470	      0.00142876	      0.00028949
      0.58000000	     -0.01567043	      0.02573876	     -0.04649987	      0.01936948	     -0.02259255	     -0.03777549	      0.00247890	      0.03741817	      0.01575243	     -0.08923118	     -0.03982743	     -0.04467758	      0.01434561	      0.07945055	      0.06087710	      0.04920730	     -0.00966218	     -0.00196493
      0.59000000	     -0.05925617	      0.01110460	     -0.06536745	      0.02709625	      0.01087915	     -0.01606454	      0.04728264	      0.05713851	      0.02552203	     -0.10681855	     -0.04897158	     -0.05298331	      0.01698706	      0.09805970	      0.07589638	      0.06781240	     -0.00401880	     -0.00079298
      0.60000000	     -0.05476876	     -0.01903623	     -0.02257889	      0.00933882	      0.04244179	      0.02766890	      0.05715879	      0.02309627	      0.01053798	     -0.09095292	     -0.05189799	     -0.03027977	      0.00970020	      0.09610948	      0.07756849	      0.10232698	      0.02129435	      0.00432352
      0.61000000	     -0.08507926	     -0.02919523	     -0.03584264	      0.01479178	      0.06650258	      0.04300753	      0.09988342	      0.04702903	      0.02218974	     -0.10436125	     -0.06161046	     -0.03309415	      0.01059345	      0.10960490	      0.08861681	      0.11287146	      0.02120425	      0.00446621
      0.62000000	     -0.09262366	     -0.04666951	     -0.02036394	      0.00838938	      0.09122074	      0.06981273	      0.11345658	      0.03672631	      0.01781606	     -0.10127595	     -0.07091897	     -0.01642374	      0.00525481	      0.11791871	      0.09781149	      0.14621481	      0.04039143	      0.00902130
      0.63000000	     -0.10793843	     -0.05577517	     -0.02274655	      0.00935752	      0.11068390	      0.08545225	      0.12615709	      0.03894813	      0.01945318	     -0.10611937	     -0.08210285	     -0.00705273	      0.00225593	      0.12948996	      0.10851414	      0.16708852	      0.04965381	      0.01199739
      0.64000000	     -0.11639268	     -0.06500241	     -0.01932837	      0.00793993	      0.12164921	      0.09538914	      0.12641772	      0.03150009	      0.01608084	     -0.10692103	     -0.09454967	      0.00893866	     -0.00285927	      0.14110045	      0.11980469	      0.19843165	      0.06805313	      0.01800671
      0.65000000	     -0.10693901	     -0.07462745	     -0.00014869	      0.00006104	      0.12448440	      0.10447216	      0.12329118	      0.02232577	      0.01161906	     -0.09609233	     -0.10559381	      0.03736500	     -0.01195725	      0.14871385	      0.12902548	      0.23980029	      0.09838154	      0.02929561
      0.66000000	     -0.13260180	     -0.07019453	     -0.02908035	      0.01193088	      0.12616032	      0.09402075	      0.09719890	      0.00940601	      0.00493686	     -0.11273459	     -0.12562791	      0.04363197	     -0.01397613	      0.17337504	      0.14910024	      0.25225254	      0.10155810	      0.03433480
      0.67000000	     -0.09677674	     -0.07177374	      0.00316330	     -0.00129560	      0.11023223	      0.09267255	      0.06301204	     -0.01785400	     -0.00936971	     -0.09016306	     -0.14686788	      0.10132971	     -0.03250583	      0.18978434	      0.16913236	      0.28396424	      0.12391308	      0.04697495
      0.68000000	     -0.10536619	     -0.06802811	     -0.00974837	      0.00399675	      0.10746211	      0.08502193	      0.04350653	     -0.02683224	     -0.01382907	     -0.09279583	     -0.15996395	      0.11356676	     -0.03655363	      0.19937850	      0.17815531	      0.29487327	      0.13970688	      0.05999747
      0.69000000	     -0.14204013	     -0.05302196	     -0.06075450	      0.02482717	      0.10687461	      0.06481668	      0.01536801	     -0.03443575	     -0.01746571	     -0.11653505	     -0.17728050	      0.10356920	     -0.03343322	      0.21552185	      0.18958335	      0.31234089	      0.16143459	      0.07733297
      0.70000000	     -0.08794115	     -0.04966432	     -0.01779920	      0.00725636	      0.08105435	      0.05977680	     -0.01909864	     -0.05895066	     -0.02887227	     -0.08319574	     -0.20239965	      0.17786846	     -0.05770304	      0.22082715	      0.20575091	      0.30957636	      0.16650410	      0.08885897
      0.71000000	     -0.11326209	     -0.03593997	     -0.05695221	      0.02317043	      0.07842604	      0.04279301	     -0.03214416	     -0.05679442	     -0.02667026	     -0.09502977	     -0.21206364	      0.17019043	     -0.05559438	      0.21846947	      0.20495077	      0.27957863	      0.15851335	      0.09159266
      0.72000000	     -0.12732100	     -0.01781562	     -0.09160013	      0.03706777	      0.06738540	      0.02109117	     -0.05440678	     -0.06015548	     -0.02695259	     -0.09880524	     -0.21786739	      0.16746518	     -0.05507850	      0.20940639	      0.20004742	      0.26079411	      0.16220584	      0.10061488
      0.73000000	     -0.09119649	     -0.01399321	     -0.06450669	      0.02596902	      0.04916160	      0.01651077	     -0.07157429	     -0.07079330	     -0.02998750	     -0.06838398	     -0.23012232	      0.21733304	     -0.07210387	      0.19294917	      0.19956510	      0.22407474	      0.14824122	      0.09704039
      0.74000000	     -0.14178568	      0.01066890	     -0.13993601	      0.05599786	      0.04645611	     -0.01257648	     -0.06307546	     -0.04425026	     -0.01766413	     -0.09534787	     -0.22292601	      0.16714608	     -0.05599515	      0.17974785	      0.18305967	      0.13321399	      0.08797787	      0.05987736
      0.75000000	     -0.09684941	      0.01044203	     -0.10025372	      0.03973319	      0.02812880	     -0.01235287	     -0.07583313	     -0.05455888	     -0.02091598	     -0.05396525	     -0.22804677	      0.22182085	     -0.07495199	      0.15634102	      0.17833350	      0.09268718	      0.06936255	      0.04803670
      0.76000000	     -0.05937333	      0.00767472	     -0.06321092	      0.02496402	      0.01590285	     -0.00908529	     -0.08864445	     -0.06637521	     -0.02354462	     -0.01019342	     -0.22527342	      0.26805291	     -0.09187243	      0.12570025	      0.16817620	      0.07935856	      0.07665527	      0.05426422
      0.77000000	     -0.23331621	      0.05952419	     -0.28710341	      0.11214249	      0.03237656	     -0.07096924	     -0.04079082	      0.01273570	      0.00436334	     -0.12354102	     -0.18211542	      0.06744315	     -0.02333618	      0.13333880	      0.13074678	     -0.06292087	     -0.04282217	     -0.03046637
