MomentArm_knee_angle_l
version=1
nRows=55
nColumns=19
inDegrees=no

This analysis gathers basic information about muscles during a simulation (e.g., forces, tendon lengths, moment arms, etc).
Units are S.I. units (second, meters, Newtons, ...)
If the header above contains a line with 'inDegrees', this indicates whether rotational values are in degrees (yes) or radians (no).

endheader
time	hamstrings_r	bifemsh_r	glut_max_r	iliopsoas_r	rect_fem_r	vasti_r	gastroc_r	soleus_r	dorsiflexors_r	hamstrings_l	bifemsh_l	glut_max_l	iliopsoas_l	rect_fem_l	vasti_l	gastroc_l	soleus_l	dorsiflexors_l
      0.23000000	      0.00000000	      0.00000000	      0.00000000	      0.00000000	      0.00000000	      0.00000000	      0.00000000	      0.00000000	      0.00000000	     -0.04109143	     -0.03006466	      0.00000000	      0.00000000	      0.04835725	      0.04692987	     -0.03899251	     -0.00000000	     -0.00000000
      0.24000000	      0.00000000	      0.00000000	      0.00000000	      0.00000000	      0.00000000	      0.00000000	      0.00000000	      0.00000000	      0.00000000	     -0.04062659	     -0.02957048	      0.00000000	      0.00000000	      0.04855137	      0.04747686	     -0.03968255	      0.00000000	      0.00000000
      0.25000000	      0.00000000	      0.00000000	      0.00000000	      0.00000000	      0.00000000	      0.00000000	      0.00000000	      0.00000000	      0.00000000	     -0.04020214	     -0.02913106	      0.00000000	      0.00000000	      0.04874306	      0.04800348	     -0.04028226	      0.00000000	      0.00000000
      0.26000000	      0.00000000	      0.00000000	      0.00000000	      0.00000000	      0.00000000	      0.00000000	      0.00000000	      0.00000000	      0.00000000	     -0.03964870	     -0.02855265	      0.00000000	      0.00000000	      0.04905612	      0.04874731	     -0.04105160	      0.00000000	      0.00000000
      0.27000000	      0.00000000	      0.00000000	      0.00000000	      0.00000000	      0.00000000	      0.00000000	      0.00000000	      0.00000000	      0.00000000	     -0.03920974	     -0.02810734	      0.00000000	      0.00000000	      0.04930412	      0.04935414	     -0.04162983	     -0.00000000	      0.00000000
      0.28000000	      0.00000000	      0.00000000	      0.00000000	      0.00000000	      0.00000000	      0.00000000	      0.00000000	      0.00000000	      0.00000000	     -0.03870006	     -0.02759236	      0.00000000	      0.00000000	      0.04961381	      0.05008751	     -0.04228350	     -0.00000000	      0.00000000
      0.29000000	      0.00000000	      0.00000000	      0.00000000	      0.00000000	      0.00000000	      0.00000000	      0.00000000	      0.00000000	      0.00000000	     -0.03821526	     -0.02710918	      0.00000000	      0.00000000	      0.04991192	      0.05080166	     -0.04288227	     -0.00000000	     -0.00000000
      0.30000000	      0.00000000	      0.00000000	      0.00000000	      0.00000000	      0.00000000	      0.00000000	      0.00000000	      0.00000000	      0.00000000	     -0.03778333	     -0.02668550	      0.00000000	      0.00000000	      0.04952675	      0.05016233	     -0.04339619	      0.00000000	      0.00000000
      0.31000000	      0.00000000	      0.00000000	      0.00000000	      0.00000000	      0.00000000	      0.00000000	      0.00000000	      0.00000000	      0.00000000	     -0.03737774	     -0.02629163	      0.00000000	      0.00000000	      0.04835690	      0.04966414	     -0.04386510	      0.00000000	      0.00000000
      0.32000000	      0.00000000	      0.00000000	      0.00000000	      0.00000000	      0.00000000	      0.00000000	      0.00000000	      0.00000000	      0.00000000	     -0.03692267	     -0.02585005	      0.00000000	      0.00000000	      0.04709842	      0.04889417	     -0.04438115	      0.00000000	      0.00000000
      0.33000000	      0.00000000	      0.00000000	      0.00000000	      0.00000000	      0.00000000	      0.00000000	      0.00000000	      0.00000000	      0.00000000	     -0.03659299	     -0.02553544	      0.00000000	      0.00000000	      0.04616244	      0.04821860	     -0.04474217	     -0.00000000	     -0.00000000
      0.34000000	      0.00000000	      0.00000000	      0.00000000	      0.00000000	      0.00000000	      0.00000000	      0.00000000	      0.00000000	      0.00000000	     -0.03621945	     -0.02517971	      0.00000000	      0.00000000	      0.04498136	      0.04734806	     -0.04514439	     -0.00000000	      0.00000000
      0.35000000	      0.00000000	      0.00000000	      0.00000000	      0.00000000	      0.00000000	      0.00000000	      0.00000000	      0.00000000	      0.00000000	     -0.03588037	     -0.02486066	      0.00000000	      0.00000000	      0.04380697	      0.04647300	     -0.04549982	     -0.00000000	     -0.00000000
      0.36000000	      0.00000000	      0.00000000	      0.00000000	      0.00000000	      0.00000000	      0.00000000	      0.00000000	      0.00000000	      0.00000000	     -0.03561308	     -0.02461095	      0.00000000	      0.00000000	      0.04281364	      0.04572724	     -0.04577499	     -0.00000000	      0.00000000
      0.37000000	      0.00000000	      0.00000000	      0.00000000	      0.00000000	      0.00000000	      0.00000000	      0.00000000	      0.00000000	      0.00000000	     -0.03532400	     -0.02434271	      0.00000000	      0.00000000	      0.04167441	      0.04486774	     -0.04606749	     -0.00000000	     -0.00000000
      0.38000000	      0.00000000	      0.00000000	      0.00000000	      0.00000000	      0.00000000	      0.00000000	      0.00000000	      0.00000000	      0.00000000	     -0.03502562	     -0.02406889	      0.00000000	      0.00000000	      0.04043308	      0.04392912	     -0.04636192	      0.00000000	      0.00000000
      0.39000000	      0.00000000	      0.00000000	      0.00000000	      0.00000000	      0.00000000	      0.00000000	      0.00000000	      0.00000000	      0.00000000	     -0.03486302	     -0.02393578	      0.00000000	      0.00000000	      0.03977739	      0.04345086	     -0.04650459	     -0.00000000	      0.00000000
      0.40000000	      0.00000000	      0.00000000	      0.00000000	      0.00000000	      0.00000000	      0.00000000	      0.00000000	      0.00000000	      0.00000000	     -0.03456697	     -0.02366302	      0.00000000	      0.00000000	      0.03843373	      0.04242670	     -0.04679359	     -0.00000000	      0.00000000
      0.41000000	      0.00000000	      0.00000000	      0.00000000	      0.00000000	      0.00000000	      0.00000000	      0.00000000	      0.00000000	      0.00000000	     -0.03441173	     -0.02353619	      0.00000000	      0.00000000	      0.03776680	      0.04193772	     -0.04692773	      0.00000000	      0.00000000
      0.42000000	      0.00000000	      0.00000000	      0.00000000	      0.00000000	      0.00000000	      0.00000000	      0.00000000	      0.00000000	      0.00000000	     -0.03420100	     -0.02335552	      0.00000000	      0.00000000	      0.03684887	      0.04125942	     -0.04711832	     -0.00000000	      0.00000000
      0.43000000	      0.00000000	      0.00000000	      0.00000000	      0.00000000	      0.00000000	      0.00000000	      0.00000000	      0.00000000	      0.00000000	     -0.03407830	     -0.02325895	      0.00000000	      0.00000000	      0.03635261	      0.04090603	     -0.04721994	     -0.00000000	     -0.00000000
      0.44000000	      0.00000000	      0.00000000	      0.00000000	      0.00000000	      0.00000000	      0.00000000	      0.00000000	      0.00000000	      0.00000000	     -0.03393566	     -0.02315871	      0.00000000	      0.00000000	      0.03582265	      0.04054593	     -0.04732743	      0.00000000	      0.00000000
      0.45000000	      0.00000000	      0.00000000	      0.00000000	      0.00000000	      0.00000000	      0.00000000	      0.00000000	      0.00000000	      0.00000000	     -0.03385769	     -0.02310448	      0.00000000	      0.00000000	      0.03553775	      0.04035395	     -0.04738569	     -0.00000000	     -0.00000000
      0.46000000	      0.00000000	      0.00000000	      0.00000000	      0.00000000	      0.00000000	      0.00000000	      0.00000000	      0.00000000	      0.00000000	     -0.03380298	     -0.02310230	      0.00000000	      0.00000000	      0.03545571	      0.04034627	     -0.04739539	     -0.00000000	      0.00000000
      0.47000000	      0.00000000	      0.00000000	      0.00000000	      0.00000000	      0.00000000	      0.00000000	      0.00000000	      0.00000000	      0.00000000	     -0.03378229	     -0.02310267	      0.00000000	      0.00000000	      0.03542897	      0.04034758	     -0.04739843	     -0.00000000	      0.00000000
      0.48000000	      0.00000000	      0.00000000	      0.00000000	      0.00000000	      0.00000000	      0.00000000	      0.00000000	      0.00000000	      0.00000000	     -0.03378318	     -0.02317319	      0.00000000	      0.00000000	      0.03566469	      0.04059753	     -0.04733425	      0.00000000	      0.00000000
      0.49000000	      0.00000000	      0.00000000	      0.00000000	      0.00000000	      0.00000000	      0.00000000	      0.00000000	      0.00000000	      0.00000000	     -0.03383289	     -0.02324006	      0.00000000	      0.00000000	      0.03595662	      0.04083766	     -0.04727057	     -0.00000000	     -0.00000000
      0.50000000	      0.00000000	      0.00000000	      0.00000000	      0.00000000	      0.00000000	      0.00000000	      0.00000000	      0.00000000	      0.00000000	     -0.03387313	     -0.02336914	      0.00000000	      0.00000000	      0.03645796	      0.04130979	     -0.04714575	     -0.00000000	      0.00000000
      0.51000000	      0.00000000	      0.00000000	      0.00000000	      0.00000000	      0.00000000	      0.00000000	      0.00000000	      0.00000000	      0.00000000	     -0.03404269	     -0.02355826	      0.00000000	      0.00000000	      0.03735445	      0.04202211	     -0.04695785	      0.00000000	      0.00000000
      0.52000000	      0.00000000	      0.00000000	      0.00000000	      0.00000000	      0.00000000	      0.00000000	      0.00000000	      0.00000000	      0.00000000	     -0.03423814	     -0.02379746	      0.00000000	      0.00000000	      0.03847727	      0.04293885	     -0.04672152	     -0.00000000	     -0.00000000
      0.53000000	      0.00000000	      0.00000000	      0.00000000	      0.00000000	      0.00000000	      0.00000000	      0.00000000	      0.00000000	      0.00000000	     -0.03444492	     -0.02409484	      0.00000000	      0.00000000	      0.03976014	      0.04402067	     -0.04641984	      0.00000000	     -0.00000000
      0.54000000	      0.00000000	      0.00000000	      0.00000000	      0.00000000	      0.00000000	      0.00000000	      0.00000000	      0.00000000	      0.00000000	     -0.03469854	     -0.02440528	      0.00000000	      0.00000000	      0.04105419	      0.04507357	     -0.04609934	      0.00000000	      0.00000000
      0.55000000	      0.00000000	      0.00000000	      0.00000000	      0.00000000	      0.00000000	      0.00000000	      0.00000000	      0.00000000	      0.00000000	     -0.03500944	     -0.02477603	      0.00000000	      0.00000000	      0.04248552	      0.04622620	     -0.04570776	     -0.00000000	      0.00000000
      0.56000000	      0.00000000	      0.00000000	      0.00000000	      0.00000000	      0.00000000	      0.00000000	      0.00000000	      0.00000000	      0.00000000	     -0.03538650	     -0.02521734	      0.00000000	      0.00000000	      0.04401954	      0.04744544	     -0.04522968	      0.00000000	     -0.00000000
      0.57000000	      0.00000000	      0.00000000	      0.00000000	      0.00000000	      0.00000000	      0.00000000	      0.00000000	      0.00000000	      0.00000000	     -0.03585048	     -0.02575990	      0.00000000	      0.00000000	      0.04563797	      0.04870976	     -0.04462261	      0.00000000	      0.00000000
      0.58000000	      0.00000000	      0.00000000	      0.00000000	      0.00000000	      0.00000000	      0.00000000	      0.00000000	      0.00000000	      0.00000000	     -0.03633824	     -0.02630582	      0.00000000	      0.00000000	      0.04712325	      0.04968512	     -0.04399055	     -0.00000000	     -0.00000000
      0.59000000	      0.00000000	      0.00000000	      0.00000000	      0.00000000	      0.00000000	      0.00000000	      0.00000000	      0.00000000	      0.00000000	     -0.03691737	     -0.02697350	      0.00000000	      0.00000000	      0.04861644	      0.05100610	     -0.04320219	      0.00000000	      0.00000000
      0.60000000	      0.00000000	      0.00000000	      0.00000000	      0.00000000	      0.00000000	      0.00000000	      0.00000000	      0.00000000	      0.00000000	     -0.03755272	     -0.02768780	      0.00000000	      0.00000000	      0.04803725	      0.04994928	     -0.04231858	      0.00000000	      0.00000000
      0.61000000	      0.00000000	      0.00000000	      0.00000000	      0.00000000	      0.00000000	      0.00000000	      0.00000000	      0.00000000	      0.00000000	     -0.03823673	     -0.02846241	      0.00000000	      0.00000000	      0.04744598	      0.04886804	     -0.04132546	     -0.00000000	     -0.00000000
      0.62000000	      0.00000000	      0.00000000	      0.00000000	      0.00000000	      0.00000000	      0.00000000	      0.00000000	      0.00000000	      0.00000000	     -0.03902213	     -0.02934612	      0.00000000	      0.00000000	      0.04686495	      0.04774129	     -0.04014463	      0.00000000	     -0.00000000
      0.63000000	      0.00000000	      0.00000000	      0.00000000	      0.00000000	      0.00000000	      0.00000000	      0.00000000	      0.00000000	      0.00000000	     -0.03987575	     -0.03030985	      0.00000000	      0.00000000	      0.04638688	      0.04667805	     -0.03879787	      0.00000000	      0.00000000
      0.64000000	      0.00000000	      0.00000000	      0.00000000	      0.00000000	      0.00000000	      0.00000000	      0.00000000	      0.00000000	      0.00000000	     -0.04082817	     -0.03138844	      0.00000000	      0.00000000	      0.04611976	      0.04574779	     -0.03721865	      0.00000000	      0.00000000
      0.65000000	      0.00000000	      0.00000000	      0.00000000	      0.00000000	      0.00000000	      0.00000000	      0.00000000	      0.00000000	      0.00000000	     -0.04183732	     -0.03253782	      0.00000000	      0.00000000	      0.04624711	      0.04513693	     -0.03544366	      0.00000000	     -0.00000000
      0.66000000	      0.00000000	      0.00000000	      0.00000000	      0.00000000	      0.00000000	      0.00000000	      0.00000000	      0.00000000	      0.00000000	     -0.04292959	     -0.03379460	      0.00000000	      0.00000000	      0.04686476	      0.04491467	     -0.03339658	     -0.00000000	      0.00000000
      0.67000000	      0.00000000	      0.00000000	      0.00000000	      0.00000000	      0.00000000	      0.00000000	      0.00000000	      0.00000000	      0.00000000	     -0.04412671	     -0.03520368	      0.00000000	      0.00000000	      0.04752306	      0.04472808	     -0.03097071	     -0.00000000	      0.00000000
      0.68000000	      0.00000000	      0.00000000	      0.00000000	      0.00000000	      0.00000000	      0.00000000	      0.00000000	      0.00000000	      0.00000000	     -0.04537273	     -0.03668792	      0.00000000	      0.00000000	      0.04794511	      0.04439981	     -0.02824551	      0.00000000	      0.00000000
      0.69000000	      0.00000000	      0.00000000	      0.00000000	      0.00000000	      0.00000000	      0.00000000	      0.00000000	      0.00000000	      0.00000000	     -0.04656473	     -0.03819439	      0.00000000	      0.00000000	      0.04781600	      0.04371693	     -0.02529520	      0.00000000	     -0.00000000
      0.70000000	      0.00000000	      0.00000000	      0.00000000	      0.00000000	      0.00000000	      0.00000000	      0.00000000	      0.00000000	      0.00000000	     -0.04776987	     -0.03978090	      0.00000000	      0.00000000	      0.04707023	      0.04260715	     -0.02196541	      0.00000000	      0.00000000
      0.71000000	      0.00000000	      0.00000000	      0.00000000	      0.00000000	      0.00000000	      0.00000000	      0.00000000	      0.00000000	      0.00000000	     -0.04891602	     -0.04139079	      0.00000000	      0.00000000	      0.04605196	      0.04147439	     -0.01833451	     -0.00000000	      0.00000000
      0.72000000	      0.00000000	      0.00000000	      0.00000000	      0.00000000	      0.00000000	      0.00000000	      0.00000000	      0.00000000	      0.00000000	     -0.04989246	     -0.04290320	      0.00000000	      0.00000000	      0.04464268	      0.04021193	     -0.01465214	     -0.00000000	      0.00000000
      0.73000000	      0.00000000	      0.00000000	      0.00000000	      0.00000000	      0.00000000	      0.00000000	      0.00000000	      0.00000000	      0.00000000	     -0.05073495	     -0.04436065	      0.00000000	      0.00000000	      0.04274886	      0.03865034	     -0.01081659	      0.00000000	     -0.00000000
      0.74000000	      0.00000000	      0.00000000	      0.00000000	      0.00000000	      0.00000000	      0.00000000	      0.00000000	      0.00000000	      0.00000000	     -0.05140161	     -0.04571010	      0.00000000	      0.00000000	      0.04085822	      0.03711352	     -0.00696215	      0.00000000	     -0.00000000
      0.75000000	      0.00000000	      0.00000000	      0.00000000	      0.00000000	      0.00000000	      0.00000000	      0.00000000	      0.00000000	      0.00000000	     -0.05187264	     -0.04690784	      0.00000000	      0.00000000	      0.03908358	      0.03569868	     -0.00323816	     -0.00000000	     -0.00000000
      0.76000000	      0.00000000	      0.00000000	      0.00000000	      0.00000000	      0.00000000	      0.00000000	      0.00000000	      0.00000000	      0.00000000	     -0.05219255	     -0.04803214	      0.00000000	      0.00000000	      0.03733779	      0.03430301	      0.00059106	     -0.00000000	     -0.00000000
      0.77000000	      0.00000000	      0.00000000	      0.00000000	      0.00000000	      0.00000000	      0.00000000	      0.00000000	      0.00000000	      0.00000000	     -0.05232083	     -0.04893022	      0.00000000	      0.00000000	      0.03575614	      0.03306700	      0.00395516	     -0.00000000	     -0.00000000
