NormalizedFiberLength
version=1
nRows=55
nColumns=19
inDegrees=no

This analysis gathers basic information about muscles during a simulation (e.g., forces, tendon lengths, moment arms, etc).
Units are S.I. units (second, meters, Newtons, ...)
If the header above contains a line with 'inDegrees', this indicates whether rotational values are in degrees (yes) or radians (no).

endheader
time	hamstrings_r	bifemsh_r	glut_max_r	iliopsoas_r	rect_fem_r	vasti_r	gastroc_r	soleus_r	dorsiflexors_r	hamstrings_l	bifemsh_l	glut_max_l	iliopsoas_l	rect_fem_l	vasti_l	gastroc_l	soleus_l	dorsiflexors_l
      0.23000000	      0.34193407	      0.45929039	      0.91715690	      1.06153555	      1.02170876	      0.65200813	      0.85898597	      0.91036581	      0.33855554	      0.67861790	      0.70827076	      0.98114435	      1.02722211	      0.56827030	      0.43674048	      0.52581911	      0.66503531	      0.24562185
      0.24000000	      0.34043278	      0.44450049	      0.92829279	      1.05580751	      1.03050201	      0.66100529	      0.84062252	      0.89559212	      0.33162523	      0.66907415	      0.71149249	      0.97080291	      1.03273773	      0.56865780	      0.43263688	      0.51257384	      0.65824688	      0.24377177
      0.25000000	      0.34023444	      0.43123525	      0.93931372	      1.05007123	      1.03692417	      0.66885744	      0.82389516	      0.88328707	      0.32593156	      0.65931694	      0.71429725	      0.96058984	      1.03812911	      0.56957409	      0.42898821	      0.50190879	      0.65364042	      0.24254416
      0.26000000	      0.34187183	      0.41957606	      0.95068739	      1.04407971	      1.04076283	      0.67560106	      0.79337185	      0.85252135	      0.31203415	      0.65086720	      0.71790458	      0.95049718	      1.04340339	      0.56803670	      0.42418202	      0.48977457	      0.64998659	      0.24158657
      0.27000000	      0.34520280	      0.40972699	      0.96208081	      1.03800349	      1.04219357	      0.68119048	      0.76416857	      0.82296800	      0.29918691	      0.64273828	      0.72061750	      0.94143490	      1.04809462	      0.56761388	      0.42047681	      0.48084721	      0.64773819	      0.24100447
      0.28000000	      0.35001496	      0.40188012	      0.97309966	      1.03205506	      1.04147011	      0.68557796	      0.73800938	      0.79632145	      0.28807837	      0.63474129	      0.72368628	      0.93202706	      1.05292090	      0.56617387	      0.41618471	      0.47094213	      0.64570757	      0.24048344
      0.29000000	      0.35656392	      0.39579563	      0.98413854	      1.02602371	      1.03864874	      0.68894268	      0.71139766	      0.76793930	      0.27680122	      0.62735190	      0.72649970	      0.92326598	      1.05737594	      0.56460341	      0.41214955	      0.46216292	      0.64448352	      0.24017153
      0.30000000	      0.36476228	      0.39139220	      0.99512407	      1.01994874	      1.03393212	      0.69135866	      0.68649863	      0.74052289	      0.26651288	      0.62063644	      0.72891496	      0.91537216	      1.06135800	      0.56191578	      0.40823839	      0.45461024	      0.64362675	      0.23995419
      0.31000000	      0.37482699	      0.38873190	      1.00613888	      1.01378362	      1.02724051	      0.69281085	      0.66415036	      0.71491537	      0.25749738	      0.61455668	      0.73111759	      0.90814546	      1.06497743	      0.55774463	      0.40422394	      0.44740496	      0.64263306	      0.23970311
      0.32000000	      0.38628000	      0.38794961	      1.01660679	      1.00785504	      1.01897129	      0.69323685	      0.64751397	      0.69481364	      0.25085778	      0.60865633	      0.73353865	      0.90077352	      1.06864437	      0.55255094	      0.39980052	      0.43877186	      0.64086284	      0.23925849
      0.33000000	      0.39989170	      0.38849545	      1.02757991	      1.00156656	      1.00872666	      0.69293966	      0.62973187	      0.67213362	      0.24386341	      0.60407403	      0.73523275	      0.89520002	      1.07140011	      0.54901031	      0.39669883	      0.43271138	      0.63972757	      0.23897516
      0.34000000	      0.41459050	      0.39098879	      1.03764138	      0.99573336	      0.99719284	      0.69157923	      0.61812443	      0.65535630	      0.23904822	      0.59932862	      0.73711765	      0.88924806	      1.07432744	      0.54476293	      0.39324183	      0.42538528	      0.63786976	      0.23851455
      0.35000000	      0.43069838	      0.39505419	      1.04735607	      0.99003953	      0.98421236	      0.68935057	      0.60922129	      0.64059555	      0.23507597	      0.59490031	      0.73878088	      0.88375727	      1.07701398	      0.54101083	      0.39018639	      0.41836651	      0.63565510	      0.23797044
      0.36000000	      0.44873903	      0.40066832	      1.05714649	      0.98423935	      0.96936426	      0.68625060	      0.60128413	      0.62589513	      0.23137414	      0.59145073	      0.74006471	      0.87946668	      1.07910410	      0.53804856	      0.38782487	      0.41214466	      0.63301948	      0.23732997
      0.37000000	      0.46770390	      0.40817325	      1.06596918	      0.97895869	      0.95329510	      0.68206372	      0.59787197	      0.61537949	      0.22888567	      0.58774686	      0.74142640	      0.87485233	      1.08134309	      0.53484814	      0.38531733	      0.40493198	      0.62952919	      0.23649368
      0.38000000	      0.48738384	      0.41747247	      1.07377525	      0.97424360	      0.93611059	      0.67680287	      0.59657769	      0.60646270	      0.22688169	      0.58380320	      0.74279798	      0.86999583	      1.08368983	      0.53163570	      0.38278883	      0.39779876	      0.62624561	      0.23571932
      0.39000000	      0.50797806	      0.42885875	      1.08052707	      0.97013260	      0.91748099	      0.67024362	      0.60094493	      0.60333124	      0.22620127	      0.57959766	      0.74345807	      0.86567434	      1.08576980	      0.53108911	      0.38157101	      0.39349876	      0.62361237	      0.23510706
      0.40000000	      0.53014093	      0.44167853	      1.08720171	      0.96603857	      0.89691294	      0.66269239	      0.59777309	      0.59140578	      0.22372208	      0.57633782	      0.74479707	      0.86138686	      1.08782586	      0.52754546	      0.37909886	      0.38513457	      0.61876238	      0.23399983
      0.41000000	      0.55307609	      0.45675660	      1.09260988	      0.96269935	      0.87463088	      0.65356848	      0.60297851	      0.58897516	      0.22323867	      0.57263830	      0.74541344	      0.85750563	      1.08968073	      0.52684164	      0.37796007	      0.38035822	      0.61539918	      0.23324766
      0.42000000	      0.57648883	      0.47331590	      1.09711705	      0.95990134	      0.85087061	      0.64322211	      0.60332151	      0.58165306	      0.22182747	      0.56890167	      0.74628478	      0.85328587	      1.09169065	      0.52514704	      0.37634945	      0.37286398	      0.60974375	      0.23201186
      0.43000000	      0.60142917	      0.49178740	      1.10113633	      0.95739456	      0.82441537	      0.63124361	      0.60819606	      0.58036555	      0.22158634	      0.56574857	      0.74674726	      0.85001613	      1.09324334	      0.52471925	      0.37549419	      0.36855345	      0.60633848	      0.23128542
      0.44000000	      0.62461054	      0.51191267	      1.10253466	      0.95651987	      0.79761469	      0.61761914	      0.60072680	      0.57668354	      0.22090833	      0.56076741	      0.74722492	      0.84511023	      1.09556540	      0.52496651	      0.37461062	      0.36218579	      0.60045293	      0.23006131
      0.45000000	      0.65079476	      0.53310238	      1.10503371	      0.95495331	      0.76666352	      0.60256235	      0.60164170	      0.57607053	      0.22079712	      0.55806117	      0.74748233	      0.84243392	      1.09682838	      0.52508829	      0.37413435	      0.35855362	      0.59703722	      0.22936925
      0.46000000	      0.67303219	      0.55578154	      1.10346980	      0.95593416	      0.73634964	      0.58552995	      0.59941797	      0.57626947	      0.22083316	      0.55208776	      0.74749267	      0.83713170	      1.09932293	      0.52747584	      0.37411523	      0.35299341	      0.59020909	      0.22802641
      0.47000000	      0.69914435	      0.57835477	      1.10438346	      0.95536134	      0.70105505	      0.56746783	      0.59240718	      0.57591261	      0.22076855	      0.54974676	      0.74749090	      0.83504922	      1.10029995	      0.52842195	      0.37411850	      0.35056825	      0.58721218	      0.22745420
      0.48000000	      0.71814796	      0.60208811	      1.09924336	      0.95857655	      0.66790009	      0.54709044	      0.58468394	      0.58069451	      0.22164775	      0.54209696	      0.74715607	      0.82857827	      1.10332641	      0.53275093	      0.37473799	      0.34695965	      0.58139477	      0.22637348
      0.49000000	      0.74268018	      0.62394704	      1.09900208	      0.95872703	      0.62972694	      0.52702661	      0.56801236	      0.57994387	      0.22150782	      0.54016610	      0.74683745	      0.82720406	      1.10396732	      0.53474735	      0.37532739	      0.34541697	      0.57820414	      0.22579762
      0.50000000	      0.75654249	      0.64641458	      1.09063387	      0.96392171	      0.59668098	      0.50499105	      0.55447757	      0.58941156	      0.22332491	      0.53080730	      0.74621935	      0.81941707	      1.10758765	      0.54075296	      0.37647042	      0.34341112	      0.57326287	      0.22492946
      0.51000000	      0.77701114	      0.66548351	      1.08915237	      0.96483643	      0.56042078	      0.48509465	      0.53080824	      0.58931696	      0.22330620	      0.52849018	      0.74530647	      0.81835173	      1.10808149	      0.54519083	      0.37815774	      0.34289161	      0.56901023	      0.22420538
      0.52000000	      0.79230281	      0.68305109	      1.08503394	      0.96737150	      0.52852706	      0.46589958	      0.51137313	      0.59720017	      0.22490444	      0.52372895	      0.74413937	      0.81532476	      1.10948278	      0.55151411	      0.38031344	      0.34007221	      0.56108710	      0.22291350
      0.53000000	      0.79925109	      0.69888671	      1.07632511	      0.97269464	      0.50354992	      0.44777335	      0.49693243	      0.61313287	      0.22837153	      0.51448991	      0.74266883	      0.80845965	      1.11265112	      0.56061919	      0.38302704	      0.33918858	      0.55448850	      0.22189455
      0.54000000	      0.80803932	      0.71121110	      1.07162246	      0.97554799	      0.48034690	      0.43271184	      0.47851139	      0.62123863	      0.23025561	      0.50864169	      0.74111039	      0.80478741	      1.11434066	      0.56874313	      0.38589952	      0.33893568	      0.54848530	      0.22101268
      0.55000000	      0.81413060	      0.72102688	      1.06707230	      0.97829482	      0.46112698	      0.41978696	      0.46250380	      0.62909171	      0.23215714	      0.50255189	      0.73921772	      0.80123099	      1.11597363	      0.57816542	      0.38938314	      0.34009206	      0.54312280	      0.22026140
      0.56000000	      0.81758631	      0.72838246	      1.06277399	      0.98087703	      0.44586878	      0.40919537	      0.45039644	      0.63687306	      0.23411430	      0.49611662	      0.73691977	      0.79776581	      1.11756178	      0.58915812	      0.39360504	      0.34299661	      0.53860412	      0.21965515
      0.57000000	      0.81745493	      0.73351301	      1.05794050	      0.98376621	      0.43129165	      0.39971630	      0.44424441	      0.64632021	      0.23658659	      0.48848477	      0.73402669	      0.79377964	      1.11938535	      0.60267743	      0.39890752	      0.34922376	      0.53616850	      0.21933856
      0.58000000	      0.81834270	      0.73583868	      1.05638418	      0.98469321	      0.42395247	      0.39540112	      0.43864183	      0.64748528	      0.23689870	      0.48286341	      0.73103895	      0.79177672	      1.12030037	      0.61568364	      0.40436743	      0.35797400	      0.53655978	      0.21938894
      0.59000000	      0.81457956	      0.73776350	      1.05195237	      0.98732431	      0.42068974	      0.39182156	      0.44461865	      0.66187560	      0.24088199	      0.47478133	      0.72727835	      0.78820378	      1.12193067	      0.63141120	      0.41101503	      0.36539985	      0.53338404	      0.21898540
      0.60000000	      0.81092050	      0.73718051	      1.04994893	      0.98850951	      0.42474205	      0.39290650	      0.45070748	      0.66738105	      0.24246766	      0.46785020	      0.72312305	      0.78612439	      1.12287838	      0.64302108	      0.41698080	      0.37904946	      0.53638772	      0.21936676
      0.61000000	      0.80543443	      0.73526025	      1.04792288	      0.98970544	      0.43391633	      0.39647538	      0.46348614	      0.67648606	      0.24516326	      0.46033328	      0.71845885	      0.78396214	      1.12386308	      0.65554701	      0.42343155	      0.39450427	      0.54038568	      0.21989124
      0.62000000	      0.79897808	      0.73211476	      1.04634997	      0.99063204	      0.44729324	      0.40230531	      0.47863575	      0.68443230	      0.24758887	      0.45274672	      0.71293155	      0.78261196	      1.12447758	      0.66944819	      0.43077406	      0.41403108	      0.54710638	      0.22081620
      0.63000000	      0.79145526	      0.72784120	      1.04504783	      0.99139793	      0.46455173	      0.41018990	      0.49717424	      0.69323996	      0.25035509	      0.44495638	      0.70664537	      0.78180455	      1.12484491	      0.68442425	      0.43877773	      0.43733186	      0.55680614	      0.22224653
      0.64000000	      0.78314717	      0.72292124	      1.04374371	      0.99216387	      0.47852417	      0.41717515	      0.51534202	      0.70017222	      0.25258841	      0.43698756	      0.69927841	      0.78190400	      1.12479967	      0.70099237	      0.44776598	      0.46440976	      0.56907268	      0.22421586
      0.65000000	      0.77472314	      0.71711053	      1.04311580	      0.99253227	      0.49362618	      0.42506027	      0.53453832	      0.70654033	      0.25468257	      0.42932604	      0.69102519	      0.78316842	      1.12422436	      0.71857963	      0.45744515	      0.49707634	      0.58694287	      0.22740330
      0.66000000	      0.76624522	      0.71106607	      1.04259640	      0.99283681	      0.50863859	      0.43289589	      0.55066253	      0.70942334	      0.25564384	      0.42181407	      0.68150020	      0.78584063	      1.12300766	      0.73799264	      0.46825986	      0.53426057	      0.60900030	      0.23185213
      0.67000000	      0.75681896	      0.70535455	      1.04104550	      0.99374512	      0.52334739	      0.44000644	      0.56293042	      0.70938026	      0.25562941	      0.41360491	      0.67015935	      0.78959012	      1.12129838	      0.76042553	      0.48076617	      0.57343300	      0.63202905	      0.23709128
      0.68000000	      0.75066457	      0.69940039	      1.04197303	      0.99320208	      0.53590285	      0.44716613	      0.57014619	      0.70329105	      0.25360900	      0.40764108	      0.65739854	      0.79699739	      1.11791358	      0.78390644	      0.49440240	      0.61772215	      0.66149569	      0.24465112
      0.69000000	      0.74038724	      0.69450581	      1.03899294	      0.99494484	      0.54946695	      0.45289363	      0.57535024	      0.69808147	      0.25190972	      0.39911823	      0.64351178	      0.80269091	      1.11530367	      0.80932409	      0.50870891	      0.66178105	      0.69235976	      0.25354905
      0.70000000	      0.73217416	      0.69029567	      1.03683869	      0.99620110	      0.56060117	      0.45772866	      0.57432642	      0.68726962	      0.24847116	      0.39185018	      0.62775526	      0.81136851	      1.11131025	      0.83590556	      0.52420342	      0.70979810	      0.72941942	      0.26546206
      0.71000000	      0.72509123	      0.68664963	      1.03496849	      0.99728930	      0.57015853	      0.46186146	      0.57087803	      0.67516357	      0.24476613	      0.38538003	      0.61042010	      0.82217088	      1.10630953	      0.86280385	      0.54041081	      0.75259468	      0.76261940	      0.27717270
      0.72000000	      0.71572232	      0.68451883	      1.03011247	      1.00010437	      0.57916778	      0.46425723	      0.56424923	      0.66266240	      0.24110654	      0.37787895	      0.59270209	      0.83193257	      1.10175937	      0.88885526	      0.55616200	      0.79386165	      0.79833775	      0.29075382
      0.73000000	      0.70765997	      0.68325342	      1.02540942	      1.00281646	      0.58613142	      0.46567355	      0.55498882	      0.64892552	      0.23728670	      0.37160145	      0.57406906	      0.84351575	      1.09631817	      0.91347780	      0.57185021	      0.82946595	      0.83081543	      0.30389163
      0.74000000	      0.69969081	      0.68289118	      1.01995402	      1.00594485	      0.59179254	      0.46607812	      0.54446087	      0.63561991	      0.23379424	      0.36598263	      0.55515795	      0.85568960	      1.09054658	      0.93601256	      0.58690200	      0.85765582	      0.85818304	      0.31548371
      0.75000000	      0.68931394	      0.68424410	      1.01118885	      1.01093205	      0.59662394	      0.46456512	      0.53509912	      0.62717406	      0.23168594	      0.35925734	      0.53670526	      0.86595150	      1.08563663	      0.95685072	      0.60084850	      0.87195787	      0.87173951	      0.32138749
      0.76000000	      0.68525550	      0.68449824	      1.00798404	      1.01274355	      0.59885494	      0.46428031	      0.52190652	      0.61217468	      0.22815413	      0.35809504	      0.51754609	      0.88226661	      1.07774105	      0.97367104	      0.61465632	      0.88690496	      0.89019741	      0.32958607
      0.77000000	      0.67485987	      0.68713711	      0.99794377	      1.01837761	      0.60173241	      0.46131142	      0.51208494	      0.60592465	      0.22676391	      0.35346892	      0.50055218	      0.89278690	      1.07258886	      0.98919502	      0.62639258	      0.88861384	      0.89466287	      0.33159608
