TendonForce
version=1
nRows=55
nColumns=19
inDegrees=no

This analysis gathers basic information about muscles during a simulation (e.g., forces, tendon lengths, moment arms, etc).
Units are S.I. units (second, meters, Newtons, ...)
If the header above contains a line with 'inDegrees', this indicates whether rotational values are in degrees (yes) or radians (no).

endheader
time	hamstrings_r	bifemsh_r	glut_max_r	iliopsoas_r	rect_fem_r	vasti_r	gastroc_r	soleus_r	dorsiflexors_r	hamstrings_l	bifemsh_l	glut_max_l	iliopsoas_l	rect_fem_l	vasti_l	gastroc_l	soleus_l	dorsiflexors_l
      0.23000000	   1880.36136418	    330.62492131	   2042.86977645	   1563.34621226	   1291.97463004	   4770.23072678	   2411.40129475	   3682.76911387	   1274.52235861	   1895.70033320	    333.04380660	   2041.02435976	   1554.73725159	   1300.83967372	   4786.81310158	   2425.98326719	   3712.72746537	   1277.46602524
      0.24000000	   1880.36136418	    330.62492131	   2042.86977645	   1563.34621226	   1291.97463004	   4770.23072678	   2411.40129475	   3682.76911387	   1274.52235861	   1895.70033320	    333.04380660	   2041.02435976	   1554.73725159	   1300.83967372	   4786.81310158	   2425.98326719	   3712.72746537	   1277.46602524
      0.25000000	   1880.36136418	    330.62492131	   2042.86977645	   1563.34621226	   1291.97463004	   4770.23072678	   2411.40129475	   3682.76911387	   1274.52235861	   1895.70033320	    333.04380660	   2041.02435976	   1554.73725159	   1300.83967372	   4786.81310158	   2425.98326719	   3712.72746537	   1277.46602524
      0.26000000	   1880.36136418	    330.62492131	   2042.86977645	   1563.34621226	   1291.97463004	   4770.23072678	   2411.40129475	   3682.76911387	   1274.52235861	   1895.70033320	    333.04380660	   2041.02435976	   1554.73725159	   1300.83967372	   4786.81310158	   2425.98326719	   3712.72746537	   1277.46602524
      0.27000000	   1880.36136418	    330.62492131	   2042.86977645	   1563.34621226	   1291.97463004	   4770.23072678	   2411.40129475	   3682.76911387	   1274.52235861	   1895.70033320	    333.04380660	   2041.02435976	   1554.73725159	   1300.83967372	   4786.81310158	   2425.98326719	   3712.72746537	   1277.46602524
      0.28000000	   1880.36136418	    330.62492131	   2042.86977645	   1563.34621226	   1291.97463004	   4770.23072678	   2411.40129475	   3682.76911387	   1274.52235861	   1895.70033320	    333.04380660	   2041.02435976	   1554.73725159	   1300.83967372	   4786.81310158	   2425.98326719	   3712.72746537	   1277.46602524
      0.29000000	   1880.36136418	    330.62492131	   2042.86977645	   1563.34621226	   1291.97463004	   4770.23072678	   2411.40129475	   3682.76911387	   1274.52235861	   1895.70033320	    333.04380660	   2041.02435976	   1554.73725159	   1300.83967372	   4786.81310158	   2425.98326719	   3712.72746537	   1277.46602524
      0.30000000	   1880.36136418	    330.62492131	   2042.86977645	   1563.34621226	   1291.97463004	   4770.23072678	   2411.40129475	   3682.76911387	   1274.52235861	   1895.70033320	    333.04380660	   2041.02435976	   1554.73725159	   1300.83967372	   4786.81310158	   2425.98326719	   3712.72746537	   1277.46602524
      0.31000000	   1880.36136418	    330.62492131	   2042.86977645	   1563.34621226	   1291.97463004	   4770.23072678	   2411.40129475	   3682.76911387	   1274.52235861	   1895.70033320	    333.04380660	   2041.02435976	   1554.73725159	   1300.83967372	   4786.81310158	   2425.98326719	   3712.72746537	   1277.46602524
      0.32000000	   1880.36136418	    330.62492131	   2042.86977645	   1563.34621226	   1291.97463004	   4770.23072678	   2411.40129475	   3682.76911387	   1274.52235861	   1895.70033320	    333.04380660	   2041.02435976	   1554.73725159	   1300.83967372	   4786.81310158	   2425.98326719	   3712.72746537	   1277.46602524
      0.33000000	   1880.36136418	    330.62492131	   2042.86977645	   1563.34621226	   1291.97463004	   4770.23072678	   2411.40129475	   3682.76911387	   1274.52235861	   1895.70033320	    333.04380660	   2041.02435976	   1554.73725159	   1300.83967372	   4786.81310158	   2425.98326719	   3712.72746537	   1277.46602524
      0.34000000	   1880.36136418	    330.62492131	   2042.86977645	   1563.34621226	   1291.97463004	   4770.23072678	   2411.40129475	   3682.76911387	   1274.52235861	   1895.70033320	    333.04380660	   2041.02435976	   1554.73725159	   1300.83967372	   4786.81310158	   2425.98326719	   3712.72746537	   1277.46602524
      0.35000000	   1880.36136418	    330.62492131	   2042.86977645	   1563.34621226	   1291.97463004	   4770.23072678	   2411.40129475	   3682.76911387	   1274.52235861	   1895.70033320	    333.04380660	   2041.02435976	   1554.73725159	   1300.83967372	   4786.81310158	   2425.98326719	   3712.72746537	   1277.46602524
      0.36000000	   1880.36136418	    330.62492131	   2042.86977645	   1563.34621226	   1291.97463004	   4770.23072678	   2411.40129475	   3682.76911387	   1274.52235861	   1895.70033320	    333.04380660	   2041.02435976	   1554.73725159	   1300.83967372	   4786.81310158	   2425.98326719	   3712.72746537	   1277.46602524
      0.37000000	   1880.36136418	    330.62492131	   2042.86977645	   1563.34621226	   1291.97463004	   4770.23072678	   2411.40129475	   3682.76911387	   1274.52235861	   1895.70033320	    333.04380660	   2041.02435976	   1554.73725159	   1300.83967372	   4786.81310158	   2425.98326719	   3712.72746537	   1277.46602524
      0.38000000	   1880.36136418	    330.62492131	   2042.86977645	   1563.34621226	   1291.97463004	   4770.23072678	   2411.40129475	   3682.76911387	   1274.52235861	   1895.70033320	    333.04380660	   2041.02435976	   1554.73725159	   1300.83967372	   4786.81310158	   2425.98326719	   3712.72746537	   1277.46602524
      0.39000000	   1880.36136418	    330.62492131	   2042.86977645	   1563.34621226	   1291.97463004	   4770.23072678	   2411.40129475	   3682.76911387	   1274.52235861	   1895.70033320	    333.04380660	   2041.02435976	   1554.73725159	   1300.83967372	   4786.81310158	   2425.98326719	   3712.72746537	   1277.46602524
      0.40000000	   1880.36136418	    330.62492131	   2042.86977645	   1563.34621226	   1291.97463004	   4770.23072678	   2411.40129475	   3682.76911387	   1274.52235861	   1895.70033320	    333.04380660	   2041.02435976	   1554.73725159	   1300.83967372	   4786.81310158	   2425.98326719	   3712.72746537	   1277.46602524
      0.41000000	   1880.36136418	    330.62492131	   2042.86977645	   1563.34621226	   1291.97463004	   4770.23072678	   2411.40129475	   3682.76911387	   1274.52235861	   1895.70033320	    333.04380660	   2041.02435976	   1554.73725159	   1300.83967372	   4786.81310158	   2425.98326719	   3712.72746537	   1277.46602524
      0.42000000	   1880.36136418	    330.62492131	   2042.86977645	   1563.34621226	   1291.97463004	   4770.23072678	   2411.40129475	   3682.76911387	   1274.52235861	   1895.70033320	    333.04380660	   2041.02435976	   1554.73725159	   1300.83967372	   4786.81310158	   2425.98326719	   3712.72746537	   1277.46602524
      0.43000000	   1880.36136418	    330.62492131	   2042.86977645	   1563.34621226	   1291.97463004	   4770.23072678	   2411.40129475	   3682.76911387	   1274.52235861	   1895.70033320	    333.04380660	   2041.02435976	   1554.73725159	   1300.83967372	   4786.81310158	   2425.98326719	   3712.72746537	   1277.46602524
      0.44000000	   1880.36136418	    330.62492131	   2042.86977645	   1563.34621226	   1291.97463004	   4770.23072678	   2411.40129475	   3682.76911387	   1274.52235861	   1895.70033320	    333.04380660	   2041.02435976	   1554.73725159	   1300.83967372	   4786.81310158	   2425.98326719	   3712.72746537	   1277.46602524
      0.45000000	   1880.36136418	    330.62492131	   2042.86977645	   1563.34621226	   1291.97463004	   4770.23072678	   2411.40129475	   3682.76911387	   1274.52235861	   1895.70033320	    333.04380660	   2041.02435976	   1554.73725159	   1300.83967372	   4786.81310158	   2425.98326719	   3712.72746537	   1277.46602524
      0.46000000	   1880.36136418	    330.62492131	   2042.86977645	   1563.34621226	   1291.97463004	   4770.23072678	   2411.40129475	   3682.76911387	   1274.52235861	   1895.70033320	    333.04380660	   2041.02435976	   1554.73725159	   1300.83967372	   4786.81310158	   2425.98326719	   3712.72746537	   1277.46602524
      0.47000000	   1880.36136418	    330.62492131	   2042.86977645	   1563.34621226	   1291.97463004	   4770.23072678	   2411.40129475	   3682.76911387	   1274.52235861	   1895.70033320	    333.04380660	   2041.02435976	   1554.73725159	   1300.83967372	   4786.81310158	   2425.98326719	   3712.72746537	   1277.46602524
      0.48000000	   1880.36136418	    330.62492131	   2042.86977645	   1563.34621226	   1291.97463004	   4770.23072678	   2411.40129475	   3682.76911387	   1274.52235861	   1895.70033320	    333.04380660	   2041.02435976	   1554.73725159	   1300.83967372	   4786.81310158	   2425.98326719	   3712.72746537	   1277.46602524
      0.49000000	   1880.36136418	    330.62492131	   2042.86977645	   1563.34621226	   1291.97463004	   4770.23072678	   2411.40129475	   3682.76911387	   1274.52235861	   1895.70033320	    333.04380660	   2041.02435976	   1554.73725159	   1300.83967372	   4786.81310158	   2425.98326719	   3712.72746537	   1277.46602524
      0.50000000	   1880.36136418	    330.62492131	   2042.86977645	   1563.34621226	   1291.97463004	   4770.23072678	   2411.40129475	   3682.76911387	   1274.52235861	   1895.70033320	    333.04380660	   2041.02435976	   1554.73725159	   1300.83967372	   4786.81310158	   2425.98326719	   3712.72746537	   1277.46602524
      0.51000000	   1880.36136418	    330.62492131	   2042.86977645	   1563.34621226	   1291.97463004	   4770.23072678	   2411.40129475	   3682.76911387	   1274.52235861	   1895.70033320	    333.04380660	   2041.02435976	   1554.73725159	   1300.83967372	   4786.81310158	   2425.98326719	   3712.72746537	   1277.46602524
      0.52000000	   1880.36136418	    330.62492131	   2042.86977645	   1563.34621226	   1291.97463004	   4770.23072678	   2411.40129475	   3682.76911387	   1274.52235861	   1895.70033320	    333.04380660	   2041.02435976	   1554.73725159	   1300.83967372	   4786.81310158	   2425.98326719	   3712.72746537	   1277.46602524
      0.53000000	   1880.36136418	    330.62492131	   2042.86977645	   1563.34621226	   1291.97463004	   4770.23072678	   2411.40129475	   3682.76911387	   1274.52235861	   1895.70033320	    333.04380660	   2041.02435976	   1554.73725159	   1300.83967372	   4786.81310158	   2425.98326719	   3712.72746537	   1277.46602524
      0.54000000	   1880.36136418	    330.62492131	   2042.86977645	   1563.34621226	   1291.97463004	   4770.23072678	   2411.40129475	   3682.76911387	   1274.52235861	   1895.70033320	    333.04380660	   2041.02435976	   1554.73725159	   1300.83967372	   4786.81310158	   2425.98326719	   3712.72746537	   1277.46602524
      0.55000000	   1880.36136418	    330.62492131	   2042.86977645	   1563.34621226	   1291.97463004	   4770.23072678	   2411.40129475	   3682.76911387	   1274.52235861	   1895.70033320	    333.04380660	   2041.02435976	   1554.73725159	   1300.83967372	   4786.81310158	   2425.98326719	   3712.72746537	   1277.46602524
      0.56000000	   1880.36136418	    330.62492131	   2042.86977645	   1563.34621226	   1291.97463004	   4770.23072678	   2411.40129475	   3682.76911387	   1274.52235861	   1895.70033320	    333.04380660	   2041.02435976	   1554.73725159	   1300.83967372	   4786.81310158	   2425.98326719	   3712.72746537	   1277.46602524
      0.57000000	   1880.36136418	    330.62492131	   2042.86977645	   1563.34621226	   1291.97463004	   4770.23072678	   2411.40129475	   3682.76911387	   1274.52235861	   1895.70033320	    333.04380660	   2041.02435976	   1554.73725159	   1300.83967372	   4786.81310158	   2425.98326719	   3712.72746537	   1277.46602524
      0.58000000	   1880.36136418	    330.62492131	   2042.86977645	   1563.34621226	   1291.97463004	   4770.23072678	   2411.40129475	   3682.76911387	   1274.52235861	   1895.70033320	    333.04380660	   2041.02435976	   1554.73725159	   1300.83967372	   4786.81310158	   2425.98326719	   3712.72746537	   1277.46602524
      0.59000000	   1880.36136418	    330.62492131	   2042.86977645	   1563.34621226	   1291.97463004	   4770.23072678	   2411.40129475	   3682.76911387	   1274.52235861	   1895.70033320	    333.04380660	   2041.02435976	   1554.73725159	   1300.83967372	   4786.81310158	   2425.98326719	   3712.72746537	   1277.46602524
      0.60000000	   1880.36136418	    330.62492131	   2042.86977645	   1563.34621226	   1291.97463004	   4770.23072678	   2411.40129475	   3682.76911387	   1274.52235861	   1895.70033320	    333.04380660	   2041.02435976	   1554.73725159	   1300.83967372	   4786.81310158	   2425.98326719	   3712.72746537	   1277.46602524
      0.61000000	   1880.36136418	    330.62492131	   2042.86977645	   1563.34621226	   1291.97463004	   4770.23072678	   2411.40129475	   3682.76911387	   1274.52235861	   1895.70033320	    333.04380660	   2041.02435976	   1554.73725159	   1300.83967372	   4786.81310158	   2425.98326719	   3712.72746537	   1277.46602524
      0.62000000	   1880.36136418	    330.62492131	   2042.86977645	   1563.34621226	   1291.97463004	   4770.23072678	   2411.40129475	   3682.76911387	   1274.52235861	   1895.70033320	    333.04380660	   2041.02435976	   1554.73725159	   1300.83967372	   4786.81310158	   2425.98326719	   3712.72746537	   1277.46602524
      0.63000000	   1880.36136418	    330.62492131	   2042.86977645	   1563.34621226	   1291.97463004	   4770.23072678	   2411.40129475	   3682.76911387	   1274.52235861	   1895.70033320	    333.04380660	   2041.02435976	   1554.73725159	   1300.83967372	   4786.81310158	   2425.98326719	   3712.72746537	   1277.46602524
      0.64000000	   1880.36136418	    330.62492131	   2042.86977645	   1563.34621226	   1291.97463004	   4770.23072678	   2411.40129475	   3682.76911387	   1274.52235861	   1895.70033320	    333.04380660	   2041.02435976	   1554.73725159	   1300.83967372	   4786.81310158	   2425.98326719	   3712.72746537	   1277.46602524
      0.65000000	   1880.36136418	    330.62492131	   2042.86977645	   1563.34621226	   1291.97463004	   4770.23072678	   2411.40129475	   3682.76911387	   1274.52235861	   1895.70033320	    333.04380660	   2041.02435976	   1554.73725159	   1300.83967372	   4786.81310158	   2425.98326719	   3712.72746537	   1277.46602524
      0.66000000	   1880.36136418	    330.62492131	   2042.86977645	   1563.34621226	   1291.97463004	   4770.23072678	   2411.40129475	   3682.76911387	   1274.52235861	   1895.70033320	    333.04380660	   2041.02435976	   1554.73725159	   1300.83967372	   4786.81310158	   2425.98326719	   3712.72746537	   1277.46602524
      0.67000000	   1880.36136418	    330.62492131	   2042.86977645	   1563.34621226	   1291.97463004	   4770.23072678	   2411.40129475	   3682.76911387	   1274.52235861	   1895.70033320	    333.04380660	   2041.02435976	   1554.73725159	   1300.83967372	   4786.81310158	   2425.98326719	   3712.72746537	   1277.46602524
      0.68000000	   1880.36136418	    330.62492131	   2042.86977645	   1563.34621226	   1291.97463004	   4770.23072678	   2411.40129475	   3682.76911387	   1274.52235861	   1895.70033320	    333.04380660	   2041.02435976	   1554.73725159	   1300.83967372	   4786.81310158	   2425.98326719	   3712.72746537	   1277.46602524
      0.69000000	   1880.36136418	    330.62492131	   2042.86977645	   1563.34621226	   1291.97463004	   4770.23072678	   2411.40129475	   3682.76911387	   1274.52235861	   1895.70033320	    333.04380660	   2041.02435976	   1554.73725159	   1300.83967372	   4786.81310158	   2425.98326719	   3712.72746537	   1277.46602524
      0.70000000	   1880.36136418	    330.62492131	   2042.86977645	   1563.34621226	   1291.97463004	   4770.23072678	   2411.40129475	   3682.76911387	   1274.52235861	   1895.70033320	    333.04380660	   2041.02435976	   1554.73725159	   1300.83967372	   4786.81310158	   2425.98326719	   3712.72746537	   1277.46602524
      0.71000000	   1880.36136418	    330.62492131	   2042.86977645	   1563.34621226	   1291.97463004	   4770.23072678	   2411.40129475	   3682.76911387	   1274.52235861	   1895.70033320	    333.04380660	   2041.02435976	   1554.73725159	   1300.83967372	   4786.81310158	   2425.98326719	   3712.72746537	   1277.46602524
      0.72000000	   1880.36136418	    330.62492131	   2042.86977645	   1563.34621226	   1291.97463004	   4770.23072678	   2411.40129475	   3682.76911387	   1274.52235861	   1895.70033320	    333.04380660	   2041.02435976	   1554.73725159	   1300.83967372	   4786.81310158	   2425.98326719	   3712.72746537	   1277.46602524
      0.73000000	   1880.36136418	    330.62492131	   2042.86977645	   1563.34621226	   1291.97463004	   4770.23072678	   2411.40129475	   3682.76911387	   1274.52235861	   1895.70033320	    333.04380660	   2041.02435976	   1554.73725159	   1300.83967372	   4786.81310158	   2425.98326719	   3712.72746537	   1277.46602524
      0.74000000	   1880.36136418	    330.62492131	   2042.86977645	   1563.34621226	   1291.97463004	   4770.23072678	   2411.40129475	   3682.76911387	   1274.52235861	   1895.70033320	    333.04380660	   2041.02435976	   1554.73725159	   1300.83967372	   4786.81310158	   2425.98326719	   3712.72746537	   1277.46602524
      0.75000000	   1880.36136418	    330.62492131	   2042.86977645	   1563.34621226	   1291.97463004	   4770.23072678	   2411.40129475	   3682.76911387	   1274.52235861	   1895.70033320	    333.04380660	   2041.02435976	   1554.73725159	   1300.83967372	   4786.81310158	   2425.98326719	   3712.72746537	   1277.46602524
      0.76000000	   1880.36136418	    330.62492131	   2042.86977645	   1563.34621226	   1291.97463004	   4770.23072678	   2411.40129475	   3682.76911387	   1274.52235861	   1895.70033320	    333.04380660	   2041.02435976	   1554.73725159	   1300.83967372	   4786.81310158	   2425.98326719	   3712.72746537	   1277.46602524
      0.77000000	   1880.36136418	    330.62492131	   2042.86977645	   1563.34621226	   1291.97463004	   4770.23072678	   2411.40129475	   3682.76911387	   1274.52235861	   1895.70033320	    333.04380660	   2041.02435976	   1554.73725159	   1300.83967372	   4786.81310158	   2425.98326719	   3712.72746537	   1277.46602524
