NormFiberVelocity
version=1
nRows=55
nColumns=19
inDegrees=no

This analysis gathers basic information about muscles during a simulation (e.g., forces, tendon lengths, moment arms, etc).
Units are S.I. units (second, meters, Newtons, ...)
If the header above contains a line with 'inDegrees', this indicates whether rotational values are in degrees (yes) or radians (no).

endheader
time	hamstrings_r	bifemsh_r	glut_max_r	iliopsoas_r	rect_fem_r	vasti_r	gastroc_r	soleus_r	dorsiflexors_r	hamstrings_l	bifemsh_l	glut_max_l	iliopsoas_l	rect_fem_l	vasti_l	gastroc_l	soleus_l	dorsiflexors_l
      0.23000000	     -0.01176771	     -0.07740846	      0.05469892	     -0.02797003	      0.05067160	      0.04779231	     -0.08422588	     -0.06531645	     -0.03085932	     -0.04917960	      0.01646951	     -0.05288434	      0.02835277	      0.00298775	     -0.02075154	     -0.06740181	     -0.03508893	     -0.00968812
      0.24000000	     -0.00423185	     -0.07026426	      0.05549542	     -0.02871494	      0.03792555	      0.04212235	     -0.07992849	     -0.05684383	     -0.02647049	     -0.04868811	      0.01406894	     -0.05076625	      0.02693601	      0.00513070	     -0.01811904	     -0.05770440	     -0.02882120	     -0.00775142
      0.25000000	      0.00314150	     -0.06236715	      0.05559495	     -0.02910784	      0.02585061	      0.03645777	     -0.11521673	     -0.10367109	     -0.04765755	     -0.04617290	      0.01659624	     -0.05181731	      0.02721483	     -0.00204219	     -0.02181120	     -0.05774628	     -0.02003393	     -0.00528973
      0.26000000	      0.01291061	     -0.05405842	      0.05765864	     -0.03056062	      0.01280866	      0.03094134	     -0.16484899	     -0.17076224	     -0.07571496	     -0.04017252	      0.01621578	     -0.04733199	      0.02461166	     -0.00651281	     -0.02190756	     -0.05380529	     -0.01465109	     -0.00381094
      0.27000000	      0.02014026	     -0.04416462	      0.05578557	     -0.02993519	      0.00173966	      0.02485383	     -0.13101509	     -0.13052777	     -0.05556259	     -0.04094501	      0.01355380	     -0.04576302	      0.02358469	     -0.00256733	     -0.01871550	     -0.04416767	     -0.01013789	     -0.00261237
      0.28000000	      0.02844112	     -0.03465462	      0.05508688	     -0.02991699	     -0.00905083	      0.01925444	     -0.13371987	     -0.13991758	     -0.05705456	     -0.03853118	      0.01559433	     -0.04638754	      0.02368829	     -0.00925882	     -0.02209474	     -0.04956699	     -0.00861594	     -0.00220122
      0.29000000	      0.03663749	     -0.02615256	      0.05484331	     -0.03014612	     -0.01878502	      0.01439549	     -0.12866876	     -0.13927126	     -0.05382816	     -0.03551704	      0.01294168	     -0.04173014	      0.02113049	     -0.00705397	     -0.01879138	     -0.04011536	     -0.00469251	     -0.00119260
      0.30000000	      0.04602505	     -0.01797647	      0.05564187	     -0.03095546	     -0.02877501	      0.00983143	     -0.12247895	     -0.13767251	     -0.05006280	     -0.03127506	      0.01094984	     -0.03662428	      0.01840577	     -0.00595986	     -0.01583239	     -0.03446633	     -0.00370222	     -0.00093746
      0.31000000	      0.05348139	     -0.00817320	      0.05310684	     -0.02990470	     -0.03734058	      0.00445317	     -0.09332806	     -0.10933772	     -0.03719060	     -0.03071484	      0.01213094	     -0.03771201	      0.01882343	     -0.00876736	     -0.01749021	     -0.04191561	     -0.00774524	     -0.00195282
      0.32000000	      0.06263734	     -0.00066919	      0.05370641	     -0.03059254	     -0.04625905	      0.00036421	     -0.08595947	     -0.10686838	     -0.03422379	     -0.02612163	      0.01031291	     -0.03235604	      0.01603925	     -0.00754741	     -0.01475647	     -0.03699472	     -0.00735958	     -0.00184133
      0.33000000	      0.07171514	      0.00724901	      0.05362347	     -0.03091658	     -0.05509973	     -0.00394833	     -0.07882379	     -0.10482497	     -0.03105808	     -0.02211062	      0.00833862	     -0.02715913	      0.01339398	     -0.00566803	     -0.01183444	     -0.03076544	     -0.00647950	     -0.00161307
      0.34000000	      0.07591737	      0.01697050	      0.04810728	     -0.02804534	     -0.06056251	     -0.00927591	     -0.04389214	     -0.07045330	     -0.01955752	     -0.02443456	      0.00957268	     -0.03061808	      0.01501802	     -0.00695512	     -0.01342782	     -0.03869612	     -0.01093983	     -0.00270113
      0.35000000	      0.08584704	      0.02372739	      0.04952300	     -0.02918126	     -0.06979949	     -0.01304616	     -0.04716484	     -0.07948891	     -0.02070936	     -0.01894622	      0.00711629	     -0.02357262	      0.01150518	     -0.00474473	     -0.00985538	     -0.03191149	     -0.01158425	     -0.00283194
      0.36000000	      0.09324190	      0.03291144	      0.04697762	     -0.02798139	     -0.07782194	     -0.01825120	     -0.02525908	     -0.05953193	     -0.01446774	     -0.01733284	      0.00603270	     -0.02116193	      0.01028918	     -0.00336798	     -0.00825861	     -0.03154669	     -0.01510735	     -0.00364911
      0.37000000	      0.09650750	      0.04167480	      0.04171443	     -0.02508875	     -0.08291031	     -0.02339196	     -0.01754066	     -0.05534237	     -0.01274151	     -0.01901961	      0.00793732	     -0.02479857	      0.01200846	     -0.00606194	     -0.01071486	     -0.04134743	     -0.01928480	     -0.00458325
      0.38000000	      0.10027162	      0.05215734	      0.03573182	     -0.02167565	     -0.08919833	     -0.02974329	      0.01840337	     -0.01810620	     -0.00396946	     -0.02116867	      0.00413680	     -0.02259191	      0.01089384	      0.00202004	     -0.00549547	     -0.02280512	     -0.01140348	     -0.00266829
      0.39000000	      0.10648246	      0.06030427	      0.03343286	     -0.02043184	     -0.09751003	     -0.03509771	     -0.00213024	     -0.04390832	     -0.00945527	     -0.01886809	      0.00520334	     -0.02192486	      0.01053312	     -0.00098866	     -0.00685403	     -0.03417582	     -0.02104488	     -0.00486202
      0.40000000	      0.11458024	      0.06957372	      0.03164965	     -0.01948399	     -0.10831600	     -0.04148122	      0.00320373	     -0.03814950	     -0.00764565	     -0.01568584	      0.00530342	     -0.01941707	      0.00929462	     -0.00243838	     -0.00685606	     -0.03312700	     -0.01908689	     -0.00430515
      0.41000000	      0.11329950	      0.07967288	      0.02252667	     -0.01395001	     -0.11310507	     -0.04893808	      0.01916361	     -0.01901559	     -0.00375276	     -0.02122947	      0.00315858	     -0.02190252	      0.01045056	      0.00370649	     -0.00404583	     -0.02997784	     -0.02403878	     -0.00533031
      0.42000000	      0.12478267	      0.08682441	      0.02465331	     -0.01534228	     -0.12807690	     -0.05519143	      0.00762989	     -0.02767245	     -0.00520528	     -0.01360054	      0.00388430	     -0.01620335	      0.00770458	     -0.00082244	     -0.00491159	     -0.03048953	     -0.02153356	     -0.00463580
      0.43000000	      0.11634672	      0.09767555	      0.00989758	     -0.00618653	     -0.13021455	     -0.06463061	      0.02286441	     -0.00526398	     -0.00098159	     -0.02425089	      0.00183650	     -0.02325471	      0.01102835	      0.00711491	     -0.00230650	     -0.02589205	     -0.02440012	     -0.00515758
      0.44000000	      0.12773836	      0.10242602	      0.01344523	     -0.00841680	     -0.14712299	     -0.07095876	     -0.00120625	     -0.01873719	     -0.00340656	     -0.01534317	      0.00235429	     -0.01616393	      0.00763591	      0.00240660	     -0.00293633	     -0.02545606	     -0.02163530	     -0.00442634
      0.45000000	      0.11716922	      0.11120504	     -0.00147275	      0.00092446	     -0.15041668	     -0.08107383	      0.00547381	      0.00788436	      0.00142731	     -0.02567116	      0.00025566	     -0.02294055	      0.01081472	      0.01010039	     -0.00031768	     -0.02270384	     -0.02703120	     -0.00542331
      0.46000000	      0.12582007	      0.11210013	      0.00259803	     -0.00162804	     -0.16702821	     -0.08679651	     -0.03144122	     -0.01014503	     -0.00183912	     -0.01643210	      0.00025090	     -0.01489656	      0.00699436	      0.00619588	     -0.00031172	     -0.02113698	     -0.02503034	     -0.00482296
      0.47000000	      0.10892368	      0.11767339	     -0.01462240	      0.00917216	     -0.16882081	     -0.09737319	     -0.02787102	      0.02081210	      0.00376345	     -0.02900688	     -0.00089917	     -0.02483733	      0.01164379	      0.01310729	      0.00111716	     -0.01348427	     -0.02034305	     -0.00384854
      0.48000000	      0.11172680	      0.11338338	     -0.01102921	      0.00687965	     -0.18081601	     -0.10085012	     -0.06834006	      0.00217425	      0.00040635	     -0.02143345	     -0.00175676	     -0.01728121	      0.00806365	      0.01137637	      0.00219326	     -0.01411743	     -0.02452113	     -0.00447169
      0.49000000	      0.09844463	      0.11144878	     -0.02027257	      0.01264202	     -0.17986473	     -0.10555298	     -0.07287138	      0.02417799	      0.00449564	     -0.02690901	     -0.00200503	     -0.02198259	      0.01024746	      0.01392955	      0.00251485	     -0.00837351	     -0.01839354	     -0.00328522
      0.50000000	      0.07432581	      0.10600325	     -0.03435790	      0.02123079	     -0.16866514	     -0.10771065	     -0.08945038	      0.03219248	      0.00637095	     -0.03823702	     -0.00403131	     -0.03028267	      0.01404229	      0.02157826	      0.00510239	     -0.00532052	     -0.02261738	     -0.00390782
      0.51000000	      0.10809453	      0.08881209	      0.00103571	     -0.00063896	     -0.18105088	     -0.09496715	     -0.12371781	     -0.00262589	     -0.00051936	     -0.00306265	     -0.00505517	      0.00303131	     -0.00140467	      0.01030015	      0.00648553	     -0.00800191	     -0.02955918	     -0.00495855
      0.52000000	      0.04438189	      0.08599765	     -0.04183937	      0.02569589	     -0.13686343	     -0.09604310	     -0.07283099	      0.07821949	      0.01624512	     -0.04418236	     -0.00677881	     -0.03288421	      0.01520858	      0.02918678	      0.00884690	     -0.01212509	     -0.04047403	     -0.00640894
      0.53000000	      0.03818316	      0.07019543	     -0.03430919	      0.02087098	     -0.11966516	     -0.08287327	     -0.08332473	      0.06084935	      0.01384149	     -0.03827790	     -0.00752629	     -0.02699403	      0.01243256	      0.02855431	      0.01001420	     -0.00091637	     -0.02904831	     -0.00437137
      0.54000000	      0.04054524	      0.05487582	     -0.02049180	      0.01240140	     -0.10809153	     -0.06967769	     -0.08988881	      0.03559863	      0.00845058	     -0.02729945	     -0.00851205	     -0.01580816	      0.00726554	      0.02686763	      0.01153003	      0.00073059	     -0.02983777	     -0.00427609
      0.55000000	      0.02443687	      0.04249974	     -0.02142311	      0.01290036	     -0.08509843	     -0.05813502	     -0.07364536	      0.03517891	      0.00868467	     -0.03065449	     -0.01021385	     -0.01722545	      0.00790175	      0.03200816	      0.01409205	      0.01025753	     -0.02371794	     -0.00324656
      0.56000000	      0.00507524	      0.03222758	     -0.02605750	      0.01561708	     -0.05934099	     -0.04600456	     -0.03974592	      0.05458773	      0.01398231	     -0.03759276	     -0.01332166	     -0.02051635	      0.00939475	      0.04158602	      0.01871209	      0.02029879	     -0.02151606	     -0.00282826
      0.57000000	      0.00327047	      0.01698259	     -0.01354484	      0.00807480	     -0.03058750	     -0.02391920	     -0.03583908	      0.01400026	      0.00374107	     -0.03169093	     -0.01459113	     -0.01374882	      0.00628385	      0.04292128	      0.02083355	      0.04292323	      0.00152976	      0.00019659
      0.58000000	     -0.00580791	      0.01059164	     -0.01396751	      0.00831252	     -0.01366304	     -0.01472126	      0.00183633	      0.03973991	      0.01067274	     -0.03334144	     -0.01650912	     -0.01340801	      0.00612259	      0.04837809	      0.02380652	      0.03667241	     -0.01034518	     -0.00133437
      0.59000000	     -0.02196205	      0.00456961	     -0.01963490	      0.01162851	      0.00657926	     -0.00626042	      0.03502622	      0.06068388	      0.01729193	     -0.03991301	     -0.02029952	     -0.01590061	      0.00724995	      0.05970935	      0.02967994	      0.05053811	     -0.00430288	     -0.00053851
      0.60000000	     -0.02029889	     -0.00783352	     -0.00678219	      0.00400781	      0.02566704	      0.01078268	      0.04234232	      0.02452937	      0.00713979	     -0.03398478	     -0.02151256	     -0.00908714	      0.00413997	      0.05852185	      0.03033384	      0.07626057	      0.02279961	      0.00293608
      0.61000000	     -0.03153284	     -0.01201400	     -0.01076631	      0.00634798	      0.04021800	      0.01676021	      0.07399205	      0.04994712	      0.01503421	     -0.03899483	     -0.02553854	     -0.00993175	      0.00452120	      0.06673932	      0.03465438	      0.08411899	      0.02270314	      0.00303298
      0.62000000	     -0.03432902	     -0.01920477	     -0.00611687	      0.00360035	      0.05516652	      0.02720630	      0.08404683	      0.03900513	      0.01207091	     -0.03784200	     -0.02939707	     -0.00492886	      0.00224271	      0.07180167	      0.03825004	      0.10896858	      0.04324663	      0.00612632
      0.63000000	     -0.04000511	     -0.02295180	     -0.00683255	      0.00401583	      0.06693704	      0.03330109	      0.09345516	      0.04136481	      0.01318010	     -0.03965176	     -0.03403297	     -0.00211657	      0.00096281	      0.07884750	      0.04243540	      0.12452500	      0.05316375	      0.00814736
      0.64000000	     -0.04313851	     -0.02674886	     -0.00580580	      0.00340747	      0.07356840	      0.03717354	      0.09364823	      0.03345463	      0.01089525	     -0.03995130	     -0.03919238	      0.00268255	     -0.00122031	      0.08591722	      0.04685067	      0.14788389	      0.07286369	      0.01222826
      0.65000000	     -0.03963470	     -0.03070962	     -0.00004466	      0.00002620	      0.07528300	      0.04071322	      0.09133213	      0.02371106	      0.00787225	     -0.03590513	     -0.04377035	      0.01121346	     -0.00510326	      0.09055308	      0.05045654	      0.17871443	      0.10533595	      0.01989449
      0.66000000	     -0.04914607	     -0.02888545	     -0.00873508	      0.00512020	      0.07629653	      0.03664027	      0.07200340	      0.00998964	      0.00334487	     -0.04212355	     -0.05207481	      0.01309422	     -0.00596490	      0.10556948	      0.05830695	      0.18799464	      0.10873706	      0.02331658
      0.67000000	     -0.03586827	     -0.02953530	      0.00095018	     -0.00055601	      0.06666388	      0.03611487	      0.04667831	     -0.01896182	     -0.00634826	     -0.03368964	     -0.06087913	      0.03040965	     -0.01387324	      0.11556124	      0.06614069	      0.21162822	      0.13267227	      0.03190043
      0.68000000	     -0.03905177	     -0.02799395	     -0.00292819	      0.00171523	      0.06498863	      0.03313339	      0.03222894	     -0.02849715	     -0.00936961	     -0.03467338	     -0.06630766	      0.03408206	     -0.01560081	      0.12140320	      0.06966919	      0.21975832	      0.14958251	      0.04074395
      0.69000000	     -0.05264420	     -0.02181883	     -0.01824927	      0.01065472	      0.06463333	      0.02525932	      0.01138438	     -0.03657244	     -0.01183354	     -0.04354360	     -0.07348565	      0.03108173	     -0.01426904	      0.13123301	      0.07413823	      0.23277630	      0.17284610	      0.05251639
      0.70000000	     -0.03259354	     -0.02043715	     -0.00534648	      0.00311411	      0.04901831	      0.02329526	     -0.01414797	     -0.06260847	     -0.01956182	     -0.03108629	     -0.08389795	      0.05337939	     -0.02462721	      0.13446346	      0.08046069	      0.23071600	      0.17827397	      0.06034364
      0.71000000	     -0.04197822	     -0.01478950	     -0.01710715	      0.00994372	      0.04742882	      0.01667661	     -0.02381188	     -0.06031843	     -0.01806989	     -0.03550810	     -0.08790383	      0.05107516	     -0.02372726	      0.13302785	      0.08014779	      0.20835978	      0.16971836	      0.06220007
      0.72000000	     -0.04718886	     -0.00733123	     -0.02751460	      0.01590784	      0.04075190	      0.00821931	     -0.04030368	     -0.06388805	     -0.01826118	     -0.03691881	     -0.09030957	      0.05025730	     -0.02350708	      0.12750926	      0.07823029	      0.19436036	      0.17367187	      0.06832701
      0.73000000	     -0.03380007	     -0.00575828	     -0.01937635	      0.01114475	      0.02973090	      0.00643432	     -0.05302109	     -0.07518593	     -0.02031742	     -0.02555184	     -0.09538944	      0.06522294	     -0.03077338	      0.11748833	      0.07804168	      0.16699475	      0.15872012	      0.06589960
      0.74000000	     -0.05254989	      0.00439031	     -0.04203360	      0.02403179	      0.02809473	     -0.00490110	     -0.04672529	     -0.04699593	     -0.01196797	     -0.03562696	     -0.09240646	      0.05016154	     -0.02389830	      0.10944994	      0.07158708	      0.09927954	      0.09419687	      0.04066239
      0.75000000	     -0.03589520	      0.00429695	     -0.03011394	      0.01705172	      0.01701113	     -0.00481396	     -0.05617597	     -0.05794418	     -0.01417120	     -0.02016424	     -0.09452910	      0.06656976	     -0.03198893	      0.09519732	      0.06973887	      0.06907638	      0.07426566	      0.03262146
      0.76000000	     -0.02200548	      0.00315819	     -0.01898713	      0.01071345	      0.00961739	     -0.00354057	     -0.06566639	     -0.07049371	     -0.01595218	     -0.00380880	     -0.09337950	      0.08044428	     -0.03921045	      0.07653991	      0.06576678	      0.05914305	      0.08207389	      0.03685053
      0.77000000	     -0.08647376	      0.02449454	     -0.08623935	      0.04812658	      0.01958000	     -0.02765700	     -0.03021719	      0.01352594	      0.00295629	     -0.04616140	     -0.07548980	      0.02024009	     -0.00995970	      0.08119109	      0.05112967	     -0.04689263	     -0.04584919	     -0.02068954
