Moment_hip_flexion_l
version=1
nRows=55
nColumns=19
inDegrees=no

This analysis gathers basic information about muscles during a simulation (e.g., forces, tendon lengths, moment arms, etc).
Units are S.I. units (second, meters, Newtons, ...)
If the header above contains a line with 'inDegrees', this indicates whether rotational values are in degrees (yes) or radians (no).

endheader
time	hamstrings_r	bifemsh_r	glut_max_r	iliopsoas_r	rect_fem_r	vasti_r	gastroc_r	soleus_r	dorsiflexors_r	hamstrings_l	bifemsh_l	glut_max_l	iliopsoas_l	rect_fem_l	vasti_l	gastroc_l	soleus_l	dorsiflexors_l
      0.23000000	      0.00000000	      0.00000000	      0.00000000	      0.00000000	      0.00000000	      0.00000000	      0.00000000	      0.00000000	      0.00000000	   -159.88404545	      0.00000000	   -164.79151881	     45.25727368	     41.07292038	      0.00000000	      0.00000000	     -0.00000000	     -0.00000000
      0.24000000	      0.00000000	      0.00000000	      0.00000000	      0.00000000	      0.00000000	      0.00000000	      0.00000000	      0.00000000	      0.00000000	   -158.88059157	      0.00000000	   -165.35277879	     44.85429889	     39.94368920	     -0.00000000	      0.00000000	      0.00000000	      0.00000000
      0.25000000	      0.00000000	      0.00000000	      0.00000000	      0.00000000	      0.00000000	      0.00000000	      0.00000000	      0.00000000	      0.00000000	   -157.79926403	     -0.00000000	   -165.85342300	     44.44544526	     38.81089215	      0.00000000	      0.00000000	      0.00000000	      0.00000000
      0.26000000	      0.00000000	      0.00000000	      0.00000000	      0.00000000	      0.00000000	      0.00000000	      0.00000000	      0.00000000	      0.00000000	   -156.66253830	     -0.00000000	   -166.29340745	     44.03097987	     37.70182375	     -0.00000000	     -0.00000000	      0.00000000	      0.00000000
      0.27000000	      0.00000000	      0.00000000	      0.00000000	      0.00000000	      0.00000000	      0.00000000	      0.00000000	      0.00000000	      0.00000000	   -155.56300113	      0.00000000	   -166.63988021	     43.65011600	     36.68628324	      0.00000000	      0.00000000	     -0.00000000	      0.00000000
      0.28000000	      0.00000000	      0.00000000	      0.00000000	      0.00000000	      0.00000000	      0.00000000	      0.00000000	      0.00000000	      0.00000000	   -154.35669502	      0.00000000	   -166.94846559	     43.24610172	     35.63070729	      0.00000000	     -0.00000000	     -0.00000000	      0.00000000
      0.29000000	      0.00000000	      0.00000000	      0.00000000	      0.00000000	      0.00000000	      0.00000000	      0.00000000	      0.00000000	      0.00000000	   -153.16841208	     -0.00000000	   -167.18659219	     42.86201648	     34.63965213	     -0.00000000	     -0.00000000	     -0.00000000	     -0.00000000
      0.30000000	      0.00000000	      0.00000000	      0.00000000	      0.00000000	      0.00000000	      0.00000000	      0.00000000	      0.00000000	      0.00000000	   -152.04160302	     -0.00000000	   -167.35830606	     42.50949828	     33.69798198	     -0.00000000	     -0.00000000	      0.00000000	      0.00000000
      0.31000000	      0.00000000	      0.00000000	      0.00000000	      0.00000000	      0.00000000	      0.00000000	      0.00000000	      0.00000000	      0.00000000	   -150.96510751	      0.00000000	   -167.47805028	     42.18141495	     32.78267563	      0.00000000	      0.00000000	      0.00000000	      0.00000000
      0.32000000	      0.00000000	      0.00000000	      0.00000000	      0.00000000	      0.00000000	      0.00000000	      0.00000000	      0.00000000	      0.00000000	   -149.82783634	      0.00000000	   -167.56139576	     41.84145673	     31.83830915	     -0.00000000	      0.00000000	      0.00000000	      0.00000000
      0.33000000	      0.00000000	      0.00000000	      0.00000000	      0.00000000	      0.00000000	      0.00000000	      0.00000000	      0.00000000	      0.00000000	   -148.93441460	      0.00000000	   -167.59712351	     41.58088205	     31.11989638	     -0.00000000	      0.00000000	     -0.00000000	     -0.00000000
      0.34000000	      0.00000000	      0.00000000	      0.00000000	      0.00000000	      0.00000000	      0.00000000	      0.00000000	      0.00000000	      0.00000000	   -147.95426248	      0.00000000	   -167.60809566	     41.29922170	     30.34601814	     -0.00000000	     -0.00000000	     -0.00000000	      0.00000000
      0.35000000	      0.00000000	      0.00000000	      0.00000000	      0.00000000	      0.00000000	      0.00000000	      0.00000000	      0.00000000	      0.00000000	   -147.02142874	      0.00000000	   -167.59220599	     41.03626038	     29.62769726	      0.00000000	      0.00000000	     -0.00000000	     -0.00000000
      0.36000000	      0.00000000	      0.00000000	      0.00000000	      0.00000000	      0.00000000	      0.00000000	      0.00000000	      0.00000000	      0.00000000	   -146.27427864	      0.00000000	   -167.56166998	     40.82867768	     29.06299114	      0.00000000	     -0.00000000	     -0.00000000	      0.00000000
      0.37000000	      0.00000000	      0.00000000	      0.00000000	      0.00000000	      0.00000000	      0.00000000	      0.00000000	      0.00000000	      0.00000000	   -145.45261712	     -0.00000000	   -167.51036993	     40.60335932	     28.45235857	      0.00000000	      0.00000000	     -0.00000000	     -0.00000000
      0.38000000	      0.00000000	      0.00000000	      0.00000000	      0.00000000	      0.00000000	      0.00000000	      0.00000000	      0.00000000	      0.00000000	   -144.56579832	      0.00000000	   -167.43488822	     40.36388013	     27.80654331	      0.00000000	      0.00000000	      0.00000000	      0.00000000
      0.39000000	      0.00000000	      0.00000000	      0.00000000	      0.00000000	      0.00000000	      0.00000000	      0.00000000	      0.00000000	      0.00000000	   -143.73734459	      0.00000000	   -167.34842610	     40.14874915	     27.23702039	      0.00000000	      0.00000000	     -0.00000000	      0.00000000
      0.40000000	      0.00000000	      0.00000000	      0.00000000	      0.00000000	      0.00000000	      0.00000000	      0.00000000	      0.00000000	      0.00000000	   -142.92558993	     -0.00000000	   -167.24394292	     39.93339982	     26.65832316	     -0.00000000	     -0.00000000	     -0.00000000	      0.00000000
      0.41000000	      0.00000000	      0.00000000	      0.00000000	      0.00000000	      0.00000000	      0.00000000	      0.00000000	      0.00000000	      0.00000000	   -142.15210124	      0.00000000	   -167.13266225	     39.73679754	     26.14115549	      0.00000000	     -0.00000000	      0.00000000	      0.00000000
      0.42000000	      0.00000000	      0.00000000	      0.00000000	      0.00000000	      0.00000000	      0.00000000	      0.00000000	      0.00000000	      0.00000000	   -141.30328158	     -0.00000000	   -166.99294765	     39.52123925	     25.57278547	      0.00000000	      0.00000000	     -0.00000000	      0.00000000
      0.43000000	      0.00000000	      0.00000000	      0.00000000	      0.00000000	      0.00000000	      0.00000000	      0.00000000	      0.00000000	      0.00000000	   -140.62461221	     -0.00000000	   -166.87076520	     39.35290144	     25.13384892	      0.00000000	      0.00000000	     -0.00000000	     -0.00000000
      0.44000000	      0.00000000	      0.00000000	      0.00000000	      0.00000000	      0.00000000	      0.00000000	      0.00000000	      0.00000000	      0.00000000	   -139.57660514	     -0.00000000	   -166.66367483	     39.09815584	     24.47565356	     -0.00000000	      0.00000000	      0.00000000	      0.00000000
      0.45000000	      0.00000000	      0.00000000	      0.00000000	      0.00000000	      0.00000000	      0.00000000	      0.00000000	      0.00000000	      0.00000000	   -138.99430226	      0.00000000	   -166.53822127	     38.95807220	     24.11498952	     -0.00000000	      0.00000000	     -0.00000000	     -0.00000000
      0.46000000	      0.00000000	      0.00000000	      0.00000000	      0.00000000	      0.00000000	      0.00000000	      0.00000000	      0.00000000	      0.00000000	   -137.79509533	      0.00000000	   -166.26245729	     38.67818738	     23.40555605	      0.00000000	      0.00000000	     -0.00000000	      0.00000000
      0.47000000	      0.00000000	      0.00000000	      0.00000000	      0.00000000	      0.00000000	      0.00000000	      0.00000000	      0.00000000	      0.00000000	   -137.31538498	     -0.00000000	   -166.14389139	     38.56739370	     23.12575012	     -0.00000000	      0.00000000	     -0.00000000	      0.00000000
      0.48000000	      0.00000000	      0.00000000	      0.00000000	      0.00000000	      0.00000000	      0.00000000	      0.00000000	      0.00000000	      0.00000000	   -135.77790240	      0.00000000	   -165.73661574	     38.21993849	     22.25720179	     -0.00000000	      0.00000000	      0.00000000	      0.00000000
      0.49000000	      0.00000000	      0.00000000	      0.00000000	      0.00000000	      0.00000000	      0.00000000	      0.00000000	      0.00000000	      0.00000000	   -135.43317226	      0.00000000	   -165.64226937	     38.14552223	     22.07597611	     -0.00000000	     -0.00000000	     -0.00000000	     -0.00000000
      0.50000000	      0.00000000	      0.00000000	      0.00000000	      0.00000000	      0.00000000	      0.00000000	      0.00000000	      0.00000000	      0.00000000	   -133.49520097	     -0.00000000	   -165.05243268	     37.71957423	     21.02246847	     -0.00000000	      0.00000000	     -0.00000000	      0.00000000
      0.51000000	      0.00000000	      0.00000000	      0.00000000	      0.00000000	      0.00000000	      0.00000000	      0.00000000	      0.00000000	      0.00000000	   -133.18326515	     -0.00000000	   -164.96413532	     37.66072645	     20.89087357	     -0.00000000	      0.00000000	      0.00000000	      0.00000000
      0.52000000	      0.00000000	      0.00000000	      0.00000000	      0.00000000	      0.00000000	      0.00000000	      0.00000000	      0.00000000	      0.00000000	   -132.36001905	      0.00000000	   -164.70278244	     37.49275253	     20.49206094	      0.00000000	      0.00000000	     -0.00000000	     -0.00000000
      0.53000000	      0.00000000	      0.00000000	      0.00000000	      0.00000000	      0.00000000	      0.00000000	      0.00000000	      0.00000000	      0.00000000	   -130.50813908	     -0.00000000	   -164.04993534	     37.10748649	     19.56149514	     -0.00000000	     -0.00000000	      0.00000000	     -0.00000000
      0.54000000	      0.00000000	      0.00000000	      0.00000000	      0.00000000	      0.00000000	      0.00000000	      0.00000000	      0.00000000	      0.00000000	   -129.45410587	     -0.00000000	   -163.66443782	     36.89888241	     19.07037036	     -0.00000000	      0.00000000	      0.00000000	      0.00000000
      0.55000000	      0.00000000	      0.00000000	      0.00000000	      0.00000000	      0.00000000	      0.00000000	      0.00000000	      0.00000000	      0.00000000	   -128.39737935	     -0.00000000	   -163.26547390	     36.69513320	     18.59611440	     -0.00000000	     -0.00000000	     -0.00000000	      0.00000000
      0.56000000	      0.00000000	      0.00000000	      0.00000000	      0.00000000	      0.00000000	      0.00000000	      0.00000000	      0.00000000	      0.00000000	   -127.32939095	      0.00000000	   -162.85130474	     36.49493971	     18.13556434	      0.00000000	      0.00000000	      0.00000000	     -0.00000000
      0.57000000	      0.00000000	      0.00000000	      0.00000000	      0.00000000	      0.00000000	      0.00000000	      0.00000000	      0.00000000	      0.00000000	   -126.06919120	      0.00000000	   -162.34220276	     36.26255309	     17.60264805	     -0.00000000	      0.00000000	      0.00000000	      0.00000000
      0.58000000	      0.00000000	      0.00000000	      0.00000000	      0.00000000	      0.00000000	      0.00000000	      0.00000000	      0.00000000	      0.00000000	   -125.35527285	      0.00000000	   -162.07261204	     36.14492163	     17.34834195	     -0.00000000	      0.00000000	     -0.00000000	     -0.00000000
      0.59000000	      0.00000000	      0.00000000	      0.00000000	      0.00000000	      0.00000000	      0.00000000	      0.00000000	      0.00000000	      0.00000000	   -124.14500131	     -0.00000000	   -161.56773582	     35.93360897	     16.84862980	      0.00000000	      0.00000000	      0.00000000	      0.00000000
      0.60000000	      0.00000000	      0.00000000	      0.00000000	      0.00000000	      0.00000000	      0.00000000	      0.00000000	      0.00000000	      0.00000000	   -123.34501371	      0.00000000	   -161.25923773	     35.80974242	     16.42359279	      0.00000000	      0.00000000	      0.00000000	      0.00000000
      0.61000000	      0.00000000	      0.00000000	      0.00000000	      0.00000000	      0.00000000	      0.00000000	      0.00000000	      0.00000000	      0.00000000	   -122.49661215	      0.00000000	   -160.92654966	     35.68023262	     15.97453472	      0.00000000	      0.00000000	     -0.00000000	     -0.00000000
      0.62000000	      0.00000000	      0.00000000	      0.00000000	      0.00000000	      0.00000000	      0.00000000	      0.00000000	      0.00000000	      0.00000000	   -121.85741562	     -0.00000000	   -160.71248356	     35.59899123	     15.62452836	      0.00000000	      0.00000000	      0.00000000	     -0.00000000
      0.63000000	      0.00000000	      0.00000000	      0.00000000	      0.00000000	      0.00000000	      0.00000000	      0.00000000	      0.00000000	      0.00000000	   -121.36019963	     -0.00000000	   -160.58209673	     35.55027047	     15.34250726	     -0.00000000	     -0.00000000	      0.00000000	      0.00000000
      0.64000000	      0.00000000	      0.00000000	      0.00000000	      0.00000000	      0.00000000	      0.00000000	      0.00000000	      0.00000000	      0.00000000	   -121.11144390	      0.00000000	   -160.59825399	     35.55627722	     15.17988863	     -0.00000000	      0.00000000	      0.00000000	      0.00000000
      0.65000000	      0.00000000	      0.00000000	      0.00000000	      0.00000000	      0.00000000	      0.00000000	      0.00000000	      0.00000000	      0.00000000	   -121.20490645	      0.00000000	   -160.80130570	     35.63250858	     15.18703042	     -0.00000000	      0.00000000	      0.00000000	     -0.00000000
      0.66000000	      0.00000000	      0.00000000	      0.00000000	      0.00000000	      0.00000000	      0.00000000	      0.00000000	      0.00000000	      0.00000000	   -121.70404429	     -0.00000000	   -161.21627603	     35.79278721	     15.39987313	      0.00000000	      0.00000000	     -0.00000000	      0.00000000
      0.67000000	      0.00000000	      0.00000000	      0.00000000	      0.00000000	      0.00000000	      0.00000000	      0.00000000	      0.00000000	      0.00000000	   -122.49184016	     -0.00000000	   -161.76735322	     36.01582719	     15.76723126	     -0.00000000	      0.00000000	     -0.00000000	      0.00000000
      0.68000000	      0.00000000	      0.00000000	      0.00000000	      0.00000000	      0.00000000	      0.00000000	      0.00000000	      0.00000000	      0.00000000	   -124.33038331	      0.00000000	   -162.75593651	     36.45031816	     16.66596262	      0.00000000	      0.00000000	      0.00000000	      0.00000000
      0.69000000	      0.00000000	      0.00000000	      0.00000000	      0.00000000	      0.00000000	      0.00000000	      0.00000000	      0.00000000	      0.00000000	   -125.63831110	     -0.00000000	   -163.43237910	     36.77898068	     17.32038000	      0.00000000	      0.00000000	      0.00000000	     -0.00000000
      0.70000000	      0.00000000	      0.00000000	      0.00000000	      0.00000000	      0.00000000	      0.00000000	      0.00000000	      0.00000000	      0.00000000	   -127.74004412	     -0.00000000	   -164.33704402	     37.27146926	     18.38565214	     -0.00000000	      0.00000000	      0.00000000	      0.00000000
      0.71000000	      0.00000000	      0.00000000	      0.00000000	      0.00000000	      0.00000000	      0.00000000	      0.00000000	      0.00000000	      0.00000000	   -130.34403767	     -0.00000000	   -165.27202516	     37.87104473	     19.72818076	     -0.00000000	     -0.00000000	     -0.00000000	      0.00000000
      0.72000000	      0.00000000	      0.00000000	      0.00000000	      0.00000000	      0.00000000	      0.00000000	      0.00000000	      0.00000000	      0.00000000	   -132.61024167	      0.00000000	   -165.95521347	     38.40065173	     20.90973162	      0.00000000	     -0.00000000	     -0.00000000	      0.00000000
      0.73000000	      0.00000000	      0.00000000	      0.00000000	      0.00000000	      0.00000000	      0.00000000	      0.00000000	      0.00000000	      0.00000000	   -135.25631081	     -0.00000000	   -166.59001752	     39.01479264	     22.31333677	     -0.00000000	     -0.00000000	      0.00000000	     -0.00000000
      0.74000000	      0.00000000	      0.00000000	      0.00000000	      0.00000000	      0.00000000	      0.00000000	      0.00000000	      0.00000000	      0.00000000	   -137.94625731	     -0.00000000	   -167.07496969	     39.64426090	     23.77044988	      0.00000000	     -0.00000000	      0.00000000	     -0.00000000
      0.75000000	      0.00000000	      0.00000000	      0.00000000	      0.00000000	      0.00000000	      0.00000000	      0.00000000	      0.00000000	      0.00000000	   -140.12020832	      0.00000000	   -167.35453139	     40.16260449	     24.95617216	      0.00000000	     -0.00000000	     -0.00000000	     -0.00000000
      0.76000000	      0.00000000	      0.00000000	      0.00000000	      0.00000000	      0.00000000	      0.00000000	      0.00000000	      0.00000000	      0.00000000	   -143.46096352	      0.00000000	   -167.58343341	     40.96435016	     26.91136549	     -0.00000000	      0.00000000	     -0.00000000	     -0.00000000
      0.77000000	      0.00000000	      0.00000000	      0.00000000	      0.00000000	      0.00000000	      0.00000000	      0.00000000	      0.00000000	      0.00000000	   -145.48967920	     -0.00000000	   -167.60502459	     41.46711106	     28.10723796	     -0.00000000	      0.00000000	     -0.00000000	     -0.00000000
