PassiveFiberForce
version=1
nRows=55
nColumns=19
inDegrees=no

This analysis gathers basic information about muscles during a simulation (e.g., forces, tendon lengths, moment arms, etc).
Units are S.I. units (second, meters, Newtons, ...)
If the header above contains a line with 'inDegrees', this indicates whether rotational values are in degrees (yes) or radians (no).

endheader
time	hamstrings_r	bifemsh_r	glut_max_r	iliopsoas_r	rect_fem_r	vasti_r	gastroc_r	soleus_r	dorsiflexors_r	hamstrings_l	bifemsh_l	glut_max_l	iliopsoas_l	rect_fem_l	vasti_l	gastroc_l	soleus_l	dorsiflexors_l
      0.23000000	     -3.53459878	     -4.69261009	     68.19573478	     72.07659433	     66.19107335	     67.71426993	     -2.06568931	     31.34255994	     -7.28309437	     -8.29464726	      3.27466598	     44.78004925	     74.77703435	      4.32771170	    -14.66377132	    -27.70610051	     -7.40114713	     -2.33106788
      0.24000000	     -0.71426868	     -4.26487875	     71.58427642	     69.22199470	     65.65896432	     63.56711859	     -3.92484898	     31.03804101	     -6.20575438	     -8.69583171	      3.15757363	     41.79198644	     76.46741155	      4.89420331	    -12.30614487	    -23.43221699	     -3.51035074	     -1.84286018
      0.25000000	      2.05684419	     -3.77966678	     74.85453370	     66.55829073	     64.64516407	     59.31876105	    -24.18317288	     -8.49783302	    -11.63923284	     -8.31065899	      3.36382730	     37.77510794	     78.70295536	      3.04931987	    -15.98230625	    -23.77683401	      2.51325845	     -1.21826104
      0.26000000	      5.74566311	     -3.26052280	     79.25093043	     63.53758376	     62.57158281	     55.09081769	    -53.28919358	    -69.07954373	    -18.86691324	     -6.50297853	      3.38814952	     36.26036895	     80.06072047	      1.85057765	    -16.25641421	    -22.21039756	      6.12187824	     -0.84380869
      0.27000000	      8.49533644	     -2.63034088	     82.28427282	     61.21859405	     60.20191960	     50.17164231	    -41.14122386	    -48.47135582	    -13.79483425	     -7.22462321	      3.24886903	     34.05679030	     81.72468641	      2.86732107	    -13.33727743	    -17.77373058	      9.23814128	     -0.53962209
      0.28000000	     11.66260851	     -2.01970415	     85.91545420	     58.84576645	     57.16518075	     45.54723227	    -45.63337743	    -62.31740736	    -14.22750301	     -6.71225032	      3.42852243	     31.00111484	     83.85353836	      1.09340002	    -16.72735887	    -20.64524795	     10.15860615	     -0.43639345
      0.29000000	     14.80906685	     -1.47107572	     89.99494346	     56.44359706	     53.69045126	     41.47426297	    -45.98638836	    -68.14960469	    -13.45493925	     -5.92565757	      3.29260837	     30.42607107	     85.04555984	      1.63133818	    -13.70706275	    -16.27091474	     12.94673009	     -0.17978585
      0.30000000	     18.42308063	     -0.93996245	     94.75013059	     53.92296326	     49.53924845	     37.53069713	    -45.25332868	    -72.16727199	    -12.53790258	     -4.62826564	      3.19546637	     30.38293321	     86.01801825	      1.85564373	    -11.00899033	    -13.70372663	     13.59494276	     -0.11535587
      0.31000000	     21.33535504	     -0.29736467	     98.44320609	     52.02936231	     45.17012407	     32.64922852	    -32.96031611	    -55.46692863	     -9.29218668	     -4.68724191	      3.30697282	     28.07369951	     87.83818748	      1.03338506	    -12.73134784	    -17.47695795	     10.49230695	     -0.37564563
      0.32000000	     24.90953181	      0.19719499	    103.46660363	     49.74999410	     40.31295650	     28.82179503	    -30.58222681	    -56.51963779	     -8.56090938	     -3.20027389	      3.22244613	     28.43505860	     88.72096373	      1.23944065	    -10.25961274	    -15.27129504	     10.60103186	     -0.34870176
      0.33000000	     28.49054674	      0.72193159	    108.75829904	     47.53416114	     35.02887142	     24.65605269	    -28.27979970	    -57.88203281	     -7.77926033	     -1.87135636	      3.11683356	     29.22684714	     89.23677244	      1.65437058	     -7.56197794	    -12.37133339	     11.14155141	     -0.29136269
      0.34000000	     30.26654991	      1.37004367	    111.68999211	     46.53726352	     30.44375319	     19.33919603	    -12.11638032	    -34.45989264	     -4.86455913	     -2.94587651	      3.22813723	     26.44097294	     91.18672037	      1.23265967	     -9.19660819	    -16.36175688	      7.64623621	     -0.57094286
      0.35000000	     34.23498778	      1.82561329	    117.56615014	     44.39263637	     24.72678633	     15.36260995	    -14.18906662	    -42.63809157	     -5.17171872	     -1.04085153	      3.09046335	     28.09027794	     91.44194970	      1.73274546	     -5.87120603	    -13.20090305	      6.95172426	     -0.60623644
      0.36000000	     37.30515132	      2.44536021	    122.17120335	     43.00380623	     19.13540920	      9.87674757	     -4.04433112	    -29.33301295	     -3.59305362	     -0.56306787	      3.03848104	     28.14221659	     92.12662133	      2.03285423	     -4.41460908	    -13.13573689	      4.08213598	     -0.81721635
      0.37000000	     38.87114529	      3.04211801	    125.38556353	     42.35231287	     14.33458973	      4.28433757	     -0.49666753	    -27.17510425	     -3.16118886	     -1.34347182	      3.18692797	     25.68044713	     93.81388080	      1.27031966	     -6.84161039	    -18.01578764	      0.65027724	     -1.05874013
      0.38000000	     40.67830420	      3.75774285	    127.91866547	     42.06932394	      9.31954770	     -2.61645224	     16.77302209	     -0.49297100	     -0.93163970	     -2.30502034	      2.95568874	     25.58011369	     94.69135095	      3.31223180	     -1.91979626	     -9.13755660	      6.19809532	     -0.57211227
      0.39000000	     43.47379369	      4.32564442	    131.46734054	     41.31036458	      3.85374730	     -8.73896158	      7.09272206	    -19.75014452	     -2.33218312	     -1.58568116	      3.03733485	     24.98465122	     95.67789934	      2.51923820	     -3.25617670	    -14.72367917	     -1.20111786	     -1.13467046
      0.40000000	     47.07827321	      4.97380090	    135.34892252	     40.49009538	     -2.21402255	    -15.95054248	      9.50293007	    -16.42982352	     -1.87879334	     -0.49518035	      3.06563755	     25.16833303	     96.39178420	      2.07652971	     -3.32993895	    -14.34442718	     -0.17998989	     -0.99612541
      0.41000000	     47.25483848	      5.68646638	    135.48805137	     41.32878605	     -6.59143105	    -24.35670806	     17.46791535	     -2.51686995	     -0.88800550	     -2.72606579	      2.93278776	     23.41089010	     97.75381796	      3.66236674	     -0.67227155	    -12.88776349	     -4.15012247	     -1.26056669
      0.42000000	     52.34042222	      6.21329085	    139.67186986	     40.15934598	    -13.39587273	    -31.70853968	     11.92336147	     -9.42109787	     -1.26268844	      0.03874385	      2.99534628	     24.94813309	     97.99843656	      2.45333373	     -1.54706159	    -13.24405161	     -2.77028489	     -1.08724464
      0.43000000	     50.10618073	      6.99731795	    136.67203804	     42.37425887	    -16.78064557	    -42.21934692	     19.52933467	      6.99336704	     -0.18680533	     -4.10482611	      2.86652052	     21.47116934	     99.88921402	      4.51066180	      0.92272759	    -11.07343334	     -5.18069105	     -1.22296446
      0.44000000	     55.39079592	      7.39234523	    139.19172944	     41.45305151	    -23.61414975	    -49.84825355	      7.52709458	     -3.18576367	     -0.80705400	     -0.89054402	      2.90885532	     23.48830196	    100.13065942	      3.29016886	      0.29485655	    -10.94795949	     -3.60209449	     -1.04017058
      0.45000000	     52.71762559	      8.06871795	    135.03071480	     43.97562564	    -26.87919144	    -61.11907699	     10.79604783	     16.38044416	      0.42477529	     -4.89292174	      2.77330479	     20.25369387	    101.83143559	      5.29404253	      2.78847962	     -9.66030202	     -7.87688636	     -1.29715994
      0.46000000	     57.24005709	      8.24421413	    135.48034368	     43.42641112	    -33.15603265	    -68.25153703	     -7.12186450	      3.11444200	     -0.40773847	     -1.57655344	      2.77315819	     22.63028521	    102.06563621	      4.32161170	      2.79364666	     -8.97120592	     -6.91165848	     -1.14815064
      0.47000000	     52.59720327	      8.74448901	    129.15220247	     46.65778642	    -35.53570437	    -79.94691460	     -5.75170611	     25.89162595	      1.02017968	     -6.41553683	      2.69652417	     18.22362917	    104.07391390	      6.13710126	      4.16169701	     -5.28846945	     -3.65324982	     -0.90104848
      0.48000000	     55.06762810	      8.61893048	    126.68666160	     46.76394740	    -40.11540747	    -84.88638194	    -25.64057836	     12.49510445	      0.16717803	     -3.77085719	      2.63389084	     20.25039697	    104.72330738	      5.76741511	      5.20931692	     -5.64003382	     -7.17610937	     -1.06374517
      0.49000000	     52.14368133	      8.65687830	    122.72824534	     48.60455101	    -41.26030841	    -90.79615202	    -28.57400295	     28.64944525	      1.20912082	     -5.90253758	      2.61212053	     18.11165089	    105.77955758	      6.46954128	      5.53380080	     -2.87178830	     -2.85083348	     -0.76246027
      0.50000000	     44.37853385	      8.49030982	    110.81988905	     52.65315169	    -39.34815788	    -94.24057833	    -37.12675506	     35.23279620	      1.69284617	    -10.45875188	      2.46702702	     13.51106952	    109.11637939	      8.57604801	      8.04339142	     -1.41453961	     -6.32727637	     -0.92430546
      0.51000000	     59.20462570	      7.53844949	    124.22172709	     46.05940664	    -43.43257560	    -83.19263212	    -54.52958681	      9.58021108	     -0.06358290	      2.81469210	      2.38393991	     26.94827907	    104.61086594	      5.73058218	      9.41573040	     -2.72172216	    -11.76695563	     -1.19506428
      0.52000000	     37.00328085	      7.54147471	    103.80662916	     54.97714182	    -32.65447462	    -85.17675790	    -30.62390387	     69.72203629	      4.21482024	    -12.90143203	      2.25020729	     11.83322685	    110.62598070	     10.77466609	     11.73864417	     -4.75551961	    -20.38471594	     -1.56971919
      0.53000000	     35.52369364	      6.68409508	    100.97632381	     54.93668325	    -28.63614938	    -73.42492089	    -36.11371490	     58.21523390	      3.61326700	    -10.89774057	      2.17675441	     13.23625675	    111.70825514	     10.80634300	     12.93560419	      0.67260362	    -12.31046263	     -1.05233704
      0.54000000	     37.53866941	      5.82925177	    103.55221681	     53.09404627	    -25.99008281	    -61.44991568	    -39.77760001	     40.31797709	      2.24524623	     -6.87779070	      2.08623156	     17.28264576	    111.15350297	     10.55143048	     14.47224519	      1.46876224	    -13.25636227	     -1.03075113
      0.55000000	     32.29553785	      5.14507043	    100.27920960	     54.03803331	    -20.30151225	    -50.92418888	    -32.33600138	     40.71992625	      2.31118975	     -8.29314826	      1.94297887	     16.21104189	    112.37773484	     12.11310598	     17.03053924	      6.10468555	     -9.02313620	     -0.77005236
      0.56000000	     25.48917431	      4.57142954	     95.72152884	     55.63958592	    -13.82770222	    -39.72392247	    -16.26073602	     55.75234581	      3.66811108	    -11.06986464	      1.70010347	     14.39681743	    113.84943514	     14.88233787	     21.58431376	     11.01093132	     -7.64293275	     -0.66505776
      0.57000000	     24.79222036	      3.63968691	     97.91510944	     54.13613453	     -6.55741722	    -18.96845701	    -14.50856427	     26.79717825	      1.06592356	     -8.99873099	      1.57105222	     16.62910495	    114.05024341	     15.59564493	     23.78402196	     22.06362994	      9.33500425	      0.10679248
      0.58000000	     21.50154897	      3.25243128	     96.81964560	     54.48773120	     -2.25962095	    -10.33104165	      3.54528941	     45.87525507	      2.83389820	     -9.74257534	      1.39811456	     16.50631598	    114.59083558	     17.39506539	     26.80938215	     19.14133467	      0.53882793	     -0.28420375
      0.59000000	     14.90737295	      2.88383487	     91.92089274	     56.31954330	      2.93836871	     -2.37079955	     19.67627370	     62.84434203	      4.53489084	    -12.39735970	      1.08985529	     15.02899121	    116.00159559	     20.84162764	     32.65816749	     25.96720914	      4.85237136	     -0.08211136
      0.60000000	     15.03873667	      2.05467570	     96.02571643	     54.29882731	      7.91103151	     13.92274521	     23.33559904	     36.83919025	      1.95261795	    -10.28384319	      0.94879364	     17.54695714	    115.65542877	     20.93052196	     33.49424992	     38.63956058	     25.14088051	      0.80679964
      0.61000000	     10.09222989	      1.74879849	     93.25177706	     55.39833617	     11.76610768	     19.73773183	     38.88966126	     56.63779821	      3.97449544	    -12.32292289	      0.61466851	     16.93166227	    116.42264204	     23.52833664	     37.86592449	     42.68857619	     25.29150211	      0.83317915
      0.62000000	      8.21977039	      1.22577321	     94.27073973	     54.82595205	     15.77676716	     29.89197653	     44.11131254	     49.56532761	      3.22786320	    -12.02075090	      0.28173344	     18.80663265	    116.12080255	     25.39584044	     41.58693167	     55.07529185	     40.93123667	      1.62638110
      0.63000000	      5.16608547	      0.91477092	     93.25521679	     55.19399222	     19.02670520	     35.97137938	     49.15062880	     52.45090076	      3.52070243	    -12.83948300	     -0.11054056	     19.85523404	    115.96659544	     27.87297271	     45.91121124	     63.06804722	     48.87792889	      2.14721857
      0.64000000	      3.01757744	      0.59278297	     92.95588056	     55.24296952	     20.92474481	     39.91054790	     49.78994353	     47.56933149	      2.94655361	    -13.08270059	     -0.54829692	     21.82647282	    115.25770641	     30.49203596	     50.51237201	     74.99883127	     64.29082140	      3.19608210
      0.65000000	      3.39751209	      0.24966030	     94.96553153	     54.30116880	     21.58451997	     43.57576221	     49.31511196	     41.29409048	      2.18383230	    -11.66783863	     -0.95404504	     25.46477427	    113.66884459	     32.61074257	     54.38948571	     90.81255336	     89.64935095	      5.16496977
      0.66000000	     -1.07870910	      0.28861248	     91.13106706	     55.98950495	     22.08121283	     39.98951125	     40.58983473	     31.60654195	      1.03341802	    -14.13740945	     -1.61778554	     26.56580164	    112.59829421	     37.63729561	     62.40867429	     96.50378734	     93.89957249	      6.05386754
      0.67000000	      2.96469590	      0.17101777	     94.24582599	     54.50084002	     19.84262613	     39.77193180	     28.86823696	     10.27591975	     -1.43745889	    -11.05671247	     -2.32829008	     34.11037113	    109.02103518	     41.69537324	     70.53080345	    109.52833508	    113.72093719	      8.26463374
      0.68000000	      1.17425804	      0.19769596	     93.16412157	     55.03975499	     19.64082516	     37.22498377	     22.20562183	      2.37589494	     -2.21523264	    -11.51126458	     -2.82018812	     36.58099577	    106.30154078	     44.95606468	     74.64015510	    115.70965140	    129.32411567	     10.55050965
      0.69000000	     -4.88274801	      0.54606083	     85.29798942	     58.38628118	     19.81800997	     29.95968879	     12.38137609	     -4.29824804	     -2.84964024	    -14.98617853	     -3.42972274	     36.13146063	    105.06152022	     49.68067667	     79.74967279	    124.88972818	    150.39016593	     13.59087821
      0.70000000	      1.94124711	      0.58717048	     89.42545822	     56.42947043	     16.02009684	     28.30071738	      0.02210381	    -24.91516791	     -4.83225651	    -10.35429172	     -4.26028621	     46.46458188	     99.35697201	     53.15081333	     86.78264296	    127.95236078	    159.95183796	     15.63699727
      0.71000000	     -2.17953911	      0.91806628	     83.63831240	     58.91448866	     15.82513152	     22.17461365	     -4.79001094	    -24.73865663	     -4.46530487	    -12.10882339	     -4.66426407	     47.14435237	     96.60548655	     55.87771855	     87.60547931	    121.79538037	    159.65341900	     16.16000543
      0.72000000	     -4.88559360	      1.38678192	     76.88468189	     61.69384628	     14.31430350	     14.21723148	    -13.02646425	    -28.82152734	     -4.52697280	    -12.73062115	     -4.95133118	     48.36332381	     93.99001292	     57.93497509	     86.96480673	    120.75223113	    170.52233885	     17.78611337
      0.73000000	     -0.46158909	      1.47640597	     77.85241238	     61.09969879	     11.64002687	     12.58075930	    -19.53735841	    -38.62506449	     -5.06430825	     -8.49089408	     -5.40991622	     56.43092067	     88.61133774	     59.14322910	     88.08638694	    113.64963991	    168.18263559	     17.22932020
      0.74000000	     -8.08991377	      2.14338242	     65.93899055	     66.17898670	     11.36346885	      1.78534070	    -16.90665406	    -19.19036352	     -2.94780475	    -12.37129319	     -5.32082919	     52.48581730	     87.54479132	     61.04687500	     83.27098651	     86.65737051	    129.02837962	     10.84141238
      0.75000000	     -2.53959767	      2.15256298	     66.71092146	     65.70955980	      8.62810897	      1.79729257	    -21.80529523	    -28.04684508	     -3.51643361	     -6.57868177	     -5.55833367	     61.16359917	     82.38503819	     61.51995800	     82.87451540	     75.35870151	    119.10071066	      8.81914377
      0.76000000	      2.41636588	      2.08015984	     69.80915933	     64.36218419	      6.77818749	      2.99883541	    -26.83262873	    -38.60677040	     -3.98197784	     -0.38949068	     -5.57139316	     70.22404644	     76.04031616	     60.42349355	     80.54322952	     74.35201896	    132.16934175	      9.94610461
      0.77000000	    -22.48610896	      3.52136101	     37.96349957	     78.07573899	      9.43176691	    -20.14702623	    -10.05004048	     22.76208823	      0.83338568	    -16.49331354	     -4.45147594	     48.01277096	     82.55886892	     65.43712281	     67.87550546	     23.36090049	     39.05784832	     -4.74326578
