ActiveFiberForce
version=1
nRows=55
nColumns=19
inDegrees=no

This analysis gathers basic information about muscles during a simulation (e.g., forces, tendon lengths, moment arms, etc).
Units are S.I. units (second, meters, Newtons, ...)
If the header above contains a line with 'inDegrees', this indicates whether rotational values are in degrees (yes) or radians (no).

endheader
time	hamstrings_r	bifemsh_r	glut_max_r	iliopsoas_r	rect_fem_r	vasti_r	gastroc_r	soleus_r	dorsiflexors_r	hamstrings_l	bifemsh_l	glut_max_l	iliopsoas_l	rect_fem_l	vasti_l	gastroc_l	soleus_l	dorsiflexors_l
      0.23000000	      3.31056425	      0.99492817	    218.55685291	    143.28505934	    144.08545702	    279.59479533	    169.41123507	    290.07570244	      2.08957619	    103.36189531	     24.36608811	    175.50551785	    165.80408681	     23.32616389	     14.61470867	     15.88941919	    195.45506836	      1.28316598
      0.24000000	      3.34565707	      0.91855020	    221.04913312	    143.46988247	    140.41235584	    294.67661419	    168.17018665	    293.37629929	      2.03234505	     98.26735381	     24.47995344	    175.84858955	    165.11826580	     23.61639433	     14.32875453	     13.22085602	    190.32108547	      1.27505010
      0.25000000	      3.40294026	      0.86251139	    223.07585328	    143.73317049	    136.74002982	    306.00294312	    147.29018079	    249.73936401	      1.85018119	     93.10822534	     24.82744487	    174.34037237	    164.96596473	     23.60639069	     13.85544601	     11.44154014	    188.70043735	      1.27342240
      0.26000000	      3.51508527	      0.82111894	    225.74676438	    143.52031223	    132.69073424	    314.19380890	    121.32092583	    195.14468450	      1.56588615	     89.18291712	     25.06251535	    175.57864004	    163.75175614	     22.68532534	     13.43120722	     10.11376077	    186.23318532	      1.27067808
      0.27000000	      3.64206582	      0.79523240	    226.59638100	    144.08222410	    129.20345891	    319.13539695	    129.59611488	    213.95391882	      1.54703161	     83.32575060	     25.09625446	    175.25963634	    163.07218506	     22.73046811	     13.23210409	      9.57323264	    185.13997134	      1.26993760
      0.28000000	      3.81236341	      0.77895556	    227.59954966	    144.32572227	    125.80209060	    321.85473801	    122.62104644	    201.08965858	      1.44305117	     78.07042006	     25.41495351	    173.64021036	    162.73215018	     21.75308252	     12.76189558	      8.67963623	    182.83814898	      1.26717704
      0.29000000	      4.02714574	      0.76881377	    228.50791397	    144.40523706	    122.74842571	    323.15981642	    116.49913814	    193.90408716	      1.36347378	     73.14636878	     25.44017321	    174.72519855	    161.44156046	     21.23536495	     12.55550775	      8.35351935	    182.80514447	      1.26791144
      0.30000000	      4.30219953	      0.76548477	    229.53987900	    144.18259740	    119.59943492	    323.08257377	    108.29628169	    185.88878746	      1.29712108	     68.79359157	     25.47121772	    176.06274966	    160.09389225	     20.22908300	     12.35146706	      8.04525424	    181.94631128	      1.26701717
      0.31000000	      4.62755155	      0.77290089	    228.87563463	    144.64890879	    116.89460890	    320.91928945	    105.52779028	    191.28970823	      1.27622268	     64.12224660	     25.67182134	    174.30285041	    159.86658133	     18.52972605	     11.99681128	      7.49252505	    178.58561971	      1.26189742
      0.32000000	      5.03378265	      0.78389316	    229.18115225	    144.34353511	    113.99749314	    318.30825220	     95.97696645	    180.09422044	      1.23644619	     60.26389696	     25.70394562	    175.70211996	    158.46999199	     16.79398097	     11.76151469	      7.17346368	    176.04135256	      1.25880283
      0.33000000	      5.54836252	      0.80161043	    228.87069227	    144.11738611	    111.01671317	    314.55145420	     83.58633060	    162.85968966	      1.19555253	     57.28511891	     25.68080989	    177.26803855	    157.20136060	     15.74166433	     11.63041218	      7.01739485	    174.67443432	      1.25732242
      0.34000000	      6.11668420	      0.83208673	    225.99982526	    145.13286135	    109.01962347	    308.60466096	     81.96079078	    163.37126539	      1.19816392	     53.22312994	     25.85891569	    174.47002083	    157.42283033	     14.43823887	     11.34255921	      6.54338578	    169.82355153	      1.25039100
      0.35000000	      6.88205709	      0.86548771	    225.77799893	    144.47321878	    105.56967536	    302.74312703	     72.69189477	    141.18820356	      1.16557968	     50.58494734	     25.79966155	    176.87602655	    155.82172036	     13.49813296	     11.23962297	      6.38093131	    166.09716844	      1.24580792
      0.36000000	      7.84255330	      0.91295047	    223.60332195	    144.69976910	    102.29614118	    294.55909680	     69.47328014	    130.27791387	      1.15832252	     48.17000936	     25.80120129	    177.21497503	    155.10783955	     12.79538832	     11.12705894	      6.14331313	    160.47488349	      1.23838235
      0.37000000	      9.02443165	      0.97286583	    220.14095772	    145.58039813	     99.72993264	    284.88425396	     67.52338920	    117.05010076	      1.14574225	     45.20146360	     25.98864877	    174.57866076	    155.41871361	     11.96193053	     10.89259007	      5.71196924	    153.27730300	      1.22914235
      0.38000000	     10.72257107	      1.05153693	    216.29977202	    146.65345642	     96.53824230	    272.64143369	     72.32465081	    116.21804118	      1.15719711	     42.10865754	     25.82499077	    174.69435217	    154.68828990	     11.49713795	     10.87362679	      5.76292857	    151.24345733	      1.22915061
      0.39000000	     13.71995639	      1.14720181	    214.07974218	    146.86527218	     92.50324756	    259.06317931	     73.45662753	    103.53924788	      1.13638862	     39.43644922	     25.92431877	    174.16854948	    154.25660068	     11.29916936	     10.75818558	      5.43941232	    143.29183549	      1.21782351
      0.40000000	     19.79948603	      1.26753961	    211.97881868	    146.93384117	     87.56398214	    242.89948064	     71.07305979	     88.25157330	      1.12413193	     37.56013779	     25.99746083	    174.50918445	    153.50627680	     10.56236276	     10.60153859	      5.18869125	    136.35515930	      1.21121542
      0.41000000	     30.70047926	      1.42839361	    206.79294598	    148.83819504	     84.19636103	    223.14642232	     79.46579542	     89.57131269	      1.13179914	     34.62507841	     25.89444501	    172.58037362	    153.63535307	     10.58953085	     10.60513596	      5.08842700	    129.25747337	      1.20249665
      0.42000000	     48.45472855	      1.63451418	    206.73409610	    148.05466076	     78.13426677	    201.78250654	     77.77181619	     77.48409537	      1.11776986	     32.98847120	     25.98235822	    174.40161731	    152.33892050	     10.16788406	     10.48188471	      4.86107653	    121.22723272	      1.19542030
      0.43000000	     71.49878715	      1.96323120	    199.11435757	    151.37178150	     75.26133402	    175.53398335	     85.99404959	     80.43305863	      1.12788200	     30.21912833	     25.87654177	    170.48338932	    153.27534882	     10.28801720	     10.49714600	      4.80071791	    114.98935203	      1.18849340
      0.44000000	     96.88705478	      2.53638397	    200.41879711	    150.43462769	     69.06968820	    148.39422295	     73.39548598	     72.82263407	      1.11636941	     28.14506628	     25.93206991	    172.79370374	    151.68772663	     10.21637496	     10.42626540	      4.63083076	    106.75549477	      1.18167277
      0.45000000	    121.60608721	      3.65968089	    192.85906163	    153.83452785	     65.54853730	    118.32503352	     75.57172907	     77.02889539	      1.12895550	     25.97419847	     25.81220213	    169.14967199	    152.60585713	     10.42651519	     10.46455002	      4.56821504	    100.06782527	      1.17366267
      0.46000000	    142.13081190	      5.68259278	    195.15628485	    152.96809219	     58.96876127	     89.53800588	     66.47917940	     73.94147628	      1.12019644	     23.69863344	     25.81239457	    171.78394499	    150.82440069	     10.77277063	     10.46352399	      4.44185153	     90.60149007	      1.16566681
      0.47000000	    156.63759954	      8.72685654	    186.64379895	    156.93449465	     53.16374599	     62.86486458	     60.43497330	     79.10125720	      1.13514865	     21.87164968	     25.73952853	    166.84118670	    152.29890969	     11.13361000	     10.50036157	      4.47001849	     87.44853994	      1.16436327
      0.48000000	    167.08416989	     12.64102737	    189.54503472	    156.40148547	     43.88185181	     41.89934749	     47.31432353	     82.39020209	      1.13216671	     19.23153898	     25.66919287	    169.01213191	    150.49859106	     11.99872994	     10.56636758	      4.37028610	     78.45113981	      1.15475045
      0.49000000	    173.74260269	     16.56959979	    185.01953798	    158.52837533	     32.52540251	     28.26213489	     34.71059241	     85.52566001	      1.14242577	     18.25071232	     25.63823659	    166.61912137	    151.15184549	     12.52654572	     10.61141862	      4.39637896	     75.47820545	      1.15403048
      0.50000000	    171.79230978	     20.35638286	    179.53402715	    162.09065469	     22.28350615	     19.97132522	     25.39395126	    101.83085206	      1.16066736	     14.82138599	     25.47979971	    161.35395856	    151.79813302	     14.28643289	     10.74989279	      4.37944478	     68.32849386	      1.14601495
      0.51000000	    186.20903892	     22.75196042	    197.50540983	    154.14248152	     11.43305196	     16.70064047	     14.42441018	     93.96115360	      1.14138544	     15.62941372	     25.37071050	    175.83312084	    146.24674870	     15.18285721	     10.89342513	      4.33673621	     61.99490817	      1.13784471
      0.52000000	    171.56945878	     24.92196780	    176.66223649	    163.96227656	      7.11172120	     14.19662330	     12.32052033	    124.75225611	      1.19920820	     12.85268063	     25.20423318	    159.39698515	    151.83462458	     17.91706933	     11.09494255	      4.22154051	     51.71576443	      1.12457179
      0.53000000	    170.99557491	     25.98052310	    181.95084472	    162.68598805	      5.10960545	     13.02001920	      9.89670126	    150.65170467	      1.21874555	     11.26497807	     25.08462520	    160.72801800	    150.25595749	     21.36808897	     11.30597941	      4.32096631	     47.00364997	      1.12317170
      0.54000000	    173.64947585	     26.37875190	    189.78275258	    159.82959182	      4.15462520	     12.28170397	      8.09205068	    158.22347357	      1.21782456	     10.67612503	     24.94448348	    164.94213284	    148.12507964	     24.84000298	     11.54166148	      4.33211733	     41.69117007	      1.11724944
      0.55000000	    169.23962296	     26.50778701	    189.93658771	    160.19669815	      3.84455465	     11.71640212	      7.51600118	    172.04739509	      1.23293890	      9.76111345	     24.74067530	    163.60850856	    148.01828053	     29.77448124	     11.85417194	      4.46126454	     38.18433992	      1.11486163
      0.56000000	    162.64122109	     26.45443580	    188.08349069	    161.35115088	      3.74755214	     11.37374741	      7.64948236	    192.60418466	      1.26331101	      8.86830827	     24.42462035	    161.47590944	    148.21125860	     36.50246289	     12.28594312	      4.64091186	     35.20502519	      1.11178474
      0.57000000	    161.91346483	     25.90673194	    195.10434835	    158.73907092	      3.70470676	     11.42977185	      7.41978714	    192.51395436	      1.25236001	      8.32539411	     24.19201445	    163.59007200	    146.75408800	     44.83792008	     12.74655254	      5.04094036	     35.66536902	      1.11788982
      0.58000000	    158.49410114	     25.66206774	    195.06054943	    158.87776672	      3.70036907	     11.41286975	      7.90038958	    205.22110224	      1.27546961	      7.85900057	     23.90878988	    163.31965406	    146.50695609	     53.68578539	     13.26448025	      5.23884546	     34.87693102	      1.11404296
      0.59000000	    151.24279131	     25.40393667	    192.59403220	    160.24275513	      3.81217722	     11.41558707	      8.85061267	    236.74215519	      1.32692074	      7.19590900	     23.45885467	    161.50649771	    146.55367845	     65.14953614	     13.99349490	      5.61853243	     33.36698836	      1.11340285
      0.60000000	    151.26260312	     24.60688938	    199.36916506	    157.45106933	      4.08332401	     11.97479774	      9.35917076	    228.46061895	      1.30898693	      6.93139017	     23.14119198	    163.95374565	    145.27219173	     72.35422074	     14.54485483	      6.36301132	     37.60798261	      1.12556009
      0.61000000	    145.67084820	     24.24388730	    197.52883287	    158.38677262	      4.46338084	     12.40370857	     10.83749450	    252.94524670	      1.35525074	      6.46252313	     22.60573471	    163.13136435	    145.19436437	     80.92537905	     15.28568404	      7.06503828	     40.58617923	      1.12953670
      0.62000000	    143.37744189	     23.62262308	    200.02712331	    157.39063464	      5.01749185	     13.14752788	     12.40504492	    257.59789895	      1.36618286	      6.14572925	     22.01283550	    164.92313327	    144.26820093	     89.27330243	     16.13977683	      8.25214862	     48.24336536	      1.14455286
      0.63000000	    139.72050884	     23.15274270	    199.77290090	    157.57974169	      5.78481820	     13.97772858	     15.09139238	    268.86168311	      1.39290093	      5.79679789	     21.30211297	    165.90439674	    143.74134410	     97.60834033	     17.14749073	      9.77331913	     59.43217974	      1.16037985
      0.64000000	    136.95091015	     22.63371298	    200.39647415	    157.38019553	      6.53167160	     14.71562653	     19.23365380	    271.78936981	      1.40450288	      5.49264462	     20.45648379	    167.88709322	    142.98337262	    105.59431772	     18.36633047	     12.11053604	     77.70077177	      1.18594707
      0.65000000	    136.76968518	     22.03762537	    203.33846311	    156.10694957	      7.56269943	     15.57858138	     26.67020628	    272.22854643	      1.41242522	      5.28664369	     19.54014070	    171.59760754	    141.72844152	    112.37360279	     19.77443301	     16.75891400	    111.51441207	      1.23079690
      0.66000000	    131.34485284	     21.76088466	    198.99699078	    158.05405670	      9.10127579	     16.25481687	     35.35673855	    266.45310711	      1.40542691	      4.94834839	     18.26069119	    172.95268509	    141.67509242	    120.23944151	     21.71447684	     29.84446652	    154.97776652	      1.27474751
      0.67000000	    134.53554582	     21.32641583	    203.98882053	    155.92940026	     11.24749958	     17.01437086	     42.92972716	    247.76949420	      1.37205962	      4.81503453	     16.74169403	    180.48471864	    139.16551135	    126.91651590	     24.37287189	     64.58418484	    207.78746532	      1.34071516
      0.68000000	    131.90172972	     20.97502030	    201.98168283	    156.77719387	     14.06394322	     17.74384731	     47.79131869	    236.57193741	      1.34499699	      4.62697151	     15.18379140	    183.56838413	    139.20154426	    132.28708812	     27.99867451	    126.55639605	    269.06816775	      1.42947952
      0.69000000	    124.25013460	     20.93926907	    194.34675480	    160.20289987	     18.27815209	     18.15372096	     50.20082317	    226.91302414	      1.32277435	      4.27983756	     13.34409457	    183.73324021	    140.19482082	    138.22470599	     33.63692676	    189.96579688	    323.95361491	      1.54290566
      0.70000000	    129.48731740	     20.65817210	    201.10562297	    157.41373542	     22.09141236	     18.70132586	     46.27719888	    200.83411885	      1.26922144	      4.24546163	     11.13085281	    193.87923867	    137.07207302	    143.16571124	     43.24038561	    236.94051006	    365.69502685	      1.68092827
      0.71000000	    123.92981934	     20.64135653	    195.17596450	    160.01578672	     26.38807758	     18.98679426	     42.34956206	    190.66624877	      1.24584615	      4.03296213	      8.98397817	    195.55575913	    138.28807750	    147.39482483	     58.20915981	    257.20703178	    386.36685188	      1.80814059
      0.72000000	    119.01757805	     20.84054506	    189.94779881	    162.29512729	     30.62601273	     18.95229264	     35.70234200	    175.22922142	      1.21762786	      3.84159683	      6.93428827	    197.50417063	    139.13332945	    150.67619899	     78.95065902	    269.83766433	    407.38176815	      1.97928099
      0.73000000	    120.75053936	     20.80036664	    194.38985804	    160.60353286	     33.70104079	     19.07263320	     28.74626168	    153.38474740	      1.18282551	      3.82266323	      4.98739409	    205.54953618	    137.20086013	    152.55473007	    106.31933720	    274.48523387	    417.19841317	      2.12845760
      0.74000000	    111.18203641	     21.28959097	    182.49962375	    165.34354449	     36.77975429	     18.60837524	     23.83392424	    149.17845535	      1.18351298	      3.59536409	      3.52070122	    202.94516864	    140.70684625	    153.97497971	    136.63193137	    261.69760782	    397.85765449	      2.17444457
      0.75000000	    112.06344160	     21.42050065	    188.90100200	    162.87867456	     38.65651787	     18.40349343	     19.35298338	    132.69810764	      1.16146730	      3.60910281	      2.44192555	    211.34662458	    138.23969118	    153.22785772	    168.67390839	    253.95905152	    391.87548335	      2.21409196
      0.76000000	    114.42314835	     21.38713373	    194.73748576	    160.55033436	     39.28106547	     18.42332103	     14.85253805	    107.35171820	      1.13095865	      3.74045951	      1.75020149	    220.07133210	    136.37276142	    150.32450399	    201.22610173	    253.78767805	    404.75006681	      2.34147189
      0.77000000	     89.52140413	     22.72264121	    159.03623486	    173.57536364	     41.87493165	     16.91396838	     14.14696328	    124.78933795	      1.17619763	      3.24139588	      1.46189257	    198.99552896	    148.39542254	    152.29803018	    224.21089532	    197.69204916	    305.42091357	      2.06917961
