Length
version=1
nRows=55
nColumns=19
inDegrees=no

This analysis gathers basic information about muscles during a simulation (e.g., forces, tendon lengths, moment arms, etc).
Units are S.I. units (second, meters, Newtons, ...)
If the header above contains a line with 'inDegrees', this indicates whether rotational values are in degrees (yes) or radians (no).

endheader
time	hamstrings_r	bifemsh_r	glut_max_r	iliopsoas_r	rect_fem_r	vasti_r	gastroc_r	soleus_r	dorsiflexors_r	hamstrings_l	bifemsh_l	glut_max_l	iliopsoas_l	rect_fem_l	vasti_l	gastroc_l	soleus_l	dorsiflexors_l
      0.23000000	      0.43458231	      0.22591994	      0.23130053	      0.28430991	      0.52060363	      0.23238251	      0.39250910	      0.25995462	      0.30127053	      0.48217305	      0.25811975	      0.24302822	      0.28175671	      0.47822697	      0.19980612	      0.41336489	      0.27091816	      0.29092262
      0.24000000	      0.43431435	      0.22371771	      0.23331290	      0.28362519	      0.52134719	      0.23364400	      0.39377770	      0.26071805	      0.30063168	      0.48081940	      0.25853767	      0.24117521	      0.28242067	      0.47826135	      0.19914459	      0.41431307	      0.27130162	      0.29068429
      0.25000000	      0.43427888	      0.22170945	      0.23530031	      0.28293929	      0.52189007	      0.23474226	      0.39493444	      0.26135591	      0.30010103	      0.47943297	      0.25890127	      0.23934212	      0.28306949	      0.47834263	      0.19855323	      0.41507907	      0.27156288	      0.29052404
      0.26000000	      0.43457122	      0.21991465	      0.23734716	      0.28222266	      0.52221448	      0.23568356	      0.39704835	      0.26295936	      0.29878080	      0.47823017	      0.25936858	      0.23752753	      0.28370404	      0.47820624	      0.19776952	      0.41595357	      0.27177075	      0.29039781
      0.27000000	      0.43516274	      0.21837383	      0.23939347	      0.28149566	      0.52233538	      0.23646246	      0.39907503	      0.26451251	      0.29752283	      0.47707107	      0.25971979	      0.23589546	      0.28426829	      0.47816872	      0.19716147	      0.41659914	      0.27189894	      0.29032053
      0.28000000	      0.43601012	      0.21712808	      0.24136878	      0.28078373	      0.52227425	      0.23707306	      0.40089435	      0.26592522	      0.29639899	      0.47592882	      0.26011682	      0.23419832	      0.28484865	      0.47804090	      0.19645268	      0.41731773	      0.27201490	      0.29025100
      0.29000000	      0.43715062	      0.21614988	      0.24334414	      0.28006165	      0.52203582	      0.23754087	      0.40274940	      0.26744463	      0.29521517	      0.47487154	      0.26048060	      0.23261517	      0.28538423	      0.47790143	      0.19578178	      0.41795684	      0.27208489	      0.29020921
      0.30000000	      0.43855952	      0.21543472	      0.24530658	      0.27933410	      0.52163716	      0.23787652	      0.40448941	      0.26892881	      0.29408743	      0.47390912	      0.26079273	      0.23118644	      0.28586286	      0.47766260	      0.19512708	      0.41850842	      0.27213392	      0.29018001
      0.31000000	      0.44026350	      0.21499955	      0.24727099	      0.27859550	      0.52107143	      0.23807818	      0.40605519	      0.27033194	      0.29305126	      0.47303647	      0.26107724	      0.22987649	      0.28629782	      0.47729155	      0.19445033	      0.41903623	      0.27219082	      0.29014621
      0.32000000	      0.44217221	      0.21487111	      0.24913496	      0.27788499	      0.52037209	      0.23813732	      0.40722350	      0.27144645	      0.29225186	      0.47218831	      0.26138983	      0.22853822	      0.28673841	      0.47682885	      0.19369877	      0.41967085	      0.27229231	      0.29008614
      0.33000000	      0.44440420	      0.21496075	      0.25108595	      0.27713109	      0.51950531	      0.23809606	      0.40847510	      0.27271970	      0.29136758	      0.47152874	      0.26160847	      0.22752505	      0.28706946	      0.47651298	      0.19316790	      0.42011788	      0.27235747	      0.29004773
      0.34000000	      0.44677609	      0.21536889	      0.25287230	      0.27643151	      0.51852896	      0.23790716	      0.40929380	      0.27367376	      0.29072757	      0.47084485	      0.26185165	      0.22644176	      0.28742108	      0.47613356	      0.19257227	      0.42066005	      0.27246423	      0.28998504
      0.35000000	      0.44933621	      0.21602990	      0.25459485	      0.27574842	      0.51742948	      0.23759755	      0.40992273	      0.27452280	      0.29017598	      0.47020587	      0.26206615	      0.22544114	      0.28774374	      0.47579794	      0.19204221	      0.42118142	      0.27259170	      0.28991061
      0.36000000	      0.45216211	      0.21693415	      0.25632867	      0.27505232	      0.51617092	      0.23716662	      0.41048417	      0.27537834	      0.28963882	      0.46970758	      0.26223168	      0.22465839	      0.28799473	      0.47553265	      0.19163011	      0.42164527	      0.27274370	      0.28982246
      0.37000000	      0.45509269	      0.21812850	      0.25788931	      0.27441835	      0.51480772	      0.23658404	      0.41072576	      0.27599706	      0.28926291	      0.46917202	      0.26240720	      0.22381572	      0.28826358	      0.47524573	      0.19119012	      0.42218510	      0.27294552	      0.28970645
      0.38000000	      0.45809682	      0.21958755	      0.25926875	      0.27385210	      0.51334854	      0.23585113	      0.41081744	      0.27652650	      0.28895016	      0.46860116	      0.26258395	      0.22292785	      0.28854533	      0.47495739	      0.19074384	      0.42272135	      0.27313593	      0.28959808
      0.39000000	      0.46120614	      0.22134600	      0.26046087	      0.27335825	      0.51176495	      0.23493589	      0.41050818	      0.27671353	      0.28884172	      0.46799165	      0.26266900	      0.22213694	      0.28879503	      0.47490829	      0.19052794	      0.42304582	      0.27328902	      0.28951173
      0.40000000	      0.46451874	      0.22329326	      0.26163845	      0.27286632	      0.51001441	      0.23388017	      0.41073276	      0.27743142	      0.28843590	      0.46751868	      0.26284148	      0.22135144	      0.28904184	      0.47458976	      0.19008768	      0.42367973	      0.27357194	      0.28935401
      0.41000000	      0.46791540	      0.22554518	      0.26259194	      0.27246498	      0.50811521	      0.23260153	      0.41036426	      0.27757889	      0.28835465	      0.46698134	      0.26292087	      0.22063966	      0.28926447	      0.47452645	      0.18988396	      0.42404346	      0.27376886	      0.28924568
      0.42000000	      0.47135454	      0.22797716	      0.26338615	      0.27212862	      0.50608656	      0.23114731	      0.41033999	      0.27802559	      0.28811308	      0.46643798	      0.26303307	      0.21986502	      0.28950570	      0.47437394	      0.18959482	      0.42461689	      0.27410141	      0.28906550
      0.43000000	      0.47499105	      0.23064649	      0.26409405	      0.27182722	      0.50382323	      0.22945770	      0.40999521	      0.27810453	      0.28807111	      0.46597896	      0.26309262	      0.21926421	      0.28969203	      0.47433542	      0.18944079	      0.42494832	      0.27430253	      0.28895825
      0.44000000	      0.47834939	      0.23351041	      0.26434026	      0.27172204	      0.50152491	      0.22752755	      0.41052362	      0.27833098	      0.28795197	      0.46525286	      0.26315412	      0.21836181	      0.28997067	      0.47435768	      0.18928130	      0.42544019	      0.27465176	      0.28877515
      0.45000000	      0.48212091	      0.23648328	      0.26478019	      0.27153364	      0.49886305	      0.22538327	      0.41045886	      0.27836878	      0.28793227	      0.46485786	      0.26318726	      0.21786904	      0.29012221	      0.47436865	      0.18919517	      0.42572204	      0.27485541	      0.28867027
      0.46000000	      0.48530793	      0.23962407	      0.26450489	      0.27165160	      0.49624705	      0.22294206	      0.41061628	      0.27835651	      0.28793866	      0.46398469	      0.26318859	      0.21689175	      0.29042150	      0.47458350	      0.18919171	      0.42615542	      0.27526477	      0.28846373
      0.47000000	      0.48903374	      0.24271424	      0.26466573	      0.27158272	      0.49318839	      0.22033318	      0.41111297	      0.27837853	      0.28792720	      0.46364199	      0.26318836	      0.21650754	      0.29053871	      0.47466859	      0.18919231	      0.42634520	      0.27544542	      0.28837445
      0.48000000	      0.49173522	      0.24593007	      0.26376068	      0.27196934	      0.49030051	      0.21736183	      0.41166084	      0.27808435	      0.28808182	      0.46252010	      0.26314525	      0.21531225	      0.29090176	      0.47505752	      0.18930432	      0.42662848	      0.27579787	      0.28820364
      0.49000000	      0.49521139	      0.24886590	      0.26371819	      0.27198743	      0.48695464	      0.21440290	      0.41284614	      0.27813042	      0.28805740	      0.46223642	      0.26310423	      0.21505814	      0.29097863	      0.47523668	      0.18941071	      0.42674991	      0.27599222	      0.28811139
      0.50000000	      0.49717053	      0.25186078	      0.26224363	      0.27261191	      0.48403651	      0.21110875	      0.41381131	      0.27755238	      0.28836920	      0.46085842	      0.26302465	      0.21361632	      0.29141284	      0.47577485	      0.18961658	      0.42690812	      0.27629470	      0.28797063
      0.51000000	      0.50005712	      0.25438663	      0.26198243	      0.27272184	      0.48080629	      0.20808732	      0.41550609	      0.27755812	      0.28836605	      0.46051645	      0.26290709	      0.21341882	      0.29147207	      0.47617181	      0.18991937	      0.42694915	      0.27655656	      0.28785158
      0.52000000	      0.50220913	      0.25670194	      0.26125610	      0.27302650	      0.47793510	      0.20512209	      0.41690511	      0.27708148	      0.28863163	      0.45981273	      0.26275676	      0.21285730	      0.29164011	      0.47673639	      0.19030432	      0.42717225	      0.27704838	      0.28763525
      0.53000000	      0.50318577	      0.25878024	      0.25971907	      0.27366604	      0.47566263	      0.20226797	      0.41794950	      0.27613003	      0.28918357	      0.45844309	      0.26256731	      0.21158193	      0.29202003	      0.47754731	      0.19078600	      0.42724233	      0.27746216	      0.28746079
      0.54000000	      0.50442000	      0.26039240	      0.25888845	      0.27400876	      0.47352888	      0.19984902	      0.41928861	      0.27565160	      0.28947145	      0.45757318	      0.26236647	      0.21089863	      0.29222260	      0.47826892	      0.19129250	      0.42726240	      0.27784213	      0.28730685
      0.55000000	      0.50527481	      0.26167329	      0.25808433	      0.27433863	      0.47174181	      0.19773286	      0.42045926	      0.27519140	      0.28975451	      0.45666479	      0.26212248	      0.21023613	      0.29241837	      0.47910371	      0.19190228	      0.42717068	      0.27818455	      0.28717341
      0.56000000	      0.50575953	      0.26263141	      0.25732431	      0.27464868	      0.47030836	      0.19596655	      0.42134952	      0.27473846	      0.29003875	      0.45570191	      0.26182612	      0.20958993	      0.29260876	      0.48007487	      0.19263506	      0.42694085	      0.27847542	      0.28706408
      0.57000000	      0.50574110	      0.26329885	      0.25646919	      0.27499552	      0.46892489	      0.19435769	      0.42180363	      0.27419238	      0.29038853	      0.45455586	      0.26145282	      0.20884567	      0.29282735	      0.48126544	      0.19354626	      0.42645061	      0.27863313	      0.28700639
      0.58000000	      0.50586560	      0.26360118	      0.25619374	      0.27510680	      0.46822257	      0.19361553	      0.42221828	      0.27412531	      0.29043201	      0.45370870	      0.26106709	      0.20847135	      0.29293703	      0.48240714	      0.19447461	      0.42576711	      0.27860775	      0.28701560
      0.59000000	      0.50533779	      0.26385129	      0.25540909	      0.27542259	      0.46790900	      0.19299489	      0.42177597	      0.27330171	      0.29097471	      0.45248594	      0.26058124	      0.20780300	      0.29313243	      0.48378326	      0.19559233	      0.42519157	      0.27881424	      0.28694151
      0.60000000	      0.50482439	      0.26377555	      0.25505423	      0.27556482	      0.46829832	      0.19318349	      0.42132660	      0.27298885	      0.29118497	      0.45143261	      0.26004397	      0.20741367	      0.29324602	      0.48479618	      0.19658452	      0.42414336	      0.27861891	      0.28701154
      0.61000000	      0.50405428	      0.26352600	      0.25469528	      0.27570833	      0.46917508	      0.19380089	      0.42038721	      0.27247395	      0.29153568	      0.45028502	      0.25944035	      0.20700853	      0.29336403	      0.48588643	      0.19764664	      0.42296986	      0.27836048	      0.28710684
      0.62000000	      0.50314741	      0.26311702	      0.25441655	      0.27581951	      0.47044279	      0.19479995	      0.41927954	      0.27202705	      0.29184458	      0.44912093	      0.25872425	      0.20675540	      0.29343768	      0.48709345	      0.19884305	      0.42150446	      0.27792990	      0.28727216
      0.63000000	      0.50208995	      0.26256095	      0.25418576	      0.27591141	      0.47206168	      0.19613375	      0.41793198	      0.27153423	      0.29218986	      0.44791901	      0.25790879	      0.20660397	      0.29348170	      0.48839058	      0.20013319	      0.41977695	      0.27731638	      0.28752145
      0.64000000	      0.50092109	      0.26192018	      0.25395458	      0.27600330	      0.47336021	      0.19730016	      0.41661882	      0.27114814	      0.29246362	      0.44668218	      0.25695166	      0.20662262	      0.29347628	      0.48982197	      0.20156611	      0.41779307	      0.27655270	      0.28785332
      0.65000000	      0.49973481	      0.26116256	      0.25384325	      0.27604750	      0.47475295	      0.19860114	      0.41523838	      0.27079479	      0.29271657	      0.44548551	      0.25587745	      0.20685973	      0.29340733	      0.49133756	      0.20309200	      0.41542695	      0.27546168	      0.28836647
      0.66000000	      0.49853975	      0.26037346	      0.25375116	      0.27608404	      0.47612753	      0.19987887	      0.41408386	      0.27063522	      0.29283153	      0.44430447	      0.25463503	      0.20736051	      0.29326151	      0.49300626	      0.20477782	      0.41276229	      0.27414526	      0.28904200
      0.67000000	      0.49720956	      0.25962686	      0.25347614	      0.27619301	      0.47746572	      0.20102643	      0.41320822	      0.27063761	      0.29282981	      0.44300438	      0.25315185	      0.20806242	      0.29305665	      0.49492947	      0.20670474	      0.40998114	      0.27280091	      0.28978946
      0.68000000	      0.49634024	      0.25884753	      0.25364063	      0.27612786	      0.47860193	      0.20217133	      0.41269422	      0.27097493	      0.29258734	      0.44205324	      0.25147756	      0.20944653	      0.29265093	      0.49693724	      0.20878108	      0.40686186	      0.27111788	      0.29079803
      0.69000000	      0.49488699	      0.25820607	      0.25311208	      0.27633693	      0.47982367	      0.20308008	      0.41232397	      0.27126442	      0.29238088	      0.44068348	      0.24964859	      0.21050818	      0.29233805	      0.49910510	      0.21093488	      0.40377973	      0.26939193	      0.29190590
      0.70000000	      0.49372417	      0.25765372	      0.25272987	      0.27648762	      0.48082245	      0.20384259	      0.41239678	      0.27186801	      0.29195549	      0.43950483	      0.24756387	      0.21212265	      0.29185925	      0.50136669	      0.21324232	      0.40043955	      0.26736016	      0.29329180
      0.71000000	      0.49272030	      0.25717493	      0.25239798	      0.27661814	      0.48167703	      0.20449114	      0.41264213	      0.27254855	      0.29148452	      0.43844669	      0.24525755	      0.21412658	      0.29125956	      0.50365002	      0.21563107	      0.39747591	      0.26557093	      0.29457461
      0.72000000	      0.49139084	      0.25689491	      0.25153581	      0.27695575	      0.48248042	      0.20486580	      0.41311422	      0.27325693	      0.29100467	      0.43720860	      0.24288505	      0.21593211	      0.29071379	      0.50585696	      0.21793095	      0.39462804	      0.26367297	      0.29598952
      0.73000000	      0.49024528	      0.25672855	      0.25070027	      0.27728096	      0.48310002	      0.20508684	      0.41377480	      0.27404249	      0.29048585	      0.43616231	      0.24037147	      0.21806827	      0.29006100	      0.50793914	      0.22020272	      0.39217754	      0.26196773	      0.29730156
      0.74000000	      0.48911154	      0.25668092	      0.24973040	      0.27765602	      0.48360288	      0.20514993	      0.41452740	      0.27481120	      0.28999273	      0.43521730	      0.23779846	      0.22030638	      0.28936839	      0.50984187	      0.22236637	      0.39024112	      0.26054385	      0.29842285
      0.75000000	      0.48763305	      0.25685880	      0.24817056	      0.27825378	      0.48403145	      0.20491388	      0.41519815	      0.27530349	      0.28968503	      0.43407475	      0.23526368	      0.22218769	      0.28877905	      0.51159906	      0.22435848	      0.38925984	      0.25984250	      0.29898292
      0.76000000	      0.48705411	      0.25689220	      0.24759975	      0.27847087	      0.48422918	      0.20486940	      0.41614598	      0.27618683	      0.28914984	      0.43387595	      0.23260299	      0.22516928	      0.28783105	      0.51301595	      0.22631983	      0.38823507	      0.25889145	      0.29974994
      0.77000000	      0.48556927	      0.25723897	      0.24580975	      0.27914590	      0.48448404	      0.20440499	      0.41685374	      0.27655859	      0.28893147	      0.43308054	      0.23021475	      0.22708602	      0.28721226	      0.51432252	      0.22797901	      0.38811796	      0.25866200	      0.29993623
