PennationAngle
version=1
nRows=55
nColumns=19
inDegrees=no

This analysis gathers basic information about muscles during a simulation (e.g., forces, tendon lengths, moment arms, etc).
Units are S.I. units (second, meters, Newtons, ...)
If the header above contains a line with 'inDegrees', this indicates whether rotational values are in degrees (yes) or radians (no).

endheader
time	hamstrings_r	bifemsh_r	glut_max_r	iliopsoas_r	rect_fem_r	vasti_r	gastroc_r	soleus_r	dorsiflexors_r	hamstrings_l	bifemsh_l	glut_max_l	iliopsoas_l	rect_fem_l	vasti_l	gastroc_l	soleus_l	dorsiflexors_l
      0.23000000	      0.71198642	      0.60482137	      0.40238734	      0.22501101	      0.21233250	      0.41812509	      0.21239822	      0.42124650	      0.63486686	      0.33545283	      0.37764055	      0.37478883	      0.23266355	      0.38860336	      0.65125763	      0.35157185	      0.59407233	      0.95699582
      0.24000000	      0.71579843	      0.62800890	      0.39728719	      0.22625296	      0.21049331	      0.41208529	      0.21711154	      0.42865019	      0.65034914	      0.34043005	      0.37584497	      0.37898279	      0.23139822	      0.38832439	      0.65850717	      0.36106718	      0.60105490	      0.96785096
      0.25000000	      0.71630553	      0.65052956	      0.39236910	      0.22751064	      0.20917021	      0.40695946	      0.22159233	      0.43502582	      0.66370698	      0.34567705	      0.37429600	      0.38322043	      0.23017474	      0.38766635	      0.66510475	      0.36910353	      0.60589525	      0.97524235
      0.26000000	      0.71214354	      0.67185198	      0.38742328	      0.22883943	      0.20838733	      0.40266113	      0.23026855	      0.45186319	      0.69903383	      0.35035641	      0.37232295	      0.38750493	      0.22899041	      0.38877174	      0.67402275	      0.37870532	      0.60979518	      0.98111729
      0.27000000	      0.70384330	      0.69111764	      0.38259573	      0.23020310	      0.20809705	      0.39916877	      0.23923689	      0.46936788	      0.73570464	      0.35498208	      0.37085311	      0.39143688	      0.22794728	      0.38907689	      0.68108187	      0.38610388	      0.61222223	      0.98473697
      0.28000000	      0.69222952	      0.70737946	      0.37804304	      0.23155408	      0.20824373	      0.39647083	      0.24789160	      0.48641336	      0.77118888	      0.35965634	      0.36920474	      0.39560661	      0.22688409	      0.39011985	      0.68946864	      0.39466875	      0.61443233	      0.98800862
      0.29000000	      0.67709607	      0.72059803	      0.37359226	      0.23294033	      0.20881776	      0.39442712	      0.25737089	      0.50606014	      0.81159242	      0.36408896	      0.36770669	      0.39957283	      0.22591152	      0.39126387	      0.69756749	      0.40259416	      0.61577297	      0.98998179
      0.30000000	      0.65915675	      0.73052093	      0.36926847	      0.23435364	      0.20978454	      0.39297299	      0.26692952	      0.52669770	      0.85319717	      0.36821559	      0.36643055	      0.40321731	      0.22504930	      0.39323781	      0.70562465	      0.40967985	      0.61671514	      0.99136332
      0.31000000	      0.63851691	      0.73666872	      0.36503496	      0.23580575	      0.21117172	      0.39210425	      0.27614287	      0.54765528	      0.89428913	      0.37203522	      0.36527466	      0.40661444	      0.22427134	      0.39634228	      0.71411640	      0.41668400	      0.61781182	      0.99296603
      0.32000000	      0.61668496	      0.73849919	      0.36110282	      0.23721938	      0.21291170	      0.39185015	      0.28343133	      0.56539680	      0.92796665	      0.37582071	      0.36401272	      0.41014126	      0.22348868	      0.40027910	      0.72374607	      0.42540940	      0.61977608	      0.99582215
      0.33000000	      0.59275523	      0.73722089	      0.35707296	      0.23873766	      0.21510783	      0.39202738	      0.29166615	      0.58695583	      0.96730535	      0.37881559	      0.36313499	      0.41284991	      0.22290412	      0.40300944	      0.73067693	      0.43176430	      0.62104297	      0.99765437
      0.34000000	      0.56906204	      0.73144565	      0.35345798	      0.24016367	      0.21763563	      0.39284079	      0.29730879	      0.60408240	      0.99718094	      0.38196921	      0.36216350	      0.41578360	      0.22228653	      0.40633591	      0.73858298	      0.43971424	      0.62312839	      1.00065346
      0.35000000	      0.54531771	      0.72224730	      0.35003793	      0.24157230	      0.22055310	      0.39418084	      0.30178945	      0.62007385	      1.02389042	      0.38496116	      0.36131067	      0.41852846	      0.22172277	      0.40932199	      0.74573616	      0.44762127	      0.62563444	      1.00422953
      0.36000000	      0.52110280	      0.70996817	      0.34665902	      0.24302452	      0.22398858	      0.39606053	      0.30590133	      0.63694650	      1.05076434	      0.38732545	      0.36065519	      0.42069957	      0.22128616	      0.41171169	      0.75137520	      0.45488209	      0.62864568	      1.00848604
      0.37000000	      0.49797806	      0.69427061	      0.34367070	      0.24436209	      0.22783036	      0.39862879	      0.30770426	      0.64964841	      1.07007842	      0.38989751	      0.35996261	      0.42306066	      0.22082036	      0.41432612	      0.75747190	      0.46361256	      0.63268255	      1.01412277
      0.38000000	      0.47615270	      0.67586567	      0.34107027	      0.24556903	      0.23208873	      0.40190491	      0.30839380	      0.66086553	      1.08646508	      0.39267501	      0.35926775	      0.42557547	      0.22033427	      0.41698510	      0.76373699	      0.47259795	      0.63653253	      1.01942409
      0.39000000	      0.45535423	      0.65475364	      0.33885324	      0.24663122	      0.23689056	      0.40606821	      0.30607960	      0.66490729	      1.09221386	      0.39568221	      0.35893432	      0.42783942	      0.21990524	      0.41744103	      0.76679770	      0.47819258	      0.63965733	      1.02367323
      0.40000000	      0.43498322	      0.63265573	      0.33669029	      0.24769830	      0.24243063	      0.41097275	      0.30775682	      0.68081619	      1.11403400	      0.39804601	      0.35825990	      0.43011034	      0.21948280	      0.42042215	      0.77309982	      0.48948242	      0.64550178	      1.03149126
      0.41000000	      0.41579860	      0.60866103	      0.33495831	      0.24857558	      0.24873565	      0.41706454	      0.30501401	      0.68416354	      1.11846039	      0.40076416	      0.35795031	      0.43218774	      0.21910309	      0.42101950	      0.77604382	      0.49618411	      0.64962410	      1.03690400
      0.42000000	      0.39793587	      0.58447989	      0.33352870	      0.24931552	      0.25583484	      0.42420255	      0.30483503	      0.69447383	      1.13173356	      0.40354869	      0.35751360	      0.43447007	      0.21869313	      0.42246495	      0.78025281	      0.50709739	      0.65668859	      1.04598400
      0.43000000	      0.38056664	      0.55982911	      0.33226432	      0.24998224	      0.26423777	      0.43278930	      0.30231424	      0.69632297	      1.13405647	      0.40592961	      0.35728225	      0.43625583	      0.21837749	      0.42283148	      0.78250969	      0.51360686	      0.66102482	      1.05143468
      0.44000000	      0.36576201	      0.53537559	      0.33182672	      0.25021573	      0.27334035	      0.44300518	      0.30619435	      0.70167279	      1.14067838	      0.40975057	      0.35704363	      0.43896394	      0.21790717	      0.42261955	      0.78485749	      0.52355254	      0.66867101	      1.06081857
      0.45000000	      0.35039709	      0.51195916	      0.33104758	      0.25063500	      0.28467700	      0.45489470	      0.30571365	      0.70257248	      1.14177762	      0.41185778	      0.35691517	      0.44045606	      0.21765221	      0.42251525	      0.78612991	      0.52941045	      0.67319932	      1.06623923
      0.46000000	      0.33834767	      0.48917286	      0.33153473	      0.25037232	      0.29674532	      0.46917258	      0.30688471	      0.70228021	      1.14142098	      0.41658917	      0.35691001	      0.44344352	      0.21715040	      0.42048116	      0.78618110	      0.53865223	      0.68245964	      1.07700829
      0.47000000	      0.32523531	      0.46850831	      0.33124995	      0.25052566	      0.31217650	      0.48537493	      0.31063723	      0.70280467	      1.14206062	      0.41847422	      0.35691090	      0.44462842	      0.21695449	      0.41968071	      0.78617235	      0.54279143	      0.68661457	      1.08170255
      0.48000000	      0.31632534	      0.44865744	      0.33285859	      0.24966742	      0.32823929	      0.50512537	      0.31488070	      0.69584946	      1.13346331	      0.42475904	      0.35707800	      0.44835264	      0.21634990	      0.41605802	      0.78451801	      0.54907737	      0.69484390	      1.09074959
      0.49000000	      0.30553229	      0.43185952	      0.33293449	      0.24962740	      0.34895805	      0.52630267	      0.32445582	      0.69693101	      1.13481647	      0.42637639	      0.35723717	      0.44915190	      0.21622231	      0.41440901	      0.78295164	      0.55181221	      0.69945224	      1.09567106
      0.50000000	      0.29975821	      0.41589888	      0.33558902	      0.24825371	      0.36918484	      0.55184552	      0.33267739	      0.68355984	      1.11766633	      0.43439996	      0.35754636	      0.45373757	      0.21550438	      0.40952888	      0.77993481	      0.55541191	      0.70672665	      1.10322949
      0.51000000	      0.29162654	      0.40327821	      0.33606348	      0.24801340	      0.39434472	      0.57729877	      0.34812632	      0.68369061	      1.11783849	      0.43643510	      0.35800400	      0.45437253	      0.21540682	      0.40599823	      0.77553093	      0.55635240	      0.71312566	      1.10966684
      0.52000000	      0.28583788	      0.39233011	      0.33738967	      0.24734986	      0.41959197	      0.60437498	      0.36195398	      0.67298174	      1.10344992	      0.44067967	      0.35859084	      0.45618678	      0.21513048	      0.40107468	      0.76998851	      0.56151647	      0.72540557	      1.12147156
      0.53000000	      0.28328394	      0.38297248	      0.34022952	      0.24596816	      0.44183078	      0.63260915	      0.37298024	      0.65243485	      1.07420805	      0.44916579	      0.35933307	      0.46035795	      0.21450830	      0.39419745	      0.76314160	      0.56315610	      0.73600736	      1.13109029
      0.54000000	      0.28011925	      0.37600110	      0.34178340	      0.24523394	      0.46480670	      0.65837315	      0.38808902	      0.64250319	      1.05931190	      0.45471545	      0.36012310	      0.46262199	      0.21417800	      0.38826301	      0.75604621	      0.56362727	      0.74596640	      1.13965035
      0.55000000	      0.27796748	      0.37063234	      0.34330076	      0.24453129	      0.48581952	      0.68241444	      0.40228031	      0.63319255	      1.04490416	      0.46064826	      0.36108736	      0.46483688	      0.21385972	      0.38160618	      0.74764324	      0.56147975	      0.75512929	      1.14712590
      0.56000000	      0.27676157	      0.36671113	      0.34474684	      0.24387446	      0.50397744	      0.70363389	      0.41374620	      0.62425351	      1.03067483	      0.46709570	      0.36226524	      0.46701633	      0.21355110	      0.37413018	      0.73774311	      0.55616205	      0.76305543	      1.15328810
      0.57000000	      0.27680722	      0.36402604	      0.34638791	      0.24314376	      0.52271463	      0.72393228	      0.41983506	      0.61376372	      1.01349203	      0.47499071	      0.36375942	      0.46955002	      0.21319784	      0.36533791	      0.72572611	      0.54511545	      0.76740857	      1.15655398
      0.58000000	      0.27649903	      0.36282211	      0.34691971	      0.24291024	      0.53271792	      0.73362194	      0.42554371	      0.61249656	      1.01138154	      0.48098687	      0.36531580	      0.47083398	      0.21302102	      0.35726983	      0.71380888	      0.53035813	      0.76670535	      1.15603204
      0.59000000	      0.27781021	      0.36183185	      0.34844329	      0.24224993	      0.53729667	      0.74188831	      0.41945937	      0.59730045	      0.98550329	      0.48989126	      0.36729428	      0.47314272	      0.21270672	      0.34798767	      0.69988326	      0.51848210	      0.77245672	      1.16023729
      0.60000000	      0.27909726	      0.36213120	      0.34913653	      0.24195367	      0.53162229	      0.73936032	      0.41344319	      0.59170005	      0.97570811	      0.49780806	      0.36950615	      0.47449729	      0.21252444	      0.34144586	      0.68789565	      0.49805424	      0.76701439	      1.15626168
      0.61000000	      0.28104978	      0.36312078	      0.34984048	      0.24165547	      0.51923296	      0.73118210	      0.40137868	      0.58268235	      0.95965561	      0.50670399	      0.37202168	      0.47591447	      0.21233538	      0.33466382	      0.67543935	      0.47687196	      0.75990746	      1.15087421
      0.62000000	      0.28338341	      0.36475381	      0.35038898	      0.24142494	      0.50222203	      0.71825726	      0.38798279	      0.57505039	      0.94580877	      0.51602891	      0.37504859	      0.47680390	      0.21221757	      0.32745185	      0.66185734	      0.45265489	      0.74829799	      1.14158869
      0.63000000	      0.28615261	      0.36699677	      0.35084440	      0.24123472	      0.48193079	      0.70157839	      0.37278994	      0.56683778	      0.93065244	      0.52598958	      0.37855314	      0.47733745	      0.21214721	      0.32002851	      0.64772353	      0.42690175	      0.73224349	      1.12773563
      0.64000000	      0.28927538	      0.36961427	      0.35130172	      0.24104480	      0.46671767	      0.68751285	      0.35903954	      0.56054832	      0.91887349	      0.53660918	      0.38274683	      0.47727166	      0.21215587	      0.31220536	      0.63262123	      0.40053475	      0.71303074	      1.10957279
      0.65000000	      0.29251319	      0.37275543	      0.35152235	      0.24095356	      0.45136187	      0.67237332	      0.34559506	      0.55490066	      0.90817500	      0.54725811	      0.38755996	      0.47643691	      0.21226610	      0.30431574	      0.61719525	      0.37286696	      0.68699073	      1.08212333
      0.66000000	      0.29584689	      0.37608162	      0.35170507	      0.24087818	      0.43710373	      0.65804433	      0.33507217	      0.55238355	      0.90337098	      0.55814599	      0.39327193	      0.47468277	      0.21249960	      0.29606464	      0.60089826	      0.34578225	      0.65762992	      1.04717519
      0.67000000	      0.29964531	      0.37928111	      0.35225181	      0.24065366	      0.42401132	      0.64561238	      0.32749376	      0.55242098	      0.90344258	      0.57058702	      0.40030318	      0.47224410	      0.21282850	      0.28707833	      0.58317403	      0.32127809	      0.62978548	      1.01008564
      0.68000000	      0.30217924	      0.38267661	      0.35192462	      0.24078784	      0.41346074	      0.63360504	      0.32319730	      0.55776707	      0.91361896	      0.58000518	      0.40853141	      0.46750253	      0.21348286	      0.27824638	      0.56508523	      0.29750833	      0.59769115	      0.96264986
      0.69000000	      0.30650924	      0.38551503	      0.35297807	      0.24035775	      0.40265515	      0.62434567	      0.32016928	      0.56242943	      0.92241164	      0.59406110	      0.41789204	      0.46392499	      0.21399019	      0.26928639	      0.54735230	      0.27715758	      0.56764720	      0.91392548
      0.70000000	      0.31006136	      0.38799139	      0.35374362	      0.24004869	      0.39421082	      0.61675575	      0.32076042	      0.57237702	      0.94090364	      0.60664323	      0.42906547	      0.45858090	      0.21477117	      0.26052051	      0.52943440	      0.25796409	      0.53557235	      0.85774423
      0.71000000	      0.31319266	      0.39016256	      0.35441099	      0.23978162	      0.38724782	      0.61042548	      0.32276795	      0.58397374	      0.96197523	      0.61834145	      0.44209683	      0.45210479	      0.21575729	      0.25221888	      0.51197333	      0.24298959	      0.50993029	      0.81018111
      0.72000000	      0.31743485	      0.39144305	      0.35615593	      0.23909350	      0.38091179	      0.60682003	      0.32669983	      0.59649308	      0.98409958	      0.63253540	      0.45629500	      0.44641408	      0.21666252	      0.24467303	      0.49612803	      0.23012392	      0.48507831	      0.76228338
      0.73000000	      0.32118026	      0.39220758	      0.35786275	      0.23843432	      0.37615844	      0.60471021	      0.33235911	      0.61093795	      1.00877548	      0.64497515	      0.47229016	      0.43985164	      0.21775513	      0.23794870	      0.48133701	      0.22007950	      0.46458320	      0.72177740
      0.74000000	      0.32497197	      0.39242700	      0.35986371	      0.23767850	      0.37238298	      0.60411046	      0.33904110	      0.62567444	      1.03296237	      0.65657596	      0.48977089	      0.43316692	      0.21892629	      0.23211349	      0.46798786	      0.21273269	      0.44866364	      0.68987723
      0.75000000	      0.33004824	      0.39160877	      0.36312710	      0.23648356	      0.36922184	      0.60636002	      0.34521775	      0.63543873	      1.04841888	      0.67108379	      0.50819090	      0.42769347	      0.21993266	      0.22696888	      0.45629029	      0.20919114	      0.44119060	      0.67481293
      0.76000000	      0.33207788	      0.39145546	      0.36433549	      0.23605251	      0.36778061	      0.60678552	      0.35432312	      0.65363131	      1.07596933	      0.67366367	      0.52893138	      0.41928013	      0.22157069	      0.22298103	      0.44529345	      0.20561463	      0.43142136	      0.65506444
      0.77000000	      0.33739486	      0.38987083	      0.36817516	      0.23472198	      0.36593870	      0.61125984	      0.36142772	      0.66155612	      1.08745319	      0.68415489	      0.54889253	      0.41403415	      0.22265291	      0.21942392	      0.43637020	      0.20521356	      0.42912490	      0.65041601
