MomentArm_knee_angle_r
version=1
nRows=55
nColumns=19
inDegrees=no

This analysis gathers basic information about muscles during a simulation (e.g., forces, tendon lengths, moment arms, etc).
Units are S.I. units (second, meters, Newtons, ...)
If the header above contains a line with 'inDegrees', this indicates whether rotational values are in degrees (yes) or radians (no).

endheader
time	hamstrings_r	bifemsh_r	glut_max_r	iliopsoas_r	rect_fem_r	vasti_r	gastroc_r	soleus_r	dorsiflexors_r	hamstrings_l	bifemsh_l	glut_max_l	iliopsoas_l	rect_fem_l	vasti_l	gastroc_l	soleus_l	dorsiflexors_l
      0.23000000	     -0.05240693	     -0.05106481	      0.00000000	      0.00000000	      0.03198434	      0.02996726	      0.01094233	     -0.00000000	     -0.00000000	      0.00000000	      0.00000000	      0.00000000	      0.00000000	      0.00000000	      0.00000000	      0.00000000	      0.00000000	      0.00000000
      0.24000000	     -0.05211600	     -0.05157560	      0.00000000	      0.00000000	      0.03053465	      0.02883280	      0.01262824	     -0.00000000	      0.00000000	      0.00000000	      0.00000000	      0.00000000	      0.00000000	      0.00000000	      0.00000000	      0.00000000	      0.00000000	      0.00000000
      0.25000000	     -0.05175665	     -0.05196924	      0.00000000	      0.00000000	      0.02921395	      0.02779759	      0.01412532	      0.00000000	      0.00000000	      0.00000000	      0.00000000	      0.00000000	      0.00000000	      0.00000000	      0.00000000	      0.00000000	      0.00000000	      0.00000000
      0.26000000	     -0.05135892	     -0.05226255	      0.00000000	      0.00000000	      0.02803963	      0.02687126	      0.01542618	     -0.00000000	      0.00000000	      0.00000000	      0.00000000	      0.00000000	      0.00000000	      0.00000000	      0.00000000	      0.00000000	      0.00000000	      0.00000000
      0.27000000	     -0.05095921	     -0.05246994	      0.00000000	      0.00000000	      0.02703888	      0.02607482	      0.01651407	      0.00000000	      0.00000000	      0.00000000	      0.00000000	      0.00000000	      0.00000000	      0.00000000	      0.00000000	      0.00000000	      0.00000000	      0.00000000
      0.28000000	     -0.05059565	     -0.05260733	      0.00000000	      0.00000000	      0.02624029	      0.02543173	      0.01737302	      0.00000000	      0.00000000	      0.00000000	      0.00000000	      0.00000000	      0.00000000	      0.00000000	      0.00000000	      0.00000000	      0.00000000	      0.00000000
      0.29000000	     -0.05028287	     -0.05269602	      0.00000000	      0.00000000	      0.02562848	      0.02492901	      0.01803024	     -0.00000000	      0.00000000	      0.00000000	      0.00000000	      0.00000000	      0.00000000	      0.00000000	      0.00000000	      0.00000000	      0.00000000	      0.00000000
      0.30000000	     -0.05003670	     -0.05275009	      0.00000000	      0.00000000	      0.02519856	      0.02456212	      0.01849757	     -0.00000000	      0.00000000	      0.00000000	      0.00000000	      0.00000000	      0.00000000	      0.00000000	      0.00000000	      0.00000000	      0.00000000	      0.00000000
      0.31000000	     -0.04987519	     -0.05277849	      0.00000000	      0.00000000	      0.02496258	      0.02433894	      0.01876985	     -0.00000000	     -0.00000000	      0.00000000	      0.00000000	      0.00000000	      0.00000000	      0.00000000	      0.00000000	      0.00000000	      0.00000000	      0.00000000
      0.32000000	     -0.04981662	     -0.05278623	      0.00000000	      0.00000000	      0.02493585	      0.02427307	      0.01883680	      0.00000000	      0.00000000	      0.00000000	      0.00000000	      0.00000000	      0.00000000	      0.00000000	      0.00000000	      0.00000000	      0.00000000	      0.00000000
      0.33000000	     -0.04983295	     -0.05278086	      0.00000000	      0.00000000	      0.02506290	      0.02431904	      0.01875169	      0.00000000	      0.00000000	      0.00000000	      0.00000000	      0.00000000	      0.00000000	      0.00000000	      0.00000000	      0.00000000	      0.00000000	      0.00000000
      0.34000000	     -0.04995847	     -0.05275460	      0.00000000	      0.00000000	      0.02540477	      0.02452836	      0.01845552	      0.00000000	      0.00000000	      0.00000000	      0.00000000	      0.00000000	      0.00000000	      0.00000000	      0.00000000	      0.00000000	      0.00000000	      0.00000000
      0.35000000	     -0.05016425	     -0.05270573	      0.00000000	      0.00000000	      0.02591862	      0.02486744	      0.01798595	      0.00000000	      0.00000000	      0.00000000	      0.00000000	      0.00000000	      0.00000000	      0.00000000	      0.00000000	      0.00000000	      0.00000000	      0.00000000
      0.36000000	     -0.05043730	     -0.05262626	      0.00000000	      0.00000000	      0.02659983	      0.02533194	      0.01734261	      0.00000000	      0.00000000	      0.00000000	      0.00000000	      0.00000000	      0.00000000	      0.00000000	      0.00000000	      0.00000000	      0.00000000	      0.00000000
      0.37000000	     -0.05077811	     -0.05249915	      0.00000000	      0.00000000	      0.02747568	      0.02594789	      0.01649273	      0.00000000	      0.00000000	      0.00000000	      0.00000000	      0.00000000	      0.00000000	      0.00000000	      0.00000000	      0.00000000	      0.00000000	      0.00000000
      0.38000000	     -0.05115941	     -0.05231002	      0.00000000	      0.00000000	      0.02852751	      0.02670229	      0.01544179	     -0.00000000	      0.00000000	      0.00000000	      0.00000000	      0.00000000	      0.00000000	      0.00000000	      0.00000000	      0.00000000	      0.00000000	      0.00000000
      0.39000000	     -0.05156518	     -0.05203311	      0.00000000	      0.00000000	      0.02977508	      0.02761011	      0.01416117	      0.00000000	      0.00000000	      0.00000000	      0.00000000	      0.00000000	      0.00000000	      0.00000000	      0.00000000	      0.00000000	      0.00000000	      0.00000000
      0.40000000	     -0.05194418	     -0.05166454	      0.00000000	      0.00000000	      0.03114501	      0.02861409	      0.01269518	      0.00000000	      0.00000000	      0.00000000	      0.00000000	      0.00000000	      0.00000000	      0.00000000	      0.00000000	      0.00000000	      0.00000000	      0.00000000
      0.41000000	     -0.05228864	     -0.05115757	      0.00000000	      0.00000000	      0.03270789	      0.02977422	      0.01097612	      0.00000000	      0.00000000	      0.00000000	      0.00000000	      0.00000000	      0.00000000	      0.00000000	      0.00000000	      0.00000000	      0.00000000	      0.00000000
      0.42000000	     -0.05254535	     -0.05051279	      0.00000000	      0.00000000	      0.03437791	      0.03102732	      0.00905897	     -0.00000000	      0.00000000	      0.00000000	      0.00000000	      0.00000000	      0.00000000	      0.00000000	      0.00000000	      0.00000000	      0.00000000	      0.00000000
      0.43000000	     -0.05268599	     -0.04968784	      0.00000000	      0.00000000	      0.03619357	      0.03240516	      0.00690524	      0.00000000	      0.00000000	      0.00000000	      0.00000000	      0.00000000	      0.00000000	      0.00000000	      0.00000000	      0.00000000	      0.00000000	      0.00000000
      0.44000000	     -0.05266693	     -0.04866377	      0.00000000	      0.00000000	      0.03811463	      0.03388966	      0.00368635	     -0.00000000	      0.00000000	      0.00000000	      0.00000000	      0.00000000	      0.00000000	      0.00000000	      0.00000000	      0.00000000	      0.00000000	      0.00000000
      0.45000000	     -0.05245376	     -0.04744373	      0.00000000	      0.00000000	      0.04010366	      0.03544550	     -0.00034163	      0.00000000	      0.00000000	      0.00000000	      0.00000000	      0.00000000	      0.00000000	      0.00000000	      0.00000000	      0.00000000	      0.00000000	      0.00000000
      0.46000000	     -0.05200159	     -0.04597261	      0.00000000	      0.00000000	      0.04226973	      0.03719830	     -0.00471402	     -0.00000000	     -0.00000000	      0.00000000	      0.00000000	      0.00000000	      0.00000000	      0.00000000	      0.00000000	      0.00000000	      0.00000000	      0.00000000
      0.47000000	     -0.05131364	     -0.04433028	      0.00000000	      0.00000000	      0.04453399	      0.03907398	     -0.00913293	      0.00000000	      0.00000000	      0.00000000	      0.00000000	      0.00000000	      0.00000000	      0.00000000	      0.00000000	      0.00000000	      0.00000000	      0.00000000
      0.48000000	     -0.05031727	     -0.04239735	      0.00000000	      0.00000000	      0.04675392	      0.04099977	     -0.01383465	      0.00000000	      0.00000000	      0.00000000	      0.00000000	      0.00000000	      0.00000000	      0.00000000	      0.00000000	      0.00000000	      0.00000000	      0.00000000
      0.49000000	     -0.04913155	     -0.04041100	      0.00000000	      0.00000000	      0.04821998	      0.04244840	     -0.01823987	      0.00000000	      0.00000000	      0.00000000	      0.00000000	      0.00000000	      0.00000000	      0.00000000	      0.00000000	      0.00000000	      0.00000000	      0.00000000
      0.50000000	     -0.04761200	     -0.03813609	      0.00000000	      0.00000000	      0.04935846	      0.04395479	     -0.02280392	      0.00000000	      0.00000000	      0.00000000	      0.00000000	      0.00000000	      0.00000000	      0.00000000	      0.00000000	      0.00000000	      0.00000000	      0.00000000
      0.51000000	     -0.04605243	     -0.03599102	      0.00000000	      0.00000000	      0.04943506	      0.04460743	     -0.02674180	      0.00000000	      0.00000000	      0.00000000	      0.00000000	      0.00000000	      0.00000000	      0.00000000	      0.00000000	      0.00000000	      0.00000000	      0.00000000
      0.52000000	     -0.04435940	     -0.03380973	      0.00000000	      0.00000000	      0.04885325	      0.04477332	     -0.03039110	     -0.00000000	      0.00000000	      0.00000000	      0.00000000	      0.00000000	      0.00000000	      0.00000000	      0.00000000	      0.00000000	      0.00000000	      0.00000000
      0.53000000	     -0.04258384	     -0.03164253	      0.00000000	      0.00000000	      0.04860227	      0.04536919	     -0.03369920	     -0.00000000	      0.00000000	      0.00000000	      0.00000000	      0.00000000	      0.00000000	      0.00000000	      0.00000000	      0.00000000	      0.00000000	      0.00000000
      0.54000000	     -0.04101059	     -0.02979774	      0.00000000	      0.00000000	      0.04938432	      0.04698023	     -0.03630307	      0.00000000	      0.00000000	      0.00000000	      0.00000000	      0.00000000	      0.00000000	      0.00000000	      0.00000000	      0.00000000	      0.00000000	      0.00000000
      0.55000000	     -0.03961487	     -0.02821030	      0.00000000	      0.00000000	      0.05045580	      0.04894080	     -0.03838962	     -0.00000000	     -0.00000000	      0.00000000	      0.00000000	      0.00000000	      0.00000000	      0.00000000	      0.00000000	      0.00000000	      0.00000000	      0.00000000
      0.56000000	     -0.03847213	     -0.02694030	      0.00000000	      0.00000000	      0.05110555	      0.04971628	     -0.03996032	     -0.00000000	      0.00000000	      0.00000000	      0.00000000	      0.00000000	      0.00000000	      0.00000000	      0.00000000	      0.00000000	      0.00000000	      0.00000000
      0.57000000	     -0.03761757	     -0.02600779	      0.00000000	      0.00000000	      0.04859460	      0.04824486	     -0.04105742	      0.00000000	      0.00000000	      0.00000000	      0.00000000	      0.00000000	      0.00000000	      0.00000000	      0.00000000	      0.00000000	      0.00000000	      0.00000000
      0.58000000	     -0.03721435	     -0.02557115	      0.00000000	      0.00000000	      0.04737881	      0.04723810	     -0.04155903	      0.00000000	      0.00000000	      0.00000000	      0.00000000	      0.00000000	      0.00000000	      0.00000000	      0.00000000	      0.00000000	      0.00000000	      0.00000000
      0.59000000	     -0.03686822	     -0.02520275	      0.00000000	      0.00000000	      0.04617188	      0.04625507	     -0.04196438	     -0.00000000	     -0.00000000	      0.00000000	      0.00000000	      0.00000000	      0.00000000	      0.00000000	      0.00000000	      0.00000000	      0.00000000	      0.00000000
      0.60000000	     -0.03696933	     -0.02531502	      0.00000000	      0.00000000	      0.04652415	      0.04656742	     -0.04183412	      0.00000000	      0.00000000	      0.00000000	      0.00000000	      0.00000000	      0.00000000	      0.00000000	      0.00000000	      0.00000000	      0.00000000	      0.00000000
      0.61000000	     -0.03730366	     -0.02568060	      0.00000000	      0.00000000	      0.04762390	      0.04750674	     -0.04141217	      0.00000000	     -0.00000000	      0.00000000	      0.00000000	      0.00000000	      0.00000000	      0.00000000	      0.00000000	      0.00000000	      0.00000000	      0.00000000
      0.62000000	     -0.03783805	     -0.02626602	      0.00000000	      0.00000000	      0.04915881	      0.04874977	     -0.04072702	     -0.00000000	     -0.00000000	      0.00000000	      0.00000000	      0.00000000	      0.00000000	      0.00000000	      0.00000000	      0.00000000	      0.00000000	      0.00000000
      0.63000000	     -0.03853586	     -0.02703634	      0.00000000	      0.00000000	      0.05118631	      0.05061848	     -0.03979969	     -0.00000000	      0.00000000	      0.00000000	      0.00000000	      0.00000000	      0.00000000	      0.00000000	      0.00000000	      0.00000000	      0.00000000	      0.00000000
      0.64000000	     -0.03930064	     -0.02789027	      0.00000000	      0.00000000	      0.05051653	      0.04938254	     -0.03873702	      0.00000000	      0.00000000	      0.00000000	      0.00000000	      0.00000000	      0.00000000	      0.00000000	      0.00000000	      0.00000000	      0.00000000	      0.00000000
      0.65000000	     -0.04015638	     -0.02885744	      0.00000000	      0.00000000	      0.04979263	      0.04809097	     -0.03748685	     -0.00000000	     -0.00000000	      0.00000000	      0.00000000	      0.00000000	      0.00000000	      0.00000000	      0.00000000	      0.00000000	      0.00000000	      0.00000000
      0.66000000	     -0.04099538	     -0.02982036	      0.00000000	      0.00000000	      0.04915308	      0.04695559	     -0.03619272	     -0.00000000	      0.00000000	      0.00000000	      0.00000000	      0.00000000	      0.00000000	      0.00000000	      0.00000000	      0.00000000	      0.00000000	      0.00000000
      0.67000000	     -0.04174231	     -0.03069339	      0.00000000	      0.00000000	      0.04868200	      0.04609068	     -0.03497535	     -0.00000000	      0.00000000	      0.00000000	      0.00000000	      0.00000000	      0.00000000	      0.00000000	      0.00000000	      0.00000000	      0.00000000	      0.00000000
      0.68000000	     -0.04248331	     -0.03156860	      0.00000000	      0.00000000	      0.04838679	      0.04541615	     -0.03371424	      0.00000000	      0.00000000	      0.00000000	      0.00000000	      0.00000000	      0.00000000	      0.00000000	      0.00000000	      0.00000000	      0.00000000	      0.00000000
      0.69000000	     -0.04305623	     -0.03226332	      0.00000000	      0.00000000	      0.04827299	      0.04504314	     -0.03268119	     -0.00000000	      0.00000000	      0.00000000	      0.00000000	      0.00000000	      0.00000000	      0.00000000	      0.00000000	      0.00000000	      0.00000000	      0.00000000
      0.70000000	     -0.04352935	     -0.03284416	      0.00000000	      0.00000000	      0.04830191	      0.04485810	     -0.03180040	      0.00000000	      0.00000000	      0.00000000	      0.00000000	      0.00000000	      0.00000000	      0.00000000	      0.00000000	      0.00000000	      0.00000000	      0.00000000
      0.71000000	     -0.04392460	     -0.03333531	      0.00000000	      0.00000000	      0.04842291	      0.04479932	     -0.03104302	     -0.00000000	     -0.00000000	      0.00000000	      0.00000000	      0.00000000	      0.00000000	      0.00000000	      0.00000000	      0.00000000	      0.00000000	      0.00000000
      0.72000000	     -0.04414246	     -0.03361744	      0.00000000	      0.00000000	      0.04848800	      0.04478328	     -0.03060768	      0.00000000	      0.00000000	      0.00000000	      0.00000000	      0.00000000	      0.00000000	      0.00000000	      0.00000000	      0.00000000	      0.00000000	      0.00000000
      0.73000000	     -0.04426580	     -0.03378332	      0.00000000	      0.00000000	      0.04851674	      0.04477465	     -0.03035771	     -0.00000000	      0.00000000	      0.00000000	      0.00000000	      0.00000000	      0.00000000	      0.00000000	      0.00000000	      0.00000000	      0.00000000	      0.00000000
      0.74000000	     -0.04429178	     -0.03383058	      0.00000000	      0.00000000	      0.04850129	      0.04477227	     -0.03029872	      0.00000000	     -0.00000000	      0.00000000	      0.00000000	      0.00000000	      0.00000000	      0.00000000	      0.00000000	      0.00000000	      0.00000000	      0.00000000
      0.75000000	     -0.04412931	     -0.03365356	      0.00000000	      0.00000000	      0.04838827	      0.04478136	     -0.03059432	     -0.00000000	     -0.00000000	      0.00000000	      0.00000000	      0.00000000	      0.00000000	      0.00000000	      0.00000000	      0.00000000	      0.00000000	      0.00000000
      0.76000000	     -0.04409431	     -0.03362015	      0.00000000	      0.00000000	      0.04835727	      0.04478313	     -0.03066995	     -0.00000000	      0.00000000	      0.00000000	      0.00000000	      0.00000000	      0.00000000	      0.00000000	      0.00000000	      0.00000000	      0.00000000	      0.00000000
      0.77000000	     -0.04378425	     -0.03327026	      0.00000000	      0.00000000	      0.04817159	      0.04480335	     -0.03123388	     -0.00000000	     -0.00000000	      0.00000000	      0.00000000	      0.00000000	      0.00000000	      0.00000000	      0.00000000	      0.00000000	      0.00000000	      0.00000000
