FiberForce
version=1
nRows=55
nColumns=19
inDegrees=no

This analysis gathers basic information about muscles during a simulation (e.g., forces, tendon lengths, moment arms, etc).
Units are S.I. units (second, meters, Newtons, ...)
If the header above contains a line with 'inDegrees', this indicates whether rotational values are in degrees (yes) or radians (no).

endheader
time	hamstrings_r	bifemsh_r	glut_max_r	iliopsoas_r	rect_fem_r	vasti_r	gastroc_r	soleus_r	dorsiflexors_r	hamstrings_l	bifemsh_l	glut_max_l	iliopsoas_l	rect_fem_l	vasti_l	gastroc_l	soleus_l	dorsiflexors_l
      0.23000000	     -0.22403453	     -3.69768192	    286.75258769	    215.36165367	    210.27653037	    347.30906526	    167.34554577	    321.41826238	     -5.19351819	     95.06724804	     27.64075409	    220.28556710	    240.58112116	     27.65387559	     -0.04906265	    -11.81668133	    188.05392123	     -1.04790190
      0.24000000	      2.63138838	     -3.34632855	    292.63340954	    212.69187717	    206.07132017	    358.24373278	    164.24533768	    324.41434030	     -4.17340933	     89.57152210	     27.63752707	    217.64057598	    241.58567735	     28.51059765	      2.02260966	    -10.21136096	    186.81073473	     -0.56781008
      0.25000000	      5.45978445	     -2.91715538	    297.93038698	    210.29146122	    201.38519389	    365.32170417	    123.10700791	    241.24153099	     -9.78905165	     84.79756635	     28.19127218	    212.11548031	    243.66892010	     26.65571056	     -2.12686024	    -12.33529387	    191.21369580	      0.05516136
      0.26000000	      9.26074838	     -2.43940386	    304.99769481	    207.05789599	    195.26231705	    369.28462659	     68.03173225	    126.06514077	    -17.30102709	     82.67993858	     28.45066487	    211.83900899	    243.81247661	     24.53590299	     -2.82520699	    -12.09663679	    192.35506356	      0.42686939
      0.27000000	     12.13740225	     -1.83510848	    308.88065382	    205.30081815	    189.40537851	    369.30703925	     88.45489102	    165.48256299	    -12.24780264	     76.10112739	     28.34512350	    209.31642664	    244.79687147	     25.59778917	     -0.10517335	     -8.20049794	    194.37811262	      0.73031551
      0.28000000	     15.47497192	     -1.24074858	    313.51500386	    203.17148872	    182.96727135	    367.40197029	     76.98766901	    138.77225122	    -12.78445184	     71.35816974	     28.84347594	    204.64132520	    246.58568853	     22.84648254	     -3.96546329	    -11.96561172	    192.99675513	      0.83078358
      0.29000000	     18.83621258	     -0.70226194	    318.50285743	    200.84883412	    176.43887697	    364.63407939	     70.51274979	    125.75448247	    -12.09146548	     67.22071120	     28.73278159	    205.15126962	    246.48712030	     22.86670313	     -1.15155500	     -7.91739539	    195.75187456	      1.08812559
      0.30000000	     22.72528016	     -0.17447769	    324.29000959	    198.10556066	    169.13868337	    360.61327090	     63.04295301	    113.72151547	    -11.24078150	     64.16532592	     28.66668409	    206.44568287	    246.11191049	     22.08472673	      1.34247673	     -5.65847239	    195.54125404	      1.15166130
      0.31000000	     25.96290658	      0.47553623	    327.31884072	    196.67827111	    162.06473297	    353.56851797	     72.56747417	    135.82277960	     -8.01596401	     59.43500469	     28.97879416	    202.37654992	    247.70476881	     19.56311111	     -0.73453656	     -9.98443290	    189.07792667	      0.88625179
      0.32000000	     29.94331446	      0.98108815	    332.64775588	    194.09352921	    154.31044964	    347.13004722	     65.39473964	    123.57458266	     -7.32446319	     57.06362307	     28.92639175	    204.13717856	    247.19095572	     18.03342162	      1.50190195	     -8.09783136	    186.64238442	      0.91010107
      0.33000000	     34.03890927	      1.52354202	    337.62899130	    191.65154725	    146.04558459	    339.20750689	     55.30653090	    104.97765685	     -6.58370780	     55.41376255	     28.79764345	    206.49488569	    246.43813304	     17.39603491	      4.06843423	     -5.35393854	    185.81598573	      0.96595972
      0.34000000	     36.38323411	      2.20213040	    337.68981737	    191.67012487	    139.46337666	    327.94385699	     69.84441046	    128.91137275	     -3.66639521	     50.27725344	     29.08705292	    200.91099377	    248.60955070	     15.67089854	      2.14595102	     -9.81837110	    177.46978774	      0.67944814
      0.35000000	     41.11704488	      2.69110100	    343.34414908	    188.86585514	    130.29646168	    318.10573698	     58.50282814	     98.55011199	     -4.00613904	     49.54409581	     28.89012491	    204.96630449	    247.26367006	     15.23087842	      5.36841694	     -6.81997173	    173.04889270	      0.63957148
      0.36000000	     45.14770462	      3.35831068	    345.77452530	    187.70357533	    121.43155038	    304.43584438	     65.42894903	    100.94490092	     -2.43473110	     47.60694148	     28.83968233	    205.35719163	    247.23446088	     14.82824255	      6.71244987	     -6.99242376	    164.55701947	      0.42116600
      0.37000000	     47.89557694	      4.01498384	    345.52652125	    187.93271100	    114.06452238	    289.16859153	     67.02672166	     89.87499651	     -2.01544661	     43.85799178	     29.17557674	    200.25910789	    249.23259441	     13.23225019	      4.05097968	    -12.30381840	    153.92758023	      0.17040222
      0.38000000	     51.40087527	      4.80927978	    344.21843750	    188.72278036	    105.85779000	    270.02498145	     89.09767291	    115.72507017	      0.22555742	     39.80363721	     28.78067951	    200.27446586	    249.37964085	     14.80936974	      8.95383053	     -3.37462803	    157.44155265	      0.65703834
      0.39000000	     57.19375007	      5.47284622	    345.54708272	    188.17563676	     96.35699486	    250.32421773	     80.54934959	     83.78910336	     -1.19579450	     37.85076807	     28.96165362	    199.15320070	    249.93450002	     13.81840756	      7.50200887	     -9.28426685	    142.09071763	      0.08315305
      0.40000000	     66.87775924	      6.24134050	    347.32774120	    187.42393655	     85.34995959	    226.94893816	     80.57598986	     71.82174978	     -0.75466140	     37.06495744	     29.06309838	    199.67751748	    249.89806101	     12.63889247	      7.27159964	     -9.15573592	    136.17516941	      0.21509002
      0.41000000	     77.95531774	      7.11485998	    342.28099735	    190.16698109	     77.60492998	    198.78971426	     96.93371077	     87.05444274	      0.24379364	     31.89901262	     28.82723277	    195.99126372	    251.38917103	     14.25189759	      9.93286441	     -7.79933649	    125.10735090	     -0.05807004
      0.42000000	    100.79515076	      7.84780503	    346.40596596	    188.21400674	     64.73839404	    170.07396686	     89.69517765	     68.06299750	     -0.14491858	     33.02721505	     28.97770450	    199.34975040	    250.33735707	     12.62121779	      8.93482312	     -8.38297508	    118.45694783	      0.10817566
      0.43000000	    121.60496788	      8.96054914	    335.78639561	    193.74604037	     58.48068845	    133.31463643	    105.52338426	     87.42642567	      0.94107667	     26.11430221	     28.74306229	    191.95455865	    253.16456284	     14.79867899	     11.41987359	     -6.27271543	    109.80866098	     -0.03447106
      0.44000000	    152.27785070	      9.92872920	    339.61052655	    191.88767920	     45.45553845	     98.54596940	     80.92258056	     69.63687040	      0.30931541	     27.25452226	     28.84092522	    196.28200570	    251.81838605	     13.50654382	     10.72112195	     -6.31712873	    103.15340028	      0.14150219
      0.45000000	    174.32371280	     11.72839884	    327.88977643	    197.81015350	     38.66934586	     57.20595653	     86.36777690	     93.40933955	      1.55373080	     21.08127672	     28.58550692	    189.40336586	    254.43729272	     15.72055772	     13.25302964	     -5.09208698	     92.19093891	     -0.12349727
      0.46000000	    199.37086899	     13.92680691	    330.63662853	    196.39450331	     25.81272862	     21.28646885	     59.35731490	     77.05591827	      0.71245797	     22.12208000	     28.58555276	    194.41423020	    252.89003690	     15.09438233	     13.25717065	     -4.52935439	     83.68983159	      0.01751617
      0.47000000	    209.23480281	     17.47134555	    315.79600143	    203.59228107	     17.62804162	    -17.08205003	     54.68326719	    104.99288315	      2.15532833	     15.45611285	     28.43605270	    185.06481587	    256.37282359	     17.27071126	     14.66205858	     -0.81845095	     83.79529012	      0.26331479
      0.48000000	    222.15179799	     21.25995785	    316.23169632	    203.16543287	      3.76644433	    -42.98703445	     21.67374517	     94.88530654	      1.29934474	     15.46068179	     28.30308371	    189.26252887	    255.22189844	     17.76614504	     15.77568450	     -1.26974771	     71.27503044	      0.09100528
      0.49000000	    225.88628402	     25.22647809	    307.74778332	    207.13292634	     -8.73490590	    -62.53401713	      6.13658946	    114.17510526	      2.35154659	     12.34817474	     28.25035712	    184.73077225	    256.93140307	     18.99608700	     16.14521942	      1.52459066	     72.62737197	      0.39157021
      0.50000000	    216.17084364	     28.84669268	    290.35391620	    214.74380638	    -17.06465174	    -74.26925311	    -11.73280379	    137.06364826	      2.85351353	      4.36263411	     27.94682673	    174.86502808	    260.91451240	     22.86248090	     18.79328421	      2.96490517	     62.00121749	      0.22170949
      0.51000000	    245.41366462	     30.29040991	    321.72713692	    200.20188816	    -31.99952364	    -66.49199165	    -40.10517663	    103.54136468	      1.07780254	     18.44410581	     27.75465041	    202.78139991	    250.85761464	     20.91343939	     20.30915552	      1.61501405	     50.22795254	     -0.05721956
      0.52000000	    208.57273963	     32.46344251	    280.46886565	    218.93941838	    -25.54275342	    -70.98013461	    -18.30338354	    194.47429240	      5.41402844	     -0.04875140	     27.45444047	    171.23021200	    262.46060529	     28.69173542	     22.83358671	     -0.53397910	     31.33104848	     -0.44514740
      0.53000000	    206.51926855	     32.66461817	    282.92716853	    217.62267130	    -23.52654393	    -60.40490169	    -26.21701364	    208.86693857	      4.83201255	      0.36723750	     27.26137961	    173.96427475	    261.96421263	     32.17443196	     24.24158360	      4.99356993	     34.69318734	      0.07083466
      0.54000000	    211.18814526	     32.20800366	    293.33496940	    212.92363808	    -21.83545761	    -49.16821171	    -31.68554933	    198.54145067	      3.46307079	      3.79833432	     27.03071504	    182.22477860	    259.27858261	     35.39143346	     26.01390667	      5.80087957	     28.43480780	      0.08649831
      0.55000000	    201.53516081	     31.65285744	    290.21579731	    214.23473146	    -16.45695760	    -39.20778676	    -24.82000020	    212.76732134	      3.54412865	      1.46796519	     26.68365417	    179.81955045	    260.39601537	     41.88758722	     28.88471119	     10.56595009	     29.16120372	      0.34480927
      0.56000000	    188.13039541	     31.02586534	    283.80501953	    216.99073679	    -10.08015008	    -28.35017506	     -8.61125366	    248.35653047	      4.93142209	     -2.20155637	     26.12472381	    175.87272687	    262.06069374	     51.38480076	     33.87025687	     15.65184318	     27.56209244	      0.44672698
      0.57000000	    186.70568519	     29.54641885	    293.01945779	    212.87520545	     -2.85271046	     -7.53868516	     -7.08877714	    219.31113261	      2.31828357	     -0.67333688	     25.76306667	    180.21917696	    260.80433141	     60.43356501	     36.53057450	     27.10457030	     45.00037327	      1.22468230
      0.58000000	    179.99565011	     28.91449902	    291.88019503	    213.36549792	      1.44074812	      1.08182810	     11.44567898	    251.09635731	      4.10936782	     -1.88357477	     25.30690443	    179.82597004	    261.09779168	     71.08085078	     40.07386239	     24.38018013	     35.41575895	      0.82983920
      0.59000000	    166.15016426	     28.28777154	    284.51492493	    216.56229842	      6.75054593	      9.04478752	     28.52688637	    299.58649722	      5.86181158	     -5.20145070	     24.54870996	    176.53548891	    262.55527404	     85.99116377	     46.65166239	     31.58574157	     38.21935972	      1.03129149
      0.60000000	    166.30133979	     26.66156509	    295.39488149	    211.74989663	     11.99435551	     25.89754295	     32.69476980	    265.29980919	      3.26160488	     -3.35245301	     24.08998562	    181.50070279	    260.92762050	     93.28474270	     48.03910475	     45.00257190	     62.74886312	      1.93235973
      0.61000000	    155.76307809	     25.99268579	    290.78060993	    213.78510879	     16.22948852	     32.14144039	     49.72715575	    309.58304491	      5.32974618	     -5.86039976	     23.22040321	    180.06302662	    261.61700641	    104.45371569	     53.15160852	     49.75361448	     65.87768134	      1.96271585
      0.62000000	    151.59721227	     24.84839628	    294.29786304	    212.21658669	     20.79425901	     43.03950442	     56.51635746	    307.16322656	      4.59404606	     -5.87502165	     22.29456895	    183.72976592	    260.38900348	    114.66914287	     57.72670850	     63.32744047	     89.17460203	      2.77093396
      0.63000000	    144.88659431	     24.06751361	    293.02811769	    212.77373391	     24.81152339	     49.94910796	     64.24202118	    321.31258387	      4.91360336	     -7.04268511	     21.19157241	    185.75963077	    259.70793955	    125.48131304	     63.05870197	     72.84136635	    108.31010863	      3.30759842
      0.64000000	    139.96848759	     23.22649595	    293.35235471	    212.62316505	     27.45641641	     54.62617443	     69.02359733	    319.35870131	      4.35105649	     -7.59005597	     19.90818687	    189.71356604	    258.24107903	    136.08635369	     68.87870248	     87.10936731	    141.99159317	      4.38202916
      0.65000000	    140.16719727	     22.28728567	    298.30399464	    210.40811837	     29.14721941	     59.15434360	     75.98531824	    313.52263691	      3.59625753	     -6.38119494	     18.58609567	    197.06238181	    255.39728611	    144.98434535	     74.16391872	    107.57146736	    201.16376302	      6.39576667
      0.66000000	    130.26614374	     22.04949714	    290.12805783	    214.04356165	     31.18248862	     56.24432813	     75.94657327	    298.05964905	      2.43884493	     -9.18906106	     16.64290565	    199.51848673	    254.27338663	    157.87673712	     84.12315113	    126.34825386	    248.87733900	      7.32861505
      0.67000000	    137.50024172	     21.49743360	    298.23464652	    210.43024028	     31.09012570	     56.78630266	     71.79796412	    258.04541395	     -0.06539927	     -6.24167794	     14.41340396	    214.59508977	    248.18654653	    168.61188914	     94.90367535	    174.11251992	    321.50840250	      9.60534891
      0.68000000	    133.07598776	     21.17271626	    295.14580440	    211.81694886	     33.70476838	     54.96883108	     69.99694052	    238.94783235	     -0.87023565	     -6.88429307	     12.36360328	    220.14937990	    245.50308504	    177.24315279	    102.63882961	    242.26604744	    398.39228342	     11.97998918
      0.69000000	    119.36738659	     21.48532990	    279.64474422	    218.58918104	     38.09616206	     48.11340976	     62.58219926	    222.61477610	     -1.52686589	    -10.70634097	      9.91437182	    219.86470084	    245.25634103	    187.90538266	    113.38659955	    314.85552506	    474.34378084	     15.13378387
      0.70000000	    131.42856451	     21.24534259	    290.53108119	    213.84320584	     38.11150920	     47.00204324	     46.29930270	    175.91895094	     -3.56303506	     -6.10883009	      6.87056660	    240.34382055	    236.42904503	    196.31652457	    130.02302857	    364.89287084	    525.64686481	     17.31792554
      0.71000000	    121.75028023	     21.55942281	    278.81427691	    218.93027538	     42.21320910	     41.16140791	     37.55955112	    165.92759214	     -3.21945872	     -8.07586126	      4.31971410	    242.70011149	    234.89356406	    203.27254339	    145.81463912	    379.00241215	    546.02027088	     17.96814601
      0.72000000	    114.13198445	     22.22732698	    266.83248070	    223.98897357	     44.94031623	     33.16952412	     22.67587775	    146.40769408	     -3.30934494	     -8.88902432	      1.98295709	    245.86749444	    233.12334237	    208.61117408	    165.91546575	    390.58989546	    577.90410700	     19.76539437
      0.73000000	    120.28895027	     22.27677261	    272.24227042	    221.70323165	     45.34106766	     31.65339250	      9.20890327	    114.75968290	     -3.88148274	     -4.66823085	     -0.42252212	    261.98045685	    225.81219786	    211.69795917	    194.40572414	    388.13487377	    585.38104875	     19.35777779
      0.74000000	    103.09212264	     23.43297340	    248.43861430	    231.52253119	     48.14322314	     20.39371594	      6.92727017	    129.98809183	     -1.76429178	     -8.77592909	     -1.80012798	    255.43098594	    228.25163757	    215.02185471	    219.90291788	    348.35497833	    526.88603411	     13.01585695
      0.75000000	    109.52384394	     23.57306362	    255.61192346	    228.58823436	     47.28462685	     20.20078600	     -2.45231185	    104.65126256	     -2.35496631	     -2.96957895	     -3.11640812	    272.51022375	    220.62472937	    214.74781572	    251.54842379	    329.31775303	    510.97619400	     11.03323572
      0.76000000	    116.83951423	     23.46729357	    264.54664509	    224.91251855	     46.05925296	     21.42215644	    -11.98009068	     68.74494780	     -2.85101919	      3.35096883	     -3.82119167	    290.29537854	    212.41307758	    210.74799754	    281.76933125	    328.13969701	    536.91940856	     12.28757650
      0.77000000	     67.03529517	     26.24400222	    196.99973443	    251.65110263	     51.30669856	     -3.23305785	      4.09692280	    147.55142618	      2.00958331	    -13.25191766	     -2.98958337	    247.00829992	    230.95429146	    217.73515300	    292.08640077	    221.05294965	    344.47876189	     -2.67408617
