FiberPassivePower
version=1
nRows=55
nColumns=19
inDegrees=no

This analysis gathers basic information about muscles during a simulation (e.g., forces, tendon lengths, moment arms, etc).
Units are S.I. units (second, meters, Newtons, ...)
If the header above contains a line with 'inDegrees', this indicates whether rotational values are in degrees (yes) or radians (no).

endheader
time	hamstrings_r	bifemsh_r	glut_max_r	iliopsoas_r	rect_fem_r	vasti_r	gastroc_r	soleus_r	dorsiflexors_r	hamstrings_l	bifemsh_l	glut_max_l	iliopsoas_l	rect_fem_l	vasti_l	gastroc_l	soleus_l	dorsiflexors_l
      0.23000000	      0.02828702	      0.08013941	     -8.34880359	      5.26753646	     -4.44896555	     -2.71251938	      4.38361370	      4.88630969	      0.02655765	      1.36242439	     -0.08652222	     11.69524271	     -4.38192449	     -0.01742083	      0.27609610	      0.45193293	      0.61133430	      0.00205693
      0.24000000	      0.01001606	      0.06511423	     -9.03629274	      5.23240621	     -3.50303538	     -2.52714750	      3.73573184	      3.90216543	      0.02116341	      1.27225193	     -0.07536376	     10.57510730	     -4.29745171	     -0.02999141	      0.23353605	      0.35351899	      0.48158874	      0.00157033
      0.25000000	     -0.00742012	      0.05219066	     -9.65024356	      5.13166349	     -2.47775480	     -2.29543735	      4.88119813	      6.62425019	      0.03579539	      1.13628423	     -0.09041982	     10.17456751	     -4.47895851	      0.01200892	      0.27323592	      0.32864758	      0.32537690	      0.00103777
      0.26000000	     -0.03101443	      0.04126111	    -10.69051851	      5.20502591	     -1.25515456	     -2.03028909	      5.83353240	      9.11591117	      0.04840712	      0.93837758	     -0.09028985	      8.76618223	     -4.17551083	      0.03791693	      0.26425539	      0.28125893	      0.23263817	      0.00072875
      0.27000000	     -0.05005563	      0.03112880	    -11.04870678	      4.92310471	     -0.17188444	     -1.68751361	      3.89883840	      5.85865456	      0.03020501	      0.90943836	     -0.07671140	      8.04191328	     -4.11087739	      0.01490564	      0.21920351	      0.21668741	      0.15875008	      0.00049171
      0.28000000	     -0.07418139	      0.02289211	    -11.62860964	      4.75430273	      0.89053612	     -1.34278726	      3.40391500	      5.36713773	      0.02660691	      0.81428664	     -0.08990573	      7.71874783	     -4.24530429	      0.05325377	      0.25002970	      0.22643023	      0.13323064	      0.00040842
      0.29000000	     -0.10188932	      0.01641340	    -12.34020069	      4.62700646	      1.81850702	     -1.02471417	      2.79089602	      4.51511656	      0.02114096	      0.71673106	     -0.07588550	      6.59944880	     -3.88530105	      0.04015869	      0.20581395	      0.17186587	      0.07201273	      0.00021937
      0.30000000	     -0.13837937	      0.01086572	    -13.34029529	      4.58766652	      2.71090602	     -0.71019335	      2.28427045	      3.78983184	      0.01650186	      0.60510428	     -0.06514464	      5.53235780	     -3.46277851	      0.03333924	      0.16794967	      0.13963054	      0.05651427	      0.00017140
      0.31000000	     -0.17640370	      0.00482815	    -13.56857319	      4.27709687	      3.38476193	     -0.32453666	      1.51812096	      2.58055916	      0.01031210	      0.57195790	     -0.07313240	      5.46228021	     -3.61590429	      0.04772192	      0.17948821	      0.16087389	      0.11750377	      0.00035453
      0.32000000	     -0.22872248	      0.00039264	    -14.57612635	      4.22831977	      3.99792323	     -0.02661169	      1.26184070	      2.23333366	      0.00822789	      0.46863301	     -0.06308207	      4.48975067	     -3.14678598	      0.03970161	      0.14594573	      0.13295609	      0.11043182	      0.00033011
      0.33000000	     -0.29420462	     -0.00427344	    -15.50434298	      4.12077596	      4.48867314	      0.28796985	      1.03589941	      1.90760826	      0.00630681	      0.38532323	     -0.05152660	      3.64829436	     -2.66980506	      0.02912640	      0.11402530	      0.10551316	      0.09654224	      0.00028686
      0.34000000	     -0.35152216	     -0.01022215	    -14.73991071	      3.61426149	      4.61588476	      0.67096316	      0.53633537	      1.15643962	      0.00348528	      0.41317424	     -0.05982432	      3.97276401	     -3.04436724	      0.03474842	      0.12562859	      0.12531404	      0.16112649	      0.00047403
      0.35000000	     -0.45173758	     -0.01479785	    -16.04711591	      3.63897282	      4.93553876	      0.93097310	      0.54485258	      1.19076482	      0.00327639	      0.31145428	     -0.04491853	      2.96224728	     -2.36858976	      0.02312076	      0.08981821	      0.09773225	      0.16828073	      0.00048918
      0.36000000	     -0.56339693	     -0.02152143	    -16.10518383	      3.37433146	      5.05004848	      1.27804972	      0.27747476	      0.81364760	      0.00202513	      0.27872005	     -0.03837271	      2.59358013	     -2.14387186	      0.01609070	      0.07374357	      0.09188109	      0.21588259	      0.00061853
      0.37000000	     -0.67111181	     -0.02900209	    -15.04584337	      2.93454138	      4.90232527	      1.59674429	      0.18854836	      0.70803368	      0.00163008	      0.29867328	     -0.05090091	      2.95852722	     -2.53453651	      0.02834750	      0.09360785	      0.11350419	      0.26963571	      0.00075758
      0.38000000	     -0.80322708	     -0.03914466	    -13.48009335	      2.46713004	      4.77408120	      1.96607650	     -0.19619687	      0.21895592	      0.00046983	      0.32410648	     -0.02674734	      2.61990478	     -2.33052622	     -0.00924476	      0.04695557	      0.05897898	      0.15619854	      0.00043071
      0.39000000	     -0.98507078	     -0.04953605	    -13.11232019	      2.27091022	      4.68393760	      2.22867413	      0.02335063	      0.52053753	      0.00108864	      0.28116215	     -0.03377639	      2.47915345	     -2.28047285	      0.00450800	      0.05793700	      0.08521750	      0.28354307	      0.00076997
      0.40000000	     -1.23283863	     -0.06310411	    -12.89870011	      2.11486462	      4.61633382	      2.51465498	     -0.03441592	      0.41917057	      0.00079123	      0.22887169	     -0.03470288	      2.14123610	     -2.03626454	      0.01085588	      0.05669516	      0.07683990	      0.24944787	      0.00065812
      0.41000000	     -1.42027159	     -0.08094935	     -9.47063205	      1.48520272	      4.23319223	      2.80445842	     -0.21279321	      0.20570863	      0.00037991	      0.30242524	     -0.02074443	      2.36110521	     -2.31405731	     -0.01642336	      0.03311766	      0.06666741	      0.30758305	      0.00079504
      0.42000000	     -1.82247919	     -0.09959413	    -10.63678337	      1.60718785	      4.17179557	      2.96654507	     -0.08490716	      0.28560072	      0.00049293	      0.18910146	     -0.02564399	      1.70412074	     -1.72584869	      0.00360268	      0.03962739	      0.06338627	      0.26586646	      0.00066333
      0.43000000	     -1.99381332	     -0.12782470	     -4.37016414	      0.63873400	      3.63155818	      3.22423966	     -0.26242417	      0.05387935	      0.00009186	      0.33033018	     -0.01215806	      2.39933782	     -2.49253430	     -0.03107652	      0.01846630	      0.05174152	      0.29483540	      0.00071971
      0.44000000	     -2.53386721	     -0.15417859	     -5.98448973	      0.86461070	      3.50357853	      3.25013626	      0.01320393	      0.18727845	      0.00030818	      0.20230224	     -0.01563051	      1.62048096	     -1.74899688	     -0.01052918	      0.02332177	      0.04793046	      0.25184081	      0.00059137
      0.45000000	     -2.73569411	     -0.19329851	      0.66500735	     -0.09410731	      2.98160738	      3.37629326	     -0.06026744	     -0.07849247	     -0.00012840	      0.33252700	     -0.00169997	      2.26405526	     -2.49515017	     -0.04422689	      0.00251230	      0.04129498	      0.30788200	      0.00070645
      0.46000000	     -3.36850169	     -0.22653854	     -1.16261645	      0.16667284	      2.76278529	      3.24204777	      0.34131151	      0.10112854	      0.00016575	      0.20464748	     -0.00166844	      1.42515313	     -1.63702956	     -0.02757168	      0.00246476	      0.03642736	      0.27292434	      0.00059716
      0.47000000	     -3.41910915	     -0.27547427	      6.57797202	     -0.93590336	      2.25744518	      3.23614626	      0.28932366	     -0.20698260	     -0.00033805	      0.35571388	      0.00597923	      2.34732088	     -2.74057734	     -0.05870120	     -0.00883359	      0.02268999	      0.21759518	      0.00046600
      0.48000000	     -3.93402964	     -0.30899822	      4.81712155	     -0.71517398	      1.97527872	      2.93186545	      0.67515734	     -0.02230173	     -0.00003814	      0.24983564	      0.01165864	      1.57230423	     -1.93122770	     -0.05245594	     -0.01744010	      0.02291514	      0.25265591	      0.00051850
      0.49000000	     -4.01646694	     -0.34864961	      8.84198479	     -1.31534697	      1.55126862	      2.68315149	      0.64633662	     -0.24680118	     -0.00041910	      0.30965128	      0.01328092	      1.98396404	     -2.46330346	     -0.06509487	     -0.02010406	      0.01338177	      0.18565900	      0.00037198
      0.50000000	     -3.29419611	     -0.38146394	     14.28152500	     -2.27640838	      1.18086449	      2.35494724	      0.72612366	     -0.34923004	     -0.00064753	      0.41326541	      0.02660412	      2.61071595	     -3.44647590	     -0.10496896	     -0.04121163	      0.00833107	      0.22110979	      0.00042650
      0.51000000	     -5.41109034	     -0.35950628	     -0.42686172	      0.06887441	      1.00292951	      1.80584540	      0.85793819	      0.02846892	      0.00005274	      0.03258823	      0.03317935	     -0.25970070	      0.34573430	     -0.05160685	     -0.05318209	      0.01246328	      0.28110341	      0.00052434
      0.52000000	     -2.43236861	     -0.38763855	     16.84024234	     -2.81072343	      0.61337960	      1.59029826	      0.44252494	     -0.89183606	     -0.00177108	      0.45522604	      0.04418293	      2.76751387	     -3.77359555	     -0.15248449	     -0.07395337	      0.01834443	      0.36550978	      0.00063913
      0.53000000	     -2.18037689	     -0.34840053	     13.13466809	     -2.35435485	      0.45208361	      1.19938482	      0.45804361	     -0.76753816	     -0.00173666	      0.37032433	      0.04862521	      2.18172807	     -3.14147381	     -0.15838199	     -0.08574520	      0.00137373	      0.25120755	      0.00041531
      0.54000000	     -2.43851108	     -0.29345679	      7.63552211	     -1.42221977	      0.34678521	      0.89859783	      0.43367883	     -0.47253744	     -0.00113696	      0.25370660	      0.05448341	      1.25027934	     -1.85377193	     -0.15714131	     -0.10124333	     -0.00109234	      0.24801104	      0.00038889
      0.55000000	     -1.52342718	     -0.24113245	      7.77624253	     -1.50312810	      0.23745462	      0.67716123	      0.31631047	     -0.49052008	     -0.00124886	      0.27312761	      0.06463946	      1.33407411	     -2.03510311	     -0.19899613	     -0.12754220	     -0.01552214	      0.19025310	      0.00028408
      0.56000000	     -0.32290198	     -0.19112152	      9.22733769	     -1.84704542	      0.14774540	      0.49186176	      0.15602194	     -0.79901809	     -0.00214537	      0.32024397	      0.08315481	      1.55675681	     -2.44180225	     -0.27748609	     -0.17561149	     -0.03165015	      0.16747064	      0.00023965
      0.57000000	     -0.20791634	     -0.10386323	      4.66480814	     -0.97109657	      0.06809010	      0.23640048	      0.13429873	     -0.21731356	     -0.00062012	      0.25584719	      0.08951280	      1.01895162	     -1.65044287	     -0.31218863	     -0.20450907	     -0.07126890	     -0.01171453	     -0.00001637
      0.58000000	      0.37116573	     -0.06568682	      4.76746458	     -1.00505652	      0.02871149	      0.14028756	     -0.00659305	     -0.62131628	     -0.00178585	      0.25863677	      0.09947960	      0.98199217	     -1.61656369	     -0.38204894	     -0.24459851	     -0.06633163	      0.07942881	      0.00011145
      0.59000000	      1.37276939	     -0.02866841	      6.53303206	     -1.42752956	     -0.01347188	      0.05786333	     -0.13162622	     -1.03691537	     -0.00324384	      0.29217660	      0.11958766	      1.14018467	     -1.93223116	     -0.52041937	     -0.32208146	     -0.09807609	      0.03234111	      0.00004399
      0.60000000	      1.24174946	      0.04897387	      2.23072120	     -0.49538459	     -0.05427454	     -0.10059221	     -0.16660268	     -0.43356304	     -0.00139789	      0.23658196	      0.12360640	      0.64363812	     -1.10939412	     -0.54830586	     -0.34547205	     -0.16763057	     -0.17485073	     -0.00024493
      0.61000000	      1.86756273	      0.07425003	      3.50005533	     -0.79008120	     -0.09137321	     -0.16118010	     -0.32010223	     -0.93348192	     -0.00315559	      0.25689355	      0.14267496	      0.69450903	     -1.21842436	     -0.67570390	     -0.41553460	     -0.21155749	     -0.17882370	     -0.00026027
      0.62000000	      1.95713449	      0.11647255	      1.97061703	     -0.45051189	     -0.13883954	     -0.27477645	     -0.40585549	     -0.76522760	     -0.00268907	      0.23563552	      0.15884684	      0.34191961	     -0.60652766	     -0.79186527	     -0.48590542	     -0.32227216	     -0.35619786	     -0.00055164
      0.63000000	      2.18153286	      0.13567077	      2.18473330	     -0.50472947	     -0.19154013	     -0.35895101	     -0.51460125	     -0.85621589	     -0.00313265	      0.23283509	      0.17704275	      0.14612713	     -0.26093728	     -0.95296614	     -0.57351266	     -0.44260671	     -0.46681673	     -0.00078731
      0.64000000	      2.23948525	      0.15350648	      1.84253461	     -0.43016622	     -0.23296348	     -0.42403143	     -0.58471377	     -0.72224024	     -0.00272260	      0.22073186	      0.19498590	     -0.18531137	      0.33063787	     -1.14843509	     -0.67800944	     -0.64412183	     -0.69320419	     -0.00129368
      0.65000000	      1.95730726	      0.17017547	      0.01412327	     -0.00331399	     -0.26537262	     -0.49451576	     -0.64942721	     -0.53201470	     -0.00205843	      0.18692209	      0.20711634	     -0.78045719	      1.37814150	     -1.34611832	     -0.78502688	     -0.98339903	     -1.12475843	     -0.00240409
      0.66000000	      2.30777076	      0.15433407	      2.75390867	     -0.64890338	     -0.29856806	     -0.47320700	     -0.56997614	     -0.22808296	     -0.00089256	      0.20667815	      0.23251879	     -0.92590012	      1.59961084	     -1.76348464	     -0.98223890	     -1.33426888	     -1.33623661	     -0.00331814
      0.67000000	      1.59234107	      0.15245023	     -0.29689937	      0.07083648	     -0.28847958	     -0.49271029	     -0.40051770	      0.43282233	      0.00169349	      0.15475418	      0.25361045	     -2.19855112	      3.68404467	     -2.20720043	     -1.21947461	     -1.94431236	     -1.88419041	     -0.00536877
      0.68000000	      1.67116521	      0.13937570	      0.91986130	     -0.21783652	     -0.30606205	     -0.47733022	     -0.28985093	      0.62695074	      0.00239412	      0.15170306	      0.25537973	     -2.57439172	      4.06302959	     -2.66585910	     -1.41481608	     -2.67852541	     -2.54997189	     -0.00844204
      0.69000000	      2.11856755	      0.10545171	      5.63523290	     -1.36685706	     -0.33313718	     -0.37989890	     -0.10589967	      0.77960202	      0.00291297	      0.17747655	      0.25972756	     -2.42804987	      3.66088582	     -3.34879017	     -1.66312109	     -3.73167546	     -3.55867572	     -0.01340154
      0.70000000	      1.24865652	      0.09627808	      1.63058315	     -0.40240713	     -0.27185741	     -0.36320162	      0.13073759	      1.24971486	      0.00445035	      0.11911682	      0.26879732	     -4.38887869	      6.17507551	     -4.01192875	     -2.00660275	     -4.95623404	     -4.59140097	     -0.01951406
      0.71000000	      1.54119178	      0.06814295	      5.16145633	     -1.29303486	     -0.27996254	     -0.26807078	      0.21517266	      1.11823189	      0.00375496	      0.12864385	      0.25254682	     -4.47519507	      5.78089379	     -4.64643891	     -2.22883509	     -5.78725276	     -5.33077405	     -0.02457516
      0.72000000	      1.63745334	      0.03334299	      8.07239296	     -2.10248217	     -0.25500117	     -0.13446942	      0.34881298	      1.09696309	      0.00344678	      0.12516456	      0.23182783	     -4.66357859	      5.57942375	     -5.18514378	     -2.41458171	     -6.89780424	     -6.74177320	     -0.03310499
      0.73000000	      1.11712774	      0.02598780	      5.53268001	     -1.49620694	     -0.19456753	     -0.10636448	      0.43185534	      1.18603004	      0.00343938	      0.08184414	      0.21720243	     -6.47795852	      7.07917564	     -5.51381847	     -2.66862484	     -7.31029144	     -7.46034685	     -0.03808067
      0.74000000	      1.65501330	     -0.01977025	     11.63047710	     -3.28511352	     -0.19065277	      0.08125937	      0.35499063	      0.68254554	      0.00181736	      0.10834529	      0.18597609	     -5.35028486	      5.31819016	     -5.85465915	     -2.69760164	     -5.12704272	     -5.19798961	     -0.02709141
      0.75000000	      1.06143007	     -0.01951017	      7.92151698	     -2.39901099	     -0.11905567	      0.07893531	      0.40094995	      0.79831455	      0.00200518	      0.05754807	      0.16832869	     -7.53957948	      6.92046041	     -5.74594935	     -2.87279641	     -3.87831625	     -4.43608729	     -0.02327775
      0.76000000	      0.63482064	     -0.01436190	      4.90306895	     -1.52311496	     -0.06827260	      0.05793420	      0.42877108	      0.88382843	      0.00198488	      0.01074974	      0.14608969	    -10.02150659	      8.10615326	     -5.09215024	     -2.95663461	     -3.62319514	     -5.45982861	     -0.02881671
      0.77000000	      2.34115848	     -0.11319476	     21.01558283	     -7.06812106	     -0.14156308	      0.44277904	      0.18450147	     -0.16301073	     -0.00034826	      0.12456919	      0.10504533	     -2.68091008	      1.99887974	     -5.90874974	     -2.47449624	      2.90147301	      3.13042716	      0.01653627
