FiberLength
version=1
nRows=55
nColumns=19
inDegrees=no

This analysis gathers basic information about muscles during a simulation (e.g., forces, tendon lengths, moment arms, etc).
Units are S.I. units (second, meters, Newtons, ...)
If the header above contains a line with 'inDegrees', this indicates whether rotational values are in degrees (yes) or radians (no).

endheader
time	hamstrings_r	bifemsh_r	glut_max_r	iliopsoas_r	rect_fem_r	vasti_r	gastroc_r	soleus_r	dorsiflexors_r	hamstrings_l	bifemsh_l	glut_max_l	iliopsoas_l	rect_fem_l	vasti_l	gastroc_l	soleus_l	dorsiflexors_l
      0.23000000	      0.04612889	      0.05580609	      0.15266747	      0.12367724	      0.08447245	      0.08365427	      0.05797816	      0.04285895	      0.02498455	      0.09080872	      0.08543341	      0.16346632	      0.12034214	      0.04666305	      0.05584078	      0.03527739	      0.03105644	      0.01808451
      0.24000000	      0.04592635	      0.05400904	      0.15452112	      0.12300987	      0.08519946	      0.08480862	      0.05673870	      0.04216342	      0.02447312	      0.08953163	      0.08582202	      0.16174335	      0.12098831	      0.04669487	      0.05531610	      0.03438876	      0.03073943	      0.01794830
      0.25000000	      0.04589960	      0.05239725	      0.15635564	      0.12234155	      0.08573043	      0.08581607	      0.05560967	      0.04158411	      0.02405294	      0.08822597	      0.08616034	      0.16004178	      0.12161993	      0.04677011	      0.05484959	      0.03367324	      0.03052431	      0.01785791
      0.26000000	      0.04612049	      0.05098060	      0.15824887	      0.12164349	      0.08604780	      0.08668130	      0.05354947	      0.04013570	      0.02302734	      0.08709528	      0.08659547	      0.15836026	      0.12223783	      0.04664387	      0.05423508	      0.03285915	      0.03035368	      0.01778740
      0.27000000	      0.04656986	      0.04978388	      0.16014539	      0.12093557	      0.08616609	      0.08739843	      0.05157836	      0.03874436	      0.02207925	      0.08600751	      0.08692270	      0.15685041	      0.12278742	      0.04660915	      0.05376134	      0.03226021	      0.03024869	      0.01774455
      0.28000000	      0.04721904	      0.04883045	      0.16197955	      0.12024253	      0.08610627	      0.08796136	      0.04981272	      0.03748987	      0.02125947	      0.08493740	      0.08729287	      0.15528299	      0.12335283	      0.04649091	      0.05321256	      0.03159567	      0.03015386	      0.01770618
      0.29000000	      0.04810254	      0.04809115	      0.16381706	      0.11953983	      0.08587301	      0.08839306	      0.04801654	      0.03615368	      0.02042724	      0.08394860	      0.08763223	      0.15382333	      0.12387476	      0.04636195	      0.05269663	      0.03100667	      0.03009670	      0.01768322
      0.30000000	      0.04920854	      0.04755612	      0.16564568	      0.11883204	      0.08548305	      0.08870304	      0.04633595	      0.03486294	      0.01966799	      0.08304997	      0.08792357	      0.15250816	      0.12434127	      0.04614126	      0.05219655	      0.03049996	      0.03005669	      0.01766722
      0.31000000	      0.05056633	      0.04723288	      0.16747917	      0.11811376	      0.08492980	      0.08888936	      0.04482753	      0.03365737	      0.01900266	      0.08223641	      0.08818925	      0.15130413	      0.12476529	      0.04579875	      0.05168327	      0.03001656	      0.03001028	      0.01764873
      0.32000000	      0.05211141	      0.04713782	      0.16922163	      0.11742303	      0.08424613	      0.08894401	      0.04370464	      0.03271101	      0.01851268	      0.08144686	      0.08848129	      0.15007591	      0.12519489	      0.04537227	      0.05111771	      0.02943736	      0.02992761	      0.01761599
      0.33000000	      0.05394771	      0.04720415	      0.17104819	      0.11669038	      0.08339912	      0.08890588	      0.04250442	      0.03164326	      0.01799651	      0.08083369	      0.08868563	      0.14914732	      0.12551773	      0.04508154	      0.05072113	      0.02903076	      0.02987460	      0.01759513
      0.34000000	      0.05593066	      0.04750710	      0.17272300	      0.11601076	      0.08244554	      0.08873134	      0.04172096	      0.03085340	      0.01764116	      0.08019868	      0.08891299	      0.14815568	      0.12586067	      0.04473277	      0.05027912	      0.02853925	      0.02978784	      0.01756122
      0.35000000	      0.05810371	      0.04800106	      0.17434008	      0.11534739	      0.08137234	      0.08844539	      0.04112003	      0.03015848	      0.01734802	      0.07960611	      0.08911362	      0.14724087	      0.12617541	      0.04442466	      0.04988846	      0.02806836	      0.02968442	      0.01752116
      0.36000000	      0.06053749	      0.04868321	      0.17596976	      0.11467162	      0.08014473	      0.08804766	      0.04058431	      0.02946640	      0.01707484	      0.07914451	      0.08926848	      0.14652602	      0.12642027	      0.04418142	      0.04958652	      0.02765093	      0.02956134	      0.01747400
      0.37000000	      0.06309596	      0.04959510	      0.17743836	      0.11405638	      0.07881617	      0.08751047	      0.04035400	      0.02897134	      0.01689119	      0.07864888	      0.08943273	      0.14575724	      0.12668258	      0.04391862	      0.04926591	      0.02716703	      0.02939834	      0.01741243
      0.38000000	      0.06575090	      0.05072500	      0.17873774	      0.11350704	      0.07739540	      0.08683549	      0.04026664	      0.02855155	      0.01674330	      0.07812116	      0.08959817	      0.14494811	      0.12695751	      0.04365483	      0.04894262	      0.02668846	      0.02924500	      0.01735541
      0.39000000	      0.06852918	      0.05210849	      0.17986163	      0.11302807	      0.07585515	      0.08599392	      0.04056141	      0.02840412	      0.01669309	      0.07755840	      0.08967779	      0.14422811	      0.12720118	      0.04360995	      0.04878692	      0.02639997	      0.02912204	      0.01731033
      0.40000000	      0.07151908	      0.05366616	      0.18097267	      0.11255109	      0.07415463	      0.08502508	      0.04034733	      0.02784269	      0.01651013	      0.07712219	      0.08983931	      0.14351378	      0.12744205	      0.04331897	      0.04847083	      0.02583881	      0.02889555	      0.01722881
      0.41000000	      0.07461317	      0.05549822	      0.18187290	      0.11216204	      0.07231240	      0.08385446	      0.04069867	      0.02772826	      0.01647446	      0.07662714	      0.08991365	      0.14286714	      0.12765936	      0.04326117	      0.04832523	      0.02551837	      0.02873849	      0.01717343
      0.42000000	      0.07777168	      0.05751026	      0.18262316	      0.11183605	      0.07034796	      0.08252700	      0.04072182	      0.02738354	      0.01637031	      0.07612713	      0.09001876	      0.14216410	      0.12789483	      0.04312202	      0.04811930	      0.02501558	      0.02847439	      0.01708244
      0.43000000	      0.08113628	      0.05975464	      0.18329219	      0.11154399	      0.06816070	      0.08099013	      0.04105083	      0.02732293	      0.01635252	      0.07570520	      0.09007454	      0.14161933	      0.12807673	      0.04308689	      0.04800995	      0.02472638	      0.02831536	      0.01702896
      0.44000000	      0.08426358	      0.06219996	      0.18352496	      0.11144208	      0.06594489	      0.07924207	      0.04054669	      0.02714958	      0.01630248	      0.07503865	      0.09013216	      0.14080197	      0.12834876	      0.04310720	      0.04789697	      0.02429917	      0.02804051	      0.01693883
      0.45000000	      0.08779598	      0.06477461	      0.18394094	      0.11125957	      0.06338592	      0.07731025	      0.04060844	      0.02712072	      0.01629428	      0.07467651	      0.09016321	      0.14035608	      0.12849673	      0.04311720	      0.04783608	      0.02405549	      0.02788100	      0.01688787
      0.46000000	      0.09079594	      0.06753024	      0.18368062	      0.11137384	      0.06087964	      0.07512495	      0.04045835	      0.02713009	      0.01629694	      0.07387719	      0.09016446	      0.13947268	      0.12878897	      0.04331325	      0.04783363	      0.02368245	      0.02756214	      0.01678900
      0.47000000	      0.09431862	      0.07027300	      0.18383270	      0.11130711	      0.05796157	      0.07280753	      0.03998515	      0.02711329	      0.01629217	      0.07356393	      0.09016424	      0.13912573	      0.12890343	      0.04339094	      0.04783405	      0.02351975	      0.02742218	      0.01674687
      0.48000000	      0.09688232	      0.07315672	      0.18297709	      0.11168170	      0.05522039	      0.07019307	      0.03946386	      0.02733841	      0.01635705	      0.07254027	      0.09012385	      0.13804762	      0.12925799	      0.04374641	      0.04791326	      0.02327765	      0.02715052	      0.01666730
      0.49000000	      0.10019186	      0.07581269	      0.18293693	      0.11169923	      0.05206433	      0.06761883	      0.03833859	      0.02730307	      0.01634672	      0.07228190	      0.09008542	      0.13781866	      0.12933307	      0.04391034	      0.04798862	      0.02317415	      0.02700152	      0.01662490
      0.50000000	      0.10206196	      0.07854261	      0.18154398	      0.11230446	      0.04933217	      0.06479161	      0.03742505	      0.02774880	      0.01648082	      0.07102956	      0.09001086	      0.13652129	      0.12975721	      0.04440349	      0.04813476	      0.02303957	      0.02677077	      0.01656098
      0.51000000	      0.10482330	      0.08085958	      0.18129738	      0.11241103	      0.04633426	      0.06223885	      0.03582746	      0.02774435	      0.01647944	      0.07071949	      0.08990075	      0.13634379	      0.12981506	      0.04476790	      0.04835050	      0.02300472	      0.02657217	      0.01650767
      0.52000000	      0.10688624	      0.08299413	      0.18061183	      0.11270638	      0.04369736	      0.05977608	      0.03451567	      0.02811548	      0.01659739	      0.07008237	      0.08975997	      0.13583948	      0.12997923	      0.04528713	      0.04862613	      0.02281556	      0.02620217	      0.01641255
      0.53000000	      0.10782360	      0.08491824	      0.17916218	      0.11332657	      0.04163231	      0.05745044	      0.03354098	      0.02886557	      0.01685325	      0.06884606	      0.08958259	      0.13469570	      0.13035041	      0.04603479	      0.04897308	      0.02275628	      0.02589402	      0.01633753
      0.54000000	      0.10900918	      0.08641571	      0.17837939	      0.11365901	      0.03971394	      0.05551801	      0.03229763	      0.02924718	      0.01699229	      0.06806348	      0.08939461	      0.13408387	      0.13054834	      0.04670188	      0.04934035	      0.02273931	      0.02561368	      0.01627260
      0.55000000	      0.10983093	      0.08760838	      0.17762199	      0.11397904	      0.03812488	      0.05385971	      0.03121718	      0.02961690	      0.01713262	      0.06724858	      0.08916631	      0.13349135	      0.13073965	      0.04747558	      0.04978576	      0.02281690	      0.02536326	      0.01621729
      0.56000000	      0.11029713	      0.08850212	      0.17690650	      0.11427988	      0.03686337	      0.05250078	      0.03039998	      0.02998323	      0.01727705	      0.06638745	      0.08888913	      0.13291402	      0.13092571	      0.04837824	      0.05032556	      0.02301176	      0.02515224	      0.01617265
      0.57000000	      0.11027940	      0.08912551	      0.17610193	      0.11461650	      0.03565817	      0.05128460	      0.02998475	      0.03042799	      0.01745950	      0.06536620	      0.08854015	      0.13224989	      0.13113934	      0.04948837	      0.05100353	      0.02342955	      0.02503850	      0.01614934
      0.58000000	      0.11039917	      0.08940809	      0.17584287	      0.11472450	      0.03505138	      0.05073095	      0.02960659	      0.03048284	      0.01748253	      0.06461398	      0.08817977	      0.13191619	      0.13124654	      0.05055636	      0.05170162	      0.02401660	      0.02505677	      0.01615305
      0.59000000	      0.10989150	      0.08964197	      0.17510516	      0.11503104	      0.03478163	      0.05027168	      0.03001000	      0.03116032	      0.01777649	      0.06353249	      0.08772615	      0.13132091	      0.13143753	      0.05184782	      0.05255157	      0.02451481	      0.02490847	      0.01612334
      0.60000000	      0.10939787	      0.08957113	      0.17477168	      0.11516913	      0.03511666	      0.05041088	      0.03042098	      0.03141951	      0.01789351	      0.06260500	      0.08722493	      0.13097447	      0.13154856	      0.05280115	      0.05331434	      0.02543056	      0.02504874	      0.01615142
      0.61000000	      0.10865777	      0.08933781	      0.17443443	      0.11530846	      0.03587517	      0.05086878	      0.03128349	      0.03184817	      0.01809244	      0.06159913	      0.08666232	      0.13061422	      0.13166392	      0.05382971	      0.05413912	      0.02646743	      0.02523544	      0.01619003
      0.62000000	      0.10778677	      0.08895561	      0.17417260	      0.11541642	      0.03698114	      0.05161677	      0.03230603	      0.03222227	      0.01827144	      0.06058394	      0.08599561	      0.13038927	      0.13173591	      0.05497119	      0.05507792	      0.02777749	      0.02554929	      0.01625814
      0.63000000	      0.10677190	      0.08843636	      0.17395585	      0.11550565	      0.03840803	      0.05262839	      0.03355730	      0.03263692	      0.01847558	      0.05954148	      0.08523735	      0.13025475	      0.13177895	      0.05620094	      0.05610125	      0.02934075	      0.02600226	      0.01636345
      0.64000000	      0.10565109	      0.08783856	      0.17373877	      0.11559489	      0.03956324	      0.05352461	      0.03478355	      0.03296328	      0.01864040	      0.05847514	      0.08434873	      0.13027132	      0.13177365	      0.05756142	      0.05725047	      0.03115741	      0.02657509	      0.01650844
      0.65000000	      0.10451464	      0.08713253	      0.17363425	      0.11563781	      0.04081184	      0.05453629	      0.03607923	      0.03326309	      0.01879494	      0.05744992	      0.08335321	      0.13048198	      0.13170625	      0.05900558	      0.05848803	      0.03334903	      0.02740961	      0.01674313
      0.66000000	      0.10337092	      0.08639809	      0.17354780	      0.11567329	      0.04205303	      0.05554162	      0.03716755	      0.03339881	      0.01886588	      0.05644471	      0.08220428	      0.13092719	      0.13156371	      0.06059967	      0.05987078	      0.03584373	      0.02843967	      0.01707068
      0.67000000	      0.10209926	      0.08570411	      0.17328964	      0.11577912	      0.04326912	      0.05645392	      0.03799558	      0.03339679	      0.01886481	      0.05534621	      0.08083632	      0.13155189	      0.13136346	      0.06244172	      0.06146981	      0.03847182	      0.02951508	      0.01745643
      0.68000000	      0.10126900	      0.08498066	      0.17344403	      0.11571585	      0.04430717	      0.05737253	      0.03848262	      0.03311011	      0.01871571	      0.05454817	      0.07929707	      0.13278600	      0.13096692	      0.06436984	      0.06321331	      0.04144320	      0.03089115	      0.01801304
      0.69000000	      0.09988253	      0.08438594	      0.17294797	      0.11591889	      0.04542862	      0.05810738	      0.03883387	      0.03286485	      0.01859031	      0.05340769	      0.07762202	      0.13373458	      0.13066116	      0.06645699	      0.06504252	      0.04439912	      0.03233247	      0.01866817
      0.70000000	      0.09877453	      0.08387439	      0.17258938	      0.11606526	      0.04634917	      0.05872773	      0.03876477	      0.03235584	      0.01833655	      0.05243512	      0.07572143	      0.13518034	      0.13019332	      0.06863971	      0.06702361	      0.04762061	      0.03406311	      0.01954530
      0.71000000	      0.09781900	      0.08343137	      0.17227807	      0.11619204	      0.04713935	      0.05925797	      0.03853201	      0.03178591	      0.01806313	      0.05156932	      0.07363042	      0.13698009	      0.12960747	      0.07084844	      0.06909586	      0.05049184	      0.03561352	      0.02040752
      0.72000000	      0.09655508	      0.08317247	      0.17146975	      0.11652002	      0.04788422	      0.05956536	      0.03808460	      0.03119736	      0.01779306	      0.05056557	      0.07149322	      0.13860647	      0.12907441	      0.07298763	      0.07110978	      0.05326046	      0.03728152	      0.02140746
      0.73000000	      0.09546743	      0.08301872	      0.17068690	      0.11683600	      0.04845995	      0.05974708	      0.03745956	      0.03055065	      0.01751117	      0.04972555	      0.06924566	      0.14053632	      0.12843695	      0.07500949	      0.07311564	      0.05564916	      0.03879820	      0.02237477
      0.74000000	      0.09439234	      0.08297470	      0.16977880	      0.11720048	      0.04892800	      0.05979898	      0.03674896	      0.02992424	      0.01725343	      0.04897368	      0.06696456	      0.14256458	      0.12776080	      0.07685991	      0.07504013	      0.05754043	      0.04007624	      0.02322826
      0.75000000	      0.09299244	      0.08313909	      0.16831978	      0.11778153	      0.04932745	      0.05960486	      0.03611708	      0.02952662	      0.01709784	      0.04807374	      0.06473875	      0.14427429	      0.12718558	      0.07857102	      0.07682330	      0.05849996	      0.04070931	      0.02366294
      0.76000000	      0.09244493	      0.08316997	      0.16778631	      0.11799258	      0.04951190	      0.05956832	      0.03522663	      0.02882046	      0.01683721	      0.04791820	      0.06242772	      0.14699251	      0.12626059	      0.07995221	      0.07858874	      0.05950277	      0.04157127	      0.02426658
      0.77000000	      0.09104250	      0.08349060	      0.16611504	      0.11864900	      0.04974981	      0.05918740	      0.03456371	      0.02852622	      0.01673461	      0.04729916	      0.06037787	      0.14874528	      0.12565699	      0.08122695	      0.08008932	      0.05961742	      0.04177981	      0.02441458
