Moment_knee_angle_r
version=1
nRows=55
nColumns=19
inDegrees=no

This analysis gathers basic information about muscles during a simulation (e.g., forces, tendon lengths, moment arms, etc).
Units are S.I. units (second, meters, Newtons, ...)
If the header above contains a line with 'inDegrees', this indicates whether rotational values are in degrees (yes) or radians (no).

endheader
time	hamstrings_r	bifemsh_r	glut_max_r	iliopsoas_r	rect_fem_r	vasti_r	gastroc_r	soleus_r	dorsiflexors_r	hamstrings_l	bifemsh_l	glut_max_l	iliopsoas_l	rect_fem_l	vasti_l	gastroc_l	soleus_l	dorsiflexors_l
      0.23000000	    -98.54396065	    -16.88329840	      0.00000000	      0.00000000	     41.32295824	    142.95075130	     26.38634990	     -0.00000000	     -0.00000000	      0.00000000	      0.00000000	      0.00000000	      0.00000000	      0.00000000	      0.00000000	      0.00000000	      0.00000000	      0.00000000
      0.24000000	    -97.99691469	    -17.05217854	      0.00000000	      0.00000000	     39.44998932	    137.53909706	     30.45175341	     -0.00000000	      0.00000000	      0.00000000	      0.00000000	      0.00000000	      0.00000000	      0.00000000	      0.00000000	      0.00000000	      0.00000000	      0.00000000
      0.25000000	    -97.32119789	    -17.18232573	      0.00000000	      0.00000000	     37.74368194	    132.60092236	     34.06182392	      0.00000000	      0.00000000	      0.00000000	      0.00000000	      0.00000000	      0.00000000	      0.00000000	      0.00000000	      0.00000000	      0.00000000	      0.00000000
      0.26000000	    -96.57332207	    -17.27929988	      0.00000000	      0.00000000	     36.22649366	    128.18212265	     37.19870249	     -0.00000000	      0.00000000	      0.00000000	      0.00000000	      0.00000000	      0.00000000	      0.00000000	      0.00000000	      0.00000000	      0.00000000	      0.00000000
      0.27000000	    -95.82172792	    -17.34787057	      0.00000000	      0.00000000	     34.93354273	    124.38290822	     39.82204697	      0.00000000	      0.00000000	      0.00000000	      0.00000000	      0.00000000	      0.00000000	      0.00000000	      0.00000000	      0.00000000	      0.00000000	      0.00000000
      0.28000000	    -95.13810164	    -17.39329392	      0.00000000	      0.00000000	     33.90179137	    121.31520267	     41.89331386	      0.00000000	      0.00000000	      0.00000000	      0.00000000	      0.00000000	      0.00000000	      0.00000000	      0.00000000	      0.00000000	      0.00000000	      0.00000000
      0.29000000	    -94.54997364	    -17.42261889	      0.00000000	      0.00000000	     33.11134977	    118.91713861	     43.47814970	     -0.00000000	      0.00000000	      0.00000000	      0.00000000	      0.00000000	      0.00000000	      0.00000000	      0.00000000	      0.00000000	      0.00000000	      0.00000000
      0.30000000	    -94.08708584	    -17.44049359	      0.00000000	      0.00000000	     32.55589861	    117.16699224	     44.60505953	     -0.00000000	      0.00000000	      0.00000000	      0.00000000	      0.00000000	      0.00000000	      0.00000000	      0.00000000	      0.00000000	      0.00000000	      0.00000000
      0.31000000	    -93.78338490	    -17.44988554	      0.00000000	      0.00000000	     32.25102368	    116.10236525	     45.26165007	     -0.00000000	     -0.00000000	      0.00000000	      0.00000000	      0.00000000	      0.00000000	      0.00000000	      0.00000000	      0.00000000	      0.00000000	      0.00000000
      0.32000000	    -93.67325293	    -17.45244161	      0.00000000	      0.00000000	     32.21648238	    115.78813444	     45.42307198	      0.00000000	      0.00000000	      0.00000000	      0.00000000	      0.00000000	      0.00000000	      0.00000000	      0.00000000	      0.00000000	      0.00000000	      0.00000000
      0.33000000	    -93.70396057	    -17.45066806	      0.00000000	      0.00000000	     32.38063288	    116.00744597	     45.21784771	      0.00000000	      0.00000000	      0.00000000	      0.00000000	      0.00000000	      0.00000000	      0.00000000	      0.00000000	      0.00000000	      0.00000000	      0.00000000
      0.34000000	    -93.93998454	    -17.44198682	      0.00000000	      0.00000000	     32.82231598	    117.00592673	     44.50366185	      0.00000000	      0.00000000	      0.00000000	      0.00000000	      0.00000000	      0.00000000	      0.00000000	      0.00000000	      0.00000000	      0.00000000	      0.00000000
      0.35000000	    -94.32691277	    -17.42582867	      0.00000000	      0.00000000	     33.48619595	    118.62341034	     43.37134674	      0.00000000	      0.00000000	      0.00000000	      0.00000000	      0.00000000	      0.00000000	      0.00000000	      0.00000000	      0.00000000	      0.00000000	      0.00000000
      0.36000000	    -94.84034326	    -17.39955320	      0.00000000	      0.00000000	     34.36630028	    120.83918637	     41.81999537	      0.00000000	      0.00000000	      0.00000000	      0.00000000	      0.00000000	      0.00000000	      0.00000000	      0.00000000	      0.00000000	      0.00000000	      0.00000000
      0.37000000	    -95.48120078	    -17.35752731	      0.00000000	      0.00000000	     35.49788348	    123.77743933	     39.77058538	      0.00000000	      0.00000000	      0.00000000	      0.00000000	      0.00000000	      0.00000000	      0.00000000	      0.00000000	      0.00000000	      0.00000000	      0.00000000
      0.38000000	    -96.19818603	    -17.29499505	      0.00000000	      0.00000000	     36.85682386	    127.37609320	     37.23634278	     -0.00000000	      0.00000000	      0.00000000	      0.00000000	      0.00000000	      0.00000000	      0.00000000	      0.00000000	      0.00000000	      0.00000000	      0.00000000
      0.39000000	    -96.96116849	    -17.20344143	      0.00000000	      0.00000000	     38.46864998	    131.70660017	     34.14825181	      0.00000000	      0.00000000	      0.00000000	      0.00000000	      0.00000000	      0.00000000	      0.00000000	      0.00000000	      0.00000000	      0.00000000	      0.00000000
      0.40000000	    -97.67383104	    -17.08158358	      0.00000000	      0.00000000	     40.23855833	    136.49580181	     30.61316272	      0.00000000	      0.00000000	      0.00000000	      0.00000000	      0.00000000	      0.00000000	      0.00000000	      0.00000000	      0.00000000	      0.00000000	      0.00000000
      0.41000000	    -98.32152958	    -16.91396874	      0.00000000	      0.00000000	     42.25776018	    142.02988316	     26.46782177	      0.00000000	      0.00000000	      0.00000000	      0.00000000	      0.00000000	      0.00000000	      0.00000000	      0.00000000	      0.00000000	      0.00000000	      0.00000000
      0.42000000	    -98.80424864	    -16.70078778	      0.00000000	      0.00000000	     44.41539197	    148.00747344	     21.84481185	     -0.00000000	      0.00000000	      0.00000000	      0.00000000	      0.00000000	      0.00000000	      0.00000000	      0.00000000	      0.00000000	      0.00000000	      0.00000000
      0.43000000	    -99.06869460	    -16.42803668	      0.00000000	      0.00000000	     46.76117521	    154.58008724	     16.65131043	      0.00000000	      0.00000000	      0.00000000	      0.00000000	      0.00000000	      0.00000000	      0.00000000	      0.00000000	      0.00000000	      0.00000000	      0.00000000
      0.44000000	    -99.03286767	    -16.08945545	      0.00000000	      0.00000000	     49.24313058	    161.66148782	      8.88926411	     -0.00000000	      0.00000000	      0.00000000	      0.00000000	      0.00000000	      0.00000000	      0.00000000	      0.00000000	      0.00000000	      0.00000000	      0.00000000
      0.45000000	    -98.63202057	    -15.68607845	      0.00000000	      0.00000000	     51.81290559	    169.08319181	     -0.82381851	      0.00000000	      0.00000000	      0.00000000	      0.00000000	      0.00000000	      0.00000000	      0.00000000	      0.00000000	      0.00000000	      0.00000000	      0.00000000
      0.46000000	    -97.78177257	    -15.19968946	      0.00000000	      0.00000000	     54.61141938	    177.44445799	    -11.36739702	     -0.00000000	     -0.00000000	      0.00000000	      0.00000000	      0.00000000	      0.00000000	      0.00000000	      0.00000000	      0.00000000	      0.00000000	      0.00000000
      0.47000000	    -96.48819250	    -14.65669452	      0.00000000	      0.00000000	     57.53678143	    186.39190915	    -22.02316241	      0.00000000	      0.00000000	      0.00000000	      0.00000000	      0.00000000	      0.00000000	      0.00000000	      0.00000000	      0.00000000	      0.00000000	      0.00000000
      0.48000000	    -94.61465666	    -14.01762104	      0.00000000	      0.00000000	     60.40487293	    195.57838451	    -33.36090344	      0.00000000	      0.00000000	      0.00000000	      0.00000000	      0.00000000	      0.00000000	      0.00000000	      0.00000000	      0.00000000	      0.00000000	      0.00000000
      0.49000000	    -92.38506092	    -13.36088317	      0.00000000	      0.00000000	     62.29898648	    202.48865561	    -43.98364245	      0.00000000	      0.00000000	      0.00000000	      0.00000000	      0.00000000	      0.00000000	      0.00000000	      0.00000000	      0.00000000	      0.00000000	      0.00000000
      0.50000000	    -89.52776140	    -12.60874233	      0.00000000	      0.00000000	     63.76988439	    209.67447085	    -54.98940508	      0.00000000	      0.00000000	      0.00000000	      0.00000000	      0.00000000	      0.00000000	      0.00000000	      0.00000000	      0.00000000	      0.00000000	      0.00000000
      0.51000000	    -86.59520531	    -11.89952901	      0.00000000	      0.00000000	     63.86884586	    212.78771990	    -64.48520570	      0.00000000	      0.00000000	      0.00000000	      0.00000000	      0.00000000	      0.00000000	      0.00000000	      0.00000000	      0.00000000	      0.00000000	      0.00000000
      0.52000000	    -83.41170567	    -11.17833963	      0.00000000	      0.00000000	     63.11715809	    213.57905025	    -73.28514061	     -0.00000000	      0.00000000	      0.00000000	      0.00000000	      0.00000000	      0.00000000	      0.00000000	      0.00000000	      0.00000000	      0.00000000	      0.00000000
      0.53000000	    -80.07301498	    -10.46180761	      0.00000000	      0.00000000	     62.79290192	    216.42149683	    -81.26229309	     -0.00000000	      0.00000000	      0.00000000	      0.00000000	      0.00000000	      0.00000000	      0.00000000	      0.00000000	      0.00000000	      0.00000000	      0.00000000
      0.54000000	    -77.11472342	     -9.85187452	      0.00000000	      0.00000000	     63.80328937	    224.10655258	    -87.54126567	      0.00000000	      0.00000000	      0.00000000	      0.00000000	      0.00000000	      0.00000000	      0.00000000	      0.00000000	      0.00000000	      0.00000000	      0.00000000
      0.55000000	    -74.49026347	     -9.32702939	      0.00000000	      0.00000000	     65.18761354	    233.45891131	    -92.57278621	     -0.00000000	     -0.00000000	      0.00000000	      0.00000000	      0.00000000	      0.00000000	      0.00000000	      0.00000000	      0.00000000	      0.00000000	      0.00000000
      0.56000000	    -72.34150274	     -8.90713494	      0.00000000	      0.00000000	     66.02707777	    237.15812172	    -96.36037549	     -0.00000000	      0.00000000	      0.00000000	      0.00000000	      0.00000000	      0.00000000	      0.00000000	      0.00000000	      0.00000000	      0.00000000	      0.00000000
      0.57000000	    -70.73463155	     -8.59882409	      0.00000000	      0.00000000	     62.78298589	    230.13912716	    -99.00591593	      0.00000000	      0.00000000	      0.00000000	      0.00000000	      0.00000000	      0.00000000	      0.00000000	      0.00000000	      0.00000000	      0.00000000	      0.00000000
      0.58000000	    -69.97641893	     -8.45446080	      0.00000000	      0.00000000	     61.21222672	    225.33662764	   -100.21548733	      0.00000000	      0.00000000	      0.00000000	      0.00000000	      0.00000000	      0.00000000	      0.00000000	      0.00000000	      0.00000000	      0.00000000	      0.00000000
      0.59000000	    -69.32557623	     -8.33265696	      0.00000000	      0.00000000	     59.65290275	    220.64734827	   -101.19295679	     -0.00000000	     -0.00000000	      0.00000000	      0.00000000	      0.00000000	      0.00000000	      0.00000000	      0.00000000	      0.00000000	      0.00000000	      0.00000000
      0.60000000	    -69.51569671	     -8.36977732	      0.00000000	      0.00000000	     60.10801994	    222.13734631	   -100.87885040	      0.00000000	      0.00000000	      0.00000000	      0.00000000	      0.00000000	      0.00000000	      0.00000000	      0.00000000	      0.00000000	      0.00000000	      0.00000000
      0.61000000	    -70.14436883	     -8.49064726	      0.00000000	      0.00000000	     61.52886861	    226.61812737	    -99.86136389	      0.00000000	     -0.00000000	      0.00000000	      0.00000000	      0.00000000	      0.00000000	      0.00000000	      0.00000000	      0.00000000	      0.00000000	      0.00000000
      0.62000000	    -71.14920051	     -8.68419970	      0.00000000	      0.00000000	     63.51193239	    232.54763658	    -98.20917799	     -0.00000000	     -0.00000000	      0.00000000	      0.00000000	      0.00000000	      0.00000000	      0.00000000	      0.00000000	      0.00000000	      0.00000000	      0.00000000
      0.63000000	    -72.46134009	     -8.93888854	      0.00000000	      0.00000000	     66.13141006	    241.46181555	    -95.97303532	     -0.00000000	      0.00000000	      0.00000000	      0.00000000	      0.00000000	      0.00000000	      0.00000000	      0.00000000	      0.00000000	      0.00000000	      0.00000000
      0.64000000	    -73.89941320	     -9.22121859	      0.00000000	      0.00000000	     65.26607159	    235.56611347	    -93.41050149	      0.00000000	      0.00000000	      0.00000000	      0.00000000	      0.00000000	      0.00000000	      0.00000000	      0.00000000	      0.00000000	      0.00000000	      0.00000000
      0.65000000	    -75.50850918	     -9.54099029	      0.00000000	      0.00000000	     64.33081576	    229.40500873	    -90.39583204	     -0.00000000	     -0.00000000	      0.00000000	      0.00000000	      0.00000000	      0.00000000	      0.00000000	      0.00000000	      0.00000000	      0.00000000	      0.00000000
      0.66000000	    -77.08613547	     -9.85935302	      0.00000000	      0.00000000	     63.50453235	    223.98900138	    -87.27516337	     -0.00000000	      0.00000000	      0.00000000	      0.00000000	      0.00000000	      0.00000000	      0.00000000	      0.00000000	      0.00000000	      0.00000000	      0.00000000
      0.67000000	    -78.49063399	    -10.14800088	      0.00000000	      0.00000000	     62.89591297	    219.86318819	    -84.33959333	     -0.00000000	      0.00000000	      0.00000000	      0.00000000	      0.00000000	      0.00000000	      0.00000000	      0.00000000	      0.00000000	      0.00000000	      0.00000000
      0.68000000	    -79.88397563	    -10.43736497	      0.00000000	      0.00000000	     62.51449904	    216.64552135	    -81.29855100	      0.00000000	      0.00000000	      0.00000000	      0.00000000	      0.00000000	      0.00000000	      0.00000000	      0.00000000	      0.00000000	      0.00000000	      0.00000000
      0.69000000	    -80.96126706	    -10.66705645	      0.00000000	      0.00000000	     62.36748413	    214.86616645	    -78.80746884	     -0.00000000	      0.00000000	      0.00000000	      0.00000000	      0.00000000	      0.00000000	      0.00000000	      0.00000000	      0.00000000	      0.00000000	      0.00000000
      0.70000000	    -81.85091486	    -10.85909634	      0.00000000	      0.00000000	     62.40484041	    213.98350339	    -76.68352635	      0.00000000	      0.00000000	      0.00000000	      0.00000000	      0.00000000	      0.00000000	      0.00000000	      0.00000000	      0.00000000	      0.00000000	      0.00000000
      0.71000000	    -82.59412211	    -11.02148275	      0.00000000	      0.00000000	     62.56117399	    213.70309596	    -74.85718722	     -0.00000000	     -0.00000000	      0.00000000	      0.00000000	      0.00000000	      0.00000000	      0.00000000	      0.00000000	      0.00000000	      0.00000000	      0.00000000
      0.72000000	    -83.00377139	    -11.11476315	      0.00000000	      0.00000000	     62.64526105	    213.62655794	    -73.80740807	      0.00000000	      0.00000000	      0.00000000	      0.00000000	      0.00000000	      0.00000000	      0.00000000	      0.00000000	      0.00000000	      0.00000000	      0.00000000
      0.73000000	    -83.23569208	    -11.16960767	      0.00000000	      0.00000000	     62.68240333	    213.58541908	    -73.20461009	     -0.00000000	      0.00000000	      0.00000000	      0.00000000	      0.00000000	      0.00000000	      0.00000000	      0.00000000	      0.00000000	      0.00000000	      0.00000000
      0.74000000	    -83.28456093	    -11.18523321	      0.00000000	      0.00000000	     62.66243116	    213.57405003	    -73.06237090	      0.00000000	     -0.00000000	      0.00000000	      0.00000000	      0.00000000	      0.00000000	      0.00000000	      0.00000000	      0.00000000	      0.00000000	      0.00000000
      0.75000000	    -82.97904239	    -11.12670471	      0.00000000	      0.00000000	     62.51641486	    213.61740802	    -73.77518110	     -0.00000000	     -0.00000000	      0.00000000	      0.00000000	      0.00000000	      0.00000000	      0.00000000	      0.00000000	      0.00000000	      0.00000000	      0.00000000
      0.76000000	    -82.91323443	    -11.11565845	      0.00000000	      0.00000000	     62.47636849	    213.62586772	    -73.95755890	     -0.00000000	      0.00000000	      0.00000000	      0.00000000	      0.00000000	      0.00000000	      0.00000000	      0.00000000	      0.00000000	      0.00000000	      0.00000000
      0.77000000	    -82.33021719	    -10.99997654	      0.00000000	      0.00000000	     62.23647600	    213.72230555	    -75.31741663	     -0.00000000	     -0.00000000	      0.00000000	      0.00000000	      0.00000000	      0.00000000	      0.00000000	      0.00000000	      0.00000000	      0.00000000	      0.00000000
