ActiveFiberForceAlongTendon
version=1
nRows=55
nColumns=19
inDegrees=no

This analysis gathers basic information about muscles during a simulation (e.g., forces, tendon lengths, moment arms, etc).
Units are S.I. units (second, meters, Newtons, ...)
If the header above contains a line with 'inDegrees', this indicates whether rotational values are in degrees (yes) or radians (no).

endheader
time	hamstrings_r	bifemsh_r	glut_max_r	iliopsoas_r	rect_fem_r	vasti_r	gastroc_r	soleus_r	dorsiflexors_r	hamstrings_l	bifemsh_l	glut_max_l	iliopsoas_l	rect_fem_l	vasti_l	gastroc_l	soleus_l	dorsiflexors_l
      0.23000000	      2.50631420	      0.81843158	    201.10043241	    139.67307947	    140.84958902	    255.50822080	   -165.60425457	   -264.71727169	      1.68242365	     97.60064154	     22.64918576	    163.32279332	    161.33661365	     21.58694512	     11.62340033	    -14.91750426	   -161.96738202	      0.73907588
      0.24000000	      2.52453091	      0.74328986	    203.83250498	    139.81338011	    137.31316885	    270.00853110	   -164.22217703	   -266.83384642	      1.61748744	     92.62790467	     22.77119883	    163.37063008	    160.71731586	     21.85803119	     11.33270694	    -12.36837989	   -156.96531986	      0.72304386
      0.25000000	      2.56662233	      0.68635483	    206.12337323	    140.02929544	    133.75958347	    281.01124438	   -143.68874720	   -226.47843039	      1.45741362	     87.60052572	     23.10852288	    161.69464523	    160.61524188	     21.85464935	     10.90218744	    -10.67096554	   -155.11035979	      0.71434850
      0.26000000	      2.66078916	      0.64266538	    209.01568498	    139.77878405	    129.82007885	    289.06504135	   -118.11867650	   -175.55901126	      1.19862987	     83.76509418	     23.34535250	    162.56032258	    159.47719056	     20.99244049	     10.49403399	     -9.39714094	   -152.66750932	      0.70661683
      0.27000000	      2.77656756	      0.61275370	    210.21316736	    140.28134545	    126.41600181	    294.04636700	   -125.90509897	   -190.81574171	      1.14690433	     78.13061646	     23.39017369	    162.00331670	    158.85388539	     21.03158430	     10.27991573	     -8.86848281	   -151.51354467	      0.70237997
      0.28000000	      2.93485239	      0.59205875	    211.52845735	    140.47380221	    123.08420151	    296.88832979	   -118.87275324	   -177.76630358	      1.03478679	     73.07530533	     23.70235740	    160.22875538	    158.56165463	     20.11863177	      9.84687621	     -8.01238035	   -149.39720441	      0.69739547
      0.29000000	      3.13873889	      0.57769533	    212.74596730	    140.50512000	    120.08192251	    298.34659175	   -112.66195133	   -169.60035831	      0.93853925	     68.35151965	     23.73960420	    160.96161523	    157.33938462	     19.63056197	      9.62262887	     -7.68563612	   -149.22881707	      0.69570945
      0.30000000	      3.40092728	      0.57015365	    214.06696998	    140.24131385	    116.97731382	    298.45550050	   -104.46100622	   -160.69561224	      0.85295804	     64.18243495	     23.78023885	    161.94310669	    156.05682162	     18.68506257	      9.40201834	     -7.37949651	   -148.42864942	      0.69375472
      0.31000000	      3.71583399	      0.57249596	    213.79531253	    140.64595465	    114.29791045	    296.56376228	   -101.52978837	   -163.31315504	      0.79900893	     59.73560840	     23.97814059	    160.09108127	    155.86294940	     17.09328713	      9.06565740	     -6.85143502	   -145.57369609	      0.68925818
      0.32000000	      4.10656056	      0.57967308	    214.40074666	    140.30122032	    111.42340667	    294.18178239	    -92.14763082	   -152.06725231	      0.74120340	     56.05788113	     24.01971298	    161.13017797	    154.52887168	     15.46645491	      8.81326002	     -6.53409182	   -143.29916494	      0.68455350
      0.33000000	      4.60183755	      0.59346397	    214.43442901	    140.02982265	    108.45815353	    290.68843969	    -80.05615444	   -135.60194233	      0.67850028	     53.22379329	     24.00610903	    162.37417281	    153.31213139	     14.48051921	      8.66143320	     -6.37340047	   -142.05782897	      0.68181401
      0.34000000	      5.15273610	      0.61924690	    212.02882494	    140.96741147	    106.44792655	    285.09679217	    -78.36503449	   -134.45841470	      0.65021038	     49.38746753	     24.18151216	    159.60519255	    153.54958494	     13.26260821	      8.38695254	     -5.92093536	   -137.90636521	      0.67490145
      0.35000000	      5.88390102	      0.64939447	    212.08675452	    140.27815484	    103.01241865	    279.52620313	    -69.40666749	   -114.90397851	      0.60615615	     46.88278774	     24.13388844	    161.60950056	    152.00721123	     12.38306396	      8.25649897	     -5.75227697	   -134.63699416	      0.66867302
      0.36000000	      6.80161662	      0.69236577	    210.30184981	    140.44770815	     99.74070807	    271.75667184	    -66.24804567	   -104.73244123	      0.57557960	     44.60169943	     24.14130205	    161.76244257	    151.32568456	     11.72616963	      8.13110706	     -5.51861705	   -129.79604242	      0.66023387
      0.37000000	      7.92841565	      0.74766742	    207.26803583	    141.25547497	     97.15278475	    262.54764834	    -64.35190986	    -93.20658854	      0.55001979	     41.80900421	     24.32303611	    159.18722081	    151.64485089	     10.94980545	      7.91428747	     -5.10903013	   -123.60959075	      0.64943569
      0.38000000	      9.52984542	      0.82037305	    203.84030049	    142.25372748	     93.94986734	    250.91668678	    -68.91254214	    -91.74964158	      0.53881022	     38.90371465	     24.17618198	    159.11184362	    150.94861483	     10.51199587	      7.85354724	     -5.13124651	   -121.62419414	      0.64389866
      0.39000000	     12.32196556	      0.90995815	    201.90641353	    142.42118353	     89.91985396	    237.99641509	    -70.04252506	    -81.48269475	      0.52333124	     36.38934587	     24.27220610	    158.46974745	    150.54181229	     10.32890286	      7.74735908	     -4.82926311	   -114.96309037	      0.63355129
      0.40000000	     17.95570077	      1.02222005	    200.07689605	    142.44931815	     85.00337836	    222.67388256	    -67.73372572	    -68.57670079	      0.49579239	     34.62369196	     24.34684045	    158.61484374	    149.82369004	      9.64255760	      7.58804414	     -4.57941608	   -108.92022813	      0.62200735
      0.41000000	     28.08461550	      1.17187459	    195.30022464	    144.26348146	     81.60517198	    204.01875062	    -75.79787235	    -69.41310795	      0.49467288	     31.88149621	     24.25317508	    156.71187949	    149.96236031	      9.66477630	      7.56878230	     -4.47479122	   -102.92917764	      0.61193591
      0.42000000	     44.66861372	      1.36318349	    195.34160112	    143.47703826	     75.59118180	    183.89796810	    -74.18626156	    -59.53804642	      0.47515426	     30.33861531	     24.33948913	    158.19852707	    148.71048361	      9.27393443	      7.44984989	     -4.24934804	    -96.01417184	      0.59896605
      0.43000000	     66.38335707	      1.66353585	    188.22403339	    146.66666456	     72.64915276	    159.34965100	    -82.09422163	    -61.70871084	      0.47708009	     27.76339253	     24.24245781	    154.51593332	    149.63509658	      9.38195888	      7.44401215	     -4.18131991	    -90.76839523	      0.58988025
      0.44000000	     90.47812054	      2.18148571	    189.48571733	    145.74994706	     66.50544467	    134.06936549	    -69.98168711	    -55.61926825	      0.46550150	     25.81522384	     24.29664280	    156.41156061	    148.10061983	      9.31751439	      7.37646800	     -4.01052411	    -83.76529952	      0.57684282
      0.45000000	    114.21687320	      3.19046009	    182.38727056	    149.02798714	     62.91036713	    106.29224097	    -72.06764982	    -58.78709867	      0.46962138	     23.80220253	     24.18549327	    153.00557334	    149.00544500	      9.50961196	      7.39413771	     -3.94284904	    -78.23612030	      0.56737174
      0.46000000	    134.07262144	      5.01614871	    184.52883703	    148.19858396	     56.39142850	     79.86277145	    -63.37322513	    -56.44479689	      0.46634107	     21.67179426	     24.18572008	    155.16892778	    147.28234300	      9.83438297	      7.39303366	     -3.81288908	    -70.30890941	      0.55248505
      0.47000000	    148.42596148	      7.78647544	    176.49720126	    152.03535085	     50.59420154	     55.60397843	    -57.54249414	    -60.35681929	      0.47190544	     19.98434572	     24.11743807	    150.61931059	    148.72864899	     10.16742518	      7.41912644	     -3.82754349	    -67.63239833	      0.54704826
      0.48000000	    158.79427718	     11.38994813	    179.14131984	    151.55220263	     41.53906224	     36.66669779	    -44.98803598	    -63.23525813	      0.47950090	     17.52258709	     24.05003591	    152.30738257	    146.99009353	     10.97510900	      7.47812340	     -3.72788203	    -60.26252969	      0.53328758
      0.49000000	    165.69605703	     15.04832822	    174.85962875	    153.61471504	     30.56507978	     24.43742843	    -32.89954456	    -65.58241739	      0.48244504	     16.61673257	     24.01960558	    150.09311559	    147.63225796	     11.46622928	      7.52174084	     -3.74385039	    -57.75554144	      0.52791106
      0.50000000	    164.13173233	     18.62107308	    169.51898990	    157.12143870	     20.78208383	     17.00675058	    -24.00163556	    -78.95245269	      0.50811904	     13.44481629	     23.86841542	    145.02737505	    148.28683908	     13.10506650	      7.64273713	     -3.72114116	    -51.96323801	      0.51652684
      0.51000000	    178.34682708	     20.92678567	    186.45698422	    149.42603008	     10.55554833	     13.99413360	    -13.55914095	    -72.84308344	      0.49950109	     14.16438035	     23.76215923	    157.99249500	    142.86691598	     13.94862178	      7.77844400	     -3.68270013	    -46.88803649	      0.50629527
      0.52000000	    164.60815501	     23.02841338	    166.70236674	    158.97203120	      6.49481666	     11.68179688	    -11.52223317	    -97.55209314	      0.54026588	     11.62476067	     23.60105002	    143.09686605	    148.33461602	     16.49520583	      7.96526636	     -3.57331710	    -38.69530774	      0.48846611
      0.53000000	    164.18015688	     24.09844151	    171.52107616	    157.78947116	      4.61893181	     10.50048395	     -9.21625857	   -119.70903539	      0.58064534	     10.14760088	     23.48250930	    143.99519089	    146.81226818	     19.72926545	      8.17047086	     -3.65369857	    -34.83698342	      0.47810441
      0.54000000	    166.88104942	     24.53594493	    178.80541918	    155.04757923	      3.71385367	      9.71468827	     -7.49027646	   -126.67345218	      0.59609131	      9.59128171	     23.34438097	    147.60430492	    144.74063438	     22.99111309	      8.39718418	     -3.66203749	    -30.61934479	      0.46691216
      0.55000000	    162.74338555	     24.70786838	    178.85355426	    155.43099153	      3.39971116	      9.09254050	     -6.91600336	   -138.69472050	      0.61891661	      8.74365904	     23.14522883	    146.24877895	    144.64628111	     27.63273353	      8.69258477	     -3.77631839	    -27.80518484	      0.45832979
      0.56000000	    156.45196713	     24.69552290	    177.01685391	    156.57672470	      3.28161425	      8.67243832	     -7.00402762	   -156.27897081	      0.64964530	      7.91833368	     22.83937546	    144.18435516	    144.84456387	     33.97743641	      9.09145622	     -3.94146859	    -25.44364609	      0.45081090
      0.57000000	    155.74988556	     24.20908902	    183.51615684	    154.06990348	      3.21000666	      8.56326548	     -6.77542452	   -157.37748269	      0.66237361	      7.40374775	     22.60903097	    145.88504365	    143.43147193	     41.87875602	      9.53464709	     -4.31034394	    -25.66880268	      0.44994671
      0.58000000	    152.47402897	     23.99143993	    183.43971532	    154.21344750	      3.18760850	      8.47695645	     -7.19578870	   -167.91503924	      0.67687933	      6.96730874	     22.33107255	    145.54888827	    143.19541408	     50.29580207	     10.02627073	     -4.51916415	    -25.11837598	      0.44893058
      0.59000000	    145.44388483	     23.75903025	    181.02016452	    155.56377913	      3.27502401	      8.41550203	     -8.08334645	   -195.75188067	      0.73304896	      6.34955516	     21.89420442	    143.76348980	    143.25081148	     61.24452723	     10.70386754	     -4.88010217	    -23.89738027	      0.44438354
      0.60000000	    145.40942451	     23.01098330	    187.34091295	    152.86479178	      3.51976738	      8.84817486	     -8.57059418	   -189.62086036	      0.73379426	      6.09013654	     21.57929611	    145.84054885	    142.00379329	     68.17732039	     11.23711924	     -5.58999292	    -27.07721548	      0.45333512
      0.61000000	    139.95542273	     22.66301365	    185.56399798	    153.78454931	      3.87510747	      9.23314178	     -9.97616548	   -211.20666348	      0.77764569	      5.65049936	     21.05937521	    145.00324927	    141.93350444	     76.43570219	     11.92944194	     -6.27682760	    -29.42091152	      0.46050007
      0.62000000	    137.65882024	     22.06852874	    187.87332730	    152.82603508	      4.39790735	      9.89948009	    -11.48302874	   -216.16711405	      0.79933608	      5.34546611	     20.48271945	    146.52864296	    141.03172218	     84.52976388	     12.73189687	     -7.42106767	    -35.35505226	      0.47630618
      0.63000000	    134.03904699	     21.61098201	    187.60330206	    153.01682127	      5.12593707	     10.67653027	    -14.05483760	   -226.81257532	      0.83199483	      5.01323040	     19.79393050	    147.35981689	    140.51881465	     92.65241840	     13.67442810	     -8.89619262	    -44.19831027	      0.49746254
      0.64000000	    131.26071339	     21.10518506	    188.15737150	    152.83019137	      5.83310936	     11.37263041	    -18.00721483	   -230.19573671	      0.85213441	      4.72063744	     18.97629920	    149.12596392	    139.77757527	    100.48972911	     14.81208648	    -11.15201884	    -58.77153180	      0.52779877
      0.65000000	    130.96000936	     20.52424440	    190.90423751	    151.59715562	      6.80532459	     12.18783555	    -25.09330466	   -231.38141064	      0.86890362	      4.51455300	     18.09092625	    152.48757957	    138.54749022	    107.21028394	     16.12614723	    -15.60735501	    -86.21826366	      0.57780328
      0.66000000	    125.63865117	     20.24003624	    186.81572507	    153.49085489	      8.24558750	     12.86064487	    -33.39042942	   -226.82520252	      0.86991128	      4.19737952	     16.86667295	    153.83064841	    138.48836536	    115.00807192	     17.91071041	    -28.07799077	   -122.65609133	      0.63739844
      0.67000000	    128.54080974	     19.81076976	    191.46353815	    151.43588767	     10.25148785	     13.58991322	    -40.64807658	   -210.91541934	      0.84918090	      4.05225629	     15.41814404	    160.73061620	    136.02557189	    121.72248829	     20.34449916	    -61.27957995	   -167.92424464	      0.71297651
      0.68000000	    125.92529034	     19.45786560	    189.60243286	    152.25423474	     12.87885701	     14.29973769	    -45.31691386	   -200.71688211	      0.82163788	      3.87027573	     13.93424475	    163.87086768	    136.04152278	    127.19913918	     23.64608359	   -120.99675620	   -222.42172742	      0.81672917
      0.69000000	    118.45916522	     19.40242902	    182.36476717	    155.59752693	     16.81633467	     14.72894513	    -47.64972555	   -191.95982625	      0.79882302	      3.54659179	     12.19578788	    164.31320782	    136.99716444	    133.24322488	     28.72275505	   -182.71614608	   -273.14741585	      0.94216276
      0.70000000	    123.31269524	     19.12266757	    188.65365617	    152.90011705	     20.39700014	     15.25577851	    -43.91687388	   -168.82435004	      0.74764510	      3.48792854	     10.12189590	    173.84794668	    133.92286810	    138.33473245	     37.32046814	   -229.10047278	   -314.48919633	      1.09957137
      0.71000000	    117.90122473	     19.09010169	    183.04598501	    155.43771303	     24.43409061	     15.55785891	    -40.16267635	   -159.06872297	      0.71250038	      3.28622296	      8.12022753	    175.90819350	    135.08180605	    142.73141135	     50.74555066	   -249.65106107	   -337.21269580	      1.24647290
      0.72000000	    113.07136529	     19.26415515	    178.02744861	    157.67832643	     28.43092539	     15.56865596	    -33.81392326	   -144.96900819	      0.67409483	      3.09836769	      6.22484935	    178.14897132	    135.88044085	    146.18854667	     69.43175960	   -262.72424084	   -360.38557078	      1.43153685
      0.73000000	    114.57577764	     19.22094306	    182.07479101	    156.05989026	     31.34475480	     15.69042369	    -27.17312992	   -125.63903171	      0.63032450	      3.05474641	      4.44141792	    185.98427171	    133.96084626	    148.25627643	     94.23898605	   -267.86467679	   -372.97888150	      1.59768956
      0.74000000	    105.36273280	     19.67123333	    170.80957847	    160.69527160	     34.25897938	     15.31483632	    -22.47715455	   -120.91933033	      0.60628643	      2.84784093	      3.10680990	    184.20135546	    137.34834282	    149.84573917	    121.94095911	   -255.79831771	   -358.48071552	      1.67720162
      0.75000000	    106.01500918	     19.79888796	    176.58289089	    158.34540853	     36.05139559	     15.12266235	    -18.21119194	   -106.79694629	      0.57950473	      2.82646233	      2.13333024	    192.30954709	    134.90979317	    149.29801497	    151.41742815	   -248.42254345	   -354.35101404	      1.72881577
      0.76000000	    108.17186626	     19.76929829	    181.95506370	    156.09807005	     36.65424692	     15.13448645	    -13.92992144	    -85.22448255	      0.53706898	      2.92332368	      1.51103085	    201.00924583	    133.03892121	    146.60285470	    181.60339911	   -248.44181347	   -367.66375239	      1.85680751
      0.77000000	     84.47420943	     21.01749243	    148.37852997	    168.81576026	     39.10232039	     13.85128251	    -13.23296930	    -98.46342914	      0.54662836	      2.51193091	      1.24714473	    182.18146411	    144.73229242	    148.64638096	    203.20049060	   -193.54397330	   -277.72846190	      1.64671928
