Coordinates
version=1
nRows=63
nColumns=34
inDegrees=yes

Units are S.I. units (second, meters, Newtons, ...)
If the header above contains a line with 'inDegrees', this indicates whether rotational values are in degrees (yes) or radians (no).

endheader
time	pelvis_tilt	pelvis_list	pelvis_rotation	pelvis_tx	pelvis_ty	pelvis_tz	hip_flexion_l	hip_adduction_l	hip_rotation_l	hip_flexion_r	hip_adduction_r	hip_rotation_r	knee_angle_l_beta	knee_angle_r_beta	knee_angle_l	knee_angle_r	ankle_angle_l	ankle_angle_r	subtalar_angle_l	subtalar_angle_r	mtp_angle_l	mtp_angle_r	lumbar_ext	lumbar_bend	lumbar_rota	shoulder_flexion_r	shoulder_adduction_r	shoulder_rotation_r	elbow_flexion_r	shoulder_flexion_l	shoulder_adduction_l	shoulder_rotation_l	elbow_flexion_l
      0.17000000	     16.29796147	      7.84203504	     -6.09373969	      0.05637451	      0.95160261	     -0.17028441	      2.76519375	     12.24150148	      4.28505990	    -22.80089242	     -9.49459928	      0.69747090	      0.27937813	      0.72599057	    -16.00718802	    -41.59619578	     -0.69407037	     -2.69826779	     -0.42358183	     12.64072815	     -1.50505397	     16.21567421	    -26.30670850	    -11.26390117	      2.74259414	      0.62318602	      5.41788373	    -22.27323936	     41.80758695	     -5.68794426	      4.09830197	    -23.53555088	     36.06093496
      0.18000000	     16.73574338	      7.83747722	     -6.25767215	      0.06795133	      0.95362827	     -0.17102270	      1.59494004	     12.50083139	      4.66359981	    -21.91483224	     -9.90028536	      0.60938720	      0.28108963	      0.76745141	    -16.10524950	    -43.97172661	     -0.06261849	     -3.91055584	     -0.59734531	     13.13129660	     -1.45202481	     16.38624454	    -26.78605170	    -11.26529097	      2.47057167	      0.47061321	      5.54249658	    -22.57815340	     41.46630054	     -5.65776066	      4.04516043	    -23.45378808	     36.13393618
      0.19000000	     16.50295447	      8.35218064	     -6.76368356	      0.07948362	      0.95436066	     -0.17137643	      1.23774859	     13.25461082	      4.70524633	    -19.93663573	    -10.95797675	      0.92119863	      0.28149592	      0.81426947	    -16.12852834	    -46.65420411	      0.28427905	     -4.89613881	     -1.53306870	     14.46519200	     -1.71763883	     16.68478784	    -26.44365805	    -11.92665323	      2.35954216	      0.30084861	      5.73309412	    -23.13588596	     41.03419659	     -5.80055904	      3.97991298	    -23.53990591	     36.62174096
      0.20000000	     16.85750959	      8.28310554	     -6.94052874	      0.09052389	      0.95629191	     -0.17191514	      0.02119156	     13.40981866	      5.06042867	    -18.80826827	    -11.23245939	      1.07368487	      0.27829271	      0.85190497	    -15.94499758	    -48.81055960	      0.96868784	     -5.43539498	     -1.74063032	     14.91308673	     -1.74792231	     16.84431388	    -26.87785995	    -11.87771588	      2.06669188	      0.22226178	      5.80778064	    -23.36955467	     40.70554833	     -5.74295246	      3.88284514	    -23.38257738	     36.76836699
      0.21000000	     17.14951518	      8.15543268	     -7.10039634	      0.10130619	      0.95815323	     -0.17248134	     -1.17155171	     13.47021151	      5.18249726	    -17.56367100	    -11.44445774	      1.18301173	      0.27314321	      0.88739034	    -15.64995304	    -50.84372119	      1.51583279	     -5.47898133	     -1.93818688	     15.28472154	     -1.80477126	     16.98490664	    -27.25703747	    -11.75866999	      1.84323168	      0.14113432	      5.81889309	    -23.57173680	     40.36375915	     -5.63258534	      3.79496836	    -23.24234085	     36.95730167
      0.22000000	     17.04849682	      8.24573557	     -7.72139365	      0.11187012	      0.95914533	     -0.17236574	     -1.88033704	     13.71644218	      4.74232098	    -15.58682182	    -11.92918384	      1.92584721	      0.26604900	      0.92548262	    -15.24348506	    -53.02624786	      2.02912941	     -4.68657330	     -2.36873333	     16.15090778	     -2.13325852	     17.00485241	    -27.10974822	    -12.04447277	      1.98132009	      0.09697401	      5.81353435	    -23.75136759	     39.84619408	     -5.62734403	      3.69713888	    -23.06224277	     37.43316522
      0.23000000	     17.13216683	      8.02931762	     -7.95869822	      0.12206361	      0.96070666	     -0.17270110	     -2.86290699	     13.63587959	      4.65604360	    -13.99296280	    -11.95128600	      2.27983101	      0.25938382	      0.95642561	    -14.86159824	    -54.79915113	      2.51119818	     -3.74945819	     -2.41149504	     16.51510516	     -2.43259640	     16.91878924	    -27.28792256	    -11.86579551	      1.92697439	      0.05189136	      5.75003570	    -23.84641300	     39.48945303	     -5.40309191	      3.56939647	    -22.84848133	     37.46688836
      0.24000000	     17.22255542	      7.70405857	     -8.13541681	      0.13201860	      0.96236019	     -0.17309047	     -3.89723528	     13.43196696	      4.55461897	    -12.44509773	    -11.77526394	      2.65895063	      0.25146454	      0.98273097	    -14.40785691	    -56.30633690	      2.99790429	     -2.65192199	     -2.36287097	     16.65302029	     -2.69252425	     16.77730758	    -27.49938251	    -11.53893274	      1.89593654	      0.01449242	      5.66973590	    -24.00285177	     39.18676975	     -5.12290141	      3.44526389	    -22.55380772	     37.53793793
      0.25000000	     17.35152486	      7.30925161	     -8.16802428	      0.14178136	      0.96417990	     -0.17363087	     -5.01977316	     13.14292780	      4.64434420	    -11.00888251	    -11.47992540	      2.84975556	      0.24248728	      1.00386995	    -13.89349795	    -57.51751151	      3.34127758	     -1.61045561	     -2.29754785	     16.59734862	     -2.80402563	     16.76640633	    -27.79863133	    -11.08513824	      1.70673556	      0.00610752	      5.60190005	    -24.15894420	     38.97507046	     -4.81712348	      3.31316087	    -22.33645339	     37.58994877
      0.26000000	     17.27131182	      6.81805019	     -8.27804399	      0.15149316	      0.96568936	     -0.17401548	     -5.88915243	     12.72124762	      4.41802535	     -9.35526697	    -11.03093835	      3.13220973	      0.23432649	      1.02134522	    -13.42591914	    -58.51877054	      3.78892687	     -0.09833483	     -2.21401547	     16.46292283	     -3.02089623	     16.53994608	    -27.85992224	    -10.57560995	      1.84950158	     -0.08221062	      5.47360541	    -24.39669073	     38.68919283	     -4.45758832	      3.17777244	    -21.96554588	     37.65066683
      0.27000000	     16.93779782	      6.37181274	     -8.33252481	      0.16083508	      0.96685707	     -0.17442433	     -6.42376263	     12.28977649	      4.13430558	     -7.37022676	    -10.51856340	      3.42954630	      0.22741482	      1.03707852	    -13.02990959	    -59.42022238	      4.33656980	      1.07839063	     -1.61647461	     16.23383997	     -3.67797689	     15.15974490	    -27.68589787	    -10.05559114	      2.43172690	     -0.43537685	      5.39619496	    -25.19637713	     38.87440771	     -3.68485230	      2.93842023	    -20.97368406	     37.15237626
      0.28000000	     16.91443276	      5.88811925	     -8.23206036	      0.17038749	      0.96849695	     -0.17525716	     -7.38061080	     11.88691561	      4.25663197	     -5.91591716	    -10.04203239	      3.39388186	      0.21842174	      1.04487194	    -12.51464394	    -59.86675256	      4.49772489	      2.30456742	     -1.64760356	     15.90465210	     -3.76622218	     15.08648811	    -27.83015641	     -9.43016370	      2.24743873	     -0.47731044	      5.29121924	    -25.45016795	     38.73769797	     -3.36230079	      2.84616962	    -20.79224040	     37.30264335
      0.29000000	     16.61917227	      5.28064252	     -8.02878076	      0.17972097	      0.96976094	     -0.17607992	     -7.96883642	     11.29153670	      4.32082064	     -4.21498942	     -9.31131230	      3.28254681	      0.21275389	      1.04946182	    -12.18990025	    -60.12973319	      4.94204382	      3.36778578	     -1.51916978	     15.11897648	     -4.24735598	     13.56032127	    -27.71298827	     -8.63168062	      2.77935483	     -0.88939689	      5.22317088	    -26.47750234	     39.00018068	     -2.55385406	      2.65660239	    -19.75884414	     36.87774679
      0.30000000	     16.42235429	      4.85365398	     -7.82962899	      0.18920350	      0.97106979	     -0.17698272	     -8.74583891	     10.89637593	      4.44698347	     -2.69048535	     -8.83689370	      3.09478776	      0.20257633	      1.04806183	    -11.60676881	    -60.04951946	      5.03800602	      4.36919047	     -1.51429853	     14.68824792	     -4.32714750	     13.42095627	    -27.67320338	     -8.03216415	      2.60516886	     -1.00190143	      5.12680064	    -26.77737147	     38.96886633	     -2.19484817	      2.55514405	    -19.62396518	     37.12497705
      0.31000000	     16.13397217	      4.36766194	     -7.53848475	      0.19864213	      0.97217052	     -0.17800065	     -9.38867147	     10.41476644	      4.66804942	     -1.15268564	     -8.26289860	      2.79018050	      0.19411436	      1.04222677	    -11.12193371	    -59.71519536	      5.24590343	      5.25164827	     -1.52740640	     13.92946338	     -4.40975687	     13.09718008	    -27.56250159	     -7.32531885	      2.49818722	     -1.18807879	      5.04987800	    -27.25939009	     38.99891920	     -1.77111786	      2.47091873	    -19.38107685	     37.33618510
      0.32000000	     15.84265710	      3.96637230	     -7.23136548	      0.20811538	      0.97311086	     -0.17907115	    -10.03904154	     10.01251454	      4.81981447	      0.35232979	     -7.81243156	      2.37951900	      0.18436410	      1.03278133	    -10.56328509	    -59.17401129	      5.38867519	      5.93444439	     -1.49996002	     13.18370568	     -4.48652864	     12.76536801	    -27.40526968	     -6.70347096	      2.38896356	     -1.40195046	      4.95988306	    -27.69630091	     39.10601277	     -1.34009398	      2.37269576	    -19.12999006	     37.60617949
      0.33000000	     15.71475792	      3.29238843	     -6.75583109	      0.21739744	      0.97435643	     -0.18011077	    -10.82354151	      9.29484622	      5.11939831	      1.47789642	     -6.96480325	      1.82509563	      0.17798595	      1.01753045	    -10.19784380	    -58.30020044	      5.84624850	      6.24647801	     -1.30084957	     11.61986887	     -4.77104234	      9.33567635	    -27.47701370	     -5.75128385	      3.23954727	     -2.15590579	      5.00679940	    -29.45118535	     39.98932876	     -0.18324502	      2.17787659	    -17.39368068	     36.96175697
      0.34000000	     15.50825388	      2.85057359	     -6.32344073	      0.22683584	      0.97517966	     -0.18120650	    -11.55855595	      8.81298331	      5.40827487	      2.68494549	     -6.44069507	      1.25276495	      0.16860335	      0.99842103	     -9.66026059	    -57.20531105	      6.06645957	      6.60671057	     -1.23404125	     10.36868916	     -4.76969455	      8.68010183	    -27.42712166	     -5.05894149	      3.05170511	     -2.38152570	      4.93616423	    -29.90211590	     40.15735731	      0.23020432	      2.08526953	    -17.08973105	     37.36892382
      0.35000000	     15.39557589	      2.39917273	     -5.93131618	      0.23638711	      0.97598398	     -0.18230384	    -12.39093072	      8.32999990	      5.58762695	      3.68885108	     -5.95887272	      0.59587419	      0.15928312	      0.97438187	     -9.12625051	    -55.82796865	      6.35059756	      6.91001857	     -1.11458406	      9.02610532	     -4.73452525	      7.84421198	    -27.45590288	     -4.35795786	      2.98376479	     -2.66297125	      4.84818942	    -30.43367397	     40.40168316	      0.65369041	      2.00264770	    -16.62214931	     37.79923908
      0.36000000	     15.54258199	      1.85643295	     -5.49320653	      0.24588508	      0.97710300	     -0.18290158	    -13.56390633	      7.69693094	      5.65171780	      4.24858064	     -5.28604633	     -0.01904671	      0.14780504	      0.94444704	     -8.46860526	    -54.11282937	      6.60264349	      6.94092552	     -0.70507591	      7.53728890	     -4.57458902	      6.04202409	    -27.77805490	     -3.67018770	      3.16841022	     -3.10303102	      4.85356561	    -31.05219227	     40.88687792	      1.31862654	      1.86247703	    -15.88328528	     38.02808126
      0.37000000	     15.24205560	      1.78524537	     -5.34422523	      0.25547942	      0.97700617	     -0.18375870	    -14.13247851	      7.64710135	      5.62892813	      5.44172301	     -5.21732769	     -0.43294732	      0.13862076	      0.91549140	     -7.94238474	    -52.45379366	      6.76632424	      7.48147322	     -0.64804561	      6.87241976	     -4.57121103	      5.70232623	    -27.52012647	     -3.45088034	      3.08380531	     -3.35567540	      4.71867734	    -31.26244750	     41.02296872	      1.63324976	      1.79852320	    -15.58605555	     38.65267035
      0.38000000	     15.61277968	      1.01480292	     -4.67260120	      0.26504781	      0.97818966	     -0.18457907	    -15.53045267	      6.71586161	      5.88963074	      5.43063833	     -4.30913510	     -1.40498032	      0.12872987	      0.87433191	     -7.37567845	    -50.09552829	      7.27797149	      7.17679374	     -0.21543621	      4.59582515	     -4.36872075	      3.91500067	    -28.09853775	     -2.44243669	      3.06320097	     -3.69625479	      4.68147645	    -31.83012032	     41.46108335	      2.17286066	      1.64041642	    -14.67001234	     39.17350323
      0.39000000	     15.98332040	      0.49445898	     -4.46786179	      0.27478856	      0.97896910	     -0.18486032	    -16.93820840	      6.14333280	      5.49669441	      5.47952853	     -3.65262517	     -1.86850931	      0.11708370	      0.83281559	     -6.70840165	    -47.71681853	      7.64283683	      7.37028474	      0.55533360	      3.35415716	     -3.83349347	      0.46367436	    -28.60613832	     -1.86262881	      3.61164551	     -4.22689050	      4.64977945	    -32.50946922	     42.07175532	      2.83573227	      1.55555532	    -13.67533288	     39.45093163
      0.40000000	     15.79537408	      0.32916384	     -4.12730463	      0.28436639	      0.97853910	     -0.18536729	    -17.58928933	      5.89733145	      5.72223014	      6.17026445	     -3.38826181	     -2.49406489	      0.10952689	      0.79056704	     -6.27542852	    -45.29615489	      7.97144837	      7.72394896	      0.62000160	      2.23909475	     -3.78697926	     -0.13003282	    -28.51964322	     -1.54682874	      3.40637090	     -4.45274010	      4.59626806	    -32.64461934	     42.21017903	      3.12269460	      1.37559333	    -13.05539945	     40.24297854
      0.41000000	     16.50243586	     -0.35483347	     -3.66414975	      0.29419691	      0.97960333	     -0.18577287	    -19.32827859	      5.09202310	      5.63131463	      5.49064053	     -2.55431976	     -3.27783999	      0.09993218	      0.73664045	     -5.72569214	    -42.20638871	      8.43763898	      7.24814295	      1.18853759	      0.59624596	     -3.57023691	     -2.52531543	    -29.38240796	     -0.74105491	      3.62743401	     -4.85380456	      4.54825160	    -33.03752544	     42.73119831	      3.67369321	      1.29090117	    -12.33477486	     40.69691740
      0.42000000	     16.55790809	     -0.64266918	     -3.19349850	      0.30389404	      0.97926826	     -0.18623980	    -20.18378406	      4.66804504	      5.93585545	      5.62331260	     -2.14542306	     -4.07613758	      0.09508032	      0.68507355	     -5.44770100	    -39.25182326	      8.98889472	      7.17711953	      1.32281324	     -0.46741442	     -3.48055178	     -3.51889926	    -29.55002173	     -0.28067500	      3.45416460	     -5.09069155	      4.51498374	    -33.16972051	     42.85659318	      4.00097181	      1.08972725	    -11.50044124	     41.43181248
      0.43000000	     16.99888246	     -1.12118629	     -2.80067329	      0.31369306	      0.97937397	     -0.18635495	    -21.50435312	      4.05005286	      5.85656745	      5.15171092	     -1.44633511	     -4.71454564	      0.08898604	      0.62852826	     -5.09852441	    -36.01201673	      9.50944523	      7.06424558	      1.97576138	     -1.52953406	     -3.13449284	     -6.80744780	    -30.10201345	      0.26407184	      3.89141858	     -5.58463711	      4.52849289	    -33.67334320	     43.34101474	      4.67573382	      0.98893035	    -10.49916753	     41.76952421
      0.44000000	     17.33530164	     -1.44425422	     -2.29496639	      0.32357238	      0.97914944	     -0.18672633	    -22.64743702	      3.56768577	      6.11516216	      4.70574740	     -0.94601254	     -5.45482968	      0.08480732	      0.56854284	     -4.85910175	    -32.57510511	      9.92660594	      6.77385295	      2.03706092	     -2.30758312	     -3.17132040	     -7.42651548	    -30.54486840	      0.75702491	      3.72909343	     -5.83820130	      4.51286409	    -33.80305794	     43.57163232	      5.01563536	      0.86884397	    -10.01305523	     42.47744552
      0.45000000	     17.43719623	     -1.67804037	     -1.89748378	      0.33352682	      0.97830431	     -0.18676202	    -23.45709751	      3.18845907	      6.38825657	      4.50096499	     -0.50146697	     -6.11059920	      0.08364013	      0.50870921	     -4.79222627	    -29.14689046	     10.57315765	      6.64444260	      2.10812070	     -2.76489017	     -3.15897293	     -7.91525247	    -30.70040945	      1.09769493	      3.59976686	     -6.04541318	      4.53379775	    -33.99494153	     43.61560585	      5.30729405	      0.66195681	     -9.28674781	     43.20545858
      0.46000000	     17.82871298	     -1.97698932	     -1.42478328	      0.34355303	      0.97779088	     -0.18679019	    -24.58379890	      2.70655960	      6.57490512	      3.82252266	      0.05725208	     -6.72710145	      0.08227270	      0.44463668	     -4.71387846	    -25.47580529	     11.09557811	      6.23636672	      2.46397409	     -3.12738501	     -3.16053222	     -8.45042322	    -31.17037490	      1.51290046	      3.64167193	     -6.38978328	      4.61518036	    -34.28835166	     43.93662630	      5.75578520	      0.55368630	     -8.68736288	     43.68546628
      0.47000000	     17.91520677	     -2.11973917	     -0.96328470	      0.35360872	      0.97657204	     -0.18682601	    -25.27326879	      2.38104617	      6.84338154	      3.49511302	      0.47408573	     -7.16160152	      0.08454883	      0.38266254	     -4.84429109	    -21.92494881	     11.81188115	      5.92525822	      2.60015033	     -3.17197711	     -3.10159529	     -8.70191548	    -31.28571445	      1.78162825	      3.54381348	     -6.63196157	      4.67377028	    -34.54101783	     43.93089942	      6.11455171	      0.39513312	     -7.96792908	     44.26362330
      0.48000000	     18.14941230	     -2.27123301	     -0.48769625	      0.36377207	      0.97542436	     -0.18678915	    -26.12482717	      2.02525792	      7.06698037	      2.91010292	      0.92929614	     -7.49737196	      0.08680169	      0.31917000	     -4.97337075	    -18.28709411	     12.43891244	      5.44292991	      2.96662835	     -3.09034741	     -3.02661135	     -8.70526765	    -31.55340074	      2.06741994	      3.51548967	     -6.94780121	      4.77917374	    -34.84967274	     44.12722444	      6.53329906	      0.28281591	     -7.34721256	     44.68192256
      0.49000000	     17.99031237	     -2.12214003	     -0.28729194	      0.37370430	      0.97347912	     -0.18638244	    -26.41319487	      2.09424669	      7.21946649	      2.88252781	      1.08646190	     -7.16685500	      0.09360253	      0.26163502	     -5.36302978	    -14.99058238	     13.10040836	      5.22321349	      3.02814799	     -2.68799641	     -2.92417398	     -8.70031560	    -31.42794369	      1.93963903	      3.41444905	     -7.11176226	      4.88694466	    -35.08602634	     44.04469433	      6.87677424	      0.15089274	     -6.85645896	     45.14228527
      0.50000000	     18.29791673	     -2.29357298	      0.30542921	      0.38415359	      0.97214464	     -0.18654495	    -27.29523774	      1.65596095	      7.41575261	      2.09436881	      1.57598646	     -7.39183319	      0.09803435	      0.19939217	     -5.61695450	    -11.42433001	     13.89696134	      4.46204532	      3.67578316	     -2.61384279	     -2.74573828	     -8.21447075	    -31.73828127	      2.31837845	      3.37563525	     -7.43345531	      4.98923275	    -35.43810866	     44.14941855	      7.29097376	      0.07808642	     -6.11706902	     45.45039949
      0.51000000	     17.97326888	     -1.99004312	      0.41654166	      0.39430115	      0.96961119	     -0.18590245	    -27.39376331	      1.90278335	      7.48140427	      2.26324883	      1.54908309	     -6.61558547	      0.10568869	      0.14916684	     -6.05551616	     -8.54663060	     14.47533368	      4.37191463	      3.68137270	     -2.01205659	     -2.63858032	     -8.18324117	    -31.40641149	      1.97168970	      3.36041001	     -7.66824359	      5.11812647	    -35.58343965	     44.08216290	      7.63767415	      0.01502097	     -5.86040708	     45.85225903
      0.52000000	     17.75662149	     -1.76043959	      0.62743070	      0.40460621	      0.96721223	     -0.18555333	    -27.57965356	      2.04716830	      7.60432177	      2.25142223	      1.55831058	     -5.80945287	      0.11482946	      0.10127292	     -6.57924356	     -5.80251098	     15.11951735	      4.16357056	      3.78503787	     -1.47319620	     -2.51082962	     -8.12451108	    -31.20094185	      1.76643996	      3.27078898	     -7.84435692	      5.21404608	    -35.74633687	     43.91425970	      7.93694288	     -0.01413834	     -5.51740339	     46.18683976
      0.53000000	     18.26832761	     -1.94936331	      1.27398317	      0.41521874	      0.96586510	     -0.18565959	    -28.58302150	      1.51157257	      7.26749893	      1.21341911	      2.03376793	     -5.27344318	      0.12309868	      0.04954975	     -7.05303469	     -2.83899174	     16.24697221	      2.86368302	      5.37051691	     -2.00084050	     -2.02873466	     -6.69578091	    -31.68160771	      2.18767262	      3.29583138	     -8.14305997	      5.36042213	    -36.27524295	     43.94513571	      8.44963090	     -0.06054287	     -4.49785279	     46.10087660
      0.54000000	     18.04704988	     -1.71524594	      1.39917422	      0.42563775	      0.96338046	     -0.18516327	    -28.75824978	      1.68716400	      7.30556475	      1.30408709	      1.97490971	     -4.29839236	      0.13304636	      0.01459440	     -7.62299485	     -0.83619775	     16.79008543	      2.81611394	      5.42999276	     -1.41669172	     -1.89156697	     -6.56976041	    -31.46980032	      1.94658380	      3.27136890	     -8.27669581	      5.43415661	    -36.38774675	     43.70221805	      8.71952818	     -0.03670022	     -4.27293677	     46.31232371
      0.55000000	     18.06894725	     -1.49350551	      1.69017349	      0.43607117	      0.96135114	     -0.18482054	    -29.16106477	      1.73342846	      7.15905191	      1.07746813	      1.92201437	     -3.45201028	      0.14408535	     -0.01721479	     -8.25548256	      0.98633479	     17.55950535	      2.21332849	      6.29499985	     -1.32822093	     -1.59394237	     -5.98137646	    -31.50199931	      1.79213745	      3.16089451	     -8.35499281	      5.51554211	    -36.55759841	     43.31038324	      9.06167144	     -0.06882984	     -3.73603880	     46.29686886
      0.56000000	     17.94781284	     -1.44184312	      1.91781775	      0.44676141	      0.95910474	     -0.18471027	    -29.47518025	      1.68540466	      7.14133216	      1.16622517	      2.00533410	     -2.57623408	      0.15332329	     -0.03676250	     -8.78477768	      2.10633587	     17.89740350	      2.38451813	      6.36186462	     -0.96145937	     -1.50107270	     -5.85497529	    -31.38799422	      1.82024473	      3.15953577	     -8.49531265	      5.50569255	    -36.61012145	     43.08240124	      9.26729156	      0.10127001	     -3.63606542	     46.43331154
      0.57000000	     18.00803915	     -1.39307387	      2.07546709	      0.45770327	      0.95728034	     -0.18416831	    -29.97516634	      1.59592818	      6.64117695	      0.98240062	      2.13370816	     -1.86490554	      0.16390338	     -0.05399210	     -9.39097171	      3.09351967	     18.67867572	      1.92311465	      7.44309604	     -0.81078834	     -1.25933999	     -5.16138641	    -31.40563347	      1.77422445	      3.18746441	     -8.55377975	      5.50722204	    -36.65411206	     42.60087352	      9.48203218	      0.16707254	     -3.30224506	     46.29458609
      0.58000000	     18.03195721	     -1.57457819	      2.18801021	      0.46891130	      0.95550000	     -0.18361577	    -30.46543861	      1.29482474	      5.95407773	      0.96969450	      2.50671643	     -1.31082573	      0.17366335	     -0.06069593	     -9.95017709	      3.47762056	     19.24540276	      1.88605339	      8.54672481	     -0.46090645	     -1.03668125	     -3.89232770	    -31.38430631	      1.96267739	      3.37949036	     -8.65722956	      5.46854754	    -36.66967414	     42.23944422	      9.59384130	      0.34159634	     -3.17931886	     46.17953278
      0.59000000	     18.07639360	     -1.61249998	      2.34752165	      0.48001685	      0.95401391	     -0.18315327	    -30.95659418	      1.15499493	      5.94143304	      0.97787812	      2.73593847	     -0.84909181	      0.18394723	     -0.05983116	    -10.53939985	      3.42807323	     19.33922865	      1.90256537	      8.53143309	     -0.19678938	     -0.99244507	     -3.71522495	    -31.41500025	      2.03973296	      3.36091253	     -8.65533577	      5.45134110	    -36.68710710	     41.82200379	      9.63547913	      0.49591823	     -3.18941619	     46.12884014
      0.60000000	     18.10900075	     -1.85988455	      2.47675663	      0.49169350	      0.95272534	     -0.18258154	    -31.45105758	      0.77846677	      5.43329321	      1.03868984	      3.20318895	     -0.95930077	      0.19489820	     -0.05241555	    -11.16684455	      3.00319000	     19.61445436	      1.95989919	      9.33474279	      0.79724974	     -1.04247726	     -1.94656078	    -31.35717898	      2.30090034	      3.30582725	     -8.59060762	      5.32726508	    -36.42087301	     41.14091995	      9.46597672	      0.67816467	     -3.51649195	     46.10551423
      0.61000000	     18.20301240	     -2.00932648	      2.61285376	      0.50324816	      0.95180558	     -0.18203146	    -31.97477457	      0.52366477	      5.43577470	      1.03109326	      3.57634515	     -0.69671230	      0.20659762	     -0.03994742	    -11.83717176	      2.28881858	     19.35141110	      1.78398040	      9.31143866	      0.93765932	     -1.02558174	     -1.78023981	    -31.40265140	      2.49415712	      3.32724569	     -8.55679194	      5.28249972	    -36.42278872	     40.66071828	      9.39196705	      0.86195977	     -3.60488641	     45.91381748
      0.62000000	     18.12154286	     -2.36624725	      2.66942944	      0.51547880	      0.95086010	     -0.18132544	    -32.29444648	      0.08513089	      4.99266388	      1.27247097	      4.16972157	     -1.01731147	      0.22008404	     -0.02131781	    -12.60988676	      1.22142047	     19.20340839	      1.69435711	      9.74594430	      1.80987223	     -0.99643789	     -0.24278306	    -31.15768124	      2.82898732	      3.22829481	     -8.41883101	      5.09781551	    -35.95220772	     39.79997124	      8.98909218	      1.09621536	     -4.27973655	     45.84651296
      0.63000000	     18.23104202	     -2.63110935	      2.78423643	      0.52766029	      0.95050518	     -0.18067191	    -32.76078256	     -0.28337884	      4.93607318	      1.25582301	      4.67630707	     -1.02032367	      0.23497025	     -0.00054006	    -13.46280374	      0.03094304	     18.55162796	      1.28467265	      9.69632058	      1.84073511	     -0.94686339	     -0.00275870	    -31.13808358	      3.11533960	      3.33155815	     -8.39513250	      5.04152306	    -35.97237232	     39.22829006	      8.78830910	      1.34092532	     -4.54461436	     45.51702077
      0.64000000	     18.25318059	     -2.97531626	      2.87577113	      0.54016189	      0.95029535	     -0.17994640	    -33.06188916	     -0.72368544	      4.80780488	      1.32561177	      5.25175934	     -1.05353740	      0.25243297	      0.02278061	    -14.46334369	     -1.30523278	     17.72371915	      0.76071132	      9.72667596	      1.92680215	     -0.79014177	      0.31648427	    -30.97620429	      3.47603950	      3.42686557	     -8.36345207	      4.96442932	    -35.91735960	     38.59897146	      8.47879273	      1.61253059	     -4.96992798	     45.11982830
      0.65000000	     17.97000607	     -3.32978884	      2.90266428	      0.55302305	      0.94995442	     -0.17910792	    -32.91577504	     -1.17110678	      4.55296224	      1.71790772	      5.80160726	     -0.89011879	      0.27332718	      0.04757794	    -15.66049400	     -2.72601531	     16.78473334	      0.11946215	     10.16844538	      1.89455930	      0.66938099	      1.59296705	    -30.46100088	      3.82249089	      3.01501267	     -8.07421577	      4.77773807	    -35.29048449	     37.64055733	      7.70628635	      1.84819515	     -6.17370904	     45.12249895
      0.66000000	     18.16333113	     -3.65374862	      3.08355976	      0.56587372	      0.95058200	     -0.17853457	    -33.20369233	     -1.64701018	      4.69424342	      1.47548312	      6.32384578	     -0.62571310	      0.29627571	      0.07076165	    -16.97534776	     -4.05434389	     15.36362747	     -0.45454645	     10.40107699	      1.94340999	      0.83102725	      1.71367341	    -30.45361455	      4.22690505	      3.06646178	     -8.08104582	      4.75571543	    -35.37689082	     37.23748545	      7.33323935	      2.08666044	     -6.44000380	     44.66762962
      0.67000000	     17.78221252	     -4.07940494	      3.05840697	      0.57904670	      0.95065549	     -0.17741105	    -32.65570130	     -2.20497623	      4.09208176	      1.91285500	      6.98549102	     -0.05834876	      0.32507639	      0.09623606	    -18.62550529	     -5.51392018	     13.77992836	     -1.46826510	     11.11509009	      0.80478328	      4.08323036	      1.86119826	    -29.77446399	      4.58526620	      2.87679273	     -7.86735089	      4.63330293	    -35.00172418	     36.35515262	      6.60371395	      2.39752830	     -7.73684382	     44.40128745
      0.68000000	     17.78469502	     -4.54587445	      3.21515424	      0.59231296	      0.95153324	     -0.17661910	    -32.41881055	     -2.90701460	      3.76567602	      1.79154630	      7.68131865	      0.44610613	      0.35482683	      0.11815363	    -20.33007967	     -6.76970417	     11.70393479	     -2.17097931	     11.72303581	      0.28412948	      8.00211759	      1.13411351	    -29.48418893	      5.09332580	      2.86274733	     -7.82274539	      4.59427496	    -35.02339876	     35.84585403	      6.04866616	      2.71279014	     -8.57850855	     43.90010513
      0.69000000	     18.02641350	     -4.90549506	      3.49829604	      0.60541400	      0.95295669	     -0.17611237	    -32.27712576	     -3.52426541	      3.86515093	      1.35504648	      8.24336002	      0.93808197	      0.38957380	      0.13833588	    -22.32093468	     -7.92606217	      9.47723433	     -2.50020008	     12.33366218	      0.24019705	      8.29186682	      1.19262990	    -29.48497786	      5.56229343	      2.90824250	     -7.86424467	      4.60768135	    -35.15071536	     35.58644608	      5.62085507	      2.98822300	     -8.95254907	     43.33776342
      0.70000000	     18.21587924	     -5.27688506	      3.80632196	      0.61846366	      0.95451141	     -0.17560694	    -31.84663180	     -4.20894767	      3.80354945	      0.92561096	      8.82422685	      1.42983956	      0.42958354	      0.15653612	    -24.61332352	     -8.96885902	      6.91437383	     -2.76300229	     13.18588889	      0.01128095	      8.78495477	      1.20662192	    -29.41977414	      6.04884075	      2.94992951	     -7.89565561	      4.62524561	    -35.32643825	     35.36929632	      5.20275317	      3.27730640	     -9.49245013	     42.70452254
      0.71000000	     17.58166689	     -6.00066118	      3.78633350	      0.63188974	      0.95491399	     -0.17392950	    -30.34172657	     -5.38788285	      2.43661463	      1.38194372	      9.92130179	      2.86589840	      0.47078873	      0.17491657	    -26.97420745	    -10.02198127	      4.35222533	     -3.69944600	     15.57083191	     -2.58866542	     17.92174248	     -1.51512821	    -28.39593261	      6.66826109	      2.77253812	     -7.68832839	      4.60447513	    -35.27067327	     34.84357921	      4.33036065	      3.60844766	    -11.25014827	     42.36755437
      0.72000000	     17.70005105	     -6.39698654	      4.18982121	      0.64480738	      0.95656065	     -0.17349858	    -29.47813346	     -6.25634496	      2.27318119	      0.89355775	     10.54186331	      3.27399044	      0.51617784	      0.18788628	    -29.57481152	    -10.76509087	      1.28089646	     -3.66891721	     16.82223827	     -2.92372404	     18.62036273	     -1.57873903	    -28.24384316	      7.20079309	      2.79455709	     -7.76501208	      4.66565955	    -35.55987579	     34.90319295	      3.93752441	      3.88911733	    -11.84790202	     41.70752710
      0.73000000	     17.77316848	     -6.83842320	      4.61004601	      0.65757487	      0.95811145	     -0.17301589	    -28.39155294	     -7.22955222	      2.03762696	      0.38502151	     11.23175110	      3.76716476	      0.56407767	      0.19804250	    -32.31926966	    -11.34699964	     -1.71757191	     -3.53815873	     18.24245322	     -3.53435704	     19.64012107	     -1.73699530	    -28.03480244	      7.78022853	      2.79163308	     -7.80813945	      4.73753327	    -35.86582951	     35.01762125	      3.52351861	      4.16628446	    -12.53954228	     41.10119699
      0.74000000	     17.58682917	     -7.53063126	      4.95141611	      0.67012320	      0.95917340	     -0.17206747	    -26.85455732	     -8.56892322	      1.46160138	      0.10766028	     12.27777898	      4.83445591	      0.61223074	      0.20621398	    -35.07823728	    -11.81519079	     -4.14685870	     -3.60082958	     19.95204436	     -5.28303980	     25.91407289	     -4.17916734	    -27.60523957	      8.52554966	      2.75044524	     -7.72577801	      4.76768756	    -36.03387204	     35.01878491	      2.96715376	      4.42479451	    -13.56173923	     40.70595492
      0.75000000	     17.85004698	     -7.85958697	      5.44838315	      0.68223604	      0.96103124	     -0.17184419	    -25.71616300	     -9.47416125	      1.47062842	     -0.76255526	     12.84542486	      5.21504309	      0.66010572	      0.21010217	    -37.82127177	    -12.03796747	     -6.96723543	     -3.12326801	     20.82155576	     -5.60222888	     26.29767977	     -4.16911301	    -27.67610740	      9.02731954	      2.74961636	     -7.74249117	      4.80667483	    -36.19762550	     35.34243293	      2.67309961	      4.63510322	    -14.08031235	     40.13652208
      0.76000000	     17.79387048	     -8.35359688	      6.09162277	      0.69404917	      0.96218845	     -0.17159682	    -23.98204004	    -10.67633184	      1.50710540	     -1.30083511	     13.60271743	      5.49715536	      0.71212543	      0.21094983	    -40.80178189	    -12.08653501	     -8.85819412	     -2.94946063	     21.88431071	     -6.55303708	     27.12084110	     -4.55459419	    -27.39171346	      9.71974332	      2.57352470	     -7.68343271	      4.89233510	    -36.56728924	     35.63622517	      2.34662787	      4.80343992	    -14.72970395	     39.57911398
      0.77000000	     18.09454721	     -8.55559784	      6.53175535	      0.70549848	      0.96401189	     -0.17144871	    -22.70043494	    -11.41728758	      1.61175596	     -2.38574759	     14.03085072	      5.78992620	      0.75830539	      0.20847976	    -43.44769823	    -11.94501059	    -10.77537950	     -2.34640475	     22.32080446	     -6.95047929	     27.44602703	     -4.67425828	    -27.58726624	     10.07330850	      2.59488152	     -7.62436843	      4.88623912	    -36.55694765	     36.09905386	      2.10624418	      4.96021428	    -15.16378136	     39.10751583
      0.78000000	     18.25866266	     -8.77512567	      7.11939856	      0.71664385	      0.96553119	     -0.17145048	    -21.10480907	    -12.23444500	      1.86216623	     -3.35061422	     14.47254726	      5.83499580	      0.80530355	      0.20334197	    -46.14049482	    -11.65063643	    -11.93729604	     -1.93522928	     22.54600886	     -7.48638117	     27.66101277	     -4.91698808	    -27.63433552	     10.49596841	      2.46945476	     -7.52718854	      4.91011183	    -36.62856731	     36.59448876	      1.89375817	      5.06915204	    -15.57918095	     38.62266165
      0.79000000	     18.58294017	     -8.76400768	      7.52038187	      0.72734595	      0.96736158	     -0.17130177	    -19.74851506	    -12.66873758	      2.18428670	     -4.59313767	     14.67323459	      6.21642013	      0.84754538	      0.19631702	    -48.56077315	    -11.24813650	    -12.37989527	     -1.36490390	     22.60787236	     -7.73953068	     27.76270545	     -5.02470437	    -27.94424089	     10.59464455	      2.53701715	     -7.35860123	      4.87149412	    -36.53384718	     36.90828306	      1.76161262	      5.12627980	    -15.83049055	     38.26346906
