Model Marker Errors from IK
version=1
nRows=63
nColumns=4
inDegrees=no
endheader
time	total_squared_error	marker_error_RMS	marker_error_max
      0.17000000	      0.02479517	      0.02489737	      0.06111263
      0.18000000	      0.02452284	      0.02476027	      0.06136628
      0.19000000	      0.02426653	      0.02463053	      0.06105433
      0.20000000	      0.02406946	      0.02453032	      0.06137710
      0.21000000	      0.02391772	      0.02445287	      0.06166002
      0.22000000	      0.02378875	      0.02438686	      0.06120153
      0.23000000	      0.02370394	      0.02434335	      0.06108352
      0.24000000	      0.02364971	      0.02431548	      0.06090975
      0.25000000	      0.02362264	      0.02430156	      0.06083836
      0.26000000	      0.02361126	      0.02429571	      0.06010293
      0.27000000	      0.02360876	      0.02429442	      0.05906949
      0.28000000	      0.02362082	      0.02430063	      0.05874088
      0.29000000	      0.02363389	      0.02430735	      0.05876845
      0.30000000	      0.02365621	      0.02431883	      0.05881463
      0.31000000	      0.02368263	      0.02433240	      0.05883942
      0.32000000	      0.02371525	      0.02434915	      0.05892042
      0.33000000	      0.02373117	      0.02435732	      0.05874744
      0.34000000	      0.02376737	      0.02437589	      0.05878952
      0.35000000	      0.02381435	      0.02439997	      0.05882765
      0.36000000	      0.02387157	      0.02442927	      0.05869196
      0.37000000	      0.02395655	      0.02447271	      0.05900150
      0.38000000	      0.02404710	      0.02451892	      0.05887330
      0.39000000	      0.02415875	      0.02457577	      0.05869500
      0.40000000	      0.02430427	      0.02464968	      0.05901128
      0.41000000	      0.02445185	      0.02472441	      0.05880442
      0.42000000	      0.02461790	      0.02480821	      0.05904460
      0.43000000	      0.02477814	      0.02488882	      0.05896346
      0.44000000	      0.02493546	      0.02496771	      0.05902222
      0.45000000	      0.02507861	      0.02503927	      0.05929870
      0.46000000	      0.02519862	      0.02509911	      0.05927325
      0.47000000	      0.02529665	      0.02514789	      0.05951718
      0.48000000	      0.02536969	      0.02518417	      0.05957762
      0.49000000	      0.02542627	      0.02521223	      0.05988543
      0.50000000	      0.02545653	      0.02522723	      0.05983561
      0.51000000	      0.02548375	      0.02524071	      0.06019120
      0.52000000	      0.02550674	      0.02525210	      0.06041550
      0.53000000	      0.02549381	      0.02524570	      0.06013008
      0.54000000	      0.02550921	      0.02525332	      0.06031286
      0.55000000	      0.02553307	      0.02526513	      0.06035875
      0.56000000	      0.02558364	      0.02529013	      0.06040535
      0.57000000	      0.02565103	      0.02532342	      0.06047734
      0.58000000	      0.02574673	      0.02537062	      0.06047091
      0.59000000	      0.02586816	      0.02543038	      0.06042074
      0.60000000	      0.02599807	      0.02549415	      0.06050065
      0.61000000	      0.02613289	      0.02556017	      0.06036335
      0.62000000	      0.02624997	      0.02561736	      0.06052852
      0.63000000	      0.02634569	      0.02566403	      0.06048251
      0.64000000	      0.02640681	      0.02569378	      0.06096711
      0.65000000	      0.02641943	      0.02569992	      0.06080834
      0.66000000	      0.02639466	      0.02568786	      0.06116490
      0.67000000	      0.02630617	      0.02564477	      0.06074061
      0.68000000	      0.02617204	      0.02557931	      0.06076441
      0.69000000	      0.02600891	      0.02549946	      0.06080574
      0.70000000	      0.02582992	      0.02541157	      0.06072459
      0.71000000	      0.02552809	      0.02526266	      0.06000024
      0.72000000	      0.02527366	      0.02513646	      0.05965954
      0.73000000	      0.02502262	      0.02501131	      0.05928423
      0.74000000	      0.02474706	      0.02487321	      0.05904151
      0.75000000	      0.02451758	      0.02475762	      0.05896186
      0.76000000	      0.02430781	      0.02465148	      0.05858787
      0.77000000	      0.02412578	      0.02455900	      0.05866367
      0.78000000	      0.02396560	      0.02447734	      0.05859589
      0.79000000	      0.02383357	      0.02440982	      0.05877365
