Coordinates

Units are S.I. units (second, meters, Newtons, ...)
If the header above contains a line with 'inDegrees', this indicates whether rotational values are in degrees (yes) or radians (no).

inDegrees=yes
nColumns=34
nRows=63
DataType=double
version=3
OpenSimVersion=4.5-2023-11-26-efcdfd3eb
endheader
time	pelvis_tilt	pelvis_tx	pelvis_ty	hip_flexion_l	hip_flexion_r	knee_angle_l	knee_angle_r	ankle_angle_l	ankle_angle_r	mtp_angle_l	mtp_angle_r	lumbar_ext	shoulder_flexion_r	elbow_flexion_r	shoulder_flexion_l	elbow_flexion_l
0.17	16.29796147	0.05637451	0.95160261	2.76519375	-22.80089242	-16.00718802	-41.59619578	-0.69407037	-2.69826779	-1.50505397	16.21567421	-26.3067085	0.62318602	41.80758695	-5.68794426	36.06093496
0.18	16.73574338	0.06795133	0.9536282699999999	1.59494004	-21.91483224	-16.1052495	-43.97172661	-0.06261849	-3.91055584	-1.45202481	16.38624454	-26.7860517	0.47061321	41.46630054	-5.65776066	36.13393618
0.19	16.50295447	0.07948362	0.95436066	1.23774859	-19.93663573	-16.12852834	-46.65420411	0.28427905	-4.89613881	-1.71763883	16.68478784	-26.44365805	0.30084861	41.03419659	-5.80055904	36.62174096
0.2	16.85750959	0.09052389	0.95629191	0.02119156	-18.80826827	-15.94499758	-48.8105596	0.96868784	-5.43539498	-1.74792231	16.84431388	-26.87785995	0.22226178	40.70554833	-5.74295246	36.76836699
0.21	17.14951518	0.10130619	0.95815323	-1.17155171	-17.563671	-15.64995304	-50.84372119	1.51583279	-5.47898133	-1.80477126	16.98490664	-27.25703747	0.14113432	40.36375915	-5.63258534	36.95730167
0.22	17.04849682	0.11187012	0.95914533	-1.88033704	-15.58682182	-15.24348506	-53.02624786	2.02912941	-4.6865733	-2.13325852	17.00485241	-27.10974822	0.09697401	39.84619408	-5.62734403	37.43316522
0.23	17.13216683	0.12206361	0.96070666	-2.86290699	-13.9929628	-14.86159824	-54.79915113	2.51119818	-3.74945819	-2.4325964	16.91878924	-27.28792256	0.05189136	39.48945303	-5.40309191	37.46688836
0.24	17.22255542	0.1320186	0.9623601899999999	-3.89723528	-12.44509773	-14.40785691	-56.3063369	2.99790429	-2.65192199	-2.69252425	16.77730758	-27.49938251	0.01449242	39.18676975	-5.12290141	37.53793793
0.25	17.35152486	0.14178136	0.9641799	-5.01977316	-11.00888251	-13.89349795	-57.51751151	3.34127758	-1.61045561	-2.80402563	16.76640633	-27.79863133	0.00610752	38.97507046	-4.81712348	37.58994877
0.26	17.27131182	0.15149316	0.9656893600000001	-5.88915243	-9.355266970000001	-13.42591914	-58.51877054	3.78892687	-0.09833483	-3.02089623	16.53994608	-27.85992224	-0.08221062	38.68919283	-4.45758832	37.65066683
0.27	16.93779782	0.16083508	0.96685707	-6.42376263	-7.37022676	-13.02990959	-59.42022238	4.3365698	1.07839063	-3.67797689	15.1597449	-27.68589787	-0.43537685	38.87440771	-3.6848523	37.15237626
0.28	16.91443276	0.17038749	0.96849695	-7.3806108	-5.91591716	-12.51464394	-59.86675256	4.49772489	2.30456742	-3.76622218	15.08648811	-27.83015641	-0.47731044	38.73769797	-3.36230079	37.30264335
0.29	16.61917227	0.17972097	0.96976094	-7.96883642	-4.21498942	-12.18990025	-60.12973319	4.94204382	3.36778578	-4.24735598	13.56032127	-27.71298827	-0.88939689	39.00018068	-2.55385406	36.87774679
0.3	16.42235429	0.1892035	0.97106979	-8.74583891	-2.69048535	-11.60676881	-60.04951946	5.03800602	4.36919047	-4.3271475	13.42095627	-27.67320338	-1.00190143	38.96886633	-2.19484817	37.12497705
0.31	16.13397217	0.19864213	0.97217052	-9.38867147	-1.15268564	-11.12193371	-59.71519536	5.24590343	5.25164827	-4.40975687	13.09718008	-27.56250159	-1.18807879	38.9989192	-1.77111786	37.3361851
0.32	15.8426571	0.20811538	0.97311086	-10.03904154	0.35232979	-10.56328509	-59.17401129	5.38867519	5.93444439	-4.48652864	12.76536801	-27.40526968	-1.40195046	39.10601277	-1.34009398	37.60617949
0.33	15.71475792	0.21739744	0.9743564300000001	-10.82354151	1.47789642	-10.1978438	-58.30020044	5.8462485	6.24647801	-4.77104234	9.33567635	-27.4770137	-2.15590579	39.98932876	-0.18324502	36.96175697
0.34	15.50825388	0.22683584	0.97517966	-11.55855595	2.68494549	-9.66026059	-57.20531105	6.06645957	6.60671057	-4.76969455	8.68010183	-27.42712166	-2.3815257	40.15735731	0.23020432	37.36892382
0.35	15.39557589	0.23638711	0.97598398	-12.39093072	3.68885108	-9.12625051	-55.82796865	6.35059756	6.91001857	-4.73452525	7.84421198	-27.45590288	-2.66297125	40.40168316	0.6536904100000001	37.79923908
0.36	15.54258199	0.24588508	0.9771030000000001	-13.56390633	4.24858064	-8.46860526	-54.11282937	6.60264349	6.94092552	-4.57458902	6.04202409	-27.7780549	-3.10303102	40.88687792	1.31862654	38.02808126
0.37	15.2420556	0.25547942	0.97700617	-14.13247851	5.44172301	-7.94238474	-52.45379366	6.76632424	7.48147322	-4.57121103	5.70232623	-27.52012647	-3.3556754	41.02296872	1.63324976	38.65267035
0.38	15.61277968	0.26504781	0.97818966	-15.53045267	5.43063833	-7.37567845	-50.09552829	7.27797149	7.17679374	-4.36872075	3.91500067	-28.09853775	-3.69625479	41.46108335	2.17286066	39.17350323
0.39	15.9833204	0.27478856	0.9789691	-16.9382084	5.47952853	-6.70840165	-47.71681853	7.64283683	7.37028474	-3.83349347	0.46367436	-28.60613832	-4.2268905	42.07175532	2.83573227	39.45093163
0.4	15.79537408	0.28436639	0.9785391	-17.58928933	6.17026445	-6.27542852	-45.29615489	7.97144837	7.72394896	-3.78697926	-0.13003282	-28.51964322	-4.4527401	42.21017903	3.1226946	40.24297854
0.41	16.50243586	0.29419691	0.97960333	-19.32827859	5.49064053	-5.72569214	-42.20638871	8.437638979999999	7.24814295	-3.57023691	-2.52531543	-29.38240796	-4.85380456	42.73119831	3.67369321	40.6969174
0.42	16.55790809	0.30389404	0.97926826	-20.18378406	5.6233126	-5.447701	-39.25182326	8.988894719999999	7.17711953	-3.48055178	-3.51889926	-29.55002173	-5.09069155	42.85659318	4.00097181	41.43181248
0.43	16.99888246	0.31369306	0.97937397	-21.50435312	5.15171092	-5.09852441	-36.01201673	9.509445230000001	7.06424558	-3.13449284	-6.8074478	-30.10201345	-5.58463711	43.34101474	4.67573382	41.76952421
0.44	17.33530164	0.32357238	0.97914944	-22.64743702	4.7057474	-4.85910175	-32.57510511	9.92660594	6.77385295	-3.1713204	-7.42651548	-30.5448684	-5.8382013	43.57163232	5.01563536	42.47744552
0.45	17.43719623	0.33352682	0.97830431	-23.45709751	4.50096499	-4.79222627	-29.14689046	10.57315765	6.6444426	-3.15897293	-7.91525247	-30.70040945	-6.04541318	43.61560585	5.30729405	43.20545858
0.46	17.82871298	0.34355303	0.97779088	-24.5837989	3.82252266	-4.71387846	-25.47580529	11.09557811	6.23636672	-3.16053222	-8.450423219999999	-31.1703749	-6.38978328	43.9366263	5.7557852	43.68546628
0.47	17.91520677	0.35360872	0.97657204	-25.27326879	3.49511302	-4.84429109	-21.92494881	11.81188115	5.92525822	-3.10159529	-8.70191548	-31.28571445	-6.63196157	43.93089942	6.11455171	44.2636233
0.48	18.1494123	0.36377207	0.97542436	-26.12482717	2.91010292	-4.97337075	-18.28709411	12.43891244	5.44292991	-3.02661135	-8.70526765	-31.55340074	-6.94780121	44.12722444	6.53329906	44.68192256
0.49	17.99031237	0.3737043	0.97347912	-26.41319487	2.88252781	-5.36302978	-14.99058238	13.10040836	5.22321349	-2.92417398	-8.7003156	-31.42794369	-7.11176226	44.04469433	6.87677424	45.14228527
0.5	18.29791673	0.38415359	0.97214464	-27.29523774	2.09436881	-5.6169545	-11.42433001	13.89696134	4.46204532	-2.74573828	-8.21447075	-31.73828127	-7.43345531	44.14941855	7.29097376	45.45039949
0.51	17.97326888	0.39430115	0.96961119	-27.39376331	2.26324883	-6.05551616	-8.5466306	14.47533368	4.37191463	-2.63858032	-8.183241170000001	-31.40641149	-7.66824359	44.0821629	7.63767415	45.85225903
0.52	17.75662149	0.40460621	0.96721223	-27.57965356	2.25142223	-6.57924356	-5.80251098	15.11951735	4.16357056	-2.51082962	-8.12451108	-31.20094185	-7.84435692	43.9142597	7.93694288	46.18683976
0.53	18.26832761	0.41521874	0.9658651	-28.5830215	1.21341911	-7.05303469	-2.83899174	16.24697221	2.86368302	-2.02873466	-6.69578091	-31.68160771	-8.143059969999999	43.94513571	8.449630900000001	46.1008766
0.54	18.04704988	0.42563775	0.96338046	-28.75824978	1.30408709	-7.62299485	-0.83619775	16.79008543	2.81611394	-1.89156697	-6.56976041	-31.46980032	-8.27669581	43.70221805	8.719528179999999	46.31232371
0.55	18.06894725	0.43607117	0.96135114	-29.16106477	1.07746813	-8.255482560000001	0.98633479	17.55950535	2.21332849	-1.59394237	-5.98137646	-31.50199931	-8.354992810000001	43.31038324	9.06167144	46.29686886
0.5600000000000001	17.94781284	0.44676141	0.95910474	-29.47518025	1.16622517	-8.784777679999999	2.10633587	17.8974035	2.38451813	-1.5010727	-5.85497529	-31.38799422	-8.495312650000001	43.08240124	9.26729156	46.43331154
0.57	18.00803915	0.45770327	0.95728034	-29.97516634	0.9824006199999999	-9.390971710000001	3.09351967	18.67867572	1.92311465	-1.25933999	-5.16138641	-31.40563347	-8.55377975	42.60087352	9.482032179999999	46.29458609
0.58	18.03195721	0.4689113	0.9555	-30.46543861	0.9696945	-9.95017709	3.47762056	19.24540276	1.88605339	-1.03668125	-3.8923277	-31.38430631	-8.657229559999999	42.23944422	9.593841299999999	46.17953278
0.59	18.0763936	0.48001685	0.95401391	-30.95659418	0.97787812	-10.53939985	3.42807323	19.33922865	1.90256537	-0.99244507	-3.71522495	-31.41500025	-8.655335770000001	41.82200379	9.63547913	46.12884014
0.6	18.10900075	0.4916935	0.95272534	-31.45105758	1.03868984	-11.16684455	3.00319	19.61445436	1.95989919	-1.04247726	-1.94656078	-31.35717898	-8.59060762	41.14091995	9.46597672	46.10551423
0.61	18.2030124	0.5032481600000001	0.95180558	-31.97477457	1.03109326	-11.83717176	2.28881858	19.3514111	1.7839804	-1.02558174	-1.78023981	-31.4026514	-8.55679194	40.66071828	9.39196705	45.91381748
0.62	18.12154286	0.5154788	0.9508601	-32.29444648	1.27247097	-12.60988676	1.22142047	19.20340839	1.69435711	-0.99643789	-0.24278306	-31.15768124	-8.41883101	39.79997124	8.98909218	45.84651296
0.63	18.23104202	0.52766029	0.9505051799999999	-32.76078256	1.25582301	-13.46280374	0.03094304	18.55162796	1.28467265	-0.94686339	-0.0027587	-31.13808358	-8.395132500000001	39.22829006	8.788309099999999	45.51702077
0.64	18.25318059	0.54016189	0.95029535	-33.06188916	1.32561177	-14.46334369	-1.30523278	17.72371915	0.76071132	-0.79014177	0.31648427	-30.97620429	-8.363452069999999	38.59897146	8.47879273	45.1198283
0.65	17.97000607	0.55302305	0.94995442	-32.91577504	1.71790772	-15.660494	-2.72601531	16.78473334	0.11946215	0.66938099	1.59296705	-30.46100088	-8.07421577	37.64055733	7.70628635	45.12249895
0.66	18.16333113	0.56587372	0.950582	-33.20369233	1.47548312	-16.97534776	-4.05434389	15.36362747	-0.45454645	0.83102725	1.71367341	-30.45361455	-8.08104582	37.23748545	7.33323935	44.66762962
0.67	17.78221252	0.5790467	0.95065549	-32.6557013	1.912855	-18.62550529	-5.51392018	13.77992836	-1.4682651	4.08323036	1.86119826	-29.77446399	-7.86735089	36.35515262	6.60371395	44.40128745
0.68	17.78469502	0.59231296	0.9515332399999999	-32.41881055	1.7915463	-20.33007967	-6.76970417	11.70393479	-2.17097931	8.002117589999999	1.13411351	-29.48418893	-7.82274539	35.84585403	6.04866616	43.90010513
0.6899999999999999	18.0264135	0.605414	0.9529566900000001	-32.27712576	1.35504648	-22.32093468	-7.92606217	9.47723433	-2.50020008	8.291866819999999	1.1926299	-29.48497786	-7.86424467	35.58644608	5.62085507	43.33776342
0.7	18.21587924	0.61846366	0.9545114099999999	-31.8466318	0.92561096	-24.61332352	-8.96885902	6.91437383	-2.76300229	8.784954770000001	1.20662192	-29.41977414	-7.89565561	35.36929632	5.20275317	42.70452254
0.71	17.58166689	0.63188974	0.95491399	-30.34172657	1.38194372	-26.97420745	-10.02198127	4.35222533	-3.699446	17.92174248	-1.51512821	-28.39593261	-7.68832839	34.84357921	4.33036065	42.36755437
0.72	17.70005105	0.64480738	0.95656065	-29.47813346	0.89355775	-29.57481152	-10.76509087	1.28089646	-3.66891721	18.62036273	-1.57873903	-28.24384316	-7.76501208	34.90319295	3.93752441	41.7075271
0.73	17.77316848	0.65757487	0.95811145	-28.39155294	0.38502151	-32.31926966	-11.34699964	-1.71757191	-3.53815873	19.64012107	-1.7369953	-28.03480244	-7.80813945	35.01762125	3.52351861	41.10119699
0.74	17.58682917	0.6701232	0.9591734	-26.85455732	0.10766028	-35.07823728	-11.81519079	-4.1468587	-3.60082958	25.91407289	-4.17916734	-27.60523957	-7.72577801	35.01878491	2.96715376	40.70595492
0.75	17.85004698	0.68223604	0.96103124	-25.716163	-0.76255526	-37.82127177	-12.03796747	-6.96723543	-3.12326801	26.29767977	-4.16911301	-27.6761074	-7.74249117	35.34243293	2.67309961	40.13652208
0.76	17.79387048	0.69404917	0.96218845	-23.98204004	-1.30083511	-40.80178189	-12.08653501	-8.85819412	-2.94946063	27.1208411	-4.55459419	-27.39171346	-7.68343271	35.63622517	2.34662787	39.57911398
0.77	18.09454721	0.70549848	0.96401189	-22.70043494	-2.38574759	-43.44769823	-11.94501059	-10.7753795	-2.34640475	27.44602703	-4.67425828	-27.58726624	-7.62436843	36.09905386	2.10624418	39.10751583
0.78	18.25866266	0.71664385	0.96553119	-21.10480907	-3.35061422	-46.14049482	-11.65063643	-11.93729604	-1.93522928	27.66101277	-4.91698808	-27.63433552	-7.52718854	36.59448876	1.89375817	38.62266165
0.79	18.58294017	0.72734595	0.9673615800000001	-19.74851506	-4.59313767	-48.56077315	-11.2481365	-12.37989527	-1.3649039	27.76270545	-5.02470437	-27.94424089	-7.35860123	36.90828306	1.76161262	38.26346906
