Model Marker Errors from IK
version=1
nRows=55
nColumns=4
inDegrees=no
endheader
time	total_squared_error	marker_error_RMS	marker_error_max
      0.19000000	      0.02527911	      0.02513917	      0.05672787
      0.20000000	      0.02514077	      0.02507029	      0.05707554
      0.21000000	      0.02504397	      0.02502198	      0.05735877
      0.22000000	      0.02497269	      0.02498634	      0.05759102
      0.23000000	      0.02496576	      0.02498288	      0.05791040
      0.24000000	      0.02500095	      0.02500047	      0.05796893
      0.25000000	      0.02509200	      0.02504596	      0.05846399
      0.26000000	      0.02520162	      0.02510061	      0.05778902
      0.27000000	      0.02534585	      0.02517233	      0.05756912
      0.28000000	      0.02550383	      0.02525066	      0.05694650
      0.29000000	      0.02566565	      0.02533064	      0.05605185
      0.30000000	      0.02582736	      0.02541031	      0.05519908
      0.31000000	      0.02596595	      0.02547840	      0.05419392
      0.32000000	      0.02609324	      0.02554077	      0.05321814
      0.33000000	      0.02619380	      0.02558994	      0.05230008
      0.34000000	      0.02628000	      0.02563201	      0.05129621
      0.35000000	      0.02629873	      0.02564115	      0.05063243
      0.36000000	      0.02631007	      0.02564667	      0.04978546
      0.37000000	      0.02628944	      0.02563662	      0.04922242
      0.38000000	      0.02625128	      0.02561800	      0.04863970
      0.39000000	      0.02619480	      0.02559043	      0.04820460
      0.40000000	      0.02614675	      0.02556695	      0.04806604
      0.41000000	      0.02606320	      0.02552606	      0.04801699
      0.42000000	      0.02600047	      0.02549533	      0.04846801
      0.43000000	      0.02594681	      0.02546901	      0.04891393
      0.44000000	      0.02590895	      0.02545042	      0.04936390
      0.45000000	      0.02588441	      0.02543836	      0.04971617
      0.46000000	      0.02587278	      0.02543264	      0.05014650
      0.47000000	      0.02586619	      0.02542941	      0.05042930
      0.48000000	      0.02586328	      0.02542797	      0.05101678
      0.49000000	      0.02585091	      0.02542190	      0.05104684
      0.50000000	      0.02583497	      0.02541406	      0.05126328
      0.51000000	      0.02582035	      0.02540686	      0.05170888
      0.52000000	      0.02579136	      0.02539260	      0.05156364
      0.53000000	      0.02577165	      0.02538289	      0.05176378
      0.54000000	      0.02575716	      0.02537575	      0.05177904
      0.55000000	      0.02576141	      0.02537785	      0.05206781
      0.56000000	      0.02578155	      0.02538777	      0.05205202
      0.57000000	      0.02581431	      0.02540389	      0.05206495
      0.58000000	      0.02586760	      0.02543010	      0.05222980
      0.59000000	      0.02590440	      0.02544818	      0.05227207
      0.60000000	      0.02592131	      0.02545649	      0.05234051
      0.61000000	      0.02590400	      0.02544798	      0.05226484
      0.62000000	      0.02580315	      0.02539840	      0.05235701
      0.63000000	      0.02565284	      0.02532432	      0.05231482
      0.64000000	      0.02545619	      0.02522707	      0.05189520
      0.65000000	      0.02520677	      0.02510317	      0.05187049
      0.66000000	      0.02489347	      0.02494668	      0.05176543
      0.67000000	      0.02459463	      0.02479648	      0.05087739
      0.68000000	      0.02424156	      0.02461786	      0.05118564
      0.69000000	      0.02390398	      0.02444585	      0.05070524
      0.70000000	      0.02356460	      0.02427169	      0.05053092
      0.71000000	      0.02324333	      0.02410567	      0.05028017
      0.72000000	      0.02295588	      0.02395615	      0.05007105
      0.73000000	      0.02272158	      0.02383358	      0.04975362
