Coordinates

Units are S.I. units (second, meters, Newtons, ...)
If the header above contains a line with 'inDegrees', this indicates whether rotational values are in degrees (yes) or radians (no).

inDegrees=yes
nColumns=34
nRows=55
DataType=double
version=3
OpenSimVersion=4.5-2023-11-26-efcdfd3eb
endheader
time	pelvis_tilt	pelvis_tx	pelvis_ty	hip_flexion_l	hip_flexion_r	knee_angle_l	knee_angle_r	ankle_angle_l	ankle_angle_r	mtp_angle_l	mtp_angle_r	lumbar_ext	shoulder_flexion_r	elbow_flexion_r	shoulder_flexion_l	elbow_flexion_l
0.19	24.92475031	-0.03534418	0.96199579	-4.64205728	-38.3468238	-21.56134878	-45.52047283	-2.35495745	-12.13374086	10.18163983	6.85726178	-42.16779798	9.496452509999999	64.49599304	-15.685517	45.66423715
0.2	25.05552303	-0.0222039	0.9639401399999999	-5.7090065	-36.82109033	-21.36049547	-48.76113676	-1.70101094	-13.19560576	10.23043046	6.53043973	-42.25816243	8.99351021	62.55793295	-15.28969703	45.96553494
0.21	25.12136672	-0.009595309999999999	0.96592635	-6.71091457	-35.03241262	-21.09345765	-51.91532363	-1.21492642	-13.75903676	10.14333073	5.67161418	-42.28219474	8.609784250000001	60.47350583	-14.80078581	46.19075674
0.22	25.18568012	0.00243543	0.9680673400000001	-7.71411093	-33.0569239	-20.8299424	-55.08124699	-0.75028521	-13.63056039	9.013797540000001	-0.67671185	-42.3742092	8.292663790000001	58.44805664	-14.19688755	46.38097133
0.23	25.37913565	0.01451768	0.97037765	-8.94671174	-31.25358682	-20.35317254	-57.69799759	-0.26715962	-13.37826686	8.853700140000001	-1.00425516	-42.53044575	8.01047632	56.29955486	-13.63909476	46.66015792
0.24	25.43097378	0.02614052	0.97260976	-10.00488479	-29.16284928	-19.94158774	-60.22383821	0.18622594	-12.65564003	7.52020848	-4.36269935	-42.60151704	7.75497443	54.24941663	-12.98111909	46.89096432
0.25	25.83319481	0.03758978	0.97536762	-11.53597025	-27.62407619	-19.38209087	-62.14255037	0.65265271	-11.763781	7.45944128	-4.25175558	-43.13752467	7.40456116	52.59424966	-12.29517413	47.28090319
0.26	25.78295044	0.04901691	0.9774799	-12.46486408	-25.2772423	-18.88639576	-63.96365082	0.9341164199999999	-10.78491417	6.97954628	-4.59340746	-42.9502717	7.27878032	50.22240505	-11.60317819	47.42610178
0.27	26.00047696	0.06034981	0.97998417	-13.80169868	-23.51349273	-18.29783195	-65.25130889	1.35962298	-9.53553657	6.72956949	-4.56675984	-43.22152631	6.97184472	48.41811075	-10.90413021	47.90889479
0.28	26.11700505	0.07157671	0.98230398	-14.97964889	-21.59371484	-17.76629825	-66.25468865000001	1.7182098	-8.214274440000001	6.3830099	-4.45089005	-43.35921393	6.68296486	46.60443093	-10.15025389	48.23007629
0.29	26.12428067	0.08271843	0.98437886	-15.99676168	-19.57041529	-17.29929831	-66.95130104	2.09045509	-6.6972844	5.80303318	-4.10574378	-43.38615061	6.32375914	45.00020038	-9.297718700000001	48.36608725
0.3	26.17934111	0.09405375000000001	0.9863718	-17.15574659	-17.78528537	-16.70482232	-67.23977142	2.48215162	-5.35231897	5.45181491	-3.67294816	-43.4701675	5.88535516	43.54133489	-8.51006527	48.85132975
0.31	26.05714397	0.10537905	0.98799766	-18.08378029	-15.85867363	-16.19810805	-67.20953203000001	2.9060611	-3.8429505	3.75099645	-1.07350843	-43.38545057	4.94144027	42.95699496	-7.2447893	48.65137516
0.32	26.14262698	0.11675697	0.9896906	-19.26258197	-14.31896482	-15.61793514	-66.77307152	3.32180234	-2.55817802	3.61680862	-0.56104963	-43.49169002	4.50468587	41.69863366	-6.47425521	49.10571226
0.33	26.16670758	0.12836576	0.99110102	-20.42654182	-12.86289544	-14.94899959	-65.99657928000001	3.73871949	-1.2465634	3.44983501	0.36043169	-43.53941806	3.72808981	41.06836308	-5.50490015	49.3664481
0.34	26.02502394	0.14006963	0.99195349	-21.41305115	-11.22129193	-14.23833039	-64.99294712	4.11466078	-0.5271862	3.393889	0.60095273	-43.39913941	3.16938224	40.27159367	-4.84529453	50.11793633
0.35	26.17349373	0.15176813	0.9931533299999999	-22.68112344	-10.20099118	-13.63957337	-63.44310405	4.60079643	0.65600266	3.16924691	2.86498629	-43.56454489	1.52422202	40.98697748	-3.02067388	49.39577911
0.36	26.15791718	0.16368047	0.99374566	-23.76948084	-9.06614242	-13.04574606	-61.69949313	5.12498152	1.51183008	3.11917349	3.27971052	-43.51095616	0.72572815	40.58124716	-2.11002723	49.7574162
0.37	26.20792597	0.17556319	0.9941987	-24.97332583	-8.07838688	-12.32092901	-59.64553931	5.57417522	2.05075364	3.04474612	4.05475378	-43.56070789	-0.7410546099999999	41.28992836	-0.5767428	49.5320826
0.38	26.22309969	0.18760859	0.9943476999999999	-26.12975928	-7.22827325	-11.64960669	-57.31225866	6.08941366	2.64587753	2.98822515	4.12174851	-43.55299948	-1.73958252	41.40271196	0.47316172	49.81756834
0.39	26.28358611	0.19956386	0.99431689	-27.31709038	-6.48275605	-10.97873377	-54.69772341	6.57604135	3.03226241	2.88578942	4.04527978	-43.5937854	-3.04302945	42.02595238	1.86424592	49.79471279
0.4	25.86041815	0.21160948	0.9932755599999999	-27.91031774	-5.10594745	-10.43991928	-52.11602703	6.95942501	3.39482971	2.85564569	3.89492678	-43.15094868	-3.70732592	41.90077699	2.53716372	50.51327969
0.41	26.35483201	0.22367519	0.99352166	-29.64206575	-5.3154975	-9.64082591	-48.65737383	7.52431246	3.64274288	2.62615827	3.46825706	-43.63918814	-5.34378009	43.08083183	4.31871685	50.13914802
0.42	26.36447634	0.23573545	0.99283474	-30.75222078	-4.90229485	-9.018724239999999	-45.21266064	8.012107090000001	3.80549502	2.49255728	3.0907223	-43.64532513	-6.44530548	43.6234148	5.53026701	50.32458794
0.43	26.35030408	0.24778616	0.99185179	-31.8146311	-4.51330816	-8.430270650000001	-41.57424147	8.52961653	3.96818624	2.3565344	2.66146956	-43.62437906	-7.65671187	44.31272681	6.91648672	50.30805857
0.44	26.37684311	0.25990607	0.99086664	-32.92783396	-4.37570417	-7.83649943	-37.61701081	8.928232149999999	3.94149657	2.27241123	2.36381102	-43.6708286	-8.50826936	44.6368905	7.85456331	50.8710583
0.45	26.44388061	0.27209906	0.98967751	-34.08351904	-4.36085372	-7.25224536	-33.48587499	9.363883209999999	3.86587168	2.22615533	2.12888082	-43.75002343	-9.507759249999999	45.16563689	8.996303299999999	51.167855
0.46	26.39500668	0.28430801	0.98821405	-35.07282318	-4.33099232	-6.7583469	-29.20446076	9.78006178	3.620341	2.2295147	1.92110984	-43.72609633	-10.32664099	45.51847352	9.9658274	51.59907854
0.47	26.42571719	0.29666939	0.98657043	-36.14054551	-4.45246137	-6.2977443	-24.91708615	10.19342968	3.26248578	2.32099115	1.78326704	-43.76164454	-11.25383615	45.94026163	11.02772403	51.95415917
0.48	26.10502123	0.30911106	0.98434968	-36.76715964	-4.19941287	-5.97480506	-20.77654423	10.59768552	2.88297371	2.37555006	1.57185273	-43.44450202	-11.85795962	45.89388314	11.82289612	52.54740738
0.49	26.23737611	0.32170767	0.9824845800000001	-37.92104551	-4.61052253	-5.6032681	-16.59622635	11.02509854	2.13906545	2.57732373	1.31458185	-43.57509756	-12.74917068	46.37615084	12.84216121	52.86077303
0.5	26.1185446	0.33440455	0.98013193	-38.73077316	-4.68823281	-5.39121062	-12.8597461	11.4379808	1.44480619	2.79495517	0.93619131	-43.44057551	-13.44979718	46.53757138	13.71309641	53.26477062
0.51	25.7235431	0.34711855	0.97735877	-39.15295259	-4.33337253	-5.37308435	-9.803907110000001	11.76632579	1.07418771	2.85718508	0.67065467	-43.02792344	-13.91764726	46.43141334	14.37303723	53.76686503
0.52	25.92715067	0.36010741	0.9752988299999999	-40.27057036	-4.81152224	-5.29288665	-6.8747188	12.20277583	0.05972032	3.06690317	-0.13369049	-43.2109697	-14.59354273	46.62087099	15.18637799	54.19231468
0.53	25.80960023	0.37301378	0.9729138000000001	-40.90987475	-4.73221707	-5.45982337	-4.86022414	12.47195838	-0.49229998	3.17437666	-0.66198422	-43.08309754	-15.00038982	46.45435049	15.82627184	54.6747675
0.54	25.88044098	0.38614318	0.97080635	-41.74173906	-4.8487079	-5.69256596	-3.44720777	12.89355091	-0.94116545	3.35509375	-1.71080857	-43.13926135	-15.45016923	46.45058002	16.42902095	55.08656339
0.55	25.80507791	0.39910771	0.9688029	-42.30304689	-4.63995547	-6.10147068	-2.88761237	12.88728006	-1.0545469	3.37948164	-1.80397338	-43.07259703	-15.68514678	46.17433476	16.92951031	55.52712163
0.5600000000000001	25.98121218	0.41218508	0.96736068	-43.06777282	-4.68254434	-6.67072736	-2.87243227	12.94737299	-1.3782193	3.37335948	-1.93223726	-43.29622382	-15.79882662	45.9116404	17.25139366	56.13159785
0.57	26.20710779	0.42569254	0.9661868300000001	-43.87725712	-4.77894874	-7.31084342	-3.37491588	13.08686751	-1.7263212	3.38121655	-2.085413	-43.53633334	-15.86060266	45.72712531	17.32566428	56.89533297
0.58	26.38194731	0.43884977	0.9652955	-44.47772906	-4.70422466	-8.15084736	-4.50274799	12.58989877	-1.97145938	3.42335914	-1.99545893	-43.74584513	-15.87972218	45.40926289	17.61698627	57.19168685
0.59	26.50852137	0.4527032	0.9644906600000001	-44.94237783	-4.50857903	-9.2921105	-6.12460688	12.51973466	-2.23219642	3.86580824	-1.5188162	-43.87705686	-15.66636724	45.03387323	17.25283843	58.25335282
0.6	26.60712002	0.46650318	0.96397159	-45.25171336	-4.27302818	-10.6015369	-8.043997989999999	11.87767701	-2.60986451	4.64849829	-0.98548608	-43.97717696	-15.4432818	44.67216069	16.97250722	58.99814967
0.61	26.93005386	0.48018387	0.96403486	-45.68146816	-4.37117839	-12.05464847	-10.03996421	10.67998061	-3.03898145	4.79726529	-0.82682502	-44.27280724	-15.35483986	44.4605843	16.98487066	59.16961496
0.62	26.70958889	0.49465229	0.9635810299999999	-45.35005687	-3.80571361	-13.9030739	-12.28055162	9.64314948	-3.52383053	9.125701080000001	-0.28501719	-43.999944	-14.86030156	43.98591607	16.06627101	60.40890598
0.63	26.66033442	0.50898679	0.9636295499999999	-45.05033761	-3.55115113	-16.01048355	-14.39151927	8.14240055	-4.01199178	10.73070842	-0.39967497	-43.8654481	-14.49263833	43.67174048	15.43170242	61.06842242
0.64	26.8669329	0.52324299	0.96419242	-44.8339603	-3.74579266	-18.39199248	-16.26362387	6.15011476	-4.3006148	11.20784451	-0.36836642	-43.97659355	-14.41732018	43.73533537	15.13722147	61.23296482
0.65	26.49261269	0.537853	0.96428417	-43.82166908	-3.33359875	-21.12906684	-18.06249559	4.14888598	-4.67229144	13.0314661	-0.65729985	-43.47928734	-14.00193483	43.66628341	14.2878172	61.76548959
0.66	26.30811637	0.55229607	0.96492917	-42.84050843	-3.30608002	-23.87410511	-19.57212279	1.6545085	-4.58647339	20.40067749	-2.75514392	-43.13009756	-13.24453252	43.0369176	13.21427045	62.64559583
0.67	26.6447019	0.56621496	0.96622768	-42.23509906	-4.00041028	-26.95376843	-20.74358994	-0.86003759	-4.28307501	20.71390078	-2.68508079	-43.33563326	-13.07528526	43.20859301	12.94998213	62.508557
0.68	25.88046314	0.58079673	0.9664690500000001	-40.28328097	-3.58162709	-30.32009344	-21.71941336	-3.7493803	-4.06996179	24.20361435	-4.29985957	-42.39050011	-12.313479	42.88536367	11.71262072	63.19781403
0.6899999999999999	25.7785069	0.59478532	0.96750285	-38.92511923	-4.05852999	-33.71944985	-22.3291379	-6.61523393	-3.55696041	24.63242029	-4.39416995	-42.13058162	-12.10639722	43.30079771	11.28096404	62.96947887
0.7	25.46350591	0.60831446	0.96846839	-37.14028102	-4.34641951	-37.22727702	-22.791029	-9.318096089999999	-2.98736626	25.1519248	-5.11993228	-41.66455251	-11.51746602	43.18803758	10.66344195	62.9708698
0.71	25.18638618	0.62175127	0.96957627	-35.31800686	-4.80795847	-40.71592422	-23.03183847	-11.83100968	-2.1223627	24.52212239	-6.85148783	-41.26552057	-10.80959351	43.12572089	9.909368600000001	63.09372826
0.72	24.9933081	0.63480929	0.97083759	-33.48565777	-5.43700932	-44.1396589	-23.05707761	-14.03651172	-1.29608732	22.47665728	-7.89080606	-40.95142095	-10.23556058	43.22990013	9.43798205	62.86749952
0.73	24.88836431	0.64773545	0.97215143	-31.73337584	-6.26194707	-47.36603383	-22.83672267	-15.67646041	-0.5050801700000001	22.1783643	-7.98234836	-40.74129132	-9.85432363	43.73496503	9.158367180000001	62.34053852
