Coordinates
version=1
nRows=55
nColumns=34
inDegrees=yes

Units are S.I. units (second, meters, Newtons, ...)
If the header above contains a line with 'inDegrees', this indicates whether rotational values are in degrees (yes) or radians (no).

endheader
time	pelvis_tilt	pelvis_list	pelvis_rotation	pelvis_tx	pelvis_ty	pelvis_tz	hip_flexion_l	hip_adduction_l	hip_rotation_l	hip_flexion_r	hip_adduction_r	hip_rotation_r	knee_angle_l_beta	knee_angle_r_beta	knee_angle_l	knee_angle_r	ankle_angle_l	ankle_angle_r	subtalar_angle_l	subtalar_angle_r	mtp_angle_l	mtp_angle_r	lumbar_ext	lumbar_bend	lumbar_rota	shoulder_flexion_r	shoulder_adduction_r	shoulder_rotation_r	elbow_flexion_r	shoulder_flexion_l	shoulder_adduction_l	shoulder_rotation_l	elbow_flexion_l
      0.19000000	     24.92475031	     17.04975612	     -0.26112097	     -0.03534418	      0.96199579	     -0.26762548	     -4.64205728	     17.20104307	     -4.58360866	    -38.34682380	    -17.37824714	    -27.65107145	      0.37631653	      0.79448213	    -21.56134878	    -45.52047283	     -2.35495745	    -12.13374086	      5.67639030	      5.17780927	     10.18163983	      6.85726178	    -42.16779798	    -21.35458404	     -6.66987460	      9.49645251	      2.38003377	      0.90126225	     64.49599304	    -15.68551700	      2.47420432	    -30.67884437	     45.66423715
      0.20000000	     25.05552303	     17.16008290	     -0.49623740	     -0.02220390	      0.96394014	     -0.26833446	     -5.70900650	     17.52582476	     -4.12557463	    -36.82109033	    -18.45102029	    -27.12496498	      0.37281098	      0.85104238	    -21.36049547	    -48.76113676	     -1.70101094	    -13.19560576	      4.97714573	      2.85496114	     10.23043046	      6.53043973	    -42.25816243	    -21.47135775	     -6.77836909	      8.99351021	      2.39184569	      0.91345901	     62.55793295	    -15.28969703	      2.53903528	    -29.98467294	     45.96553494
      0.21000000	     25.12136672	     17.11243475	     -0.73343079	     -0.00959531	      0.96592635	     -0.26899619	     -6.71091457	     17.70093421	     -3.66851980	    -35.03241262	    -19.34399227	    -26.34881055	      0.36815029	      0.90609333	    -21.09345765	    -51.91532363	     -1.21492642	    -13.75903676	      4.09242423	      0.43834253	     10.14333073	      5.67161418	    -42.28219474	    -21.43392220	     -6.85562221	      8.60978425	      2.38391906	      1.01755576	     60.47350583	    -14.80078581	      2.63951670	    -29.35414414	     46.19075674
      0.22000000	     25.18568012	     16.86623652	     -0.89153488	      0.00243543	      0.96806734	     -0.26967886	     -7.71411093	     17.67520393	     -3.08932481	    -33.05692390	    -19.92026153	    -25.40403713	      0.36355108	      0.96134912	    -20.82994240	    -55.08124699	     -0.75028521	    -13.63056039	      3.24826331	     -1.62274763	      9.01379754	     -0.67671185	    -42.37420920	    -21.14913948	     -6.93636925	      8.29266379	      2.35492872	      1.09106960	     58.44805664	    -14.19688755	      2.76485713	    -28.77949230	     46.38097133
      0.23000000	     25.37913565	     16.60794951	     -1.16220336	      0.01451768	      0.97037765	     -0.27023828	     -8.94671174	     17.62042683	     -2.68889305	    -31.25358682	    -20.50692883	    -24.45649098	      0.35522987	      1.00702003	    -20.35317254	    -57.69799759	     -0.26715962	    -13.37826686	      2.55656763	     -3.49407573	      8.85370014	     -1.00425516	    -42.53044575	    -20.88034247	     -6.99684164	      8.01047632	      2.32518834	      1.19296297	     56.29955486	    -13.63909476	      2.83911604	    -27.91942301	     46.66015792
      0.24000000	     25.43097378	     16.21292005	     -1.31985100	      0.02614052	      0.97260976	     -0.27085430	    -10.00488479	     17.41807900	     -2.17549900	    -29.16284928	    -20.83094040	    -23.40083485	      0.34804636	      1.05110426	    -19.94158774	    -60.22383821	      0.18622594	    -12.65564003	      1.87066846	     -5.03945236	      7.52020848	     -4.36269935	    -42.60151704	    -20.43159274	     -7.07394775	      7.75497443	      2.28627958	      1.26197836	     54.24941663	    -12.98111909	      2.91818250	    -27.18097003	     46.89096432
      0.25000000	     25.83319481	     15.76339497	     -1.35962296	      0.03758978	      0.97536762	     -0.27157442	    -11.53597025	     17.07964711	     -1.46896981	    -27.62407619	    -20.95868083	    -22.61238740	      0.33828130	      1.08459211	    -19.38209087	    -62.14255037	      0.65265271	    -11.76378100	      1.70280620	     -5.88507971	      7.45944128	     -4.25175558	    -43.13752467	    -19.78406046	     -7.30465122	      7.40456116	      2.29380272	      1.00179415	     52.59424966	    -12.29517413	      3.00274593	    -26.44089970	     47.28090319
      0.26000000	     25.78295044	     15.13813373	     -1.68658493	      0.04901691	      0.97747990	     -0.27183243	    -12.46486408	     16.61752744	     -1.50543547	    -25.27724230	    -20.98111896	    -21.22569841	      0.32962979	      1.11637631	    -18.88639576	    -63.96365082	      0.93411642	    -10.78491417	      0.91997391	     -6.96284234	      6.97954628	     -4.59340746	    -42.95027170	    -19.23963471	     -7.15237273	      7.27878032	      2.17631578	      1.30716497	     50.22240505	    -11.60317819	      2.96754141	    -25.31988327	     47.42610178
      0.27000000	     26.00047696	     14.54305138	     -1.69327903	      0.06034981	      0.97998417	     -0.27247434	    -13.80169868	     16.09556656	     -1.02478569	    -23.51349273	    -20.80963913	    -20.37922815	      0.31935741	      1.13885018	    -18.29783195	    -65.25130889	      1.35962298	     -9.53553657	      0.69172349	     -7.32595678	      6.72956949	     -4.56675984	    -43.22152631	    -18.45517197	     -7.30922118	      6.97184472	      2.18085693	      0.99601553	     48.41811075	    -10.90413021	      2.96265898	    -24.40573709	     47.90889479
      0.28000000	     26.11700505	     13.85637434	     -1.73460954	      0.07157671	      0.98230398	     -0.27296996	    -14.97964889	     15.46948244	     -0.73098356	    -21.59371484	    -20.49287192	    -19.41301536	      0.31008040	      1.15636246	    -17.76629825	    -66.25468865	      1.71820980	     -8.21427444	      0.40588898	     -7.19677645	      6.38300990	     -4.45089005	    -43.35921393	    -17.63239462	     -7.38164503	      6.68296486	      2.12944089	      0.79411140	     46.60443093	    -10.15025389	      2.87138407	    -23.34978364	     48.23007629
      0.29000000	     26.12428067	     13.15400350	     -1.78697401	      0.08271843	      0.98437886	     -0.27345315	    -15.99676168	     14.82591965	     -0.52637114	    -19.57041529	    -20.11374301	    -18.41142275	      0.30192971	      1.16852064	    -17.29929831	    -66.95130104	      2.09045509	     -6.69728440	      0.18017981	     -6.29860922	      5.80303318	     -4.10574378	    -43.38615061	    -16.80023522	     -7.35360579	      6.32375914	      2.02848013	      0.50820643	     45.00020038	     -9.29771870	      2.71374078	    -22.13521472	     48.36608725
      0.30000000	     26.17934111	     12.52343188	     -1.70364731	      0.09405375	      0.98637180	     -0.27407627	    -17.15574659	     14.20775388	     -0.19847362	    -17.78528537	    -19.69236837	    -17.70046857	      0.29155415	      1.17355540	    -16.70482232	    -67.23977142	      2.48215162	     -5.35231897	      0.05630011	     -5.50832923	      5.45181491	     -3.67294816	    -43.47016750	    -15.92342384	     -7.50180627	      5.88535516	      2.00784740	     -0.03348113	     43.54133489	     -8.51006527	      2.55335020	    -21.05721216	     48.85132975
      0.31000000	     26.05714397	     11.96068882	     -1.63479399	      0.10537905	      0.98799766	     -0.27487752	    -18.08378029	     13.69199623	      0.14440702	    -15.85867363	    -19.37593214	    -16.96123890	      0.28271032	      1.17302762	    -16.19810805	    -67.20953203	      2.90606110	     -3.84295050	     -0.04135984	     -3.73800338	      3.75099645	     -1.07350843	    -43.38545057	    -15.11018746	     -7.04994248	      4.94144027	      1.89542889	     -1.50987646	     42.95699496	     -7.24478930	      2.21582478	    -19.14438574	     48.65137516
      0.32000000	     26.14262698	     11.30519404	     -1.48447448	      0.11675697	      0.98969060	     -0.27551908	    -19.26258197	     13.00204725	      0.41684780	    -14.31896482	    -18.82243780	    -16.45238627	      0.27258439	      1.16540995	    -15.61793514	    -66.77307152	      3.32180234	     -2.55817802	     -0.13317049	     -2.26865533	      3.61680862	     -0.56104963	    -43.49169002	    -14.15552949	     -7.30899013	      4.50468587	      1.83708259	     -2.05193885	     41.69863366	     -6.47425521	      1.95947185	    -18.04861634	     49.10571226
      0.33000000	     26.16670758	     10.76290085	     -1.29926147	      0.12836576	      0.99110102	     -0.27631905	    -20.42654182	     12.41840330	      0.75507501	    -12.86289544	    -18.40028591	    -16.10455743	      0.26090926	      1.15185760	    -14.94899959	    -65.99657928	      3.73871949	     -1.24656340	     -0.07576497	     -0.36215081	      3.44983501	      0.36043169	    -43.53941806	    -13.26620338	     -7.35181115	      3.72808981	      1.72520590	     -3.05174633	     41.06836308	     -5.50490015	      1.64920778	    -16.66502222	     49.36644810
      0.34000000	     26.02502394	     10.34899359	     -1.19902192	      0.14006963	      0.99195349	     -0.27683081	    -21.41305115	     11.98616431	      1.03908841	    -11.22129193	    -18.05618145	    -15.72369675	      0.24850575	      1.13434092	    -14.23833039	    -64.99294712	      4.11466078	     -0.52718620	     -0.09842966	      0.36470302	      3.39388900	      0.60095273	    -43.39913941	    -12.56178583	     -7.75664318	      3.16938224	      1.65678343	     -3.70326337	     40.27159367	     -4.84529453	      1.34307306	    -15.84582520	     50.11793633
      0.35000000	     26.17349373	      9.78971183	     -0.95532860	      0.15176813	      0.99315333	     -0.27766140	    -22.68112344	     11.34130848	      1.30106578	    -10.20099118	    -17.57457107	    -15.64069978	      0.23805546	      1.10729105	    -13.63957337	    -63.44310405	      4.60079643	      0.65600266	     -0.03951374	      2.54948996	      3.16924691	      2.86498629	    -43.56454489	    -11.57528927	     -6.70162232	      1.52422202	      1.59614708	     -6.77035969	     40.98697748	     -3.02067388	      0.79241874	    -12.88026094	     49.39577911
      0.36000000	     26.15791718	      9.32749206	     -0.73350297	      0.16368047	      0.99374566	     -0.27841265	    -23.76948084	     10.80245192	      1.49920685	     -9.06614242	    -17.18058993	    -15.65880515	      0.22769122	      1.07685930	    -13.04574606	    -61.69949313	      5.12498152	      1.51183008	     -0.05441237	      3.95742575	      3.11917349	      3.27971052	    -43.51095616	    -10.72188495	     -6.85654942	      0.72572815	      1.44366394	     -7.72480008	     40.58124716	     -2.11002723	      0.42676597	    -11.63000697	     49.75741620
      0.37000000	     26.20792597	      8.91175400	     -0.57754991	      0.17556319	      0.99419870	     -0.27890907	    -24.97332583	     10.30755162	      1.70769040	     -8.07838688	    -16.79076513	    -15.68602648	      0.21504078	      1.04101105	    -12.32092901	    -59.64553931	      5.57417522	      2.05075364	      0.07161418	      4.71146251	      3.04474612	      4.05475378	    -43.56070789	     -9.93802470	     -6.15862400	     -0.74105461	      1.40734217	    -10.16871668	     41.28992836	     -0.57674280	     -0.03034669	     -9.33595443	     49.53208260
      0.38000000	     26.22309969	      8.50518591	     -0.33517417	      0.18760859	      0.99434770	     -0.27949631	    -26.12975928	      9.78879126	      1.94348496	     -7.22827325	    -16.40923696	    -15.92817388	      0.20332399	      1.00028762	    -11.64960669	    -57.31225866	      6.08941366	      2.64587753	      0.14493504	      5.57841230	      2.98822515	      4.12174851	    -43.55299948	     -9.11883491	     -6.16037463	     -1.73958252	      1.28542905	    -11.45112654	     41.40271196	      0.47316172	     -0.42544432	     -7.97401335	     49.81756834
      0.39000000	     26.28358611	      8.09974102	     -0.21840306	      0.19956386	      0.99431689	     -0.27979744	    -27.31709038	      9.30272457	      2.04206400	     -6.48275605	    -15.99831425	    -16.13347642	      0.19161505	      0.95465537	    -10.97873377	    -54.69772341	      6.57604135	      3.03226241	      0.24974732	      5.81522155	      2.88578942	      4.04527978	    -43.59378540	     -8.38099987	     -5.62376134	     -3.04302945	      1.23590863	    -13.46553544	     42.02595238	      1.86424592	     -0.82567537	     -6.05220082	     49.79471279
      0.40000000	     25.86041815	      8.04877219	     -0.31304476	      0.21160948	      0.99327556	     -0.27987548	    -27.91031774	      9.29821779	      2.09520192	     -5.10594745	    -16.01705091	    -16.07520516	      0.18221097	      0.90959626	    -10.43991928	    -52.11602703	      6.95942501	      3.39482971	      0.21383249	      5.93129521	      2.85564569	      3.89492678	    -43.15094868	     -8.12102486	     -6.03077478	     -3.70732592	      1.03608045	    -13.93266972	     41.90077699	      2.53716372	     -1.17046574	     -5.64640917	     50.51327969
      0.41000000	     26.35483201	      7.31536892	      0.01336511	      0.22367519	      0.99352166	     -0.28010756	    -29.64206575	      8.34096433	      2.22417992	     -5.31549750	    -15.11528353	    -16.76817553	      0.16826415	      0.84923138	     -9.64082591	    -48.65737383	      7.52431246	      3.64274288	      0.49097118	      5.83574546	      2.62615827	      3.46825706	    -43.63918814	     -6.94510227	     -4.93604970	     -5.34378009	      1.08817560	    -16.64902847	     43.08083183	      4.31871685	     -1.53514397	     -3.07301568	     50.13914802
      0.42000000	     26.36447634	      6.88191312	      0.14952961	      0.23573545	      0.99283474	     -0.28010057	    -30.75222078	      7.80273796	      2.30045601	     -4.90229485	    -14.56690895	    -17.20260501	      0.15740643	      0.78910979	     -9.01872424	    -45.21266064	      8.01210709	      3.80549502	      0.57509865	      5.66729005	      2.49255728	      3.09072230	    -43.64532513	     -6.19915119	     -4.58077435	     -6.44530548	      1.02368905	    -18.09893472	     43.62341480	      5.53026701	     -1.83033746	     -1.82245363	     50.32458794
      0.43000000	     26.35030408	      6.47130796	      0.14608339	      0.24778616	      0.99185179	     -0.27976287	    -31.81463110	      7.34564502	      2.17399453	     -4.51330816	    -13.99981831	    -17.49655757	      0.14713598	      0.72560740	     -8.43027065	    -41.57424147	      8.52961653	      3.96818624	      0.73578261	      5.44831883	      2.35653440	      2.66146956	    -43.62437906	     -5.57867139	     -3.90524351	     -7.65671187	      1.02627484	    -19.86289434	     44.31272681	      6.91648672	     -2.09889667	     -0.28402686	     50.30805857
      0.44000000	     26.37684311	      6.03654416	      0.25289642	      0.25990607	      0.99086664	     -0.27944331	    -32.92783396	      6.80707949	      2.19122317	     -4.37570417	    -13.33621056	    -17.95971832	      0.13677272	      0.65654069	     -7.83649943	    -37.61701081	      8.92823215	      3.94149657	      0.78406887	      5.16270290	      2.27241123	      2.36381102	    -43.67082860	     -4.87639677	     -3.77081547	     -8.50826936	      0.93719044	    -20.86207651	     44.63689050	      7.85456331	     -2.34438056	      0.28416683	     50.87105830
      0.45000000	     26.44388061	      5.61255124	      0.25132230	      0.27209906	      0.98967751	     -0.27880353	    -34.08351904	      6.31479995	      1.97076759	     -4.36085372	    -12.62744469	    -18.29609596	      0.12657556	      0.58443877	     -7.25224536	    -33.48587499	      9.36388321	      3.86587168	      1.04877993	      4.93614984	      2.22615533	      2.12888082	    -43.75002343	     -4.26294305	     -3.29266498	     -9.50775925	      0.93499948	    -22.21771917	     45.16563689	      8.99630330	     -2.56837740	      1.25332880	     51.16785500
      0.46000000	     26.39500668	      5.19894306	      0.25579701	      0.28430801	      0.98821405	     -0.27812270	    -35.07282318	      5.84907256	      1.83391067	     -4.33099232	    -11.87165056	    -18.51566847	      0.11795541	      0.50971400	     -6.75834690	    -29.20446076	      9.78006178	      3.62034100	      1.16658954	      4.83908809	      2.22951470	      1.92110984	    -43.72609633	     -3.65738727	     -2.98989618	    -10.32664099	      0.88799186	    -23.28702727	     45.51847352	      9.96582740	     -2.74296952	      1.72796637	     51.59907854
      0.47000000	     26.42571719	      4.88291737	      0.21007554	      0.29666939	      0.98657043	     -0.27706995	    -36.14054551	      5.46807468	      1.50215267	     -4.45246137	    -11.15535469	    -18.58480278	      0.10991637	      0.43488519	     -6.29774430	    -24.91708615	     10.19342968	      3.26248578	      1.51806560	      4.76274529	      2.32099115	      1.78326704	    -43.76164454	     -3.21289650	     -2.52527268	    -11.25383615	      0.93286558	    -24.46312910	     45.94026163	     11.02772403	     -2.92112381	      2.40048523	     51.95415917
      0.48000000	     26.10502123	      4.68920584	      0.08668335	      0.30911106	      0.98434968	     -0.27582595	    -36.76715964	      5.28053115	      1.24925478	     -4.19941287	    -10.56840088	    -18.36653605	      0.10428002	      0.36261910	     -5.97480506	    -20.77654423	     10.59768552	      2.88297371	      1.52471168	      4.98291698	      2.37555006	      1.57185273	    -43.44450202	     -2.95096945	     -2.33477424	    -11.85795962	      0.96653089	    -25.44615352	     45.89388314	     11.82289612	     -3.11563891	      2.58446555	     52.54740738
      0.49000000	     26.23737611	      4.43235762	      0.04899022	      0.32170767	      0.98248458	     -0.27455565	    -37.92104551	      4.93430507	      0.81652033	     -4.61052253	     -9.83367851	    -18.01832342	      0.09779548	      0.28965879	     -5.60326810	    -16.59622635	     11.02509854	      2.13906545	      2.11518767	      4.75864661	      2.57732373	      1.31458185	    -43.57509756	     -2.56151894	     -1.86540430	    -12.74917068	      1.05089133	    -26.49555126	     46.37615084	     12.84216121	     -3.21949103	      3.07757825	     52.86077303
      0.50000000	     26.11854460	      4.35337590	     -0.06496350	      0.33440455	      0.98013193	     -0.27308626	    -38.73077316	      4.80459595	      0.42604144	     -4.68823281	     -9.33516964	    -17.37130905	      0.09409438	      0.22444491	     -5.39121062	    -12.85974610	     11.43798080	      1.44480619	      2.53698789	      4.70081239	      2.79495517	      0.93619131	    -43.44057551	     -2.39677124	     -1.55821626	    -13.44979718	      1.15023559	    -27.45832606	     46.53757138	     13.71309641	     -3.33727100	      3.34463018	     53.26477062
      0.51000000	     25.72354310	      4.59481363	     -0.23483681	      0.34711855	      0.97735877	     -0.27159331	    -39.15295259	      5.01669621	      0.32708692	     -4.33337253	     -9.29636580	    -16.57297239	      0.09377801	      0.17111046	     -5.37308435	     -9.80390711	     11.76632579	      1.07418771	      2.65120653	      5.19039975	      2.85718508	      0.67065467	    -43.02792344	     -2.53714637	     -1.63246586	    -13.91764726	      1.20386780	    -28.07643182	     46.43141334	     14.37303723	     -3.53667945	      3.35181327	     53.76686503
      0.52000000	     25.92715067	      4.37066824	     -0.27785891	      0.36010741	      0.97529883	     -0.26996418	    -40.27057036	      4.67472288	     -0.32236982	     -4.81152224	     -8.66376025	    -15.70834120	      0.09237830	      0.11998648	     -5.29288665	     -6.87471880	     12.20277583	      0.05972032	      3.54691859	      4.41435300	      3.06690317	     -0.13369049	    -43.21096970	     -2.21755166	     -1.19018774	    -14.59354273	      1.32961561	    -29.00145856	     46.62087099	     15.18637799	     -3.54809205	      3.48588978	     54.19231468
      0.53000000	     25.80960023	      4.47784576	     -0.38037071	      0.37301378	      0.97291380	     -0.26829968	    -40.90987475	      4.68239039	     -0.64373522	     -4.73221707	     -8.53896416	    -14.92269127	      0.09529189	      0.08482691	     -5.45982337	     -4.86022414	     12.47195838	     -0.49229998	      3.99986126	      4.53396209	      3.17437666	     -0.66198422	    -43.08309754	     -2.22248827	     -1.10628538	    -15.00038982	      1.41782610	    -29.68397723	     46.45435049	     15.82627184	     -3.62482074	      3.39442387	     54.67476750
      0.54000000	     25.88044098	      4.34259474	     -0.40263151	      0.38614318	      0.97080635	     -0.26661893	    -41.74173906	      4.38954055	     -1.26811288	     -4.84870790	     -8.15788169	    -14.03902806	      0.09935402	      0.06016513	     -5.69256596	     -3.44720777	     12.89355091	     -0.94116545	      5.01429594	      4.15615593	      3.35509375	     -1.71080857	    -43.13926135	     -1.95985305	     -0.87087928	    -15.45016923	      1.46681756	    -30.18137517	     46.45058002	     16.42902095	     -3.64182477	      3.32595622	     55.08656339
      0.55000000	     25.80507791	      4.38453524	     -0.37974460	      0.39910771	      0.96880290	     -0.26502543	    -42.30304689	      4.25063751	     -1.28142094	     -4.63995547	     -8.06721679	    -13.52832556	      0.10649075	      0.05039834	     -6.10147068	     -2.88761237	     12.88728006	     -1.05454690	      5.13111196	      4.42312947	      3.37948164	     -1.80397338	    -43.07259703	     -1.83166562	     -0.88096248	    -15.68514678	      1.47007232	    -30.46110701	     46.17433476	     16.92951031	     -3.67425591	      3.11206949	     55.52712163
      0.56000000	     25.98121218	      4.20972772	     -0.34472212	      0.41218508	      0.96736068	     -0.26325685	    -43.06777282	      3.88097376	     -1.70577350	     -4.68254434	     -7.74958819	    -13.11862867	      0.11642616	      0.05013340	     -6.67072736	     -2.87243227	     12.94737299	     -1.37821930	      5.57580881	      4.45218066	      3.37335948	     -1.93223726	    -43.29622382	     -1.49077352	     -0.85170207	    -15.79882662	      1.47894831	    -30.85855862	     45.91164040	     17.25139366	     -3.67627663	      2.61045345	     56.13159785
      0.57000000	     26.20710779	      3.70150321	     -0.23543795	      0.42569254	      0.96618683	     -0.26143746	    -43.87725712	      3.12650617	     -2.62378171	     -4.77894874	     -7.07388473	    -12.79695901	      0.12759829	      0.05890339	     -7.31084342	     -3.37491588	     13.08686751	     -1.72632120	      7.13164424	      4.21475006	      3.38121655	     -2.08541300	    -43.53633334	     -0.81590600	     -0.79537548	    -15.86060266	      1.36287380	    -30.86733585	     45.72712531	     17.32566428	     -3.63725092	      1.80496121	     56.89533297
      0.58000000	     26.38194731	      3.46943337	     -0.08140311	      0.43884977	      0.96529550	     -0.25965439	    -44.47772906	      2.61044727	     -2.59090821	     -4.70422466	     -6.76228394	    -12.51554470	      0.14225912	      0.07858778	     -8.15084736	     -4.50274799	     12.58989877	     -1.97145938	      7.32528744	      4.20869526	      3.42335914	     -1.99545893	    -43.74584513	     -0.35707691	     -0.74315811	    -15.87972218	      1.31484996	    -30.92906930	     45.40926289	     17.61698627	     -3.61355404	      1.51106209	     57.19168685
      0.59000000	     26.50852137	      2.82031920	     -0.02608563	      0.45270320	      0.96449066	     -0.25756020	    -44.94237783	      1.74700118	     -3.81697480	     -4.50857903	     -6.01654296	    -12.46963762	      0.16217792	      0.10689456	     -9.29211050	     -6.12460688	     12.51973466	     -2.23219642	      8.89574019	      3.94451372	      3.86580824	     -1.51881620	    -43.87705686	      0.37925924	     -0.78816036	    -15.66636724	      1.08602024	    -30.55191030	     45.03387323	     17.25283843	     -3.52825777	      0.16703067	     58.25335282
      0.60000000	     26.60712002	      2.31816606	      0.06043753	      0.46650318	      0.96397159	     -0.25546113	    -45.25171336	      0.99758765	     -4.46383740	     -4.27302818	     -5.46422569	    -12.37258149	      0.18503172	      0.14039425	    -10.60153690	     -8.04399799	     11.87767701	     -2.60986451	      9.68509739	      3.63217687	      4.64849829	     -0.98548608	    -43.97717696	      1.01610212	     -0.82663718	    -15.44328180	      0.90270446	    -30.19245400	     44.67216069	     16.97250722	     -3.43798192	     -0.87125545	     58.99814967
      0.61000000	     26.93005386	      1.92266307	      0.25967789	      0.48018387	      0.96403486	     -0.25349797	    -45.68146816	      0.28442390	     -4.48898987	     -4.37117839	     -5.04131034	    -12.29845914	      0.21039331	      0.17523043	    -12.05464847	    -10.03996421	     10.67998061	     -3.03898145	      9.85069953	      3.47048926	      4.79726529	     -0.82682502	    -44.27280724	      1.62107476	     -0.68576961	    -15.35483986	      0.83515701	    -30.11248262	     44.46058430	     16.98487066	     -3.29995443	     -1.24466096	     59.16961496
      0.62000000	     26.70958889	      1.31064061	      0.22035179	      0.49465229	      0.96358103	     -0.25103874	    -45.35005687	     -0.55611168	     -5.88009297	     -3.80571361	     -4.40840613	    -12.22983393	      0.24265442	      0.21433606	    -13.90307390	    -12.28055162	      9.64314948	     -3.52383053	     10.96922401	      2.69199891	      9.12570108	     -0.28501719	    -43.99994400	      2.25073302	     -0.96721524	    -14.86030156	      0.48937174	    -29.09808247	     43.98591607	     16.06627101	     -3.17272819	     -3.07900814	     60.40890598
      0.63000000	     26.66033442	      0.82543314	      0.23451210	      0.50898679	      0.96362955	     -0.24858952	    -45.05033761	     -1.31339458	     -6.68914502	     -3.55115113	     -3.89342229	    -12.03273511	      0.27943565	      0.25117940	    -16.01048355	    -14.39151927	      8.14240055	     -4.01199178	     11.59342474	      2.00067997	     10.73070842	     -0.39967497	    -43.86544810	      2.79221327	     -1.05635731	    -14.49263833	      0.26839591	    -28.33103498	     43.67174048	     15.43170242	     -3.00341977	     -4.26166027	     61.06842242
      0.64000000	     26.86693290	      0.41266719	      0.36012170	      0.52324299	      0.96419242	     -0.24629544	    -44.83396030	     -2.08159786	     -7.28707786	     -3.74579266	     -3.47390057	    -12.24173523	      0.32100082	      0.28385378	    -18.39199248	    -16.26362387	      6.15011476	     -4.30061480	     11.58137408	      1.67257109	     11.20784451	     -0.36836642	    -43.97659355	      3.31776081	     -0.79326254	    -14.41732018	      0.22703179	    -28.07812115	     43.73533537	     15.13722147	     -2.69455565	     -4.83970652	     61.23296482
      0.65000000	     26.49261269	     -0.18519882	      0.34003428	      0.53785300	      0.96428417	     -0.24364396	    -43.82166908	     -2.96740894	     -8.27374878	     -3.33359875	     -2.80477253	    -11.89064812	      0.36877178	      0.31525002	    -21.12906684	    -18.06249559	      4.14888598	     -4.67229144	     11.58856902	      0.95720435	     13.03146610	     -0.65729985	    -43.47928734	      3.94385582	     -0.84490854	    -14.00193483	      0.03741880	    -27.29274145	     43.66628341	     14.28781720	     -2.45753911	     -6.11505526	     61.76548959
      0.66000000	     26.30811637	     -0.61833992	      0.34120136	      0.55229607	      0.96492917	     -0.24073232	    -42.84050843	     -3.86767362	     -9.35000960	     -3.30608002	     -2.24023015	    -11.63923444	      0.41668174	      0.34159798	    -23.87410511	    -19.57212279	      1.65450850	     -4.58647339	     11.52480928	      0.19635081	     20.40067749	     -2.75514392	    -43.13009756	      4.32143890	     -1.30691780	    -13.24453252	     -0.26489291	    -25.75805001	     43.03691760	     13.21427045	     -2.27980142	     -7.77510655	     62.64559583
      0.67000000	     26.64470190	     -0.94812801	      0.47808491	      0.56621496	      0.96622768	     -0.23802789	    -42.23509906	     -4.72179477	     -9.97576211	     -4.00041028	     -1.79273403	    -11.60323202	      0.47043201	      0.36204394	    -26.95376843	    -20.74358994	     -0.86003759	     -4.28307501	     11.24649250	     -0.04855854	     20.71390078	     -2.68508079	    -43.33563326	      4.69074926	     -0.97857426	    -13.07528526	     -0.19626025	    -25.44037375	     43.20859301	     12.94998213	     -1.93230809	     -8.20104575	     62.50855700
      0.68000000	     25.88046314	     -1.60872385	      0.51075289	      0.58079673	      0.96646905	     -0.23516148	    -40.28328097	     -5.84639442	    -10.99196128	     -3.58162709	     -0.92397419	    -11.39532866	      0.52918546	      0.37907527	    -30.32009344	    -21.71941336	     -3.74938030	     -4.06996179	      9.37765238	     -0.88435474	     24.20361435	     -4.29985957	    -42.39050011	      5.30732853	     -1.36064545	    -12.31347900	     -0.49664446	    -23.82044987	     42.88536367	     11.71262072	     -1.65691413	     -9.86009549	     63.19781403
      0.69000000	     25.77850690	     -2.16748510	      0.70109675	      0.59478532	      0.96750285	     -0.23237530	    -38.92511923	     -7.02077734	    -11.75707417	     -4.05852999	     -0.14578005	    -11.45394474	      0.58851542	      0.38971698	    -33.71944985	    -22.32913790	     -6.61523393	     -3.55696041	      7.85746127	     -1.22778711	     24.63242029	     -4.39416995	    -42.13058162	      5.89045831	     -1.00380098	    -12.10639722	     -0.44497400	    -23.33036862	     43.30079771	     11.28096404	     -1.30613369	    -10.28169759	     62.96947887
      0.70000000	     25.46350591	     -2.54894325	      0.87272073	      0.60831446	      0.96846839	     -0.22965498	    -37.14028102	     -7.97204305	    -12.14946175	     -4.34641951	      0.49975675	    -11.29110099	      0.64973856	      0.39777850	    -37.22727702	    -22.79102900	     -9.31809609	     -2.98736626	      5.14634958	     -1.88005687	     25.15192480	     -5.11993228	    -41.66455251	      6.26098873	     -1.05878117	    -11.51746602	     -0.50891582	    -22.28864842	     43.18803758	     10.66344195	     -0.96243046	    -11.16442727	     62.97086980
      0.71000000	     25.18638618	     -3.00198191	      1.13122159	      0.62175127	      0.96957627	     -0.22695250	    -35.31800686	     -9.07118556	    -12.46743532	     -4.80795847	      1.25802602	    -11.28784515	      0.71062694	      0.40198141	    -40.71592422	    -23.03183847	    -11.83100968	     -2.12236270	      2.69735447	     -2.15938659	     24.52212239	     -6.85148783	    -41.26552057	      6.73950682	     -1.27131987	    -10.80959351	     -0.59062616	    -20.99003161	     43.12572089	      9.90936860	     -0.67891077	    -12.14573478	     63.09372826
      0.72000000	     24.99330810	     -3.35681848	      1.42917405	      0.63480929	      0.97083759	     -0.22439932	    -33.48565777	    -10.03257962	    -12.52315619	     -5.43700932	      1.93775189	    -11.27665529	      0.77038238	      0.40242192	    -44.13965890	    -23.05707761	    -14.03651172	     -1.29608732	     -0.07526206	     -2.48512572	     22.47665728	     -7.89080606	    -40.95142095	      7.12911977	     -1.26433333	    -10.23556058	     -0.58139909	    -20.03903962	     43.22990013	      9.43798205	     -0.36138799	    -12.72547166	     62.86749952
      0.73000000	     24.88836431	     -3.79582264	      1.77462703	      0.64773545	      0.97215143	     -0.22186248	    -31.73337584	    -11.12070257	    -12.56071426	     -6.26194707	      2.73386907	    -11.35770073	      0.82669324	      0.39857600	    -47.36603383	    -22.83672267	    -15.67646041	     -0.50508017	     -2.44399589	     -2.75995213	     22.17836430	     -7.98234836	    -40.74129132	      7.60788690	     -0.96373010	     -9.85432363	     -0.50866841	    -19.35660522	     43.73496503	      9.15836718	     -0.05453567	    -12.90413489	     62.34053852
