Model Marker Errors from IK
version=1
nRows=106
nColumns=4
inDegrees=no
endheader
time	total_squared_error	marker_error_RMS	marker_error_max
      0.95000000	      0.00897847	      0.02118781	      0.04733457
      0.96000000	      0.00888847	      0.02108136	      0.04719349
      0.97000000	      0.00877645	      0.02094809	      0.04697593
      0.98000000	      0.00865038	      0.02079709	      0.04671842
      0.99000000	      0.00851513	      0.02063387	      0.04644407
      1.00000000	      0.00837192	      0.02045962	      0.04604192
      1.01000000	      0.00822527	      0.02027964	      0.04564486
      1.02000000	      0.00807631	      0.02009516	      0.04518134
      1.03000000	      0.00792835	      0.01991024	      0.04482387
      1.04000000	      0.00778990	      0.01973563	      0.04434588
      1.05000000	      0.00766333	      0.01957463	      0.04394734
      1.06000000	      0.00756104	      0.01944355	      0.04364142
      1.07000000	      0.00748896	      0.01935065	      0.04331081
      1.08000000	      0.00744287	      0.01929103	      0.04305810
      1.09000000	      0.00742208	      0.01926406	      0.04287421
      1.10000000	      0.00741769	      0.01925837	      0.04263361
      1.11000000	      0.00742313	      0.01926542	      0.04249509
      1.12000000	      0.00743234	      0.01927737	      0.04246589
      1.13000000	      0.00744171	      0.01928952	      0.04221967
      1.14000000	      0.00744929	      0.01929933	      0.04215688
      1.15000000	      0.00745420	      0.01930570	      0.04194792
      1.16000000	      0.00746003	      0.01931325	      0.04198462
      1.17000000	      0.00745500	      0.01930674	      0.04160253
      1.18000000	      0.00745514	      0.01930692	      0.04155576
      1.19000000	      0.00745069	      0.01930115	      0.04125096
      1.20000000	      0.00745456	      0.01930616	      0.04119671
      1.21000000	      0.00745953	      0.01931260	      0.04089028
      1.22000000	      0.00747831	      0.01933690	      0.04071551
      1.23000000	      0.00749954	      0.01936433	      0.04087216
      1.24000000	      0.00753311	      0.01940761	      0.04124633
      1.25000000	      0.00757753	      0.01946475	      0.04164803
      1.26000000	      0.00763067	      0.01953289	      0.04209414
      1.27000000	      0.00769977	      0.01962113	      0.04251527
      1.28000000	      0.00776673	      0.01970625	      0.04296200
      1.29000000	      0.00784126	      0.01980058	      0.04325335
      1.30000000	      0.00792518	      0.01990626	      0.04360959
      1.31000000	      0.00801635	      0.02002043	      0.04400941
      1.32000000	      0.00811377	      0.02014171	      0.04436417
      1.33000000	      0.00821655	      0.02026888	      0.04471010
      1.34000000	      0.00832343	      0.02040028	      0.04506141
      1.35000000	      0.00843301	      0.02053413	      0.04552025
      1.36000000	      0.00853722	      0.02066062	      0.04593439
      1.37000000	      0.00862300	      0.02076416	      0.04597917
      1.38000000	      0.00869745	      0.02085360	      0.04624135
      1.39000000	      0.00876132	      0.02093003	      0.04662065
      1.40000000	      0.00881116	      0.02098948	      0.04666837
      1.41000000	      0.00886771	      0.02105672	      0.04681951
      1.42000000	      0.00893232	      0.02113329	      0.04700191
      1.43000000	      0.00900180	      0.02121533	      0.04718718
      1.44000000	      0.00905946	      0.02128316	      0.04713070
      1.45000000	      0.00909402	      0.02132372	      0.04711901
      1.46000000	      0.00909243	      0.02132185	      0.04711714
      1.47000000	      0.00905189	      0.02127427	      0.04718476
      1.48000000	      0.00897690	      0.02118596	      0.04688639
      1.49000000	      0.00888078	      0.02107223	      0.04674674
      1.50000000	      0.00877576	      0.02094727	      0.04654900
      1.51000000	      0.00867324	      0.02082455	      0.04643374
      1.52000000	      0.00857879	      0.02071086	      0.04627290
      1.53000000	      0.00849172	      0.02060548	      0.04607419
      1.54000000	      0.00840419	      0.02049902	      0.04576528
      1.55000000	      0.00831227	      0.02038660	      0.04550279
      1.56000000	      0.00820963	      0.02026034	      0.04516592
      1.57000000	      0.00809190	      0.02011455	      0.04479082
      1.58000000	      0.00796920	      0.01996147	      0.04440955
      1.59000000	      0.00784606	      0.01980664	      0.04394039
      1.60000000	      0.00772975	      0.01965929	      0.04357465
      1.61000000	      0.00763388	      0.01953699	      0.04317390
      1.62000000	      0.00756094	      0.01944343	      0.04280312
      1.63000000	      0.00751616	      0.01938577	      0.04247310
      1.64000000	      0.00749475	      0.01935814	      0.04220787
      1.65000000	      0.00749444	      0.01935774	      0.04194513
      1.66000000	      0.00750910	      0.01937667	      0.04170540
      1.67000000	      0.00753344	      0.01940803	      0.04136322
      1.68000000	      0.00756247	      0.01944540	      0.04122889
      1.69000000	      0.00759347	      0.01948521	      0.04101367
      1.70000000	      0.00763498	      0.01953840	      0.04094439
      1.71000000	      0.00765533	      0.01956441	      0.04097378
      1.72000000	      0.00768926	      0.01960772	      0.04128465
      1.73000000	      0.00772533	      0.01965366	      0.04151946
      1.74000000	      0.00776884	      0.01970893	      0.04190105
      1.75000000	      0.00782277	      0.01977723	      0.04228640
      1.76000000	      0.00788363	      0.01985400	      0.04268718
      1.77000000	      0.00795756	      0.01994688	      0.04315622
      1.78000000	      0.00803956	      0.02004939	      0.04352877
      1.79000000	      0.00812265	      0.02015273	      0.04385086
      1.80000000	      0.00821465	      0.02026654	      0.04424847
      1.81000000	      0.00830459	      0.02037718	      0.04458600
      1.82000000	      0.00839438	      0.02048704	      0.04493263
      1.83000000	      0.00847588	      0.02058626	      0.04512209
      1.84000000	      0.00854837	      0.02067411	      0.04550482
      1.85000000	      0.00860903	      0.02074732	      0.04573767
      1.86000000	      0.00865070	      0.02079748	      0.04591201
      1.87000000	      0.00867640	      0.02082835	      0.04609679
      1.88000000	      0.00868597	      0.02083983	      0.04630398
      1.89000000	      0.00868252	      0.02083569	      0.04642297
      1.90000000	      0.00867384	      0.02082527	      0.04657133
      1.91000000	      0.00866386	      0.02081329	      0.04673919
      1.92000000	      0.00866461	      0.02081419	      0.04693798
      1.93000000	      0.00868155	      0.02083453	      0.04708316
      1.94000000	      0.00871566	      0.02087541	      0.04725524
      1.95000000	      0.00876611	      0.02093575	      0.04739282
      1.96000000	      0.00882380	      0.02100452	      0.04750207
      1.97000000	      0.00887657	      0.02106724	      0.04764505
      1.98000000	      0.00891032	      0.02110725	      0.04763321
      1.99000000	      0.00891601	      0.02111398	      0.04772989
      2.00000000	      0.00889217	      0.02108574	      0.04770379
