Model Marker Errors from IK
version=1
nRows=106
nColumns=4
inDegrees=no
endheader
time	total_squared_error	marker_error_RMS	marker_error_max
      0.95000000	      0.01247293	      0.02497292	      0.06063990
      0.96000000	      0.01236040	      0.02486001	      0.06103117
      0.97000000	      0.01217231	      0.02467014	      0.06142410
      0.98000000	      0.01193165	      0.02442503	      0.06175988
      0.99000000	      0.01166273	      0.02414822	      0.06198736
      1.00000000	      0.01138734	      0.02386141	      0.06215860
      1.01000000	      0.01112312	      0.02358296	      0.06223962
      1.02000000	      0.01088041	      0.02332425	      0.06224023
      1.03000000	      0.01066591	      0.02309319	      0.06210882
      1.04000000	      0.01048479	      0.02289627	      0.06191055
      1.05000000	      0.01033780	      0.02273521	      0.06160158
      1.06000000	      0.01022744	      0.02261353	      0.06125407
      1.07000000	      0.01015128	      0.02252918	      0.06084633
      1.08000000	      0.01010301	      0.02247555	      0.06034594
      1.09000000	      0.01007718	      0.02244681	      0.05981212
      1.10000000	      0.01006603	      0.02243438	      0.05926268
      1.11000000	      0.01006070	      0.02242844	      0.05859198
      1.12000000	      0.01005471	      0.02242176	      0.05789371
      1.13000000	      0.01004656	      0.02241268	      0.05721259
      1.14000000	      0.01001637	      0.02237898	      0.05631264
      1.15000000	      0.00997506	      0.02233278	      0.05538008
      1.16000000	      0.00991956	      0.02227057	      0.05441207
      1.17000000	      0.00985094	      0.02219340	      0.05339531
      1.18000000	      0.00977621	      0.02210906	      0.05231920
      1.19000000	      0.00970042	      0.02202320	      0.05132186
      1.20000000	      0.00963345	      0.02194704	      0.05027748
      1.21000000	      0.00958138	      0.02188764	      0.04926804
      1.22000000	      0.00954751	      0.02184892	      0.04833715
      1.23000000	      0.00953936	      0.02183959	      0.04745977
      1.24000000	      0.00955551	      0.02185808	      0.04667216
      1.25000000	      0.00959929	      0.02190809	      0.04591421
      1.26000000	      0.00966846	      0.02198689	      0.04524005
      1.27000000	      0.00976159	      0.02209253	      0.04468538
      1.28000000	      0.00987764	      0.02222346	      0.04419473
      1.29000000	      0.01001444	      0.02237681	      0.04374707
      1.30000000	      0.01016836	      0.02254813	      0.04368147
      1.31000000	      0.01033531	      0.02273247	      0.04418298
      1.32000000	      0.01051016	      0.02292396	      0.04463647
      1.33000000	      0.01068988	      0.02311913	      0.04502961
      1.34000000	      0.01085626	      0.02329835	      0.04536802
      1.35000000	      0.01101305	      0.02346599	      0.04566560
      1.36000000	      0.01113491	      0.02359545	      0.04587027
      1.37000000	      0.01122166	      0.02368719	      0.04599784
      1.38000000	      0.01126774	      0.02373577	      0.04603250
      1.39000000	      0.01127850	      0.02374711	      0.04600649
      1.40000000	      0.01126781	      0.02373585	      0.04587371
      1.41000000	      0.01125477	      0.02372211	      0.04574884
      1.42000000	      0.01125110	      0.02371824	      0.04563083
      1.43000000	      0.01125991	      0.02372753	      0.04557858
      1.44000000	      0.01128142	      0.02375018	      0.04569731
      1.45000000	      0.01130578	      0.02377580	      0.04576596
      1.46000000	      0.01132013	      0.02379089	      0.04600089
      1.47000000	      0.01131568	      0.02378621	      0.04621101
      1.48000000	      0.01127168	      0.02373992	      0.04647160
      1.49000000	      0.01119655	      0.02366068	      0.04664324
      1.50000000	      0.01108269	      0.02354006	      0.04688441
      1.51000000	      0.01094818	      0.02339677	      0.04705349
      1.52000000	      0.01079922	      0.02323707	      0.04716495
      1.53000000	      0.01064250	      0.02306784	      0.04722489
      1.54000000	      0.01048195	      0.02289318	      0.04720578
      1.55000000	      0.01032037	      0.02271604	      0.04710923
      1.56000000	      0.01016156	      0.02254059	      0.04693696
      1.57000000	      0.01001138	      0.02237340	      0.04678995
      1.58000000	      0.00987740	      0.02222318	      0.04697592
      1.59000000	      0.00976725	      0.02209893	      0.04718211
      1.60000000	      0.00968750	      0.02200852	      0.04743566
      1.61000000	      0.00964150	      0.02195621	      0.04776225
      1.62000000	      0.00962832	      0.02194119	      0.04810645
      1.63000000	      0.00964438	      0.02195948	      0.04852245
      1.64000000	      0.00968825	      0.02200938	      0.04907793
      1.65000000	      0.00974162	      0.02206992	      0.04949821
      1.66000000	      0.00981170	      0.02214915	      0.05013968
      1.67000000	      0.00989176	      0.02223933	      0.05077382
      1.68000000	      0.00998089	      0.02233930	      0.05151938
      1.69000000	      0.01007705	      0.02244666	      0.05224583
      1.70000000	      0.01018497	      0.02256654	      0.05300429
      1.71000000	      0.01030743	      0.02270179	      0.05371170
      1.72000000	      0.01044396	      0.02285165	      0.05468924
      1.73000000	      0.01059903	      0.02302067	      0.05555334
      1.74000000	      0.01077124	      0.02320694	      0.05643328
      1.75000000	      0.01095790	      0.02340716	      0.05731053
      1.76000000	      0.01115360	      0.02361525	      0.05812644
      1.77000000	      0.01135224	      0.02382461	      0.05891818
      1.78000000	      0.01154683	      0.02402793	      0.05963771
      1.79000000	      0.01173106	      0.02421886	      0.06028672
      1.80000000	      0.01189999	      0.02439262	      0.06084664
      1.81000000	      0.01205001	      0.02454589	      0.06133307
      1.82000000	      0.01217870	      0.02467661	      0.06171936
      1.83000000	      0.01228419	      0.02478325	      0.06203477
      1.84000000	      0.01236500	      0.02486463	      0.06227479
      1.85000000	      0.01242472	      0.02492460	      0.06245381
      1.86000000	      0.01245065	      0.02495060	      0.06261279
      1.87000000	      0.01246085	      0.02496082	      0.06269676
      1.88000000	      0.01245684	      0.02495680	      0.06275227
      1.89000000	      0.01244276	      0.02494270	      0.06294106
      1.90000000	      0.01243992	      0.02493985	      0.06309474
      1.91000000	      0.01245551	      0.02495547	      0.06323612
      1.92000000	      0.01249582	      0.02499582	      0.06347926
      1.93000000	      0.01255885	      0.02505878	      0.06364215
      1.94000000	      0.01263938	      0.02513899	      0.06391701
      1.95000000	      0.01271737	      0.02521643	      0.06414737
      1.96000000	      0.01279862	      0.02529686	      0.06442459
      1.97000000	      0.01287963	      0.02537679	      0.06462788
      1.98000000	      0.01297112	      0.02546676	      0.06489632
      1.99000000	      0.01306607	      0.02555980	      0.06514338
      2.00000000	      0.01309181	      0.02558497	      0.06541629
