inDegrees=no
num_controls=19
num_derivatives=0
num_multipliers=0
num_parameters=0
num_slacks=0
num_states=42
DataType=double
version=3
OpenSimVersion=4.5-2023-11-26-efcdfd3eb
endheader
time	/jointset/ground_pelvis/pelvis_tilt/value	/jointset/ground_pelvis/pelvis_tx/value	/jointset/ground_pelvis/pelvis_ty/value	/jointset/hip_r/hip_flexion_r/value	/jointset/hip_l/hip_flexion_l/value	/jointset/back/lumbar_ext/value	/jointset/knee_r/knee_angle_r/value	/jointset/knee_l/knee_angle_l/value	/jointset/ankle_r/ankle_angle_r/value	/jointset/ankle_l/ankle_angle_l/value	/jointset/ground_pelvis/pelvis_tilt/speed	/jointset/ground_pelvis/pelvis_tx/speed	/jointset/ground_pelvis/pelvis_ty/speed	/jointset/hip_r/hip_flexion_r/speed	/jointset/hip_l/hip_flexion_l/speed	/jointset/back/lumbar_ext/speed	/jointset/knee_r/knee_angle_r/speed	/jointset/knee_l/knee_angle_l/speed	/jointset/ankle_r/ankle_angle_r/speed	/jointset/ankle_l/ankle_angle_l/speed	/forceset/hamstrings_r/activation	/forceset/bifemsh_r/activation	/forceset/glut_max_r/activation	/forceset/iliopsoas_r/activation	/forceset/rect_fem_r/activation	/forceset/vasti_r/activation	/forceset/gastroc_r/activation	/forceset/gastroc_r/normalized_tendon_force	/forceset/soleus_r/activation	/forceset/soleus_r/normalized_tendon_force	/forceset/dorsiflexors_r/activation	/forceset/hamstrings_l/activation	/forceset/bifemsh_l/activation	/forceset/glut_max_l/activation	/forceset/iliopsoas_l/activation	/forceset/rect_fem_l/activation	/forceset/vasti_l/activation	/forceset/gastroc_l/activation	/forceset/gastroc_l/normalized_tendon_force	/forceset/soleus_l/activation	/forceset/soleus_l/normalized_tendon_force	/forceset/dorsiflexors_l/activation	/forceset/hamstrings_r	/forceset/bifemsh_r	/forceset/glut_max_r	/forceset/iliopsoas_r	/forceset/rect_fem_r	/forceset/vasti_r	/forceset/gastroc_r	/forceset/soleus_r	/forceset/dorsiflexors_r	/forceset/hamstrings_l	/forceset/bifemsh_l	/forceset/glut_max_l	/forceset/iliopsoas_l	/forceset/rect_fem_l	/forceset/vasti_l	/forceset/gastroc_l	/forceset/soleus_l	/forceset/dorsiflexors_l	/forceset/lumbar_ext_torque
0.95	-0.04766466303128643	-0.009203468435611388	0.916642384489962	-0.1584660416823387	0.5150135404023486	-0.1014998709857859	-0.3464922575364934	-0.2058412396569433	0.2137548263485385	-0.1147623195958317	0	0	0	0	0	0	0	0	0	0	2.505	2.505	2.505	2.505	2.505	2.505	2.505	0.75	2.505	0.75	2.505	2.505	2.505	2.505	2.505	2.505	2.505	2.505	0.75	2.505	0.75	2.505	0.505	0.505	0.505	0.505	0.505	0.505	0.505	0.505	0.505	0.505	0.505	0.505	0.505	0.505	0.505	0.505	0.505	0.505	0
0.9937499999999999	0	0	0.9158087384111033	0.3490658503988658	0.3490658503988658	-0.3054326190990077	-0.7853981633974483	-0.7853981633974483	-0.1308996938995747	-0.1308996938995747	0	0	0	0	0	0	0	0	0	0	2.505	2.505	2.505	2.505	2.505	2.505	2.505	0.75	2.505	0.75	2.505	2.505	2.505	2.505	2.505	2.505	2.505	2.505	0.75	2.505	0.75	2.505	0.505	0.505	0.505	0.505	0.505	0.505	0.505	0.505	0.505	0.505	0.505	0.505	0.505	0.505	0.505	0.505	0.505	0.505	0
1.0375	0	0	0.9158087384111033	0.3490658503988658	0.3490658503988658	-0.3054326190990077	-0.7853981633974483	-0.7853981633974483	-0.1308996938995747	-0.1308996938995747	0	0	0	0	0	0	0	0	0	0	2.505	2.505	2.505	2.505	2.505	2.505	2.505	0.75	2.505	0.75	2.505	2.505	2.505	2.505	2.505	2.505	2.505	2.505	0.75	2.505	0.75	2.505	0.505	0.505	0.505	0.505	0.505	0.505	0.505	0.505	0.505	0.505	0.505	0.505	0.505	0.505	0.505	0.505	0.505	0.505	0
1.08125	0	0	0.9158087384111033	0.3490658503988658	0.3490658503988658	-0.3054326190990077	-0.7853981633974483	-0.7853981633974483	-0.1308996938995747	-0.1308996938995747	0	0	0	0	0	0	0	0	0	0	2.505	2.505	2.505	2.505	2.505	2.505	2.505	0.75	2.505	0.75	2.505	2.505	2.505	2.505	2.505	2.505	2.505	2.505	0.75	2.505	0.75	2.505	0.505	0.505	0.505	0.505	0.505	0.505	0.505	0.505	0.505	0.505	0.505	0.505	0.505	0.505	0.505	0.505	0.505	0.505	0
1.125	0	0	0.9158087384111033	0.3490658503988658	0.3490658503988658	-0.3054326190990077	-0.7853981633974483	-0.7853981633974483	-0.1308996938995747	-0.1308996938995747	0	0	0	0	0	0	0	0	0	0	2.505	2.505	2.505	2.505	2.505	2.505	2.505	0.75	2.505	0.75	2.505	2.505	2.505	2.505	2.505	2.505	2.505	2.505	0.75	2.505	0.75	2.505	0.505	0.505	0.505	0.505	0.505	0.505	0.505	0.505	0.505	0.505	0.505	0.505	0.505	0.505	0.505	0.505	0.505	0.505	0
1.16875	0	0	0.9158087384111033	0.3490658503988658	0.3490658503988658	-0.3054326190990077	-0.7853981633974483	-0.7853981633974483	-0.1308996938995747	-0.1308996938995747	0	0	0	0	0	0	0	0	0	0	2.505	2.505	2.505	2.505	2.505	2.505	2.505	0.75	2.505	0.75	2.505	2.505	2.505	2.505	2.505	2.505	2.505	2.505	0.75	2.505	0.75	2.505	0.505	0.505	0.505	0.505	0.505	0.505	0.505	0.505	0.505	0.505	0.505	0.505	0.505	0.505	0.505	0.505	0.505	0.505	0
1.2125	0	0	0.9158087384111033	0.3490658503988658	0.3490658503988658	-0.3054326190990077	-0.7853981633974483	-0.7853981633974483	-0.1308996938995747	-0.1308996938995747	0	0	0	0	0	0	0	0	0	0	2.505	2.505	2.505	2.505	2.505	2.505	2.505	0.75	2.505	0.75	2.505	2.505	2.505	2.505	2.505	2.505	2.505	2.505	0.75	2.505	0.75	2.505	0.505	0.505	0.505	0.505	0.505	0.505	0.505	0.505	0.505	0.505	0.505	0.505	0.505	0.505	0.505	0.505	0.505	0.505	0
1.25625	0	0	0.9158087384111033	0.3490658503988658	0.3490658503988658	-0.3054326190990077	-0.7853981633974483	-0.7853981633974483	-0.1308996938995747	-0.1308996938995747	0	0	0	0	0	0	0	0	0	0	2.505	2.505	2.505	2.505	2.505	2.505	2.505	0.75	2.505	0.75	2.505	2.505	2.505	2.505	2.505	2.505	2.505	2.505	0.75	2.505	0.75	2.505	0.505	0.505	0.505	0.505	0.505	0.505	0.505	0.505	0.505	0.505	0.505	0.505	0.505	0.505	0.505	0.505	0.505	0.505	0
1.3	0	0	0.9158087384111033	0.3490658503988658	0.3490658503988658	-0.3054326190990077	-0.7853981633974483	-0.7853981633974483	-0.1308996938995747	-0.1308996938995747	0	0	0	0	0	0	0	0	0	0	2.505	2.505	2.505	2.505	2.505	2.505	2.505	0.75	2.505	0.75	2.505	2.505	2.505	2.505	2.505	2.505	2.505	2.505	0.75	2.505	0.75	2.505	0.505	0.505	0.505	0.505	0.505	0.505	0.505	0.505	0.505	0.505	0.505	0.505	0.505	0.505	0.505	0.505	0.505	0.505	0
1.34375	0	0	0.9158087384111033	0.3490658503988658	0.3490658503988658	-0.3054326190990077	-0.7853981633974483	-0.7853981633974483	-0.1308996938995747	-0.1308996938995747	0	0	0	0	0	0	0	0	0	0	2.505	2.505	2.505	2.505	2.505	2.505	2.505	0.75	2.505	0.75	2.505	2.505	2.505	2.505	2.505	2.505	2.505	2.505	0.75	2.505	0.75	2.505	0.505	0.505	0.505	0.505	0.505	0.505	0.505	0.505	0.505	0.505	0.505	0.505	0.505	0.505	0.505	0.505	0.505	0.505	0
1.3875	0	0	0.9158087384111033	0.3490658503988658	0.3490658503988658	-0.3054326190990077	-0.7853981633974483	-0.7853981633974483	-0.1308996938995747	-0.1308996938995747	0	0	0	0	0	0	0	0	0	0	2.505	2.505	2.505	2.505	2.505	2.505	2.505	0.75	2.505	0.75	2.505	2.505	2.505	2.505	2.505	2.505	2.505	2.505	0.75	2.505	0.75	2.505	0.505	0.505	0.505	0.505	0.505	0.505	0.505	0.505	0.505	0.505	0.505	0.505	0.505	0.505	0.505	0.505	0.505	0.505	0
1.43125	0	0	0.9158087384111033	0.3490658503988658	0.3490658503988658	-0.3054326190990077	-0.7853981633974483	-0.7853981633974483	-0.1308996938995747	-0.1308996938995747	0	0	0	0	0	0	0	0	0	0	2.505	2.505	2.505	2.505	2.505	2.505	2.505	0.75	2.505	0.75	2.505	2.505	2.505	2.505	2.505	2.505	2.505	2.505	0.75	2.505	0.75	2.505	0.505	0.505	0.505	0.505	0.505	0.505	0.505	0.505	0.505	0.505	0.505	0.505	0.505	0.505	0.505	0.505	0.505	0.505	0
1.475	0	0	0.9158087384111033	0.3490658503988658	0.3490658503988658	-0.3054326190990077	-0.7853981633974483	-0.7853981633974483	-0.1308996938995747	-0.1308996938995747	0	0	0	0	0	0	0	0	0	0	2.505	2.505	2.505	2.505	2.505	2.505	2.505	0.75	2.505	0.75	2.505	2.505	2.505	2.505	2.505	2.505	2.505	2.505	0.75	2.505	0.75	2.505	0.505	0.505	0.505	0.505	0.505	0.505	0.505	0.505	0.505	0.505	0.505	0.505	0.505	0.505	0.505	0.505	0.505	0.505	0
1.51875	0	0	0.9158087384111033	0.3490658503988658	0.3490658503988658	-0.3054326190990077	-0.7853981633974483	-0.7853981633974483	-0.1308996938995747	-0.1308996938995747	0	0	0	0	0	0	0	0	0	0	2.505	2.505	2.505	2.505	2.505	2.505	2.505	0.75	2.505	0.75	2.505	2.505	2.505	2.505	2.505	2.505	2.505	2.505	0.75	2.505	0.75	2.505	0.505	0.505	0.505	0.505	0.505	0.505	0.505	0.505	0.505	0.505	0.505	0.505	0.505	0.505	0.505	0.505	0.505	0.505	0
1.5625	0	0	0.9158087384111033	0.3490658503988658	0.3490658503988658	-0.3054326190990077	-0.7853981633974483	-0.7853981633974483	-0.1308996938995747	-0.1308996938995747	0	0	0	0	0	0	0	0	0	0	2.505	2.505	2.505	2.505	2.505	2.505	2.505	0.75	2.505	0.75	2.505	2.505	2.505	2.505	2.505	2.505	2.505	2.505	0.75	2.505	0.75	2.505	0.505	0.505	0.505	0.505	0.505	0.505	0.505	0.505	0.505	0.505	0.505	0.505	0.505	0.505	0.505	0.505	0.505	0.505	0
1.60625	0	0	0.9158087384111033	0.3490658503988658	0.3490658503988658	-0.3054326190990077	-0.7853981633974483	-0.7853981633974483	-0.1308996938995747	-0.1308996938995747	0	0	0	0	0	0	0	0	0	0	2.505	2.505	2.505	2.505	2.505	2.505	2.505	0.75	2.505	0.75	2.505	2.505	2.505	2.505	2.505	2.505	2.505	2.505	0.75	2.505	0.75	2.505	0.505	0.505	0.505	0.505	0.505	0.505	0.505	0.505	0.505	0.505	0.505	0.505	0.505	0.505	0.505	0.505	0.505	0.505	0
1.65	0	0	0.9158087384111033	0.3490658503988658	0.3490658503988658	-0.3054326190990077	-0.7853981633974483	-0.7853981633974483	-0.1308996938995747	-0.1308996938995747	0	0	0	0	0	0	0	0	0	0	2.505	2.505	2.505	2.505	2.505	2.505	2.505	0.75	2.505	0.75	2.505	2.505	2.505	2.505	2.505	2.505	2.505	2.505	0.75	2.505	0.75	2.505	0.505	0.505	0.505	0.505	0.505	0.505	0.505	0.505	0.505	0.505	0.505	0.505	0.505	0.505	0.505	0.505	0.505	0.505	0
1.69375	0	0	0.9158087384111033	0.3490658503988658	0.3490658503988658	-0.3054326190990077	-0.7853981633974483	-0.7853981633974483	-0.1308996938995747	-0.1308996938995747	0	0	0	0	0	0	0	0	0	0	2.505	2.505	2.505	2.505	2.505	2.505	2.505	0.75	2.505	0.75	2.505	2.505	2.505	2.505	2.505	2.505	2.505	2.505	0.75	2.505	0.75	2.505	0.505	0.505	0.505	0.505	0.505	0.505	0.505	0.505	0.505	0.505	0.505	0.505	0.505	0.505	0.505	0.505	0.505	0.505	0
1.7375	0	0	0.9158087384111033	0.3490658503988658	0.3490658503988658	-0.3054326190990077	-0.7853981633974483	-0.7853981633974483	-0.1308996938995747	-0.1308996938995747	0	0	0	0	0	0	0	0	0	0	2.505	2.505	2.505	2.505	2.505	2.505	2.505	0.75	2.505	0.75	2.505	2.505	2.505	2.505	2.505	2.505	2.505	2.505	0.75	2.505	0.75	2.505	0.505	0.505	0.505	0.505	0.505	0.505	0.505	0.505	0.505	0.505	0.505	0.505	0.505	0.505	0.505	0.505	0.505	0.505	0
1.78125	0	0	0.9158087384111033	0.3490658503988658	0.3490658503988658	-0.3054326190990077	-0.7853981633974483	-0.7853981633974483	-0.1308996938995747	-0.1308996938995747	0	0	0	0	0	0	0	0	0	0	2.505	2.505	2.505	2.505	2.505	2.505	2.505	0.75	2.505	0.75	2.505	2.505	2.505	2.505	2.505	2.505	2.505	2.505	0.75	2.505	0.75	2.505	0.505	0.505	0.505	0.505	0.505	0.505	0.505	0.505	0.505	0.505	0.505	0.505	0.505	0.505	0.505	0.505	0.505	0.505	0
1.825	0	0	0.9158087384111033	0.3490658503988658	0.3490658503988658	-0.3054326190990077	-0.7853981633974483	-0.7853981633974483	-0.1308996938995747	-0.1308996938995747	0	0	0	0	0	0	0	0	0	0	2.505	2.505	2.505	2.505	2.505	2.505	2.505	0.75	2.505	0.75	2.505	2.505	2.505	2.505	2.505	2.505	2.505	2.505	0.75	2.505	0.75	2.505	0.505	0.505	0.505	0.505	0.505	0.505	0.505	0.505	0.505	0.505	0.505	0.505	0.505	0.505	0.505	0.505	0.505	0.505	0
1.86875	0	0	0.9158087384111033	0.3490658503988658	0.3490658503988658	-0.3054326190990077	-0.7853981633974483	-0.7853981633974483	-0.1308996938995747	-0.1308996938995747	0	0	0	0	0	0	0	0	0	0	2.505	2.505	2.505	2.505	2.505	2.505	2.505	0.75	2.505	0.75	2.505	2.505	2.505	2.505	2.505	2.505	2.505	2.505	0.75	2.505	0.75	2.505	0.505	0.505	0.505	0.505	0.505	0.505	0.505	0.505	0.505	0.505	0.505	0.505	0.505	0.505	0.505	0.505	0.505	0.505	0
1.9125	0	0	0.9158087384111033	0.3490658503988658	0.3490658503988658	-0.3054326190990077	-0.7853981633974483	-0.7853981633974483	-0.1308996938995747	-0.1308996938995747	0	0	0	0	0	0	0	0	0	0	2.505	2.505	2.505	2.505	2.505	2.505	2.505	0.75	2.505	0.75	2.505	2.505	2.505	2.505	2.505	2.505	2.505	2.505	0.75	2.505	0.75	2.505	0.505	0.505	0.505	0.505	0.505	0.505	0.505	0.505	0.505	0.505	0.505	0.505	0.505	0.505	0.505	0.505	0.505	0.505	0
1.95625	0	0	0.9158087384111033	0.3490658503988658	0.3490658503988658	-0.3054326190990077	-0.7853981633974483	-0.7853981633974483	-0.1308996938995747	-0.1308996938995747	0	0	0	0	0	0	0	0	0	0	2.505	2.505	2.505	2.505	2.505	2.505	2.505	0.75	2.505	0.75	2.505	2.505	2.505	2.505	2.505	2.505	2.505	2.505	0.75	2.505	0.75	2.505	0.505	0.505	0.505	0.505	0.505	0.505	0.505	0.505	0.505	0.505	0.505	0.505	0.505	0.505	0.505	0.505	0.505	0.505	0
2	0	0	0.9158087384111033	0.3490658503988658	0.3490658503988658	-0.3054326190990077	-0.7853981633974483	-0.7853981633974483	-0.1308996938995747	-0.1308996938995747	0	0	0	0	0	0	0	0	0	0	2.505	2.505	2.505	2.505	2.505	2.505	2.505	0.75	2.505	0.75	2.505	2.505	2.505	2.505	2.505	2.505	2.505	2.505	0.75	2.505	0.75	2.505	0.505	0.505	0.505	0.505	0.505	0.505	0.505	0.505	0.505	0.505	0.505	0.505	0.505	0.505	0.505	0.505	0.505	0.505	0
