
inDegrees=no
DataType=double
version=3
OpenSimVersion=4.5-2023-11-26-efcdfd3eb
endheader
time	/jointset/ground_pelvis/pelvis_tilt/value	/jointset/ground_pelvis/pelvis_tx/value	/jointset/ground_pelvis/pelvis_ty/value	/jointset/hip_r/hip_flexion_r/value	/jointset/hip_l/hip_flexion_l/value	/jointset/back/lumbar_ext/value	/jointset/knee_r/knee_angle_r/value	/jointset/knee_l/knee_angle_l/value	/jointset/ankle_r/ankle_angle_r/value	/jointset/ankle_l/ankle_angle_l/value	/jointset/ground_pelvis/pelvis_tilt/speed	/jointset/ground_pelvis/pelvis_tx/speed	/jointset/ground_pelvis/pelvis_ty/speed	/jointset/hip_r/hip_flexion_r/speed	/jointset/hip_l/hip_flexion_l/speed	/jointset/back/lumbar_ext/speed	/jointset/knee_r/knee_angle_r/speed	/jointset/knee_l/knee_angle_l/speed	/jointset/ankle_r/ankle_angle_r/speed	/jointset/ankle_l/ankle_angle_l/speed
0.95	-0.04766466303128643	-0.009203468435611388	0.8711837228275301	-0.1584660416823387	0.5150135404023486	-0.1014998709857859	-0.3464922575364934	-0.1729304437247952	0.2137548263485385	-0.1147623195958317	-0.332213322384363	1.1147127072984	-0.1528975155136164	-0.08591508653832704	-0.1044486946240296	-0.08195722950122004	-0.1605986232146579	-0.1232805147993677	-0.04558616509917782	-0.03946607399424208
0.9604999999999999	-0.05048951070656553	0.002792912131122793	0.8703457393684189	-0.1591696267553414	0.5135437295055223	-0.1020424763583903	-0.3540890508832332	-0.1776504174334777	0.2106939252915594	-0.1135673218831254	-0.2118335715561713	1.169700043355703	-0.106511308185031	-0.02689774912708913	-0.1893274811757829	-0.01505737534130458	-1.276410607078236	-0.7406856032365358	-0.5377967404239454	0.163375805738554
0.971	-0.0522387621056009	0.01534737797165788	0.869787040349129	-0.1585856236709707	0.5107476071931658	-0.1016829610792286	-0.3730869007343278	-0.1877482350367866	0.202453658011566	-0.1135093141595164	-0.1273378411950811	1.221014664212859	-0.05245487851754539	0.1593398005804035	-0.3570794404393378	0.08987527559707452	-2.332228433567933	-1.147631732823436	-1.032132112340039	-0.25603559572705
0.9814999999999999	-0.05313256432631906	0.02839621995645774	0.8695164368042543	-0.1557020213118472	0.5057137017083659	-0.1003748087748563	-0.402547464435939	-0.2014864085447942	0.1900044692656036	-0.1127684229827076	-0.04630854699294588	1.25886332999102	-0.001562176219657301	0.4052162493288956	-0.5872425529723001	0.1412570477912725	-3.246285807297408	-1.435703353820106	-1.360449357603978	0.302155533440178
0.992	-0.05328260686152863	0.04166557784055139	0.8695381963217317	-0.1497548148234628	0.4987203736583024	-0.09909539350194585	-0.4405654469393008	-0.2171953482544927	0.1734367656169073	-0.1091590939725323	0.0143306703303697	1.263017692649772	0.0419597655875783	0.7428834442491484	-0.7303027862038506	0.08440155531863405	-3.962212967234719	-1.523015771240735	-1.816611141432232	0.290333515390386
1.0025	-0.0528996094683235	0.05485137347884874	0.869851975740298	-0.1398380036294569	0.4905483293889533	-0.09875764094755263	-0.4854670883399693	-0.23291200126681	0.1537688584396873	-0.1061912349006923	0.05992806837440812	1.248124035316996	0.07885322168937083	1.143952692128397	-0.8323053262983479	-0.02121535930386484	-4.576760106211744	-1.460615209439788	-1.935683801553698	0.3009897597180924
1.013	-0.05199667348568624	0.0678669763163207	0.8704528265613585	-0.1257754942008618	0.4811153685208878	-0.0995650161485897	-0.5363892781094479	-0.2476579061977495	0.1326608406904557	-0.1022919565285341	0.1133665921269661	1.230600016302082	0.111424613111056	1.532540250837553	-0.9704773764355409	-0.1337180171442781	-5.108984085103327	-1.338111374787807	-2.090917917053491	0.4677467154510135
1.0235	-0.05058225288056692	0.08067194894064704	0.871331272989919	-0.1075770234108085	0.4702121247643115	-0.1015191588649062	-0.5924435391776629	-0.2610574671551461	0.1088715774472338	-0.09592681532485968	0.1529532553934133	1.207184350286086	0.1355757511094835	1.931988610863257	-1.105235178769183	-0.237174736887315	-5.551476853882458	-1.203678752397205	-2.312045545754962	0.7163129123983806
1.034	-0.04884962074497384	0.09319142887337517	0.8724734613738276	-0.08524251043722895	0.4579284411337405	-0.1045178625926208	-0.6526229274868237	-0.2727145088393898	0.08680270448351061	-0.08784469799802834	0.1739783122172033	1.176220455997662	0.1490770140307821	2.320357809604461	-1.233418304815479	-0.3326820193153474	-5.894722607188268	-1.006202941806291	-1.763224530482304	0.7947897865285151
1.0445	-0.0469661806322503	0.1053531760530002	0.8738613786845735	-0.05899156301921544	0.4443714041668522	-0.1084902069254631	-0.7153906491321513	-0.28205009986396	0.06399376667429742	-0.07935784091615751	0.1834708793650376	1.139698577003564	0.1553539817160782	2.67476740150629	-1.344450724467988	-0.422856649323528	-6.06063909595408	-0.7719992786518277	-2.334117409629279	0.839924128890023
1.055	-0.04502405970597519	0.1171124099649751	0.8754731365940658	-0.02917855524432588	0.4297878741725135	-0.1133747869384623	-0.7798880576865367	-0.2889263762224176	0.04297780937580584	-0.06982472739503215	0.1851556100365522	1.099551262159534	0.1570213110356527	2.998845496628473	-1.428940786234604	-0.5064411964881216	-6.224186780342146	-0.5377620530229241	-1.421704433201996	0.9940767273388986
1.0655	-0.04307255538312538	0.1284480165654548	0.87728331666732	0.003745368779127674	0.4144212836375931	-0.1190910778781384	-0.8450621555519485	-0.293399195768733	0.02916531439177966	-0.0591516718746499	0.1852223152326596	1.060723371602746	0.1587908659660419	3.264015498677385	-1.498894063658107	-0.5761762668107088	-6.16535797603817	-0.3125605731156598	-1.311428494551174	1.033848424803148
1.076	-0.04116247194683508	0.1394109416757223	0.8792633712271507	0.03919015503550925	0.3982929291276274	-0.1253442915120586	-0.9088446236056801	-0.295455645221495	0.01329199944351886	-0.04821970436071166	0.1772659173585491	1.028564311642931	0.1608455987822172	3.479009731471904	-1.574038686243208	-0.6087121858679546	-5.959114435260204	-0.07750108282226514	-1.81424156924668	1.043393297540038
1.0865	-0.03935032664028949	0.1500679214307507	0.8813820735689779	0.07662249979145831	0.3813264746877745	-0.131817721464893	-0.9706099593337164	-0.2950365131254061	0.002359498579003666	-0.03690015183514674	0.1666941208371917	1.001714388281197	0.163738072310784	3.644762633227518	-1.654502214793352	-0.6230313988214645	-5.768320278802507	0.1533761247763039	-0.4898345942149784	1.099861155684613
1.097	-0.03768731583332592	0.1604548775079205	0.8836060104255801	0.1156000109681777	0.3636148414546117	-0.1384008463544492	-1.029194135543703	-0.2923178991045137	-0.001650123009629467	-0.02539248667587716	0.1488593460095913	0.9771312301460562	0.1686329872688973	3.773327144951972	-1.7159775040165	-0.6296064595292479	-5.353179288965013	0.3604954742831373	-0.4955978976500908	1.079224275388542
1.1075	-0.0362423190526411	0.1706056941652599	0.8859001089153129	0.1556795017418942	0.3452971971750757	-0.1449819855642321	-1.082623749005407	-0.287496145195607	-0.007564307581785517	-0.01413928819603522	0.1262580068721599	0.9575424571045258	0.1728273287182055	3.850302309168821	-1.77301804060109	-0.6205442040657364	-4.816671199724437	0.5556091318329013	-0.5606697860196237	1.060433893889764
1.118	-0.03503842040123309	0.1805881499100199	0.888228189663492	0.1962346149023925	0.3263831332831638	-0.1513608817361928	-1.130192637153579	-0.2806989262432131	-0.01194907158448123	-0.003203347268715721	0.1029358928140089	0.9450624848928399	0.1753095230657759	3.86392188529136	-1.829581239707172	-0.5910839761345508	-4.236850657816229	0.7367745301854575	-0.204279693943358	1.018794265384268
1.1285	-0.03407480091254643	0.1904741213407492	0.8905535373738642	0.2366334785872942	0.3068664890755665	-0.1573433377284445	-1.171377188802154	-0.2720647905992048	-0.01223178709649516	0.007404773535210311	0.08018349103365759	0.9388654951351167	0.176565787118391	3.82409117148126	-1.886892857991807	-0.5456653281375102	-3.595401460301696	0.9029077407431482	0.1143665852386528	0.9964120724695863
1.139	-0.0333635379834719	0.2003229271655276	0.8928394798518997	0.2763933489561189	0.2867790040440456	-0.1627617650477871	-1.205435155706092	-0.2618410785741391	-0.0103046865292126	0.0176081561323728	0.05486797669741163	0.9379833218545697	0.1761975412970129	3.742208872705298	-1.938312825216432	-0.4836499431994844	-2.879405944551952	1.039550983720197	0.2166376544940656	0.941701273619784
1.1495	-0.03292252832246238	0.2101887511037264	0.8950499663483436	0.3150634478863056	0.2661550182930322	-0.1674584924434137	-1.231705439042825	-0.2502681585046866	-0.007683270719304184	0.02719862724451762	0.02920066533554482	0.9418646138574279	0.173364040174095	3.616510287698985	-1.989123848671218	-0.4095273559899895	-2.122020464194748	1.160511848191306	0.2888624549408448	0.8905747079570472
1.16	-0.03274892117277148	0.2201155949536898	0.8971501361021825	0.35219277164554	0.2450271760743635	-0.1713316532240498	-1.249946406690927	-0.2375606905697905	-0.004108735916955483	0.0364261361640047	0.003934165017673187	0.9496061621906784	0.1675504349923884	3.448727887762019	-2.034285485722205	-0.3267801117727447	-1.350012480050679	1.255655339042768	0.3981841292445965	0.8725656178754513
1.1705	-0.03284361390182402	0.2301402536664924	0.8991068681167527	0.3873669527045593	0.2234568595040329	-0.174295799278271	-1.26003877297201	-0.2239497451817267	0.0005163239807489966	0.04523456878029714	-0.02220880447171741	0.9601328092841009	0.1588902337577383	3.246311788016943	-2.072447917252351	-0.2371072639476064	-0.5726044104415851	1.333641289150139	0.4723907720629118	0.8113518947293212
1.181	-0.03322030257900233	0.2402842674984165	0.9008893034986678	0.4202644281491781	0.20154563463092	-0.176295956440192	-1.26197658888621	-0.2096227758578415	0.005593303633005592	0.05359306325285122	-0.04977934891104582	0.9723404705947917	0.1477745203024632	3.015069675495249	-2.099220400537896	-0.1431631799060282	0.2032352088790604	1.392040850627782	0.4842640824926182	0.786863114306241
1.1915	-0.03389182764828965	0.2505617946324082	0.9024693321219581	0.4506051978878174	0.1794160039740361	-0.1772997364683899	-1.255813049685456	-0.1947884706226296	0.01060452919327014	0.06182172296432075	-0.07802011225094903	0.9852774246141972	0.1346506064178994	2.76154706168656	-2.114265598384387	-0.04857821848740248	0.9672794987902755	1.429712861194546	0.4678353860591644	0.7778741025081645
1.202	-0.03485641334352488	0.2609749606787365	0.9038220359424198	0.4782027889708559	0.1571813737150159	-0.1773275482818978	-1.241737067353577	-0.1796791987653353	0.01536703333877718	0.06987326211274689	-0.105600420520173	0.9981764538970235	0.1197795826129613	2.492559455380835	-2.119220324754353	0.04273552765398644	1.710367233855169	1.44441544531014	0.4368885749197597	0.7531258642027371
1.2125	-0.03611394180972042	0.2715185756305664	0.90492608197083	0.5029230907594742	0.1349682152668773	-0.1764230831285632	-1.219985343110957	-0.1645232876059334	0.0197052681643049	0.07773579994097872	-0.1339113346000674	1.009690238026928	0.1031624075548131	2.21549635696028	-2.108784261296579	0.1274762604987013	2.428077383092738	1.440469255869558	0.3856950078041603	0.7484265905422566
1.223	-0.03766818436286915	0.2821691964003853	0.9057640587075912	0.5247161773717118	0.1129614417132731	-0.1746939598735568	-1.190847002323204	-0.1494704103049087	0.02338794443775583	0.08567267075085153	-0.1621173894636398	1.018558514466365	0.0851829900537743	1.934994659879789	-2.079908916271602	0.1998132613057586	3.117341813880471	1.424789948476391	0.3120202792860821	0.7672845273724421
1.2335	-0.03951622229865202	0.2928997957993256	0.90632275073302	0.5435650786060893	0.09134747834724422	-0.1722683795976775	-1.154628139973044	-0.1346752397024357	0.0262216158376234	0.09374527373350744	-0.1894594852932802	1.025027509179508	0.06625519621519586	1.65643072964334	-2.035177798941576	0.2601038078561136	3.775549033866492	1.389007079348937	0.2267201094423174	0.7682927408966789
1.244	-0.04163779618079196	0.3036876829939576	0.9065933471228205	0.5595255509366989	0.07026174038013805	-0.1692758425596961	-1.111685214209958	-0.1203922064641409	0.02812792929987071	0.10176352901271	-0.2142194744840345	1.029470475550498	0.04677009800748207	1.384817725828792	-1.97929455457204	0.3078050255156886	4.398115797294955	1.327239974347201	0.1353806721203201	0.7569325838575147
1.2545	-0.04400559154453262	0.314510663728429	0.9065715804018952	0.5726791645577866	0.04982100556622983	-0.1658538500542558	-1.062400562887894	-0.1068613986600986	0.02904793680650675	0.1099555392433557	-0.2364831932810424	1.031626754997525	0.0268826655962133	1.123236908084331	-1.912437779755685	0.3415744883536681	4.981595372802463	1.249854150709207	0.0396192252550801	0.8022488263720871
1.265	-0.04659751780779772	0.3253429637525281	0.9062577938451108	0.5831682188342941	0.0301371072400199	-0.1621537785347739	-1.007236382097319	-0.09414952388923246	0.02895490084856663	0.1185855230587623	-0.2569110743934476	1.031245578336708	0.006518712639321551	0.8772826125754285	-1.835135223581886	0.3607724567617247	5.518026172249335	1.171252729932687	-0.05757998779894862	0.8403561238119518
1.2755	-0.04937931043226333	0.3361626274247591	0.9056569360636357	0.5911433066561057	0.01130614855800214	-0.1583285038420386	-0.9467020206794937	-0.08235550528947157	0.02783218028978072	0.1273159324447846	-0.2716378430615096	1.029631540353439	-0.01413285168303822	0.6443295860959239	-1.750470663905832	0.3658561299492113	6.001343711947519	1.066050521162397	-0.1553341547556689	0.8269152325278017
1.286	-0.05227426928078119	0.3469649909035198	0.9047784829622345	0.5967526450271614	-0.006596665611174231	-0.1545126982558517	-0.8814388422495881	-0.07195516907086857	0.02571256884019421	0.1360418038808919	-0.2784665456414965	1.02795030339001	-0.03512158245734711	0.4266636695743511	-1.658345792564478	0.3589688174191772	6.418753222169297	0.9057894192359411	-0.2474639669990599	0.8394917523995652
1.2965	-0.05521386737792459	0.3577536294860416	0.9036362882982938	0.6001870484006272	-0.02355546800536406	-0.1508015114951048	-0.8121719695440288	-0.06332329768061512	0.02264751414339642	0.1449740317791129	-0.2815092929632976	1.027403537797258	-0.05676904921925316	0.2333543277624896	-1.576276161404201	0.3487888755948088	6.759579254772519	0.7473883132563696	-0.3340307857730097	0.8671035916868765
1.307	-0.05818706465513745	0.3685483415321078	0.9022483651993645	0.6017758503603842	-0.03979031645724494	-0.1471699673580548	-0.7398101867058267	-0.05607076767116034	0.01874675131793879	0.1543605699392472	-0.2848663894642525	1.029107153588976	-0.07923277289441746	0.0751205431536362	-1.520449803553251	0.3437987938578689	7.008259914101258	0.6430577276552409	-0.4066464676961742	0.9260270403830378
1.3175	-0.06113948599241811	0.3793760025542111	0.9006366020848211	0.6018164380451475	-0.05547725054908174	-0.1436125732113254	-0.6653736873767692	-0.05013337615609448	0.01411809340621213	0.1637460339731014	-0.2731764255218765	1.033890320540115	-0.1004514885138171	-0.06621544561236091	-1.459377013009996	0.3311329245329201	7.148137641091013	0.4412497831226781	-0.4721428254053918	0.8667335780709041
1.328	-0.0638329833566829	0.3902723411317476	0.8988264174717344	0.600409982311838	-0.07026586051093545	-0.1402721864435744	-0.5901609449001095	-0.04778363055951138	0.008891808476199446	0.1726680919308521	-0.2355475374612322	1.042188592719107	-0.118894988341356	-0.2005067745745356	-1.349340445461233	0.302464055004841	7.156115751739764	-0.04030339967481147	-0.5204801854649407	0.8377592163633312
1.3385	-0.06612948331626538	0.401266117542922	0.8968463591088864	0.5977797936930355	-0.08395631178147288	-0.1372134706406116	-0.5155897027938373	-0.05017191663429069	0.003283771438934561	0.1820442099745369	-0.2091778556147014	1.051738255222958	-0.1368905701475386	-0.2880815608496322	-1.283585089751036	0.2860686545703039	7.026013053860549	-0.2834308966091777	-0.5438226441019294	0.9118885847191985
1.349	-0.0683789517408564	0.412356202653516	0.8947276537608329	0.5946206689652984	-0.09775077855301566	-0.1341404210083711	-0.4430749342765176	-0.05098095531115074	-0.002446678321786015	0.1910558838579493	-0.2265891498438117	1.060533106894262	-0.1558310686008945	-0.3012565096096591	-1.369152921843203	0.3051943082005865	6.764406496701195	0.2605056285002829	-0.5437968946945961	0.7683412810733349
1.3595	-0.07090865673948199	0.4235467500955524	0.8925037147422055	0.5916175910018139	-0.1127305792767568	-0.1307486949582908	-0.3741052318225963	-0.04455661457092346	-0.008092732652947247	0.1990281239636647	-0.2476268529353057	1.072199408123643	-0.1724591306341391	-0.2723825409738404	-1.46739327728258	0.3377696768239598	6.344616431030124	0.8587449018829104	-0.5289977303265188	0.7521508243930576
1.37	-0.07341883171635696	0.4348975832713431	0.8902096149687446	0.5888665273965326	-0.1282143046626273	-0.1271119183098735	-0.3104273175582102	-0.03514041419447138	-0.01350010045944161	0.2068924249621364	-0.2228691457008308	1.091063722847456	-0.182131086188772	-0.2532537747137862	-1.465138571772607	0.3518706126457297	5.756446841551615	0.8303836544478642	-0.4983327947580494	0.7477814511221644
1.3805	-0.075483338996224	0.4464767112148675	0.8878815338353803	0.5863021626409523	-0.1434113591573053	-0.1234082184962012	-0.2537291711250796	-0.02804969687622333	-0.01839160040872572	0.2135663042563342	-0.1708325361444799	1.114794573117585	-0.1855150577591285	-0.2299132664267762	-1.429427233853677	0.3552142609414858	5.023826106377122	0.5198420670106814	-0.4304170247451202	0.5432490993298359
1.391	-0.07701602117467431	0.4583147817479805	0.8855561866444404	0.5841492999599397	-0.1582299405129942	-0.1196184357394602	-0.2053338231503106	-0.02423185990960997	-0.02247660439151911	0.218716780430764	-0.1215691263833558	1.140386120864334	-0.1854174113986318	-0.1748724271770947	-1.393048450060416	0.3682673637064233	4.174961420911333	0.2069778731841123	-0.3447145154264823	0.4576094283092236
1.4015	-0.07803724178689507	0.470430144630338	0.8832702455822625	0.58268184630537	-0.1726544362100637	-0.1156561342509274	-0.1663766316282986	-0.02368081915506294	-0.02565849475537074	0.2231003494976482	-0.07248039272547883	1.167535913225693	-0.1814052540787846	-0.1049722313256284	-1.352955610074144	0.3865714099874607	3.234087828424645	-0.1033185153535451	-0.2675073738745786	0.3578399773273991
1.412	-0.07852826687431184	0.4828379471121802	0.8810597613757731	0.5819379598918228	-0.1866101107990986	-0.1114980278362836	-0.1376567106053865	-0.02642886523578064	-0.02822335746280097	0.2258215812054713	-0.02057950261116699	1.196088901718551	-0.1732225569777123	-0.03705009555375924	-1.303749191387154	0.405563540108505	2.225005135368486	-0.4214196192472678	-0.227185438012883	0.1409737408690083
1.4225	-0.07848106609336178	0.4955402889001399	0.878959594749871	0.5818756873702604	-0.1999390609436354	-0.1071675102912303	-0.1196014660971575	-0.0325672403847194	-0.03017866974134359	0.2264174848862204	0.02872419453916816	1.222472076770933	-0.1621072817927579	0.022217755381605	-1.228752707211682	0.4156767928396136	1.23037096811805	-0.7475535916812546	-0.1318636208604476	-0.03815423342824587
1.433	-0.07794282338230148	0.5084902741208104	0.8770028666518908	0.5823421436974713	-0.2122806569429729	-0.1028448383749543	-0.1114770001346055	-0.04212242749483115	-0.03071127462303988	0.2247959372367378	0.07295229360031001	1.243259079377727	-0.1489120887276741	0.06366016135546443	-1.115681735158731	0.4040691346271107	0.3334282695252778	-1.072240945184974	0.04380644710070049	-0.2813979410798971
1.4435	-0.07695810083762106	0.5216434427444522	0.8752204359134514	0.5831893775897719	-0.223318382766503	-0.09870826963871789	-0.112431626236959	-0.05514354031413779	-0.02996138855027212	0.220610584828514	0.1151023986871105	1.262572271986343	-0.13444404819327	0.098300001209633	-0.9887293915120907	0.3844260782766252	-0.5181412410219162	-1.411978482389414	0.05822612579334632	-0.5318071193334971
1.454	-0.07551541465055807	0.535014075716601	0.8736404125872925	0.5844186715675382	-0.2330857045306932	-0.09475976620511237	-0.1224184341880808	-0.07185813232684407	-0.03034538624167568	0.2132920910949485	0.1601834635779386	1.284680860045692	-0.119127289109789	0.1364335109679848	-0.8737000095701772	0.3682471722212301	-1.386987320716287	-1.775760791546813	-0.1721714127414573	-0.8781867649544846
1.4645	-0.07360078464838885	0.5485986589160082	0.8722877146340786	0.5860221003351653	-0.2416048023394855	-0.09109438236204513	-0.1409186078139952	-0.0925193069361714	-0.03204201275201484	0.2027159621224028	0.2016725474855167	1.299921079768513	-0.1051557442617247	0.1675285053091859	-0.7386333743304379	0.3194359014683584	-2.069674980917982	-2.159814912602775	-0.04832244444385254	-1.153906836095351
1.475	-0.0713398349297065	0.5622507263302101	0.8711836749505022	0.5879062574503434	-0.2483796152183766	-0.08827180309906434	-0.164470822618021	-0.1172166368413351	-0.02920402253453152	0.1886905978050822	0.2261491238661504	1.2975349961971	-0.09490018255533553	0.1899055771681635	-0.541455261017585	0.2077129664904795	-2.349280878451775	-2.544552276468023	0.6915651068437716	-1.535183973483005
1.4855	-0.06884936759274543	0.5758761897640978	0.870345704936099	0.5897267387777493	-0.2528860402066233	-0.08662043690428768	-0.1900753897304545	-0.146069054588404	-0.02333345396592799	0.1709813810825563	0.2502127735314225	1.303496125432248	-0.08370364897283315	0.1368116909468504	-0.3191047748250486	0.1292714448474563	-2.58492715058898	-2.954736413464276	0.2649780923450373	-1.859734949362022
1.496	-0.06604363618804196	0.5897439447829527	0.8697870199045363	0.5903584402810188	-0.2551268762894113	-0.08508589489827771	-0.219954392940511	-0.1793414930243869	-0.02703434968673494	0.1491797333788385	0.28619942248375	1.343685774286088	-0.06704784792192746	-0.03652867504831339	-0.1099145171207166	0.1854607400587351	-3.163459182760942	-3.386460979118312	-1.131570948282039	-2.314694636567167
1.5065	-0.06284111820627082	0.6040695822590355	0.8695164306698129	0.588878640620579	-0.2550558721759095	-0.08274801022913775	-0.2554176033290926	-0.2173043742213622	-0.02957668977824611	0.1234648360565575	0.3262661421551177	1.377551925106782	-0.03958661534312143	-0.2283144426814496	0.1288686119618527	0.2308913945760074	-3.495943363777966	-3.835932835027085	0.5668416716214416	-2.586062744974722
1.517	-0.05914034227245296	0.618515976993113	0.8695382045941855	0.5859213301541419	-0.2523066159005559	-0.08084531946141185	-0.2913638155028381	-0.2597148278691067	-0.01682062902651251	0.0948161000111144	0.3811056990640747	1.366687156761209	0.003548911842982246	-0.31795930476212	0.4002287518034297	0.1025666635989155	-3.255459522792162	-4.233617636407679	1.782410164716979	-2.873521060026615
1.5275	-0.05495670090408561	0.6327071399707075	0.8698519982891852	0.5827679852239113	-0.24632147802332	-0.08061830315703726	-0.3243810006968298	-0.306348894382949	-0.01193375179501033	0.06277887249575728	0.4134945215738883	1.339464565876238	0.05034342324012629	-0.3035323069772337	0.7403051825736322	-0.04325788987552298	-3.053645144176832	-4.648341756748224	-0.4800879501149212	-3.20717708806672
1.538	-0.05050491815947334	0.6467092671415225	0.8704528630310691	0.5791092075820161	-0.2367495459535348	-0.08141631611810492	-0.3559128207609346	-0.3573148859617259	-0.01910121839829129	0.02791963011318049	0.4321802469202478	1.330680336422227	0.08989586324867016	-0.4142322022220259	1.08342764562233	-0.09267700600913002	-2.972532831385095	-5.058746220204733	-0.5136553276226542	-3.411047701401784
1.5485	-0.04579266114972351	0.6606903576937192	0.8713313228053028	0.5732776322985677	-0.2237760041693013	-0.08251890349080686	-0.3858139571656569	-0.4122608972577551	-0.01321742513021627	-0.008934670850039426	0.4613935789588575	1.330809669527969	0.1203805082543522	-0.6877260392579827	1.393305286932901	-0.1159910841861898	-2.71600018599317	-5.401262370050577	1.308932642158914	-3.550298498794057
1.559	-0.04089963069687557	0.6746231981177767	0.8724735237492647	0.5648521388203128	-0.2073729104812183	-0.08382380928930887	-0.4128034724128442	-0.4706175309440313	0.001552017620007088	-0.04540770471272676	0.4666132837008394	1.321489835824281	0.1412040473261799	-0.908311858375575	1.736675627307956	-0.1312138490186686	-2.417938325187921	-5.708388580251795	1.178849335643705	-3.338425396538435
1.5695	-0.03607428819192903	0.6883934406040534	0.8738614526363639	0.5545468959763945	-0.1872182948335404	-0.08531037162462109	-0.4368523333392547	-0.5320528337419375	0.008036796762604152	-0.08181012524291378	0.4546614151679443	1.299058026522918	0.153226511408086	-1.054510485790444	2.093933235618451	-0.1623183071219585	-2.14317586581096	-5.981207821763296	0.2513906295546257	-3.508963125239514
1.58	-0.03130634232189025	0.7018539518389429	0.8754732209559435	0.5427091207668998	-0.1635759890024871	-0.08745041967657433	-0.4573981199002101	-0.595963208451755	0.01092714353943113	-0.1172814071793468	0.4556805913374582	1.262493406988639	0.1585813898563735	-1.200222785152032	2.400997566998507	-0.2556873188550512	-1.750686065101259	-6.179830849187288	0.4941955516875023	-3.161065664394814
1.5905	-0.02652570475471196	0.7149020871561594	0.8772834101088449	0.5293153062185745	-0.1369117032606702	-0.09062258388596145	-0.4735239225160107	-0.6610583389604281	0.02031886567745019	-0.1510058523609978	0.4517333792749123	1.225172489184811	0.1608418686261321	-1.35878713966863	2.678282603863464	-0.3332094012520352	-1.327864177761033	-6.224898278339665	1.164361449195418	-3.114747673971971
1.601	-0.0218867982429706	0.7276310166626003	0.8792634722746915	0.5140106406059265	-0.1073243137005215	-0.09412599138756733	-0.4854296122700968	-0.7268048619402595	0.03264154243899973	-0.1795854077118555	0.4286841998256614	1.201692300174239	0.1622493191816498	-1.564194416451586	2.957779246680735	-0.3187812792776765	-0.9468550438222824	-6.303905605598377	1.052472622836168	-2.181086649005599
1.6115	-0.01751010293452844	0.7401358133468885	0.8813821806289512	0.4965083268094699	-0.07502815386023882	-0.0973363996529539	-0.4935273779914093	-0.7926859140184669	0.04140918518639295	-0.2017586556493937	0.4056591518562181	1.177353830885175	0.1636715212107842	-1.75834836303577	3.18826634148664	-0.3061061776917976	-0.5879688777247178	-6.216252841678905	0.7086519346376826	-2.078799539697834
1.622	-0.0133535269024393	0.7522962291262834	0.883606121809583	0.4773211817987677	-0.04048840253891881	-0.1008352246539077	-0.4976171981695525	-0.8567452906955088	0.04943627778376884	-0.2240048162581288	0.3867567186155622	1.136095937337389	0.1643453162636597	-1.88511464773646	3.385130004973561	-0.3737178003381015	-0.1834368451233561	-5.956919814900222	0.9114154514042943	-2.194974776852626
1.6325	-0.00940360127251795	0.7639955310022944	0.8859002228667496	0.4569723883164864	-0.00400913514169358	-0.1051889685895405	-0.4973994143663178	-0.9180613874292453	0.05915542001396116	-0.2386646909599894	0.3635399454161988	1.095388285798199	0.1654304872166145	-1.997165382044942	3.554280179368508	-0.4425948990850439	0.2132491175722068	-5.698986768262242	0.9287055867330081	-0.7962786495965536
1.643	-0.005762660623717407	0.7753633443098488	0.8882283043852768	0.4352480020795391	0.03396202551010379	-0.1098573084800485	-0.4933840441920489	-0.975933664140484	0.0687050679852764	-0.2449034910476474	0.3279024364973138	1.072955257631325	0.1677477322930626	-2.147132315291886	3.669300148701587	-0.4336408393619247	0.5399129398355584	-5.300954096329257	0.8791308306658019	-0.5909605646235634
1.6535	-0.002523676889149134	0.7865521178050645	0.8905536510567624	0.4118879382227633	0.07285696492562939	-0.114225787411032	-0.486162903411564	-1.029071288449973	0.07757577392854161	-0.2505352986284818	0.2898191139333176	1.057386055657633	0.169703767382874	-2.292950651810575	3.733384397446814	-0.4041894366648505	0.8310513406856755	-4.807209302444204	0.805957756020128	-0.4221748685015136
1.664	0.0003397583896525518	0.7975505250768645	0.8928395907030608	0.3872945515094677	0.1122397156635024	-0.1184658067226386	-0.476026279268643	-1.076605993628101	0.08553421740904316	-0.2525177770584682	0.2563693973036786	1.036695024599749	0.1701511884276728	-2.382050954628967	3.762216591053476	-0.409172340432975	1.095243104109107	-4.233731404641439	0.7053665520441567	0.1041497498236795
1.6745	0.002874302103824681	0.8083323247268437	0.8950500726195747	0.3619096047937568	0.1516988679712105	-0.1228271168089063	-0.4632354357405837	-1.117714435737708	0.09326562335587986	-0.2487885966621234	0.2254626098654002	1.018568581104744	0.1687935620714452	-2.451400326529111	3.745037653076216	-0.4152122359624952	1.330700588535435	-3.587659215007854	0.7462310559847437	0.5733148485638723
1.685	0.005054770490688028	0.8189738023999413	0.8971502361175199	0.3358524546108812	0.1907012362739933	-0.1270520994370849	-0.4483001234761009	-1.15176227171747	0.1007629955659827	-0.2411681302578675	0.188926477816291	1.009967029003244	0.1649857251451995	-2.510089710279376	3.675210113924873	-0.3832052055588566	1.503713339618354	-2.88885404657556	0.6607886974281731	0.8453470846639171
1.6955	0.006841318429826963	0.8295605660616224	0.8991069602988915	0.3092395533573136	0.2287040642542703	-0.1308199541779855	-0.4317667288995216	-1.17823747279748	0.1073559250689074	-0.2310709385157497	0.1513261510708765	1.00666581961176	0.1588260088427859	-2.553310616806906	3.557240828804016	-0.3347321764996757	1.639515773269032	-2.147229168266493	0.5968297604384165	1.079554655500946
1.706	0.008231733113251162	0.8401160197859785	0.9008893863938379	0.2823531298033954	0.2652734515550753	-0.1340867412032047	-0.4139960591731339	-1.196711027442708	0.1133346901386887	-0.2184633129173568	0.1134725243468171	1.0040032314175	0.1502731684052613	-2.562189196060444	3.402173794025444	-0.2877637359052715	1.739384796724699	-1.364730916140645	0.543804995877034	1.323524962049649
1.7165	0.009224864124056837	0.8506516204271012	0.9024694044228503	0.2554952969858006	0.3000255373648811	-0.1368482768163332	-0.3953317774180826	-1.206801491390198	0.1191362768310397	-0.203482435530025	0.07547728193125137	1.003298660139132	0.1393622189384128	-2.551147892517318	3.212036977320319	-0.2362890649251161	1.808831855688565	-0.5551042280677951	0.5485168302537666	1.518318773668297
1.727	0.009812177922424158	0.8611962288070982	0.9038220965088037	0.2288302764707786	0.3326163110378389	-0.1390077779315567	-0.3761551675232011	-1.208322898470546	0.1245859551533603	-0.1868234097695731	0.03617400769189243	1.005718991203068	0.1260476841020522	-2.525463043189451	2.99049529176867	-0.1730904982091033	1.836971109073329	0.2674703918866088	0.4767748301569469	1.643172271215401
1.7375	0.009978953097919577	0.871775884981267	0.9049261298475357	0.2025065985926464	0.362743055986389	-0.1404665557273824	-0.3568316393119437	-1.201174951663809	0.1295627866416606	-0.1691084990523485	-0.004411496885264449	1.00930528113105	0.1101988421768765	-2.485268274649405	2.744926079024692	-0.1055557658294995	1.840325749418603	1.094050954145899	0.4700673002128774	1.724802613832937
1.748	0.009719448512791117	0.8823885247331918	0.905764093139573	0.1767089965410528	0.3901966276898184	-0.1412409093754839	-0.3375792056021086	-1.185347667393745	0.1344337272423958	-0.1507347251619642	-0.04502213718884608	1.012001577442303	0.0921630477487434	-2.425258123848751	2.48131943555518	-0.04272399388066642	1.823429299278604	1.920677527758512	0.4566051372873855	1.768670018483919
1.7585	0.009030764026619415	0.8930234443477398	0.9063227711772641	0.1516452208272668	0.4148108758866452	-0.1413809561880594	-0.3186168526824071	-1.16087321330851	0.1390201388604744	-0.1321219197179918	-0.08602090042277474	1.013482146591191	0.07206752677247895	-2.34693677974866	2.205995724667261	0.0148560751648636	1.785654377990798	2.737765890577861	0.4238314188232009	1.769176760576614
1.769	0.007915843758755594	0.9036671295581189	0.9065933532569079	0.1274623340459288	0.4364991634851959	-0.1409539708397514	-0.3001391181204497	-1.127925088247484	0.143477708243691	-0.1137384526054729	-0.1262099051302014	1.013671214743479	0.04998040616561129	-2.257469755763386	1.923993607312106	0.06528213200192647	1.731121040660678	3.534710094575993	0.4320637592184325	1.724986526778486
1.7795	0.006382432054109555	0.9143044042585164	0.9065715721290879	0.1042808769861159	0.4552161184125737	-0.1400399770242862	-0.2823376416042223	-1.086744310620125	0.1480210817662955	-0.09601745471899695	-0.1654430123630109	1.012140692013381	0.02583434447726652	-2.156613096230383	1.64229858857591	0.1067858497048322	1.65707883298187	4.302430880587398	0.4326775271092158	1.645268524842078
1.79	0.004450476050359105	0.9249150353307032	0.9062577712958759	0.0822035473724741	0.4710117502494264	-0.1387540156419687	-0.265394171346247	-1.037717189786154	0.152550009235447	-0.07929644904566184	-0.2021231049596133	1.008596237941404	-0.0003370660666947805	-2.047159766016491	1.367551113878742	0.1361330971166408	1.56769127718409	5.029251657740116	0.4293121299892939	1.534511819513558
1.8005	0.002147548084130132	0.935480307057282	0.905656899593589	0.06131164866208341	0.4839673329483995	-0.1372164523595111	-0.2494592639884405	-0.9813120333169464	0.1571781874502227	-0.06388092267961	-0.2358452696270152	1.003735665175238	-0.02850828938301252	-1.931839144891671	1.10274003721348	0.1551843069543694	1.465006174009999	5.702241399833224	0.4551305300126784	1.398974399381661
1.811	-0.0004878986132114586	0.9459913673585171	0.9047784331465314	0.04164354304224089	0.4942230744079532	-0.1355277328402664	-0.2346820246481878	-0.9182293920574499	0.162168333366652	-0.04997688152605512	-0.2654600061239217	0.9982702521616357	-0.05852160381795302	-1.81405632019779	0.8532956397035972	0.1649247612665632	1.3471830833643	6.301153522556969	0.4982583588757041	1.246609874276038
1.8215	-0.003404760344573708	0.956445039817808	0.9036362259225594	0.02321534817803978	0.5019352389115642	-0.1337845165174567	-0.2212328400586016	-0.8492844852819268	0.1673936350505179	-0.03775546133838444	-0.2893005558035087	0.9930747859919214	-0.09000470331491559	-1.696506480072016	0.6196860441249541	0.1663277915514568	1.212380982369008	6.812455380819063	0.5056804121718261	1.081405947290924
1.832	-0.006545735160112107	0.9668494938284082	0.9022482912473031	0.006007867611867529	0.5073204386805326	-0.1320514108997458	-0.2092679169963845	-0.7755616691914471	0.1729691294787946	-0.02726470513072254	-0.3081482126336649	0.9888953095538746	-0.1230266028325442	-1.581539311049436	0.4100642616764074	0.1629989126763381	1.064466601960642	7.211231487310632	0.5649617387634671	0.9169595923696023
1.8425	-0.009849970020788218	0.9772212827652993	0.9006365177227031	-0.01002721257764387	0.5106211950198836	-0.130365324209874	-0.1989255214761001	-0.6982903173990507	0.1791649462341267	-0.01851690922856446	-0.320106972371935	0.9873502928390038	-0.1570532061216032	-1.474303823633163	0.2229007574535542	0.1590688180255022	0.9028706791142707	7.482318420349614	0.6158177885294829	0.7515593156550033
1.853	-0.01324440102233603	0.9875978518807138	0.8988263240300038	-0.02498489775471846	0.5120905946313821	-0.1286918901359591	-0.1903631319135491	-0.6189538414728227	0.1859144060897374	-0.01143424604208278	-0.3253284299425603	0.9898058197488178	-0.1916550240552632	-1.376321213442425	0.06123440875210449	0.1605888905893004	0.72541784810665	7.6045884651833	0.6704175673879673	0.5997914560502872
1.8635	-0.0166550839542304	0.9980250185574107	0.8968462580611778	-0.03897351083715387	0.5119959716767649	-0.126961063863709	-0.1837310010027235	-0.5391615232763235	0.193202298480275	-0.005890802192959882	-0.3231854061333136	0.9973132829050287	-0.2261188567078304	-1.290191278084228	-0.07566716760608584	0.1714935844721763	0.5354434171085637	7.566516898765914	0.7195140934300629	0.4589942331549196
1.874	-0.02000735338115161	1.008562265270663	0.8947275467007321	-0.05212122458680583	0.5105769879941892	-0.1250400979747527	-0.179169257228052	-0.4606330467417992	0.2010611973667978	-0.001734643069011539	-0.3142020480429106	1.01077344575946	-0.2597389101744097	-1.216149911959864	-0.1910247775257412	0.196805960438089	0.331058393601084	7.363856720045187	0.7791807094804086	0.3355467464932302
1.8845	-0.02323309673861297	1.019271451232878	0.8925036033581175	-0.0645521463616246	0.5080713016036538	-0.1227725453189648	-0.1768096443755399	-0.3851178546854011	0.2094009754339759	0.001244801248275282	-0.2992954505044861	1.030032328059129	-0.2919154885713585	-1.153651572979312	-0.2837902265973238	0.2379071819906188	0.1174499282435624	6.995013746078897	0.8098871935073481	0.2342071929726067
1.895	-0.02627303188139563	1.030213121561237	0.8902095010172668	-0.07639005170381866	0.5046690237112025	-0.1199852817850984	-0.1767225853862484	-0.3142622465111314	0.2180801421244822	0.003230763443048421	-0.278810007151731	1.05505618216787	-0.3220292859945117	-1.103194400983726	-0.3618041112240151	0.2957985086435337	-0.1018090089171248	6.476316932973064	0.8438261615429312	0.1463120564906235
1.9055	-0.02908099082137936	1.04144592099876	0.8878814191135989	-0.08776610053223785	0.5005420204917982	-0.1164921594927333	-0.1789541987422414	-0.2495900343319035	0.227055819821983	0.004434836074000326	-0.2555563433286835	1.085404105686526	-0.349993231266703	-1.067025793315596	-0.422715787252803	0.3726398003643339	-0.3233983757044909	5.825727583888073	0.8572997307333657	0.08412754615227817
1.916	-0.03162957269145172	1.053025076075502	0.8855560729615899	-0.09886802213005486	0.4958250871884974	-0.1120951306577425	-0.1835168529291244	-0.1922678811123117	0.2359043694176818	0.005020383043939548	-0.2294048509781375	1.12102868487624	-0.3755232070747417	-1.050979690392828	-0.4741717462519641	0.4679711834293761	-0.5458167862295102	5.076305702566157	0.8196112850092313	0.02849764486915948
1.9265	-0.03390389250742273	1.064992933659046	0.8832701347311929	-0.1098725007343186	0.4906484507528512	-0.1066352174153435	-0.1903744466329721	-0.1431996026833985	0.2444062372612644	0.005125782015639579	-0.2039617546308167	1.158290856019252	-0.3990612576947528	-1.046492741939588	-0.5083295903350398	0.5709489087817956	-0.7551947740437656	4.26648572585271	0.7960523465363021	-0.007467755235114865
1.937	-0.0359161889926028	1.077343464076537	0.8810596551046757	-0.1208733763727117	0.4852241834657191	-0.1001275346064864	-0.1992668111343912	-0.1027461745882625	0.2525429335830698	0.004883591979516948	-0.1794956451131955	1.193918748485166	-0.4208568740895307	-1.050293411179372	-0.5213395274873895	0.6675463389452012	-0.9333921762430867	3.435381829465735	0.7500548046707233	-0.03770978519230032
1.9475	-0.03767841895590689	1.090049001124788	0.8789594947347075	-0.1319375436819829	0.4797832545593238	-0.09268381388919181	-0.2098548095259365	-0.07096369054637593	0.2599182166272849	0.004358887081085738	-0.1564426601718907	1.224911195098595	-0.4414162691088536	-1.05747256950933	-0.5097639853470545	0.7449099047674913	-1.073691501982909	2.628865782181792	0.6444148291499256	-0.06094688990973203
1.958	-0.039207269413983	1.103039879795863	0.8770027744699631	-0.1430867166897859	0.4746296816294888	-0.08459772835758086	-0.221611096352597	-0.0473207294853922	0.265858375128592	0.003630736707994713	-0.1350424060221524	1.248269533784988	-0.461469452866174	-1.06648497280448	-0.4666050557616163	0.7899015416721151	-1.155923306741187	1.884996499769957	0.4766977488787251	-0.07646130417512197
1.9685	-0.04053629562629685	1.116186277575125	0.8752203530185267	-0.1540691130521611	0.4701609093131576	-0.07638946746071669	-0.2337744157596958	-0.03106588400626495	0.2710671174951296	0.002775066500857561	-0.1170228039744719	1.249892549120157	-0.4810356388904397	-1.002735733891072	-0.3768351126421373	0.7476852561026748	-1.133002591745449	1.230846876203833	0.4702077741652186	-0.08386665817180354
1.979	-0.04164201285812064	1.129163435951345	0.8736403402866757	-0.1636682164926038	0.4668789899928499	-0.069440058813611	-0.2448183170190754	-0.02105961610617152	0.2747827849038334	0.001925330505650039	-0.09250736211928595	1.216033457015045	-0.4981736593782417	-0.803000606722074	-0.2405378184237998	0.5501201607657388	-0.9427008024137281	0.6947912466206534	0.1923025188151147	-0.07533097809328733
1.9895	-0.04250874719702497	1.141662857828775	0.8722876540679958	-0.1706773328700428	0.465172155762713	-0.06506516864586676	-0.2531207960591557	-0.0160297070882763	0.276748775452229	0.001243737380237947	-0.07685978487932645	1.16496343070926	-0.5149482566660544	-0.5305888927159941	-0.08621971591329261	0.2876633827095932	-0.6168149560626217	0.2863313208006883	0.1606936210946256	-0.05144832932543726
2	-0.04334584107194008	1.153630915128728	0.8711836270741184	-0.1747794972180833	0.4650338046581394	-0.06330523403470432	-0.2573113458640728	-0.01456272052508959	0.277706307691343	0.0009089226356709876	-0.08686155945467604	1.114821156543087	-0.5327218240975593	-0.249295458265217	0.05822087215966824	0.05203338808349633	-0.1594761861921607	0.01613935048570569	0.0002152218091083419	-0.009277953170405171
