inDegrees=no
num_controls=12
num_derivatives=0
num_iterations=860
num_multipliers=0
num_parameters=0
num_slacks=0
num_states=24
objective=13.337571
objective_GRF_tracking_X=0.882779
objective_GRF_tracking_Y=12.239336
objective_control_effort=0.078610
objective_state_tracking=0.136846
solver_duration=445.243007
status=Solve_Succeeded
success=true
DataType=double
version=3
OpenSimVersion=4.5-2023-11-26-efcdfd3eb
endheader
time	/jointset/ground_pelvis/pelvis_tilt/value	/jointset/ground_pelvis/pelvis_tx/value	/jointset/ground_pelvis/pelvis_ty/value	/jointset/hip_r/hip_flexion_r/value	/jointset/hip_l/hip_flexion_l/value	/jointset/back/lumbar_ext/value	/jointset/knee_r/knee_angle_r/value	/jointset/knee_l/knee_angle_l/value	/jointset/ankle_r/ankle_angle_r/value	/jointset/ankle_l/ankle_angle_l/value	/jointset/mtp_r/mtp_angle_r/value	/jointset/mtp_l/mtp_angle_l/value	/jointset/ground_pelvis/pelvis_tilt/speed	/jointset/ground_pelvis/pelvis_tx/speed	/jointset/ground_pelvis/pelvis_ty/speed	/jointset/hip_r/hip_flexion_r/speed	/jointset/hip_l/hip_flexion_l/speed	/jointset/back/lumbar_ext/speed	/jointset/knee_r/knee_angle_r/speed	/jointset/knee_l/knee_angle_l/speed	/jointset/ankle_r/ankle_angle_r/speed	/jointset/ankle_l/ankle_angle_l/speed	/jointset/mtp_r/mtp_angle_r/speed	/jointset/mtp_l/mtp_angle_l/speed	/forceset/lumbar_ext_torque	/forceset/reserve_jointset_ground_pelvis_pelvis_tilt	/forceset/reserve_jointset_ground_pelvis_pelvis_tx	/forceset/reserve_jointset_ground_pelvis_pelvis_ty	/forceset/reserve_jointset_hip_r_hip_flexion_r	/forceset/reserve_jointset_knee_r_knee_angle_r	/forceset/reserve_jointset_ankle_r_ankle_angle_r	/forceset/reserve_jointset_mtp_r_mtp_angle_r	/forceset/reserve_jointset_hip_l_hip_flexion_l	/forceset/reserve_jointset_knee_l_knee_angle_l	/forceset/reserve_jointset_ankle_l_ankle_angle_l	/forceset/reserve_jointset_mtp_l_mtp_angle_l
0.95	-0.04770756615933684	-0.01841541463098278	0.8916560680313972	-0.1299647583902769	0.4489968424914075	-0.0838832219967372	-0.2305175281583458	-0.194597866336236	0.2250767179198125	-0.05390859600976097	0.3071304819035177	0.04157053107191277	-0.09680449897190892	1.068765674843092	-0.1374907876702188	-0.5803747350695813	-1.01635829427775	0.28368116150517	-1.397140967881562	-0.3696245788746944	0.3010432414869813	0.1252424035530692	2.503667573539782	0.5489934372700467	-0.3312824486156496	0.9715386935588654	-0.09477058883379479	2.023171249672136	1.030864624637414	0.4988860483984762	0.01339912078349368	0.02532830638434162	0.1026279385760805	0.02355089351068881	0.01671169363973198	0.003760945581125343
0.9604999999999999	-0.04904351748968337	-0.008152546426275902	0.8904021411081212	-0.1311755261395121	0.4432866244068612	-0.08277440029094943	-0.2384077352056992	-0.2039790584361299	0.2383139905300025	-0.05402997016978262	0.388040677695369	0.04040981794222351	-0.1426219783982556	0.9074634553615482	-0.1018160629784179	0.2676500091572527	-0.1401818737122923	-0.03260328952669553	-0.46717087523835	-1.373365244101371	0.9765357885363156	-0.1494808568527396	10.4198328622211	-0.5132325702267705	0.006445066923875981	0.4161600373764781	-0.01020761784687532	1.557644226540839	0.3858835784406772	0.1800597313854939	-0.02824194059853422	0.03293258583958957	0.09959322636295152	0.036375378070101	0.02787733390913013	0.003505116761765551
0.971	-0.05038677840908757	0.001090656847079705	0.889508194538333	-0.1260682564451924	0.4446065519538439	-0.083730542588401	-0.2479178370544557	-0.2225165543452866	0.2194640386688044	-0.05707120488287499	0.4736996979937341	0.03618647782381643	-0.098196801649562	0.8745437831571354	-0.06892310129162073	0.6230609684647154	0.3227170641087225	-0.1096453153023293	-1.705692358625024	-2.113682447305715	-5.810809038777426	-0.4309215113175431	3.408205574780489	-0.03436408439049042	0.3441725824634015	-0.1392186188059092	0.07435535314004416	1.092117203409542	-0.2590974677560601	-0.1387665856274884	-0.06988300198056213	0.04053686529483752	0.09655851414982254	0.04919986262951319	0.03904297417852829	0.003249287942405758
0.9814999999999999	-0.05099883083215062	0.01043620172708237	0.8889383340300893	-0.1189618771146852	0.4486422126758716	-0.0846959577918027	-0.2746448370383563	-0.2469354706615942	0.1902336806802562	-0.06162483883145565	0.4913103175818693	0.03504224023917629	-0.02084509532762301	0.9048443273727225	-0.038685677375117	0.7502412378736629	0.3766525870732668	-0.08176436424929537	-3.201168672797487	-2.419058728907981	-0.7792418775686191	-0.4010348868573422	0.294303252430787	-0.2030797373711177	0.1290727329526182	-0.07979873974921074	0.2625714276317599	0.8077806059583232	-0.03156086795804017	-0.04100959387772853	-0.08514552499480975	0.03118230642221553	-0.007109412475358824	0.04449662136653539	0.0423779664154877	0.003081777860659202
0.992	-0.05087619555523631	0.02007735852302327	0.8887154529944287	-0.1098993614387681	0.4510603760690932	-0.08560553669461352	-0.3112784609074736	-0.2708286870876117	0.1816303219507891	-0.06474948607422916	0.4871902733136768	0.03151243342058972	0.04174371263184266	0.9308508147644184	-0.002831773180564818	0.9956583675904175	0.01462233481229865	-0.09900982947549472	-3.592668336761546	-2.013549134869491	-1.881856798952447	-0.1587335673542773	-0.7309684930914372	-0.4887582241898094	-0.08602711655816522	-0.02037886069251229	0.4507875021234756	0.5234440085071045	0.1959757318399798	0.05674739787203131	-0.1004080480090574	0.02182774754959353	-0.1107773391005402	0.0397933801035576	0.04571295865244712	0.002914267778912646
1.0025	-0.05023912378877235	0.02997615144832182	0.8888599225993301	-0.09752151612573814	0.4487320228961558	-0.08676021376879557	-0.3512806636984969	-0.288674788491586	0.1570527583184726	-0.06465689538046916	0.4830052477688427	0.03123772812252765	0.08352846867388879	0.9552573994338175	0.02993151279271453	1.345921125723115	-0.4242459829400098	-0.1257238670865614	-4.15782261609769	-1.449706410044869	-2.620192296881728	0.1595229957046707	0.5810822076143959	0.2676881480431563	-0.1190871913503233	-0.1955509063818482	0.4131856494405219	0.6648894052298402	-0.02476226298436921	-0.04863520814272226	-0.08928476869482482	0.02418661084206214	-0.03834832025147914	0.06913943347839314	0.04869482777263206	0.002892886328314435
1.013	-0.04903966897152016	0.04015086470810197	0.8893352308753246	-0.08197322969111868	0.4428625265084207	-0.08834643723450626	-0.4013442346914748	-0.3026164825258574	0.1303735072330219	-0.06175328794411282	0.5129854898578975	0.03359023412266459	0.1488642937343622	0.9834070689513914	0.06018511655140152	1.59955191455985	-0.6598811346729642	-0.1812091421476165	-5.509119422848152	-1.269852493021305	-2.282178218597056	0.3766981931402665	5.77670153241123	0.01166297546714848	-0.1521472661424813	-0.3707229520711841	0.3755837967575681	0.8063348019525761	-0.2455002578087183	-0.1540178141574758	-0.07816148938059228	0.02654547413453074	0.03408069859758192	0.09848548685322869	0.05167669689281699	0.002871504877716224
1.0235	-0.04719790594572923	0.05057299652206144	0.8900931819724592	-0.06423240802089027	0.4352506383499584	-0.09059390325563688	-0.4630733247869882	-0.3155924362160967	0.1042816103302645	-0.05736884885721856	0.5228963191928115	0.03429094187965511	0.1966860708850175	0.9959740247534635	0.08357758346381844	1.816947003527737	-0.8006003730455874	-0.2528142502255445	-6.12660977649433	-1.163272583846164	-2.465499570634757	0.4719285008621133	-2.84267226691788	0.1442719417813336	-0.1602388385247391	-0.09094053062737037	0.4208318949542323	0.6741551643440423	0.04458664733181864	-0.01958713061204437	-0.04410957828527943	0.02906112806866214	-0.01173531278028032	0.1033075456873922	0.04756126238131762	0.002869485831263529
1.034	-0.04501975592909144	0.06094479493988914	0.8910775724398461	-0.04303415201810984	0.4258273596462229	-0.09378016364455671	-0.5274369928019967	-0.3262370186398872	0.08326437028685257	-0.05155938519953535	0.4752606694883266	0.03709174713432865	0.2129380062766214	0.973819755402481	0.1033164251708819	2.258110835045948	-1.004907905201166	-0.3600271169646104	-6.010943788466281	-0.8257817756025047	-1.315576912055073	0.6481314447191099	-5.18453257033135	0.4116815464543871	-0.1683304109069969	0.1888418908164433	0.4660799931508966	0.5419755267355085	0.3346735524723555	0.1148435529333871	-0.01005766718996658	0.03157678200279353	-0.05755132415814257	0.1081296045215557	0.04344582786981825	0.002867466784810834
1.0445	-0.042775649093554	0.07098488566093304	0.8922502056008419	-0.01644199820133573	0.4142506085219254	-0.09817100609182117	-0.5904610270230749	-0.3330088167480887	0.0663381214736587	-0.04354369239041367	0.437915827716423	0.03880573563698043	0.2140442392234126	0.9411024353579132	0.1184000522265545	2.770515476091929	-1.181598605732112	-0.4699190667630744	-6.057995699640642	-0.4935007192552895	-1.942740156150404	0.8415548087199669	-1.353803222447526	-0.005285813324490626	-0.1505033333744145	0.02851842202959054	0.3963259325160912	0.4255463588938064	0.1556696065195072	0.03479712546095208	-0.002878225339326188	0.0361531854155514	-0.03875269055462647	0.1133642804541539	0.03324343788533735	0.001851637536449546
1.055	-0.0405346270920489	0.08076094920419771	0.8935294869179666	0.01437921024661895	0.40140415669344	-0.1035139641158047	-0.6560064948603814	-0.3372182737034558	0.04174716382815501	-0.03466609413068242	0.4589051172561871	0.03865910143963502	0.2123504188418901	0.9235288643969106	0.1236303596716565	3.063645050508917	-1.246755658379823	-0.541382464911098	-6.491216858224072	-0.3377167941102123	-2.775521451542663	0.8123039115018836	5.926730536653013	0.0572772226453953	-0.1326762558418321	-0.1318050467572622	0.3265718718812858	0.3091171910521042	-0.02333433943334108	-0.04524930201148292	0.004301216511314205	0.04072958882830926	-0.01995405695111036	0.1185989563867521	0.02304104790085646	0.0008358082880882586
1.0655	-0.03829823033795175	0.09040757917439815	0.8948452125746932	0.04715936864653452	0.3881564486125783	-0.1094878469725243	-0.7256646306742087	-0.3404720056073887	0.02267808469442083	-0.0257449932590921	0.5123149760611354	0.03962038286487539	0.2110757891336611	0.9136504127700559	0.1280360358749752	3.181800593407168	-1.285885404770498	-0.5932597770151299	-6.701914302377267	-0.2593071311931167	-1.083256552661255	0.8791605836264306	3.738225261694331	0.1230048386723899	-0.1098207734078574	-0.07842071498581653	0.318769588529113	0.2321574536421107	0.04752513141664414	-0.006727546392521534	0.003666252536298681	0.04268760056743352	-0.04813492087609164	0.1130008194651467	0.01238414207895447	-3.910389120257296e-05
1.076	-0.03615567216914397	0.09994185281207375	0.8962403353509144	0.08123074763074625	0.3742059331905495	-0.1159043750866949	-0.7951699063276254	-0.3421862982741494	0.0142407546689225	-0.01636737096319373	0.5267324842972708	0.04118300063846723	0.1944764025962944	0.9021276582017032	0.1387536205277878	3.309591828470091	-1.380623723364	-0.6256958472827048	-6.462100637193456	-0.04449027274407474	-0.7504263833072742	0.8992603732748439	-1.500383857406535	0.1718174794742464	-0.08696529097388278	-0.02503638321437085	0.3109673051769403	0.1551977162321171	0.1183846022666293	0.03179420922643986	0.003031288561283158	0.04464561230655777	-0.07631578480107293	0.1074026825435412	0.001727236257052482	-0.0009140160704934045
1.0865	-0.03424554627088133	0.1093510314614237	0.8977562448845354	0.1167549084832206	0.3591180591082881	-0.1225718395892404	-0.8606348978539126	-0.3412845112756719	0.004331825411905289	-0.006443813055211807	0.5280260634668829	0.04143525191389044	0.1697248181346743	0.8902364950416505	0.1490226472704621	3.46112749699534	-1.488337075358551	-0.64317761283025	-6.021911320405239	0.2091078049934922	-1.012647515906123	0.9752575356872306	0.6949916423885115	-0.1098867402031212	-0.05289783291404627	0.02032074729939918	0.3224395008416694	0.057712648104259	0.1243528376290838	0.03119654251703397	0.003888971940607009	0.04395642538692009	-0.06084831973226464	0.1106194752560652	-0.002945198123506706	-0.002311735681495844
1.097	-0.0325837289460161	0.118639751828659	0.8993494744328732	0.1540028874925241	0.3430541741638925	-0.1293875896083198	-0.9219343290605575	-0.3379452141859583	-0.004413678020518313	0.003783681742513735	0.5192397555936031	0.0391669195172025	0.147179531472977	0.8791832235132307	0.1534812423785932	3.637938144056581	-1.566530554246694	-0.6539407075748662	-5.6686605763092	0.4197973636818625	-0.5288214643370623	0.9571531141783911	-3.420362341766868	-0.308293696165974	-0.01883037485420975	0.06567787781316921	0.3339116965063984	-0.03977242002359913	0.1303210729915383	0.03059887580762809	0.004746655319930859	0.04326723846728241	-0.04538085466345636	0.1138362679685893	-0.007617632504065894	-0.003709455292498284
1.1075	-0.0311362967491848	0.1278363547935404	0.9009668244869944	0.1929144211340264	0.3261905506942845	-0.1362612622978311	-0.9791363474609536	-0.3324486652414616	-0.009886709720023102	0.01346201434028869	0.5044872707221427	0.0364496893489414	0.1275389322163854	0.8742395806096368	0.1542864895969779	3.753947330381042	-1.645763478115589	-0.6501453363437251	-5.204926552096083	0.6232957611083924	-0.4692782765191797	0.8962789848886074	-0.1369129628674391	-0.2140151883758883	-0.001086650241313334	0.04332677112701232	0.3164174973240577	-0.05804240557334162	0.09839034066191471	0.02620900472484829	0.004268891576368497	0.04232868195268132	-0.03411022577808113	0.1132875838910235	-0.00874149491613202	-0.003725740394483177
1.118	-0.02992605241932062	0.1370342500485161	0.9025832128694118	0.2324192418277055	0.3084894603222898	-0.1429317578357831	-1.0307750427495	-0.3249372433600736	-0.01333648958738287	0.02281428411448138	0.5006717414619083	0.0345730346589742	0.1020008901459057	0.8794293740074092	0.1532980668159652	3.750945201614054	-1.726048059463202	-0.6152402977540365	-4.60897998357603	0.8035826849944879	-0.1434401629761053	0.8950459096865288	-1.33713270153333	-0.1481840812528507	0.01665707437158308	0.02097566444085544	0.2989232981417171	-0.07631239112308411	0.06645960833229111	0.0218191336420685	0.003791127832806134	0.04139012543808023	-0.02283959689270591	0.1127388998134577	-0.009865357328198146	-0.003742025496468071
1.1285	-0.02899575755804478	0.146323959821887	0.9041826346591284	0.2714661184401655	0.2899628896104713	-0.1491261108289096	-1.075600091216345	-0.3155780330790475	-0.01371699927903734	0.0320335144416613	0.482973125250219	0.032936460611153	0.07525010865389628	0.8902640128174031	0.1510432786951109	3.685037713851146	-1.799102980214007	-0.5634904329292877	-3.92181394333905	0.9717384472702756	0.05076947370057897	0.8611275306677867	-1.704668143851414	-0.1614587632757384	0.03831686423726379	0.04783051039655977	0.2947002421746792	-0.07506666229291196	0.07119544764033178	0.0261271458432461	0.004033387526869526	0.04033639822073978	-0.009199096290712232	0.1118057247639284	-0.008838041134670283	-0.003605712373953726
1.139	-0.02834470860789632	0.1557345163475194	0.905748602818875	0.3097731685935099	0.2707864087518475	-0.1547409902991421	-1.112979614157461	-0.3046858333139421	-0.01269437634783891	0.04090068319722617	0.4717903575347059	0.03122619708636806	0.04881119278830878	0.9024478030095962	0.1469259468216514	3.610025876068189	-1.849840468378505	-0.5048643886313681	-3.190784645342119	1.095580681961968	0.1238231937577793	0.8279865627122351	-0.09601870226165142	-0.1622201721030886	0.05997665410294449	0.0746853563522641	0.2904771862076414	-0.0738209334627398	0.07593128694837245	0.0304351580444237	0.004275647220932917	0.03928267100339934	0.004441404311281445	0.1108725497143991	-0.007810724941142422	-0.003469399251439381
1.1495	-0.02796804085997091	0.1652878088242756	0.9072575189058434	0.3471589747516439	0.2511248509878991	-0.1596936399323266	-1.14257482645595	-0.2925759664944599	-0.01024979173400092	0.04927382586915609	0.465362211020047	0.02956583790487123	0.02285444658126333	0.9180977405219276	0.1398923240176049	3.501118512365067	-1.895326225090658	-0.4361938601333639	-2.440571523729155	1.20848055811914	0.317318803095201	0.7713138740235794	-0.8829122248247584	-0.1486937742236968	0.07209371243360015	0.07127453444446562	0.2797026691788427	-0.09110561335262661	0.05867566191373735	0.02721700626084602	0.003886691225470604	0.03877512694276863	0.01596500290393965	0.1087755240994291	-0.006453555367168675	-0.003123579529198999
1.16	-0.02786645779463041	0.1750328554056168	0.9086738609629956	0.3830874648777376	0.2309822885178851	-0.1638526860532641	-1.164109246512315	-0.2793619228296658	-0.006545038004279103	0.05719101303545359	0.4584042374032071	0.0282158716807953	-0.003585889608816769	0.9389723943591275	0.1292927982852272	3.332441869965262	-1.941460412391025	-0.3537018148700469	-1.65539564684241	1.305900081068996	0.3638554063070826	0.7411378949727284	-0.196938150296145	-0.1030977040229168	0.0842107707642558	0.06786371253666716	0.2689281521500441	-0.1083902932425134	0.04142003687910225	0.02399885447726833	0.003497735230008292	0.03826758288213791	0.02748860149659786	0.1066784984844591	-0.005096385793194927	-0.002777759806958617
1.1705	-0.02804796691758484	0.1850161157341927	0.9099607873349483	0.4170049658016458	0.2103650103622303	-0.1670903717419777	-1.17735334725033	-0.2651662655588638	-0.002223403798842948	0.06480429846235208	0.4544655756535896	0.02698417871076543	-0.03114997308127094	0.9626585266054902	0.1153806260760835	3.124629208772215	-1.983340675015703	-0.2626202018613611	-0.86797301834012	1.393738092566624	0.4484659937978009	0.7100171570222858	-0.5185106692122241	-0.1228748057446094	0.08682026447881341	0.07495238525726686	0.2550086501705902	-0.1149251333915081	0.03583337430781585	0.02303955335604065	0.003340699834088105	0.0378283927193196	0.03905817966160974	0.105120569877328	-0.004250252101402736	-0.002583737737110869
1.181	-0.02852402385401122	0.1952498924902861	0.9110872905343699	0.4486331672198094	0.1893804241296322	-0.169359729888858	-1.182351018914233	-0.2501836503226262	0.002644960445932815	0.0721224877172232	0.4482457351385444	0.02581684993515985	-0.05969023503204363	0.9866898091243863	0.09873600351737952	2.896384821251991	-2.011423855618343	-0.1692584735684646	-0.08464725177351784	1.45579683639004	0.4679944614193882	0.6849291003008476	-0.6314483913299965	-0.09083785746591089	0.08942975819337101	0.08204105797786655	0.2410891481911364	-0.1214599735405027	0.03024671173652945	0.02208025223481296	0.003183664438167919	0.03738920255650129	0.05062775782662163	0.1035626412701969	-0.003404118409610544	-0.002389715667263122
1.1915	-0.02930271718409052	0.2057355865207469	0.9120269293107014	0.4777540720339884	0.1681759877010246	-0.1706468537355251	-1.179163954556526	-0.2346889453766252	0.007437894822050875	0.07925159595838974	0.4429357156261592	0.02495863391583526	-0.08852157416238231	1.010459910711019	0.07996511812757644	2.647041605598774	-2.025445471516226	-0.07650427882691804	0.6882625335655368	1.491722422273265	0.4457440631909007	0.6729394718108098	-0.4573748033235064	-0.06755925049915258	0.08464590060416624	0.08418462405431568	0.2228374558430085	-0.1209132299058562	0.0233819496275599	0.01928667305106075	0.002995039147913933	0.03690145656204546	0.0617752942186903	0.102497224508075	-0.00326017319739722	-0.002203765403485596
1.202	-0.03038065158418698	0.2164669186099178	0.912760726464267	0.5041493766445329	0.1468895590723964	-0.1709788421578579	-1.167969842222548	-0.2189383948069629	0.01202235728528542	0.08625302367492864	0.4370156552305678	0.02450463048470971	-0.1166885340829331	1.033478010783474	0.05952807537148015	2.377222877702557	-2.02704141752703	0.01267208344757775	1.440504743707098	1.504529336135034	0.4282855256320525	0.6606090003717715	-0.7476466547978751	-0.0138449835232352	0.07986204301496148	0.0863281901307648	0.2045857634948805	-0.1203664862712096	0.01651718751859034	0.01649309386730853	0.002806413857659946	0.03641371056758963	0.07292283061075898	0.101431807745953	-0.003116227985183897	-0.002017815139708071
1.2125	-0.031757379606224	0.2274312734694038	0.913269511293359	0.5276502876842735	0.1256518703438343	-0.1703998444264886	-1.148991065857415	-0.2031506151596251	0.01616330643279511	0.09317785927980989	0.4301406423564678	0.02413391800359588	-0.1455929498817375	1.054421291675404	0.03701260168503948	2.099644612441891	-2.016322449932816	0.09588168481817326	2.168992886232556	1.499912565363518	0.3604502585428394	0.6599090061483458	-0.596506512249947	-0.04789865179577708	0.06285955297877896	0.08996990424465812	0.180282206433753	-0.1330472996663503	0.01571650270356902	0.01471048380213339	0.002767093640958398	0.03587573978762939	0.0821150070100756	0.10083208300272	-0.003708285321574832	-0.002047554280857328
1.223	-0.03343910260681343	0.2385982316487933	0.9135302060014716	0.5482524866398828	0.1045869013213998	-0.1690016885685731	-1.122536646843461	-0.1874980695922112	0.01959146759231892	0.1001426485214412	0.423761853461715	0.02368499237975444	-0.174782815711963	1.07206911933651	0.0122728142325475	1.825087242629901	-1.99414242588366	0.1687022027896708	2.864436676815919	1.478770463768565	0.2925163850633133	0.6682192168955871	-0.6531278015888653	-0.02874272499516257	0.04585706294259644	0.09361161835855145	0.1559786493726255	-0.1457281130614909	0.0149158178885477	0.01292787373695825	0.00272777342425685	0.03533776900766915	0.09130718340939223	0.100232358259487	-0.004300342657965768	-0.002077293422006586
1.2335	-0.03542614076258756	0.2499334149103584	0.9135240022082246	0.5659898534628746	0.08382069147505805	-0.1668959018095973	-1.088945883926297	-0.1721582721298372	0.02221896066753448	0.107205850962364	0.4169470246044611	0.02324930520384567	-0.2033045674923319	1.086508809638487	-0.01339438471966554	1.554163360347831	-1.959225475933811	0.2302533350276427	3.528012039761305	1.439365241361654	0.2064889061532726	0.6771092717792192	-0.6363892127281267	-0.04676957980913727	0.0301301269423201	0.09636134691443304	0.1353215637284335	-0.1278459395666487	0.01566138980083576	0.01048073918892046	0.002768467921308312	0.03482518850816919	0.1001066780578124	0.09935232710370674	-0.006178278725763512	-0.00227812334679735
1.244	-0.03770018094834613	0.2614043201134166	0.9132501861151171	0.5809047125777531	0.06348727977398901	-0.1642114492747323	-1.048570022629008	-0.1573497395653775	0.02389687343622382	0.1143610317272847	0.4105771381227829	0.02285982150650731	-0.2294498690423304	1.097920917716156	-0.03870095716945392	1.287466726798819	-1.91170468392696	0.2789242553399871	4.156836368268145	1.377577149880122	0.1116439457249866	0.6857388976570937	-0.5683768729077783	-0.01994206241032341	0.01440319094204377	0.09911107547031464	0.1146644780842415	-0.1099637660718065	0.01640696171312381	0.008033604640882654	0.002809162418359775	0.03431260800866921	0.1089061727062325	0.09847229594792653	-0.008056214793561257	-0.002478953271588114
1.2545	-0.0402310875815248	0.2729791892112413	0.9127150965997957	0.5930529365479879	0.04371227499763328	-0.1610898081620807	-1.001781154660897	-0.1433195802630115	0.02458738858642643	0.1217059659844429	0.4043350936213675	0.02243323797250748	-0.2521682658500811	1.106311169386419	-0.06304059885033897	1.029312609400039	-1.853407783871613	0.3134447186765727	4.747835861192062	1.291880168032336	0.01861104751434876	0.7136053027978556	-0.6057404125466412	-0.05422098529125902	-0.001322077040774225	0.102854385770979	0.09535156685513459	-0.07811232266044947	0.02111437734114525	0.006366747444125573	0.002979672321335832	0.03383680868188318	0.1157196143158619	0.09688530419666366	-0.01116545926744938	-0.002922648766160663
1.265	-0.04298606883122373	0.2846262521083865	0.9119301189241305	0.6025797475543908	0.02459837359433855	-0.1576759261787831	-0.9490228245977576	-0.130282289570001	0.02426099969124069	0.1293532342669607	0.3981683044704222	0.021870090949657	-0.2721307483795248	1.111672117586735	-0.08629870199680907	0.7881499717832398	-1.785780231915339	0.3345891830820859	5.293876767321124	1.188459319526688	-0.08205206292041634	0.7433263310589161	-0.5540425204372916	-0.04595415552473225	-0.01704734502359221	0.1065976960716433	0.07603865562602764	-0.0462608792490924	0.02582179296916669	0.004699890247368492	0.003150182224311888	0.03336100935509714	0.1225330559254913	0.09529831244540082	-0.0142747037413375	-0.003366344260733212
1.2755	-0.04592142677348599	0.2963178210188007	0.9109072184579726	0.6096382704733065	0.006235413549029542	-0.1541144365762695	-0.890791459542479	-0.1184213923786407	0.02289118487266222	0.1371811536474467	0.3922600798634296	0.02160262933186483	-0.2856872270529848	1.11512551342095	-0.1083674902644029	0.5583318063402316	-1.709807865291457	0.3417200399074962	5.786474255445293	1.064241162308071	-0.1782848671209809	0.7496797570674106	-0.5680512012686663	-0.00159042538632851	-0.02162685015386641	0.1123352571984173	0.06586028679189702	-0.01950455938578061	0.02638522237618306	0.001379361104475593	0.003225942935957885	0.03290416485916488	0.1304146664948196	0.09253134927989266	-0.01922268233523424	-0.003844069035828546
1.286	-0.04895824631437019	0.3080403624997313	0.9096580134557237	0.6143467411524658	-0.01126310143688943	-0.1505432700679985	-0.8277449539764236	-0.1080701038084425	0.02052920122514461	0.1451379594940851	0.3863081595159255	0.0219081022885805	-0.2914567671646573	1.117571654827938	-0.1294043279189381	0.3405209737344043	-1.62112403012676	0.3364324032263584	6.211046388421482	0.9009148202577305	-0.2710366017659636	0.7678761341355539	-0.5623655186299613	0.06317623961961814	-0.0262063552841406	0.1180728183251913	0.05568191795776639	0.007251760477531193	0.02694865178319943	-0.001941168038417306	0.003301703647603882	0.03244732036323264	0.138296277064148	0.0897643861143845	-0.02417066092913099	-0.004321793810923881
1.2965	-0.05203059903310322	0.3197889628285331	0.908190611392388	0.6168738826047337	-0.02783699213996633	-0.1470574283318637	-0.7606297175240558	-0.09947328679653065	0.01721057944834751	0.1533219464102918	0.3804479973870076	0.0216493935325756	-0.2937312711600147	1.120614131168489	-0.1500995733157728	0.1468377729434383	-1.540327901047301	0.3285274756468677	6.557545191076948	0.742868196322895	-0.3588021798876933	0.7946847059091847	-0.5559661322644028	-0.09075313144012759	-0.01961273819023321	0.1172852656241083	0.04687370252446062	0.02210026974100091	0.03205311504365695	-0.003134520852590735	0.003403165510851994	0.03198709695833141	0.1324496878054198	0.08301036255662053	-0.03224404168596329	-0.005928146906487983
1.307	-0.05512614093861643	0.3315807594449869	0.9065059487435063	0.617556302255441	-0.04370491510123001	-0.1436234025676158	-0.6903570276038132	-0.09233769638511589	0.01304222813996473	0.1619041682942905	0.3745885545852628	0.02045800682412672	-0.2958737551227871	1.125799519142594	-0.1707872965943784	-0.01085460751525737	-1.486653984067097	0.3265626942955397	6.812466096588123	0.6225859439725822	-0.4328898458775225	0.8437304137149684	-0.5622285039303434	-0.114476703703047	-0.01301912109632581	0.1164977129230253	0.03806548709115484	0.03694877900447061	0.03715757830411445	-0.004327873666764163	0.003504627374100106	0.03152687355343019	0.1266030985466916	0.07625633899885657	-0.0403174224427956	-0.007534500002052085
1.3175	-0.0581918601609547	0.3434337587490341	0.9046126854049267	0.6166748387920654	-0.05899245459604777	-0.1402507054687848	-0.617956021976285	-0.08657691474007412	0.008136519532571464	0.1705485135688601	0.3686392879371931	0.02093140058933267	-0.2845986945466125	1.131709248300215	-0.1891819702842462	-0.157445151768449	-1.411524993215129	0.311472943881315	6.954568191361752	0.4425363646956708	-0.4985603341989097	0.8091966879932384	-0.5688691418297523	0.1956550367397033	-0.007339518251357296	0.1195786200692022	0.03253373386489049	0.04492118777437488	0.01608325133625185	-0.01518219047047684	0.003025110856059817	0.03105518207888086	0.1466806139701144	0.07097806449491188	-0.05283252102651269	-0.008269627010382554
1.328	-0.06102975807779953	0.3553423405594011	0.9025468261174044	0.6142415129768479	-0.07305854050240299	-0.137174510739718	-0.5448073980483841	-0.08371999082464074	0.002634841769755767	0.1790313867797421	0.362686318638155	0.02437793252860645	-0.2524792207430854	1.136386663203491	-0.2036627154405773	-0.3064474364375373	-1.253996157693279	0.2700860524357071	6.954869582373392	0.06947018595193119	-0.5464077802436998	0.8129738301554127	-0.5629337707814475	0.4518353294527336	-0.001659915406388778	0.122659527215379	0.02700198063862615	0.05289359654427916	-0.004991075631610753	-0.02603650727418953	0.002545594338019528	0.03058349060433154	0.1667581293935372	0.06569978999096721	-0.06534761961022978	-0.009004754018713024
1.3385	-0.06352970213361886	0.3673132104231862	0.9003387279534102	0.6104379896416211	-0.08561048780733925	-0.1345112973982433	-0.4723816487468048	-0.08460274552832896	-0.003254290061885245	0.1879964265676871	0.356754402617476	0.02807780243923979	-0.2299031639352442	1.145540083534368	-0.2172610161530633	-0.401709311486017	-1.180124774112784	0.2474307962542615	6.822448502069074	-0.1462294646304432	-0.5716954720303119	0.8675039273984269	-0.5666001489012141	0.2737345284140287	-0.02006787483009182	0.05382190622789682	-0.001508343375082374	0.07953314971555081	0.01350396089381771	-0.02033016115959219	0.002502116369888281	0.0300674822989812	0.1045082708770319	0.05029992723095784	-0.0823440125697428	-0.01249514282068118
1.349	-0.06598797837540733	0.3794356645399778	0.897977339070701	0.606148419070154	-0.09874991110695422	-0.1317634635617879	-0.4019152969379563	-0.08487173561937596	-0.009294404114071212	0.1966788430119599	0.3507951672806094	0.03056384499796985	-0.244542494261017	1.165259854252348	-0.2328609475767465	-0.3990278623880567	-1.365896347155892	0.2862042419558369	6.581651012329421	0.1863777312169236	-0.5751662984427388	0.7591408123130834	-0.5681374500552792	0.2206301195663986	-0.03847583425379487	-0.01501571475958538	-0.0300186673887909	0.1061727028868224	0.03199899741924617	-0.01462381504499486	0.002458638401757035	0.02955147399363087	0.04225841236052661	0.0349000644709485	-0.09934040552925581	-0.01598553162264934
1.3595	-0.06868248688285314	0.3917928799373365	0.8954517911336543	0.6022371437706219	-0.1143640920717967	-0.128451823081327	-0.334701369822044	-0.08051276654558845	-0.01527744413540316	0.2041370637077322	0.3450592895444686	0.03033079666633962	-0.2627713803986879	1.187682885897876	-0.2473098662346698	-0.3476640136134527	-1.575975941528405	0.3374856946237795	6.190015844781343	0.5738087622184255	-0.5604120418483988	0.670174821216021	-0.5313082128536999	-0.2314097753699776	0.002102390625239098	0.03489153726794766	-0.01218872856787597	0.05637687942077897	0.0001370695590719737	-0.02911059844463768	0.001485005834959641	0.02906722639240632	0.09382726132649043	0.03224296649704841	-0.1186515482901839	-0.02293495629173539
1.37	-0.07138173470185045	0.4043599410975536	0.8928024365379198	0.5988120465863684	-0.1311680000820517	-0.1248253372283599	-0.2725756686618689	-0.07429371154579656	-0.02097804205367393	0.2109352597785187	0.3394928468341561	0.02641006026984607	-0.2454452202708278	1.205230475749205	-0.2564431682791696	-0.3064225070968611	-1.592511022472553	0.3461747890998936	5.612465115998518	0.5406798123606131	-0.5213678026215636	0.6334218361253054	-0.5358641118022663	-0.4817866546932756	0.04268061550427307	0.08479878929548071	0.005641210253038958	0.006581055954735512	-0.03172485830110222	-0.04359738184428049	0.0005113732681622472	0.02858297879118177	0.1453961102924542	0.02958586852314832	-0.137962691051112	-0.02988438096082143
1.3805	-0.07373815967858403	0.4171069158890214	0.8900946755347716	0.5957739423376834	-0.1475522679288807	-0.1212621031372298	-0.217379544585815	-0.06979755479009547	-0.02614875182203437	0.2167192129706521	0.3345193620682548	0.0225541116854101	-0.2025341556551303	1.223824410360982	-0.2579898548126552	-0.2704647535106955	-1.528985472025764	0.3348942531035978	4.881589713618287	0.310615052858937	-0.4613646943722912	0.4746301768630012	-0.4296388669152348	-0.2364290090959442	0.07507580390921255	0.07247458731279903	0.03809757558066799	0.07072842587223035	-0.03981406914919725	-0.0492022137785085	-0.0002167308905937334	0.0281503016174213	0.1357287350475134	0.009739297698474947	-0.1659042340332594	-0.03592705717146146
1.391	-0.07561681895811891	0.4300825071575768	0.8874126001145187	0.5931700712846254	-0.1632910499917409	-0.1177430443914314	-0.1704716295581489	-0.06787823028895283	-0.03062124399892109	0.2210357729968621	0.330088807139474	0.02178631647700159	-0.1544422303282125	1.248776471384947	-0.2515506762991104	-0.2237114222155152	-1.469561349335661	0.3377604376081574	4.033758630591327	0.04985462101614128	-0.3883739756741869	0.3539183759493956	-0.4324489047316932	0.1064330359786247	0.107470992314152	0.06015038533011736	0.07055394090829703	0.1348757957897252	-0.04790327999729227	-0.05480704571273651	-0.000944835049349714	0.02771762444366083	0.1260613598025725	-0.01010727312619843	-0.1938457770154067	-0.04196973338210148
1.4015	-0.07700226288227431	0.443344089258371	0.8848325644924703	0.591143838622422	-0.1783798983006226	-0.1141057654814447	-0.1330140476841022	-0.06884242336861474	-0.03423949037869298	0.2248064210605559	0.325122886095258	0.02283713513838158	-0.108391771256403	1.277668187925102	-0.2386302573150599	-0.1637105553453272	-1.404743559502339	0.3545671075110604	3.090866370496137	-0.2320289814504279	-0.3041766222539228	0.3271761660476142	-0.4915453741421818	0.1450007855727902	0.1062376250457363	0.03559028029661815	0.08388263315838672	0.1953599159877674	-0.0576298041918647	-0.06017255726498073	-0.001497511915374006	0.02728095408665854	0.1186658063909845	-0.02735436207953241	-0.2231129731876986	-0.05168804513062257
1.412	-0.07787078449115867	0.4569225485463377	0.8824277075931982	0.5897012187424093	-0.1927956745913611	-0.1103073723261425	-0.1057766382510808	-0.07271972814988416	-0.03707953010365608	0.2271268656110237	0.3202261586030012	0.0259081685810899	-0.05598083694325428	1.309134030846374	-0.2181833005322215	-0.1125470827506214	-1.341357155403643	0.3684488652872915	2.087059118015101	-0.5050237983376716	-0.240144136662987	0.077689135334907	-0.4192691805489829	0.4912358514697365	0.1050042577773206	0.01103017526311895	0.09721132540847641	0.2558440361858096	-0.06735632838643714	-0.06553806881722496	-0.002050188781398298	0.02684428372965626	0.1112702529793965	-0.04460145103286638	-0.2523801693599905	-0.06140635687914366
1.4225	-0.07818991583117504	0.4708308097264863	0.8802633166801869	0.5887737131359233	-0.2064627827622621	-0.1063791693393588	-0.08917114280077457	-0.07965223354539032	-0.03912895299367181	0.2276168519848125	0.3145471600703375	0.03112727630789892	-0.005351258998653515	1.339258155787642	-0.1939153862751843	-0.06542787560514021	-1.257069592237185	0.3774532639546327	1.08876929535204	-0.8168995241729788	-0.1526734172369078	-0.01439629432952824	-0.6227016056952608	0.5281672242846037	0.06930403088771289	0.01113009465876141	0.07684745979834971	0.2429600548450014	-0.0610428509871669	-0.06063681444573432	-0.001739024458325	0.0263231148311299	0.1181729810519011	-0.04741782052097702	-0.2710498505539348	-0.07163962288873796
1.433	-0.07799460958484496	0.4850301610165989	0.8783589757105092	0.5882997816551747	-0.2190926650451961	-0.1024297210161497	-0.08264206816920218	-0.08990498634821599	-0.04033714893746612	0.2261937475960616	0.307984032502926	0.03753071397467187	0.04200727474178593	1.364579766077625	-0.1686499779924462	-0.02615201118158913	-1.143790319600419	0.3724955960349794	0.1677408668277178	-1.137451875922333	-0.07991043262081475	-0.2867091051488178	-0.5876747109771406	0.7168225067009628	0.03360380399810518	0.01123001405440387	0.056483594188223	0.230076073504193	-0.05472937358789666	-0.05573556007424368	-0.001427860135251702	0.02580194593260354	0.1250757091244057	-0.05023419000908766	-0.2897195317478791	-0.08187288889833225
1.4435	-0.07730809124162823	0.4994720247169844	0.8767242139658453	0.5882182430368765	-0.2304159363683606	-0.09861344841012665	-0.08540452373313814	-0.1036838598092559	-0.04070946682601444	0.2217664665666286	0.2981139662740143	0.04683718920646258	0.08783333813620826	1.385518443090729	-0.1428892538644559	0.0137287797069286	-1.011309254165628	0.3528383040906755	-0.6831738056506744	-1.484411889511483	-0.006031030374863257	-0.5527000556426399	-1.193593886874617	1.022298882924316	0.00013981393063658	0.02418015646649333	0.03597710665266305	0.2176939056337403	-0.03698782142561217	-0.04755085608785617	-0.0009896860061767612	0.02483342243481058	0.1324991934446312	-0.04448233989264062	-0.3000612295526672	-0.08986900243246262
1.454	-0.07616952998641367	0.5141106559124974	0.8753550244890166	0.5886533526412444	-0.2402941651391029	-0.09505319515169887	-0.09676298754740449	-0.1210212812579072	-0.04077929974405421	0.2146685781686778	0.2849921852393194	0.05829463877105031	0.128110686550894	1.402059288959065	-0.1180647841190873	0.0722571740881006	-0.8685441191390392	0.3237300060168433	-1.469594037997126	-1.815270540229262	-0.02229424776204169	-0.7953962229617334	-1.207048959697741	1.126531903424208	-0.03332417613683202	0.0371302988785828	0.0154706191171031	0.2053117377632876	-0.01924626926332768	-0.03936615210146867	-0.0005515118771018203	0.02386489893701763	0.1399226777648566	-0.03873048977619358	-0.3104029273574552	-0.09786511596659302
1.4645	-0.07459899565425206	0.5289044273108444	0.8742475763913101	0.589586082000839	-0.2485941137028594	-0.09189277896565172	-0.1157752454662954	-0.141892463422746	-0.04124028868043871	0.204069072792672	0.2817848720310658	0.0730273860707564	0.1715348568818714	1.415253432893151	-0.09261198855754256	0.09222030816774383	-0.7054493615266436	0.2745735268582704	-2.12229385034016	-2.169842817592941	-0.02694117431388014	-1.205281916260678	0.2535654105177714	1.61659445480547	-0.08513726631545075	0.0207350036801638	-0.01560758445709737	0.2186201869071889	-0.02586929052855477	-0.03652205740445111	0.0006551489386125809	0.02377030052647762	0.1544362465287238	-0.02740317587315151	-0.3129721456892668	-0.102230510017968
1.475	-0.07255687890845275	0.5438194595687625	0.8734157528939243	0.5903130888017617	-0.254962670570116	-0.08936444164148631	-0.140711772384068	-0.1667906322822707	-0.04053505252270204	0.1897414385075558	0.2831231571604275	0.09091778664596466	0.2179359081961659	1.425156595544044	-0.06556486024852499	0.03307192481726849	-0.5006599864723809	0.2033340323250792	-2.598026228260288	-2.582315624931335	0.1998438654038924	-1.505516015173217	-0.3412207049138924	1.727989670186524	-0.1369503564940695	0.004339708481744788	-0.04668578803129785	0.2319286360510902	-0.03249231179378186	-0.03367796270743355	0.001861809754326982	0.02367570211593761	0.168949815292591	-0.01607586197010945	-0.3155413640210785	-0.1065959040693429
1.4855	-0.07003582520372767	0.5588497310950947	0.8728697467645975	0.5900956734677636	-0.2590377819369322	-0.087542603449334	-0.1701130141151982	-0.1961591429381174	-0.03912228988256521	0.1719951363529879	0.279523341615524	0.1101260896530982	0.2587179586055781	1.439748274770607	-0.03884997006678138	-0.07633639279482864	-0.2737773418155132	0.1567617919776526	-2.987110639852515	-3.006888611157457	0.06902599796128596	-1.882402571872008	-0.2921012659005844	1.908676695592187	-0.02800159027758273	0.04871611289974063	-0.002187473545169201	0.2344425702617635	-0.03833012478097143	-0.03542887284234516	0.002736417550684535	0.02351403060332132	0.1780704840875693	-0.001371472320245239	-0.3086301863015397	-0.1067136357841086
1.496	-0.06719828539379934	0.5740960895102237	0.8725912166032075	0.5886711320615341	-0.2606747331750227	-0.08579778446820754	-0.2031240031268179	-0.2298345394510545	-0.03909028999539365	0.1500499027885659	0.2780885313690253	0.1305367789062188	0.2782189758539306	1.466316002933904	-0.01461705683201142	-0.1968568508458483	-0.03624853338179054	0.1886637064153939	-3.285597138829707	-3.402674835805707	-0.06315856373235028	-2.305312474193069	0.07116125668704813	1.957015621803105	0.08094717593890405	0.09309251731773646	0.04231084094095944	0.2369565044724368	-0.044167937768161	-0.03717978297725676	0.003611025347042088	0.02335235909070502	0.1871911528825476	0.01333291732961897	-0.301719008582001	-0.1068313674988744
1.5065	-0.0641328107361588	0.5896118981662445	0.8725818415221872	0.5859485590426109	-0.2597732952595642	-0.08370343375114839	-0.2378454096552822	-0.2676088473888052	-0.03548940294395595	0.1239235902902073	0.2674839148544466	0.1501957055361588	0.3112358524789991	1.483583354199856	0.01499749082145524	-0.2957040078653485	0.2127449005347852	0.1887916642441962	-3.327396592387812	-3.791759198134858	0.5798089354704983	-2.657814744494957	-1.586436203125752	1.705155866976456	-0.009180056155407814	0.1246428969823927	-0.03209593601922806	0.4014998956357025	0.03185888622545516	0.006260294511696177	0.01523419724243577	0.0224136054150081	0.1734556233866127	0.02519628973676764	-0.2837105678223004	-0.1024406805124795
1.517	-0.0605456797273111	0.6051359918241462	0.8729516533483173	0.5830078619391192	-0.2561064182154136	-0.08228399960346468	-0.2729865738086716	-0.3094473655736342	-0.03046819274976297	0.0945153715551583	0.2553710632864869	0.1646149468573347	0.3775820903695782	1.467894098530276	0.05760902072041527	-0.238404295525576	0.4905017768452544	0.06010816939150161	-3.365550972148756	-4.176810120963443	0.2073791777448484	-2.930437471657908	-0.2161216106236309	0.9589803248956672	-0.09930728824971967	0.1561932766470489	-0.1065027129794156	0.5660432867989682	0.1078857102190713	0.04970037200064912	0.02685736913782944	0.02147485173931118	0.1597200938906778	0.03705966214391631	-0.2657021270625997	-0.09804999352608458
1.5275	-0.05628484148047796	0.6204027724914636	0.8737880906969306	0.5810781080930771	-0.249139789241437	-0.08243316642110217	-0.3087447279045988	-0.3556735800953047	-0.03203821595512447	0.06185827009833452	0.2578042109612881	0.172457065409201	0.4290874233595716	1.443489108279433	0.09922658202272448	-0.1759230633699741	0.8419013463346594	-0.07384713887959658	-3.402871917566986	-4.628723036217613	-0.3107546218035039	-3.275787160601793	0.4448857954719881	0.4567690924083292	-0.06222213650959274	0.07292735044772562	-0.07714815117005301	0.3999130709873468	0.00291208327761402	0.02914095570676353	0.03067560534265253	0.02176554403415601	0.1673437421944652	0.04844970393438766	-0.2326605407306847	-0.08654960120824194
1.538	-0.05163813703578035	0.6355211877717494	0.874983209833947	0.5783316184557116	-0.2383125402515138	-0.08352664060863621	-0.343551148377901	-0.4066618875483257	-0.03288483131142241	0.02602152973236076	0.2597851221740093	0.1725693613538286	0.451080413772332	1.439634024809959	0.125929361368591	-0.3939730176824106	1.225857970358897	-0.1197599010649798	-3.184268377363022	-5.083875441220671	0.345171148995048	-3.536082978162665	-0.3022618891150599	-0.5133668383878806	-0.02513698476946581	-0.01033857575159763	-0.04779358936069044	0.2337828551757254	-0.1020615436638433	0.008581539412877938	0.03449384154747562	0.02205623632900082	0.1749673904982526	0.05983974572485902	-0.1996189543987696	-0.07504920889039933
1.5485	-0.04685695921126205	0.6506606035308055	0.8763929535964757	0.5722418922458289	-0.2235040372159185	-0.08482683634521421	-0.3747385447682624	-0.4617282123607579	-0.02537488697853324	-0.01109389449319292	0.2549052864473758	0.1564731567954688	0.457812507825713	1.442571986815808	0.1416255080116559	-0.7585452862872542	1.588810786548608	-0.1290484076697216	-2.731706829443144	-5.38337277541144	0.9531525653388759	-3.540489744604352	-0.5917096246376318	-2.517826552042478	-0.03448681888134704	0.008364173562767811	-0.05969568374109361	0.3082471882557571	-0.06556476043231034	0.03464843781899059	0.03549731223432428	0.02139829699752949	0.1590976691975458	0.06835443461540265	-0.1654285573129263	-0.06332116375296415
1.559	-0.0420620343159548	0.6657838627027974	0.8779370227090618	0.5625581878998475	-0.2050734819813169	-0.08626084870681705	-0.4004028855776902	-0.5192596291315102	-0.01564360676985048	-0.04847508518022226	0.2481051611743468	0.1204247607953391	0.4536989034464162	1.436556579654891	0.1515151423318965	-1.078540281701204	1.915772674931523	-0.1452487820220939	-2.132257790518536	-5.553416766615015	0.7682827443843068	-3.586705161300887	-0.6680313265237096	-4.313784255867856	-0.04383665299322827	0.02706692287713325	-0.07159777812149679	0.3827115213357887	-0.02906797720077739	0.06071533622510324	0.03650078292117292	0.02074035766605816	0.1432279478968391	0.07686912350594631	-0.131238160227083	-0.05159311861552898
1.5695	-0.03739331873531979	0.6807859390715888	0.8795520435641143	0.5500231370012397	-0.1832042335664389	-0.08788431455747578	-0.4200188107945647	-0.5791389895575857	-0.009664983209918406	-0.08713324526596999	0.2460368804702032	0.07341913332989744	0.438381987390372	1.419213082068718	0.1554551989218736	-1.291398102075872	2.229645440240648	-0.1703971854565527	-1.654178214570914	-5.886510611829127	0.4715777217012899	-3.644772188191895	0.09559952145282492	-4.481930784226397	-0.03252460600530921	-0.06893411380087633	-0.1548178850168492	0.7919937930164324	-0.01822002851821357	0.06847228084060142	0.04020456626307267	0.02074421519797974	0.0519637818530654	0.02861174072934771	-0.06852775627164558	-0.02582937443618164
1.58	-0.03279717619572427	0.6955501948472712	0.8811878756325405	0.5358103252913663	-0.1586741409771591	-0.08997389151582139	-0.4361920833230609	-0.6435973852229496	-0.003617899066053929	-0.1222436851286109	0.2463648060349421	0.02961670834637033	0.4398754670579423	1.391257419062694	0.1554791829745362	-1.398113769561293	2.422600136722318	-0.234031850152927	-1.476514421303654	-6.42561395505092	0.7813228556095265	-2.910948928328168	-0.2116110848318009	-3.703650449788901	-0.02121255901739015	-0.1649351504788859	-0.2380379919122016	1.201276064697076	-0.007372079835649747	0.07622922545609961	0.04390834960497242	0.02074807272990133	-0.03930038419070832	-0.01964564204725088	-0.005817352316208122	-6.563025683431149e-05
1.5905	-0.02811209385078538	0.7099774983830339	0.8828312963424366	0.520714480788412	-0.1327529802680892	-0.09286318247245312	-0.4511048784294103	-0.7120679943095773	0.006057839830535347	-0.1531513691928013	0.2394483927811016	0.001328182579951171	0.4466520796735468	1.355576995091524	0.1585722348442709	-1.481114153292338	2.544001738043466	-0.3086732525306254	-1.331019859931309	-6.57503900544154	1.007723336549231	-2.996803196815692	-0.9385158756739387	-1.265667876524287	0.05257290409265827	-0.05233073509175788	-0.2024779605004885	1.264769866304593	-0.01349548810917316	0.08820423978242875	0.04355320283672406	0.02005398794215676	0.04788497407777335	0.004670390127633155	-0.0008422705012254968	0.001144983483162346
1.601	-0.02354073342097425	0.7239916202983808	0.8845392894988811	0.504626519704119	-0.1046361079444453	-0.0962956731487921	-0.4634505398621546	-0.7808044801610505	0.01641130545045646	-0.1856086106329991	0.2301689594905309	0.01183610115246056	0.4182141498907485	1.312556158031106	0.1677786966028017	-1.587088356482928	2.840830920450686	-0.3374984634304979	-0.9875365787121821	-6.476257148354772	0.9104136600536866	-3.206102714234329	-0.6617101394470907	3.686148471911808	0.1263583672027067	0.06027368029537014	-0.1669179290887754	1.328263667912111	-0.01961889638269657	0.1001792541087579	0.04319805606847571	0.0193599031544122	0.135070332346255	0.02898642230251719	0.004132811313757128	0.002355597223159004
1.6115	-0.01936522392878827	0.7375342655082366	0.8863703509747712	0.4874107899366227	-0.07288547059608007	-0.09991049369446811	-0.4718304946499084	-0.8485382717739216	0.02499176663645143	-0.2121271920200349	0.2268429709163696	0.03595036467841305	0.3816193449922872	1.267762854767635	0.1817046874771352	-1.693870662793782	3.181465988340187	-0.3568129941007663	-0.6203831543394471	-6.395210822680595	0.7561096390012225	-1.976650502429838	-0.1249452884077632	1.176292805598205	0.07812641613151024	-0.01016008574832747	-0.199246173712545	1.347290011912502	-0.01694839390602569	0.1015499844842354	0.03995179221380506	0.019084918338515	0.09084112832564038	0.01697508111078604	0.002969265442503062	0.003323984998871241
1.622	-0.01543226175233648	0.750630758677851	0.8883699930980185	0.4690180154506242	-0.03835963649815497	-0.1039100044503606	-0.4767250813463513	-0.9144695683775997	0.03296475240565513	-0.2298817631858292	0.2243292987456614	0.04219246279392262	0.3720146611794742	1.227574817032741	0.1998892960993648	-1.811287350483347	3.369439825128748	-0.4107727891860116	-0.3236569422719861	-6.132924765651386	0.7947040568553482	-1.53676743399784	-0.5069832054560177	0.2819264889702806	0.02989446506031377	-0.08059385179202508	-0.2315744183363147	1.366316355912893	-0.01427789142935481	0.102920714859713	0.03670552835913442	0.0188099335226178	0.04661192430502576	0.004963739919054889	0.001805719571248997	0.004292372774583479
1.6325	-0.01154254543773545	0.7633324801471671	0.8905673007466234	0.4493252704363963	-0.002374397364764413	-0.1085194945004747	-0.4786299191378905	-0.9770245672421347	0.04165519729924956	-0.2446788844459184	0.219842038877419	0.04927930736106053	0.3644849956983275	1.192720493167181	0.2178795023645786	-1.93884010749688	3.488946699585857	-0.4590515323846532	-0.03000457660862889	-5.778188144383783	0.8444003794620899	-1.239651409340347	-0.3528087966584138	0.6690401482302623	0.05679439759714879	-0.06083011013398128	-0.2064880913482375	1.309660275769523	-0.01352925851295975	0.1036745164871552	0.03207062497624379	0.0184451674198756	0.05420839862509647	0.007966794352537804	0.002656769593754277	0.004339272683901003
1.643	-0.007870449306641727	0.7756972046712957	0.8929293768209985	0.4283206766325161	0.03499340467859383	-0.1133784371829658	-0.4771627181854688	-1.03572489506226	0.05035657396264779	-0.2550307534517223	0.216813721444401	0.04786522701941808	0.3305631976542742	1.163384922711257	0.2312737581508713	-2.061163310417121	3.632785141313067	-0.4582875763054343	0.3186361518158027	-5.398701709573387	0.7967862987227377	-0.6900527188958945	-0.2290894082704192	-1.337297303178348	0.08369433013398381	-0.0410663684759375	-0.1814017643601602	1.253004195626153	-0.01278062559656468	0.1044283181145973	0.02743572159335317	0.01808040131713338	0.06180487294516719	0.01096984878602072	0.003507819616259558	0.004386172593218526
1.6535	-0.004619074756349522	0.7877788992781918	0.8954096460540852	0.4060938706701554	0.07377617781505937	-0.1180905818717841	-0.4720364411611074	-1.090021624490348	0.05837446349362877	-0.2611869624699715	0.2121768044430039	0.04748235099003403	0.2908090207281161	1.138349566628117	0.2405705189742781	-2.168317752057834	3.739802385393546	-0.4418276817612812	0.6459475467807626	-4.927288735044029	0.7328277530479037	-0.4354254558458938	-0.57481467654132	0.7048079495131045	0.06035588823718031	-0.05548435917613118	-0.1894373530389192	1.175787265734277	-0.003436801481220313	0.1022291424768102	0.02349584608667041	0.01757845483148851	0.04432864652297681	0.01120019101839728	0.003769307462445373	0.004356818785299241
1.664	-0.001720141486489801	0.799612191419029	0.8979690106067394	0.3828741253767691	0.1132225002868365	-0.1227106601640808	-0.4638466701299904	-1.1388568401228	0.06579629373991359	-0.263184893621067	0.2064082954615749	0.05091542164975938	0.2634315251909441	1.116070167271449	0.2463395333065652	-2.250294611564878	3.759175490896234	-0.4407511198251287	0.9021588197692455	-4.358413367547287	0.6832511968758495	0.1020002081809862	-0.4446307378002996	-0.6104503147765634	0.03701744634037681	-0.06990234987632486	-0.1974729417176782	1.098570335842401	0.005907022634124055	0.1000299668390232	0.01955597057998765	0.01707650834584362	0.02685242010078643	0.01143053325077384	0.004030795308631188	0.004327464977379955
1.6745	0.0009239550929028803	0.8112303612209329	0.9005677464767098	0.3588825592146119	0.1525140285449553	-0.1273370445999978	-0.4532181330948782	-1.181255899565966	0.07271667534733836	-0.2603191257361936	0.2026145452147042	0.04507244899570457	0.2384875342851795	1.097753301517264	0.2476836762404684	-2.31733068302288	3.720313951609849	-0.4362589233065235	1.120550733676191	-3.710874561141001	0.6344607525893162	0.4352470977992533	-0.3107662089779989	-0.4435913301132212	0.05002922094637524	-0.06320932854096667	-0.1875742460719947	1.016837479168292	0.009826473282239663	0.09646588805525998	0.01645728192438395	0.01670127253412296	0.02113192371260264	0.01268949791411916	0.004289297644759662	0.00401601759488604
1.685	0.003252010664926771	0.8226826243878382	0.9031499117283955	0.334256314495575	0.1912522585307951	-0.1317837707156145	-0.440352352240885	-1.216644014636547	0.07911039405335846	-0.2542255826811913	0.1991938701781759	0.04283701979091564	0.2032332380730791	1.084468903462192	0.2431832250619008	-2.371185765256268	3.653785343795478	-0.4065304873869888	1.328300499556109	-3.022995391816669	0.5829344537511507	0.716814526300781	-0.3735687929731564	0.07670081841694003	0.06304099555237368	-0.05651630720560849	-0.1776755504263111	0.9351046224941836	0.01374592393035527	0.09290180927149683	0.01335859326878024	0.01632603672240229	0.01541142732441885	0.01394846257746449	0.004547799980888137	0.003704570212392123
1.6955	0.005178402075900151	0.8340181331155505	0.9056575299038471	0.3091490627083399	0.2291066596097419	-0.1358249165025149	-0.4254158421597194	-1.244611078478322	0.08481831161765013	-0.2450270568370824	0.1963348259021039	0.04139144144571707	0.1639701299746871	1.075136956444182	0.2338177021803409	-2.406568263887666	3.547888754635002	-0.3625721763351709	1.506336889670509	-2.296090179597959	0.5110069409705369	1.017615975404423	-0.1984475915909717	-0.2254463288749333	0.06527431237496779	-0.05454521767807353	-0.1755658204839495	0.8729876585577606	0.02123069031048988	0.08868114119025244	0.01102470189663689	0.01610698812714605	0.005564566380568938	0.01457633457457987	0.004636030952127424	0.003633170672236869
1.706	0.006701088479504716	0.8452701886203506	0.9080466302444639	0.2838145534908522	0.2655754741293818	-0.1393843592092167	-0.4089379327087086	-1.264694450040712	0.08998263884572834	-0.2332267100383251	0.1944503037832068	0.04076130454571848	0.1263370461933044	1.068573051478922	0.2206083993791063	-2.414472894828211	3.38986409440365	-0.314777519730117	1.6219003795266	-1.521339719552992	0.4793934373295373	1.212399470043334	-0.1879455249398436	0.2320229984550324	0.0675076291975619	-0.05257412815053858	-0.1734560905415878	0.8108706946213375	0.02871545669062449	0.08446047310900807	0.008690810524493539	0.0158879395318898	-0.004282294563280974	0.01520420657169525	0.004724261923366711	0.003561771132081614
1.7165	0.007828867061320818	0.8564654565766235	0.9102774101813401	0.2585112090976145	0.3001626197380718	-0.1424154534379604	-0.3914737212570675	-1.276496436623318	0.09480934602444445	-0.2193204313996889	0.1918232255137586	0.04135774593301415	0.08798111232795948	1.064107897616396	0.203691537350109	-2.402939749362067	3.194075351022025	-0.2613235728313585	1.701359631311002	-0.7253036750941895	0.4394181016483251	1.421059402776087	-0.2943436127109704	-0.05093460068617714	0.07251650328646268	-0.04705125348788246	-0.1718224088971347	0.7615934210730443	0.03305673837433706	0.08067759462820642	0.006815296628906432	0.0155784624662863	-0.008439386133565669	0.0150960569637481	0.0047764703688372	0.003574812410477465
1.727	0.008538258840073974	0.8676216825762044	0.9123113314526244	0.2334005307992042	0.3325652024200223	-0.1448459002674915	-0.3732777660301524	-1.279897392174856	0.09919863258401372	-0.2037069408053646	0.1886493291034021	0.04110876873527207	0.046644321800362	1.061136488299463	0.1831115106949145	-2.377774591051586	2.973756870262781	-0.2003684913086672	1.761280146245471	0.07885666731731975	0.3960752241587145	1.537582699698208	-0.2921013613033424	0.07099088701927264	0.07752537737536348	-0.04152837882522635	-0.1701887272526815	0.7123161475247511	0.03739802005804963	0.07689471614740476	0.004939782733319325	0.0152689854006828	-0.01259647770385037	0.01498790735580096	0.00482867881430769	0.003587853688873315
1.7375	0.008802013465929725	0.8787508160664761	0.9141144646206418	0.2086320484761036	0.3625300569413926	-0.1466134529510392	-0.3545895169021216	-1.274823553243732	0.1031609203445011	-0.187071448781706	0.1848965615663631	0.04192653334687196	0.00367448938543185	1.058612451550508	0.1601754604927252	-2.337552924762902	2.729946834097151	-0.1368168490128233	1.793215535566375	0.889068213859173	0.3629400515090861	1.624315567161952	-0.4089495201134272	0.06742018832450872	0.07273166843167005	-0.04169296397023236	-0.1740754674418937	0.706574621243556	0.04052969333576867	0.07287867076239336	0.003210231742202954	0.01482208878162062	-0.01466472140098014	0.01465057700564989	0.004877983003946907	0.003624374439383502
1.748	0.008617099648646719	0.8898507378345283	0.915671509845843	0.1843639708394805	0.3898124456421406	-0.1477297355093212	-0.3357288269773325	-1.261195892903598	0.1069105434127789	-0.1697384183855342	0.180350390819424	0.04216016682590664	-0.03881633403559097	1.055572350733849	0.1362376168251934	-2.282459412674913	2.462810999668042	-0.07631703887709693	1.794126012294672	1.708155983319519	0.3555676637378402	1.670447151605466	-0.4432257822366761	-0.04027218585028981	0.06793795948797661	-0.04185754911523838	-0.1779622076311058	0.700833094962361	0.04366136661348771	0.06886262537738196	0.001480680751086584	0.01437519216255844	-0.01673296509810991	0.01431324665549883	0.004927287193586123	0.003660895189893689
1.7585	0.00798432831745311	0.9009122320350245	0.9169702059436581	0.1607619498177431	0.4142134009133909	-0.1482305845933012	-0.3169903270818312	-1.238993122592256	0.1104941758294779	-0.1522316094546659	0.1754746072809185	0.04227665395070235	-0.08165655650989306	1.050965884342015	0.1108305902990949	-2.209997396087393	2.18533602165276	-0.02033028501915906	1.770709710979808	2.515045557418488	0.3256786028675464	1.659283243816162	-0.4847042142480152	0.03694273416668213	0.06036925816692305	-0.03644652969089514	-0.1822742332819265	0.6922417800092412	0.04791676145392595	0.06622936780655021	-0.0005316690551440046	0.01380453562016814	-0.01539705052584082	0.01190503414403539	0.004926293380788734	0.003682283252186501
1.769	0.006903466585258208	0.9119123475403191	0.9179926002004737	0.1380205166245853	0.4357117684595855	-0.1481828689606251	-0.2986363724399968	-1.208503785087678	0.1137214360049149	-0.1349963676850131	0.1701882065480591	0.04240009725886838	-0.1241668866072655	1.043881170695452	0.0836086947300578	-2.118537921516919	1.909937147276519	0.02817147858119111	1.72087929731052	3.286549734412081	0.2876872368308048	1.618720073278724	-0.521438581161219	-0.03894719854165722	0.05280055684586948	-0.03103551026655191	-0.1865862589327473	0.6836504650561215	0.05217215629436419	0.06359611023571847	-0.002544018861374594	0.01323387907777783	-0.01406113595357172	0.009496821632571963	0.004925299567991346	0.003703671314479313
1.7795	0.005383609287144249	0.9228270660595148	0.9187288062339412	0.1162987482323568	0.4543186303363996	-0.1476688783908283	-0.2809493451812247	-1.170057793252764	0.1167041596892089	-0.1184249899926565	0.1654977927225743	0.04223613052575503	-0.1647490625815533	1.034918388886456	0.05713729798775177	-2.020481523532958	1.633742642010491	0.06819423854851704	1.648147850401013	4.033495196320908	0.2895859569833919	1.533224025334954	-0.3915676278172819	0.001122681865412516	0.04268206026019521	-0.03943319334222989	-0.1928370904779651	0.7605329905511898	0.04863185248694567	0.0590366649326772	-0.004673373607798288	0.012752977977538	-0.009208357542672312	0.007451068944973474	0.005028101581204354	0.003732753494240874
1.79	0.003455930530536274	0.9336415503813718	0.9192033251714206	0.09555806985326035	0.4700101920095764	-0.1467830721705695	-0.2640238065147223	-1.123863409759205	0.1199945834344879	-0.1028933478515186	0.1615538112772871	0.04228522566029427	-0.20184716441565	1.024788942630916	0.03376353358946627	-1.931663633301286	1.354641870393246	0.09899350724061427	1.575833851163894	4.762433859868135	0.3462967722564909	1.420675206379915	-0.3792609849330987	0.001636014344548512	0.03256356367452093	-0.04783087641790786	-0.199087922023183	0.8374155160462582	0.04509154867952715	0.05447721962963593	-0.006802728354221983	0.01227207687729816	-0.004355579131772904	0.005405316257374986	0.005130903594417362	0.003761835674002434
1.8005	0.001154362904544842	0.9443394265519576	0.9194386029799082	0.07578581300003576	0.4828036775059686	-0.1456251163075434	-0.247888576242254	-1.070235529951376	0.123604847014189	-0.08868866755689619	0.1572177145746075	0.04225977070222182	-0.2358645819005026	1.012305932170193	0.01069682072605212	-1.827461054307615	1.087032295921189	0.1193244308718775	1.486742899333345	5.435269502275593	0.3346185293236409	1.281849797970663	-0.4378029595907218	-0.00101802092019255	0.02775337843801749	-0.03357626076512377	-0.1984712035211277	0.8373134394023876	0.05542988464767038	0.05359810919705687	-0.00964941500363788	0.01160328991761334	-0.003104595745225688	-0.0005108743476406229	0.005051026389335393	0.003804771192586668
1.811	-0.001482901858047694	0.9548874626454256	0.9194205146133427	0.05732879668591238	0.4929390857309557	-0.1443244058740022	-0.2330290149581537	-1.010082498837717	0.1268797395646626	-0.07604019818126258	0.1525459931016003	0.04237864491517147	-0.2657894761491938	0.9962479755608771	-0.01449669023019439	-1.681141625853433	0.8483414377446705	0.1261848540053963	1.332849281950933	6.005319822883437	0.2824165762131561	1.124254078953479	-0.4431895126145294	0.02912728501542368	0.02294319320151404	-0.01932164511233967	-0.1978544850190724	0.8372113627585169	0.06576822061581361	0.05271899876447781	-0.01249610165305378	0.01093450295792853	-0.00185361235867847	-0.006427064952656232	0.004971149184253424	0.003847706711170902
1.8215	-0.004395498686081531	0.9652640615262507	0.9191438482731777	0.04044160408376306	0.5006506843227507	-0.1430053633832831	-0.2200145215701804	-0.9444156458729147	0.1300550582564022	-0.0650975204341636	0.1478232769356401	0.04249190569957825	-0.2876940268720547	0.9811352713337846	-0.03713731992555633	-1.546580640861543	0.620910625783179	0.1255944859778358	1.1582033119624	6.489493914710427	0.3356055338457742	0.9589910966267978	-0.4547044721650548	0.0009623571323137635	0.03068715670695097	-0.0450268516124393	-0.1950084467161116	0.973655666784368	0.0497163840380493	0.04490654306810924	-0.01590721351269579	0.01010489714107069	-0.0004830947024362139	-0.01174830061585542	0.004909643801423016	0.00389418212511354
1.832	-0.007497242673671637	0.9755099560049224	0.9186629820422956	0.02461720603540318	0.505986107839307	-0.1416757254916966	-0.2084526144866567	-0.8740794499985373	0.134204645319703	-0.05592394745331018	0.1430322901696039	0.04257769376242547	-0.3018175065408642	0.9713518989602461	-0.05339190750963774	-1.47870456798878	0.3957366615087077	0.1282030255991694	1.056166176341497	6.894718472326366	0.4679915041295972	0.7872817425257521	-0.4561934364385061	0.02389438567074856	0.0384311202123879	-0.07073205811253892	-0.1921624084131508	1.110099970810219	0.03366454746028499	0.03709408737174068	-0.01931832537233779	0.009275291324212854	0.0008874229538060422	-0.01706953627905461	0.004848138418592609	0.003940657539056177
1.8425	-0.0107221993369163	0.9856668676773981	0.9180235276471603	0.00942357357264631	0.5090657944274856	-0.1403059559403814	-0.197797567590646	-0.800075046454151	0.1391922672881694	-0.04854114287207375	0.138946779000323	0.0425263506150582	-0.3119309793468574	0.9627847453124496	-0.06912755511216563	-1.399695441318087	0.2000560645806173	0.1319000337320691	0.9486471304409355	7.171084231473889	0.4714974775836258	0.6209428620914873	-0.3306744328423232	-0.02412406424578769	0.06003557474251976	-0.03493930137327945	-0.1827868473945495	1.061255609922277	0.05981129441507419	0.040287921237752	-0.02283495127300063	0.008624509421485224	-0.008290588426662466	-0.02505773445332384	0.004422053651937287	0.003940706131041533
1.853	-0.01403668479061927	0.9957176584963084	0.9171962122504234	-0.004448268576693893	0.5103801860906616	-0.1389227387426276	-0.1890501328890085	-0.7241224385353227	0.1438848730910717	-0.04284264897737241	0.1359059465021414	0.04227163775265717	-0.3188706094853038	0.9511384030430515	-0.08917495543376336	-1.226934984480843	0.05949000912726948	0.1307644820636852	0.6928114726513667	7.265805019839128	0.4117979487840721	0.4664606593762112	-0.2572070228957745	-0.0148427029071112	0.08164002927265161	0.0008534553659800334	-0.1734112863759481	1.012411249034334	0.08595804136986339	0.04348175510376331	-0.02635157717366346	0.007973727518757591	-0.01746859980713097	-0.03304593262759308	0.003995968885281964	0.00394075472302689
1.8635	-0.01735903702724114	1.005666937076415	0.9161648951052601	-0.0164083511766301	0.5102985004087722	-0.1375481334561721	-0.1834656851504429	-0.6480596788300557	0.1486373549668604	-0.03872712807265833	0.1314777822405047	0.04222297653295482	-0.3112819045603947	0.9468574927057952	-0.1056411088224068	-1.072312912657038	-0.08243869417902888	0.1356848810132214	0.393804403371222	7.197863054854993	0.5038923087753491	0.3199437055260795	-0.5511595917867564	-0.00148014829971236	0.1294638955416034	-0.06033702284192661	-0.15449313050511	1.153091761481151	0.05822669814816722	0.03018297484561313	-0.03251693754816361	0.006073602373091546	-0.04822040909487019	-0.04820804484794641	0.002857205133143948	0.003900233870392711
1.874	-0.02051739863485986	1.015662465333431	0.915011880196426	-0.02741071518264282	0.5084937938543721	-0.1359763407625568	-0.1802990979760007	-0.5734813236358565	0.1546861794809474	-0.03607142311723282	0.125068553212833	0.04209241964182935	-0.2876342991989899	0.9599478653116456	-0.1123554818472667	-1.044512395162084	-0.2687044427795613	0.1683239881893704	0.2322666032945162	6.983061303445266	0.6587203560789966	0.1884004785593415	-0.6345526926167253	-0.0304418784162761	0.1772877618105552	-0.1215275010498332	-0.1355749746342719	1.293772273927968	0.03049535492647105	0.01688419458746294	-0.03868229792266378	0.004173477227425501	-0.0789722183826094	-0.06337015706829975	0.001718441381005932	0.003859713017758534
1.8845	-0.02345150216998201	1.025825073166193	0.9137877225816208	-0.03836834168900405	0.5049481697776328	-0.1339356819138594	-0.1781766509112459	-0.502024936776522	0.1614648786074126	-0.0346537575984213	0.1176177341615662	0.04195324592856631	-0.2742522958650515	0.9730519096277644	-0.123312799902464	-1.025501108334762	-0.3821573000260468	0.2181341216274627	0.1539686389324263	6.604158803169626	0.6359277225770965	0.08534004900370123	-0.7640883592529093	-0.002904274471931858	0.1699578475118852	-0.05543217968077144	-0.1904903237748914	1.035963427207411	0.05215554286574001	0.02362546767595233	-0.04439806863421826	0.001876506080064655	-0.06153042816658515	-0.05485530245501696	0.001510278508880619	0.003817493856448668
1.895	-0.02633990120388213	1.036039119378295	0.9123699079409507	-0.0485860160056614	0.5009828902618648	-0.131442539297016	-0.1774446047306734	-0.4352879139677209	0.1681134748009833	-0.03420139308457731	0.1094545117843268	0.04188785552031851	-0.2789286799186025	0.9697456518527037	-0.1492425343929534	-0.903569120932774	-0.3486388121183558	0.2545113725981438	-0.03257166035926722	6.084134817629415	0.633938845051481	0.004533620470285321	-0.7702485642305642	-0.01638791555623462	0.1626279332132151	0.01066314168829036	-0.2454056729155108	0.7781545804868537	0.07381573080500897	0.03036674076444172	-0.05011383934577273	-0.0004204650672961925	-0.04408863795056091	-0.04634044784173415	0.001302115636755307	0.003775274695138802
1.9055	-0.02922138182248481	1.04623179126875	0.9106934293491243	-0.05750157809162848	0.4975181459051258	-0.1285741479968976	-0.1795421433907493	-0.3746507584194298	0.1746951219435163	-0.03459585111081261	0.1146073978659276	0.04231056156982199	-0.26514791421325	0.9782306932738597	-0.1650611417853363	-0.8295341143232273	-0.3345984099639512	0.3031006096895052	-0.3227998268034613	5.444672108918827	0.5756706611225686	-0.07567355085514378	1.664686165172339	0.07935315240899622	0.2542478085045579	-0.1395740159444238	-0.1418448849160756	1.255458096369811	-0.008558288185032063	-0.01339759365139593	-0.06179299210902701	0.004405172644139185	-0.08906109893236118	-0.0695444722022746	-0.0003266596394702008	0.003772882389058374
1.916	-0.03180769340471849	1.056718779622883	0.9090091611310206	-0.06673915200295662	0.4934673194158495	-0.1248411400659698	-0.1832960476836599	-0.3213934764160785	0.1792777697440803	-0.0357066440856762	0.1425845665463199	0.04318571749680148	-0.2227060063245059	1.025805930648335	-0.1507262727314497	-0.9649047067158306	-0.460273504030221	0.4192002546570484	-0.348069876137314	4.678444618593252	0.253177065628815	-0.1319111316493952	3.577233835539265	0.06979301348681353	0.3458676837959007	-0.2898111735771379	-0.0382840969166405	1.732761612252768	-0.0909323071750731	-0.05716192806723358	-0.07347214487228131	0.009230810355574564	-0.1340335599141615	-0.09274849656281503	-0.001955434915695708	0.003770490082977945
1.9265	-0.03396731193820872	1.067751514344263	0.9075088653335973	-0.07740092963449889	0.4878654978940565	-0.1197295389655314	-0.1872278814605413	-0.2767870533339035	0.185855423081872	-0.03725173196241142	0.1681461615688361	0.04393974940929147	-0.1933849280676468	1.067416900646362	-0.1411102959609256	-1.018310933622148	-0.5946495522093046	0.5399250441097355	-0.383516995590755	3.812989290900552	1.175851207745616	-0.1673637260823445	1.771401975604185	0.07935402807389667	0.2595032102843182	-0.01489703137657982	-0.08712193313077181	1.235676602496535	0.1989694678398317	0.09045097724322812	-0.02771493927278032	0.01361600028146278	-0.1926570452419819	-0.1052091943071123	-0.003179703040663083	0.003782280493792678
1.937	-0.03596821238241328	1.078961275108123	0.9059184601629945	-0.08712409952994991	0.4812335807255961	-0.1138074872673165	-0.1909858937898295	-0.2414262815364985	0.207669625496434	-0.03932570283883109	0.1898589799779547	0.04496811230916824	-0.1924739893177106	1.059525176834859	-0.1678899628608917	-0.786122280793687	-0.6564821986335333	0.5735717970906827	-0.3149610289767083	2.91736818339893	3.155376889775535	-0.232650750636911	2.844133528225429	0.1220465348938182	0.1731387367727356	0.2600171108239783	-0.1359597693449031	0.7385915927403029	0.4888712428547366	0.2380638825536898	0.01804226632672067	0.018001190207351	-0.2512805305698023	-0.1176698920514096	-0.004403971165630458	0.003794070904607411
1.9475	-0.03806879539288661	1.089944885269852	0.9039129402453809	-0.09404145656211313	0.474458083583257	-0.1078126747605277	-0.1932346129912855	-0.2152316489884869	0.224586407713266	-0.04188107361658481	0.2171770643572791	0.04450229692527391	-0.2090171572218301	1.035428125208817	-0.2146367167380443	-0.5778855428581617	-0.608428115546497	0.5711288706695102	-0.1680112713776447	2.102064384146935	0.255108823695864	-0.2479049893851973	2.277950457328933	-0.1475620703048607	0.05946979299044561	0.03033834095011556	-0.1592105555738189	0.7360443253251929	0.1702298712873698	0.09654741743884568	-0.009005388291179703	0.01833064715458113	-0.09485420835649441	-0.05742234705931404	-0.001996176286821216	0.003744107442016877
1.958	-0.04038655471950879	1.100764844433509	0.9014001085103721	-0.1002344320980075	0.4689954622706952	-0.1017543169874479	-0.1956616719903773	-0.1966533757429954	0.2169799819096193	-0.04440189504536971	0.2359873657612072	0.04319674412471156	-0.2338409066793926	1.028353558154376	-0.2645207852219045	-0.6481448529329598	-0.4064106120092878	0.5856756573365707	-0.3489305142406672	1.46663307815701	-1.515710352220366	-0.226069922261899	1.223603437673765	-0.03790344923342207	-0.05419915079184439	-0.1993404289237471	-0.1824613418027347	0.733497057910083	-0.148411500279997	-0.04496904767599847	-0.03605304290908008	0.01866010410181126	0.06157211385681349	0.002825197932781553	0.0004116185919880252	0.003694143979426343
1.9685	-0.04282551095306989	1.111575637014699	0.8984705115813794	-0.1079175565331387	0.4656244877649633	-0.09574586875978108	-0.2012980649816389	-0.1845154779602757	0.2165105168247757	-0.04653740797457908	0.2500047071694154	0.0421359283742811	-0.2249956847456326	1.030833069042985	-0.2840265817510636	-0.7867078468355493	-0.2708478301117822	0.5451418403908479	-0.683989805652194	0.7923225085460298	0.9081161812736138	-0.2254766327587163	1.451180783234347	-0.1493471986842259	-0.2173496470509505	-0.3872219801831202	-0.1463673427451239	1.438354208101754	-0.03828309387542278	-0.01527712566701356	-0.05908433194627951	0.01715970572404501	-0.1015104207997293	-0.06814993401918158	-0.00194521563857846	0.003550627459874334
1.979	-0.04499120758484817	1.122412087729793	0.8956344433031382	-0.116154705836168	0.4625691285767331	-0.09059296379763168	-0.2091712126617773	-0.1811281268736439	0.2251688044658575	-0.05007733027189813	0.2665632652153658	0.04037145234779411	-0.1817914587207624	1.033240821754922	-0.2467058041263663	-0.7536733991992839	-0.3462934086756355	0.422715035333256	-0.7749790264076993	-0.2001377210978368	0.2229092146225737	-0.4935764685685049	1.707644702005621	-0.1719339780060935	-0.3805001433100567	-0.5751035314424933	-0.1102733436875132	2.143211358293425	0.07184531252915145	0.01441479634197134	-0.08211562098347895	0.01565930734627876	-0.2645929554562721	-0.1391250659711447	-0.004302049869144946	0.003407110940322324
1.9895	-0.04657247764143325	1.133312225101776	0.8933585662490703	-0.1235146411065629	0.4575419058587759	-0.08687312897838571	-0.2182111953136926	-0.1874180936032757	0.2249176593723159	-0.0536173626801487	0.2847573135216646	0.03907855724475356	-0.1243766230403074	1.044982677470369	-0.1881205143180683	-0.6529202917262695	-0.6287860803563288	0.302668222282853	-0.9817068226111388	-0.8196836723348666	-0.137565724459175	-0.1815783221649138	1.84483026598162	-0.008616384521798703	-0.2197537224671922	-0.4052061698951757	0.02400056496117402	2.025126498358262	0.02366667808768687	-0.004513436107404811	-0.07465083806985409	0.01840013480701416	-0.1282923558336363	-0.05634258624071352	0.005430977370019819	0.003593759906671936
2	-0.04770756615933684	1.144398867952471	0.8916560680313972	-0.1299647583902769	0.4489968424914075	-0.0838832219967372	-0.2305175281583458	-0.194597866336236	0.2250767179198125	-0.05390859600976097	0.3071304819035177	0.04157053107191277	-0.09680449897190892	1.068765674843092	-0.1374907876702188	-0.5803747350695813	-1.01635829427775	0.28368116150517	-1.397140967881562	-0.3696245788746944	0.3010432414869813	0.1252424035530692	2.503667573539782	0.5489934372700467	-0.05900730162432764	-0.235308808347858	0.1582744736098612	1.907041638423099	-0.02451195635377771	-0.02344166855678096	-0.06718605515622923	0.02114096226774955	0.008008243788999595	0.02643989348971767	0.01516400460918458	0.003780408873021547
