DataType=double
version=3
OpenSimVersion=4.5-2023-11-26-efcdfd3eb
endheader
time	ground_force_r_vx	ground_force_r_vy	ground_force_r_vz	ground_force_r_px	ground_force_r_py	ground_force_r_pz	ground_force_l_vx	ground_force_l_vy	ground_force_l_vz	ground_force_l_px	ground_force_l_py	ground_force_l_pz	ground_torque_r_x	ground_torque_r_y	ground_torque_r_z	ground_torque_l_x	ground_torque_l_y	ground_torque_l_z
0.95	32.84036970067927	196.7691725203722	0	-0.2178094540145715	0	0.1107599321481796	-1.568640034895126	107.9323131454315	0	0.09883244733983043	0	-0.06459813479964946	-0.09339657196868045	-0.6784468245523338	16.54612381944764	-0.5441909979461959	-0.007759953389131492	0.9594149005895405
0.9604999999999999	-93.02026753229933	116.2759472450479	0	-0.2207680675073306	0	0.1078276098187903	-13.03358842591683	210.3060873658953	0	0.1004455544121392	0	-0.0646586991901604	0.2644519807876921	0.211558618905777	4.356109183151025	-1.047619070867966	-0.06388635932162393	1.465866018009607
0.971	45.92956416305115	241.2035797678361	0	-0.2125284068273892	0	0.1078056995872708	-28.71017514593192	276.5636394646285	0	0.1028852955718876	0	-0.06478176920161771	0.5626294556008082	-1.676991910228005	25.12881360100844	-1.343639058987451	-0.1357073762077814	1.635837270124923
0.9814999999999999	34.89814965725371	269.0332264507855	0	-0.2032986684974518	0	0.1080030068097303	-36.74686423912679	301.7585603984519	0	0.1063070505929693	0	-0.06502353324948766	0.6063192752981821	-0.2890473539168812	22.03563453791507	-1.393102051682755	-0.161315043383063	2.053834083773491
0.992	82.92912195755882	216.5888905915718	0	-0.1956778771296123	0	0.1089807601678411	-43.87202029027694	314.4149130657561	0	0.1106344236389718	0	-0.06546517477036735	0.3009287166047216	0.2145397645242447	17.76712290649102	-1.312760975265597	-0.1707419401328729	2.69068900253929
1.0025	39.13698464118499	238.0917439019241	0	-0.1860054767295709	0	0.1110819424052994	-54.22271620898664	355.398032583357	0	0.1154364610411027	0	-0.0661119583220177	-0.1396879763056451	-0.1540521402203938	13.93573623502687	-1.254417329230491	-0.1744334122366811	3.967058137884875
1.013	72.89105794400906	141.2303534195804	0	-0.1814493795441421	0	0.1139329258012251	-64.11884716254001	407.1374405776836	0	0.1208785285423979	0	-0.06693712060521911	-0.4735543266165005	0.005240400765378017	9.725348218094615	-1.102441252921783	-0.1531851633806565	5.979705630893806
1.0235	54.6695119981102	68.33811570990156	0	-0.1766665847462013	0	0.1171008755834428	-70.50851730912349	444.9627208027589	0	0.1279533925236514	0	-0.06792356190925061	-0.4382170523623706	0.3505686768352408	4.683059682101419	-0.769700427124281	-0.09608786385276989	8.567054337234824
1.034	26.16569659869027	35.37239055589713	0	-0.1643080075165234	0	0.1155337311391746	-80.84056349870509	484.6237259914972	0	0.1359110347024595	0	-0.06882417225174987	-0.1702787159289528	0.1328224935668008	2.60237790798418	-0.408853370413978	-0.03277425837642184	11.35522732934778
1.0445	-14.34188934464743	17.92822477336875	0	-0.1426480611435872	0	0.1159168324018239	-79.35348864761923	536.1961872159212	0	0.1425285630115633	0	-0.06939323175305757	-0.09311568540366499	-0.07448891208075975	0.049360713826496	-0.1559668684624782	-0.01250580540370119	14.8372557849882
1.055	-2.151619858692544	2.689558648158588	0	-0.1314083143593113	0	0.1165970483417852	-76.57272947292725	586.7534685174005	0	0.1485410050764829	0	-0.06979872427229457	-0.01579781992251068	-0.01263809717632072	0.007197886834200936	0.05688053476386845	0.02207919787422957	18.28562797335859
1.0655	-0.05455143013800976	0.0681898697945791	0	-0.1202452642336977	0	0.1168500971147663	-77.87077626622924	624.4185174367506	0	0.1542488591154083	0	-0.07013350701059338	-0.0004177832941523384	-0.000334223780550725	4.998215012807117e-05	0.2582469296546063	0.05330405573442397	21.0392174797129
1.076	-0.001661860156357979	0.002077348530531454	0	-0.1060815302346085	0	0.1176017436532261	-71.1259684977075	645.8266851968776	0	0.1587463330247244	0	-0.07038294138119121	-1.428880736625573e-05	-1.14309168118436e-05	-2.728432633073946e-06	0.4186458084121946	0.0733225947815571	23.32903881046072
1.0865	-5.010279798367237e-05	6.262878362364281e-05	0	-0.0913257913806486	0	0.1180944761058129	-72.78450371311736	652.3179834695126	0	0.1613231971195466	0	-0.07051438200937915	-4.616439684307377e-07	-3.693134850346792e-07	-3.065406045378445e-07	0.5027463975713217	0.04218183417348048	23.99202305400159
1.097	-2.404222732813561e-06	3.005291501234549e-06	0	-0.07464575111935351	0	0.1184994696179812	-65.39595247772215	648.458264653427	0	0.1627024285454817	0	-0.07057844107002681	-2.336946920757468e-08	-1.869549381510037e-08	-2.691667105913018e-08	0.5378173293514413	0.01062534310931916	24.35948034591751
1.1075	-9.25546761011639e-08	1.156935723042432e-07	0	-0.05581763398682575	0	0.118668209888468	-64.94038277838136	640.4644317330433	0	0.1634984298922535	0	-0.07061374333065835	-9.191677753738658e-10	-7.353327759550457e-10	-1.542257079066964e-09	0.5518432460634223	0.02548916350425885	24.10020643301685
1.118	-3.598762714959753e-09	4.498460477414519e-09	0	-0.03424151126895891	0	0.118740035598487	-57.12760282089071	630.0947481543062	0	0.1633309614905592	0	-0.07059737631153329	-3.60626870779527e-11	-2.885010422104564e-11	-7.550528776395792e-11	0.5331002512617135	0.02693638526337334	23.95492347913846
1.1285	-2.526636818729785e-10	3.158299948894271e-10	0	-0.01106198118921504	0	0.1188050317446015	-53.00421788787779	617.9914090100473	0	0.1624624531720665	0	-0.07054318025493783	-2.552433555101186e-12	-2.041944305785274e-12	-6.351751434426409e-12	0.4914794062368368	0.01936639074651856	23.39867827103649
1.139	-2.051357324452462e-11	2.564198874234637e-11	0	0.01435294394665346	0	0.1189434331723385	-45.74443205496873	601.6123005296084	0	0.1613166245757924	0	-0.07047754105247464	-2.107789595505163e-13	-1.686230217394813e-13	-5.721588633838348e-13	0.4416279148620705	0.01162393722391002	22.79271680553052
1.1495	-2.403576512571898e-12	3.004472866090474e-12	0	0.04177709955307452	0	0.1189434331723385	-41.64701899295493	581.6713467102012	0	0.1602353321991586	0	-0.07042232320845868	-2.46969792817388e-14	-1.975756879119527e-14	-7.072919962412705e-14	0.3973514902138673	0.00948818533193488	21.91363690783397
1.16	-8.968116490933368e-13	1.121015236950026e-12	0	0.07084498941931826	0	0.1189434331723385	-36.26443594955146	561.7994169458202	0	0.1591811859858318	0	-0.07036954698075305	-9.214824468524459e-15	-7.371855132145228e-15	-2.682015772574088e-14	0.3565047280224357	0.01027307699398486	21.14294115900217
1.1705	0	0	0	-nan(ind)	0	-nan(ind)	-32.57894680116023	544.9865643855372	0	0.1582208520408013	0	-0.07031823251562877	0	0	0	0.3199102141697861	0.005094366275471784	20.42892990161602
1.181	0	0	0	-nan(ind)	0	-nan(ind)	-28.39755485354117	531.2971593565829	0	0.1574539631817204	0	-0.0702747073501892	0	0	0	0.2903326398629748	0.005547059305636766	19.921577776486
1.1915	0	0	0	-nan(ind)	0	-nan(ind)	-25.44164848871166	519.9207072715063	0	0.1568742186302055	0	-0.07024093020646163	0	0	0	0.2677588705755235	0.005965075193151228	19.48976693773814
1.202	0	0	0	-nan(ind)	0	-nan(ind)	-22.00449767211835	509.8943536880496	0	0.1565370744654964	0	-0.07022381239415591	0	0	0	0.25466600731372	0.009431766211593372	19.20470087660645
1.2125	0	0	0	-nan(ind)	0	-nan(ind)	-19.97306116650345	501.6425604494761	0	0.1565164810007312	0	-0.07022621608691795	0	0	0	0.2519338240254704	0.005690632022875087	18.96785124824145
1.223	-1.177279508930778e-12	1.471599908671407e-12	0	0.2692879789156581	0	0.1189434331723385	-17.45784490463322	496.3576856073449	0	0.1567606565910674	0	-0.07024360614690991	-1.209665524547028e-14	-9.677320760334505e-15	-1.691079958227924e-14	0.2575997702498759	0.006730841252718485	18.9264891805055
1.2335	-3.535772443295011e-12	4.419717047178446e-12	0	0.2953600077196587	0	0.1100841896791233	-14.67474662500123	494.851390329946	0	0.1572944633860518	0	-0.07027731395711224	2.824963028186155e-15	2.259969644014974e-15	-7.950104706650044e-14	0.2726163943853382	0.004381461776686121	19.09659441665665
1.244	-1.941530458177354e-11	2.426913856686381e-11	0	0.3208946906263678	0	0.1166532776876882	-11.74297457331219	495.9359541455732	0	0.1581907258266143	0	-0.07033330691754838	-1.439139332937403e-13	-1.151311094357111e-13	-6.233651892254903e-13	0.2994379437644268	0.006155964116456497	19.4491225674873
1.2545	-1.211954345014325e-10	1.514943403421997e-10	0	0.3501188299361905	0	0.1172334278627825	-8.758921271055161	498.2175321677942	0	0.1594329481042399	0	-0.07040935273184241	-9.877661934124727e-13	-7.902127083546045e-13	-4.474113020257227e-12	0.3364435792094453	0.00185907870732733	19.90340634206563
1.265	-7.629480678225471e-10	9.536853720567045e-10	0	0.3807670691201944	0	0.1185398581605389	-5.480040542298265	500.3549923451203	0	0.1610050304411712	0	-0.07050482625368627	-7.501491054908821e-12	-6.001191032200701e-12	-2.82359902795738e-11	0.3827197651596141	0.001004237664323903	20.42470610747732
1.2755	-4.129485119882748e-09	5.16185791579208e-09	0	0.4114984478287764	0	0.1166557740523166	-1.478105817277344	502.1813780327658	0	0.1631047524016591	0	-0.07063404979642822	-3.145548339351519e-11	-2.516437922249595e-11	-1.099995143731139e-10	0.4450719260831766	0.003008532103481086	21.07446282346211
1.286	-1.838004479983469e-08	2.297506262749081e-08	0	0.4385899840147953	0	0.1085060226857851	1.640264347706846	503.6491061057982	0	0.1658952193005696	0	-0.07080357300902206	4.177089398696861e-11	3.341670650062085e-11	1.510878701701021e-11	0.5264787248520852	0.007432138362155533	21.78605096050225
1.2965	-6.9446324797518e-08	8.680793080517409e-08	0	0.4625214645285438	0	0.1016067449965173	6.585344610452598	507.1736888877777	0	0.1696682122085258	0	-0.07101504505862459	7.326951272179108e-10	5.861559373442486e-10	2.493118381630584e-09	0.629669464102213	-0.01637861547055105	22.75440931253541
1.307	-2.278990567331902e-07	2.848739024770022e-07	0	0.4801380720709691	0	0.1078379997283292	10.3269512098564	513.6927548998783	0	0.1741254260633512	0	-0.07124148009116231	5.83573838558199e-10	4.66858940461586e-10	1.071981750809795e-08	0.7442849148317127	-0.02717533010313769	23.8322052273028
1.3175	-1.269773142342241e-06	1.587216891998103e-06	0	0.4610863074302216	0	0.1112914400370794	17.72704567710273	522.6034891839772	0	0.1793950338301879	0	-0.07150492635351345	-2.305603481554836e-09	-1.844482246121313e-09	-9.667215796255819e-09	0.8832447393198622	-0.001761717420937054	25.43273812901871
1.328	-2.198275842497224e-05	2.747845643075084e-05	0	0.4580567266723001	0	0.1056841455205117	21.02455724168872	531.9940879992465	0	0.1862195070589409	0	-0.07183278494136366	1.140762419189517e-07	9.126096567340797e-08	-1.134485072166453e-06	1.058207556558704	0.02449267553913378	27.1015990321923
1.3385	-0.0002903716529711819	0.0003629646840599059	0	0.4874292271314846	0	0.1048080699216451	25.52134349476622	541.6230735343964	0	0.1945107045802997	0	-0.07218660773711207	1.824814068650643e-06	1.459850781042172e-06	-1.636671479124999e-05	1.248770811860525	-0.01725876770557269	28.80444103531729
1.349	-0.001701656688971726	0.002127071596661133	0	0.5220986505781986	0	0.10471500881992	29.15976372820963	554.0018209301015	0	0.2029172867674341	0	-0.07250739330514665	1.089185315030349e-05	8.713479507637967e-06	-9.346340831791204e-05	1.433040360996855	-0.04177850264542359	30.50335983176414
1.3595	-0.004451620987793002	0.00556452833044469	0	0.5570708278827234	0	0.1047013480539104	34.53953469983597	568.8046827841821	0	0.2110402984806918	0	-0.07278206176264865	2.856966187094034e-05	2.285572088895414e-05	-0.0002369249952196199	1.604204668766072	-0.1384899370027426	32.02059189437369
1.37	-0.006069728112000293	0.007587163395383594	0	0.5909279700349704	0	0.1046988128177509	35.81190732678654	581.9149471139625	0	0.2201809426097396	0	-0.07306157631298718	3.897360476686063e-05	3.117887043577063e-05	-0.0003158504640019243	1.775633394967466	-0.1935891994231546	33.13008703119644
1.3805	-0.0053748409012405	0.006718554548043327	0	0.6227771173648619	0	0.104698261292351	43.82830660796543	597.4056227276545	0	0.2314330807940924	0	-0.07337203806485777	3.451545588176029e-05	2.761235064354073e-05	-0.0002759970193444546	1.971967319705201	-0.1891587093694264	34.93518052158861
1.391	-0.003866764943301712	0.00483345921179627	0	0.6520831545405138	0	0.1046981219108929	46.84949036694052	611.6828831112238	0	0.2442304885207819	0	-0.07365858270584345	2.483176600590358e-05	1.986540034052203e-05	-0.0001971937015567372	2.150052366464924	-0.1521817307785311	36.25119906374913
1.4015	-0.002819397574994149	0.003524249815612755	0	0.6784354877348717	0	0.1046980809388563	52.72474791913432	618.394551885933	0	0.2572168822935033	0	-0.07385075014240709	1.810588252917325e-05	1.448469432267228e-05	-0.0001431932587687701	2.243341601937781	-0.1698180604383341	36.51343045062679
1.412	-0.002534185186382345	0.003167734974243223	0	0.7014957516261409	0	0.1046980672538647	59.37594445234718	631.5273861361044	0	0.2690744863010256	0	-0.07389882891271578	1.627432591493584e-05	1.301944638277196e-05	-0.0001281010280760202	2.271334331210743	-0.124151617675791	36.60407741744207
1.4225	-0.003243684660585275	0.004054612242712973	0	0.7210487144436143	0	0.1046980625080822	60.55994829903046	635.4731510994208	0	0.2785722547027491	0	-0.07386817350045752	2.083070161729523e-05	1.666453491987721e-05	-0.0001626413797421242	2.222871402409027	-0.1034272090816181	35.32825373126938
1.433	-0.006207869370031391	0.007759855173024066	0	0.7372241916036916	0	0.1046980615237407	68.72351289930387	641.528760154702	0	0.2859236914993668	0	-0.07397370233572452	3.986651472375341e-05	3.189313590591786e-05	-0.0003072625576390625	2.277279128175862	-0.09521216362764123	34.61302903681212
1.4435	-0.01735158221304143	0.02168955954514409	0	0.7502637865851703	0	0.1046980632410465	69.41925044417957	649.2459281246391	0	0.2914893178336126	0	-0.07435416907793817	0.0001114307982097579	8.914430245468609e-05	-0.0008434792478323715	2.526692068082263	-0.08871871516662926	34.00894383985757
1.454	-0.06441467622760817	0.0805188669485872	0	0.7604870212852048	0	0.1046980690425271	80.15219629814543	651.4739477513236	0	0.2958871305234386	0	-0.07496012583634401	0.0004136677586530532	0.0003309320628720753	-0.003063342515363779	2.913407663802524	-0.2317372062033275	34.12085627549492
1.4645	-0.2809131721147625	0.3511457874031614	0	0.7682252758285645	0	0.1046980844102107	82.43814306263565	652.2251213387425	0	0.2993109504107836	0	-0.07556487645269799	0.001804015156156243	0.001443194360394746	-0.01304377587035959	3.301307131947868	-0.319634571268016	34.26552053276551
1.475	-1.330040790688421	1.662593812508375	0	0.7737832327527939	0	0.1046981233738099	95.77067644076372	647.2518299260028	0	0.3022471047117686	0	-0.0760391373228035	0.008541528323689016	0.006833046652462898	-0.06019907918329516	3.577868970429013	-0.5011596911414559	35.06383891158839
1.4855	-6.234515609995347	7.794087860884582	0	0.7772104282666639	0	0.1046982393366336	97.74274818617256	633.7529229000919	0	0.3049389156297026	0	-0.07635374643327979	0.04004100040990369	0.03202892324614214	-0.2748937418564155	3.700277952972316	-0.5868612598800955	35.12146473976141
1.496	1.426508368489029	31.79689917408137	0	0.7754962375677895	0	0.1046986778118421	109.1869269467806	614.2921557573568	0	0.3076032009289822	0	-0.07659165321417249	0.1633380338056604	-0.00733105359683528	0.4031181816215455	3.731933682369705	-0.7113568248674181	35.49327535872673
1.5065	-2.406308345468213	96.47397158822956	0	0.7772291789432147	0	0.1047003216817568	110.4384492188099	581.8975497529734	0	0.3103044174143847	0	-0.07689691144429314	0.495420199787284	0.01233041759452888	0.8354570563532471	3.712513842143486	-0.7752924666416768	34.6114624134611
1.517	-29.82383687412041	166.6594228739487	0	0.7790325362999673	0	0.1047063634418291	119.6300244637772	541.8626500602294	0	0.3131474444348024	0	-0.07736290768281376	0.8548347498302366	0.1528051694380126	0.04999802836724816	3.709544749823379	-0.9000314157907282	33.61917430691577
1.5275	-27.36845071017538	183.4904943790387	0	0.7811170372584018	0	0.1047237673312648	110.7242048356019	484.8153818006572	0	0.3158813665637817	0	-0.07788316479638405	0.9379717626564185	0.139324655363506	0.3520313617228539	3.571225449064565	-0.8796063777483484	30.35927354927918
1.538	-37.8284839035191	180.5725907490983	0	0.7835232311973142	0	0.1047597930348971	112.3635669640645	415.2448013648252	0	0.3185763394967964	0	-0.07829045599276259	0.9165506902810022	0.1910429674678614	-0.2106431724977407	3.227882612129517	-0.9108514819952829	26.87464068387194
1.5485	-33.60027521828507	190.8366144373936	0	0.7856935703252929	0	0.1048209478176111	102.1502104384863	356.6884417216958	0	0.3214346728376489	0	-0.07851576584893917	0.9569782900455726	0.1671121935935499	0.2166563036462517	2.853063350963493	-0.834117481217442	22.90042108804977
1.559	-40.59044654436023	207.7738603643922	0	0.7880843114318764	0	0.1049304108406771	87.22899007321186	297.2960078235666	0	0.3247432842803392	0	-0.07860283248485594	1.019169196463915	0.1966008746427562	0.2145804349187352	2.403882402449383	-0.7108614510021001	18.42516983078657
1.5695	-42.47680210062516	226.3861353432092	0	0.7912477294512937	0	0.1051488918527785	41.41196399833181	180.278820306208	0	0.328292712273067	0	-0.0786284753667332	1.061005837677274	0.1941744846498905	0.7085466386801746	1.462325199678861	-0.3368619761389576	9.567329043404703
1.58	-50.89517049487522	250.0406540236365	0	0.7950545075056754	0	0.1055154521979949	-8.348181107775767	53.05442128716271	0	0.3323719751975148	0	-0.078635391404296	1.080218502003351	0.2128464526334024	1.164032539192967	0.4307159661009741	0.06773399159237868	0.8065579302313547
1.5905	-46.63887274471	274.4663020266697	0	0.7989414828233528	0	0.1059994656631559	-3.555601933871258	4.444985804778584	0	0.3402524427460279	0	-0.07863639750171621	1.052918883646109	0.170322125850008	2.529004319026032	0.0360905570702023	0.02886930577777979	-0.223016194780011
1.601	-51.50652982777373	294.8288697565942	0	0.8031464101251525	0	0.1066041014493024	-0.05753584770547235	0.07192029387478729	0	0.3512215878229143	0	-0.07863649642727602	0.9528425263259597	0.1560912116322605	3.562559449989236	0.0005839557671454677	0.0004671614682719378	-0.004138813114414304
1.6115	-47.32036621986317	309.6918408897703	0	0.8080081748402895	0	0.107347336734727	-0.0005728398197979321	0.0007160526911200113	0	0.3667010774283271	0	-0.0786365231730036	0.7708898427601688	0.1057311391228048	5.279486714637478	5.81399843357543e-06	4.651179803236648e-06	-4.541600869419756e-05
1.622	-48.90427971211805	318.1132335107245	0	0.8131341600416131	0	0.1081017942832695	-5.484301744793388e-06	6.85539669621768e-06	0	0.3849061664904797	0	-0.07863653477956148	0.5522342093048949	0.07657778950067695	6.68145733612779	5.566255545464049e-08	4.452991760021991e-08	-4.765317071835908e-07
1.6325	-44.81964739419188	319.2500931693311	0	0.8178024909096604	0	0.1087235529630183	-5.511276583361935e-08	6.889108576949447e-08	0	0.405623983199134	0	-0.07863655668940808	0.3562992852509971	0.04492074875277285	8.082466405449148	5.593643080610046e-10	4.474906119058672e-10	-5.158538621981715e-09
1.643	-44.27794834925125	317.7214954412204	0	0.8219409117244284	0	0.1092140818901698	-7.872771097025991e-10	9.840980160645995e-10	0	0.4283599918050271	0	-0.07863655668940808	0.199470820147939	0.02473419149708126	9.041303404766527	7.990428655196698e-12	6.392332343179056e-12	-7.864100316397417e-11
1.6535	-40.28392981875692	316.4162303912404	0	0.82562855144442	0	0.1096090993756467	-1.600122420460724e-11	2.000154996473889e-11	0	0.4535487566565125	0	-0.07863655668940808	0.07457429075033613	0.01464843283891159	10.04577231862724	1.624034957673433e-13	1.299226685915072e-13	-1.678538937537761e-12
1.664	-37.77916097558883	312.5726846014291	0	0.8288148570866343	0	0.1099171522502239	-7.221043972213182e-13	9.026312708948191e-13	0	0.4810753724893792	0	-0.07863655668940808	-0.02160905765502512	0.00361640679407488	10.70649161099577	7.32895570796591e-15	5.863159536358624e-15	-7.818731849560662e-14
1.6745	-34.37978509374866	304.9686976706284	0	0.8314315753299345	0	0.1101482835511488	0	0	0	-nan(ind)	0	-nan(ind)	-0.09065138426563643	-0.004789137811838833	11.09618414517194	0	0	0
1.685	-31.83235167127256	296.4250871230792	0	0.8335787463175794	0	0.1103250555405615	0	0	0	-nan(ind)	0	-nan(ind)	-0.1396737401196708	-0.006424545053911188	11.25650030764158	0	0	0
1.6955	-28.12400254713531	288.788526684009	0	0.8354721804521321	0	0.1104756901770106	0	0	0	-nan(ind)	0	-nan(ind)	-0.1788108200112095	-0.01272661486201188	11.4530336789161	0	0	0
1.706	-25.65368242087767	280.710126987989	0	0.8371112165187659	0	0.1106011028283485	0	0	0	-nan(ind)	0	-nan(ind)	-0.2083454720958133	-0.01404847092578337	11.49257841885504	0	0	0
1.7165	-22.37419867832458	271.8102467502977	0	0.8386053248183649	0	0.1107142981144535	0	0	0	-nan(ind)	0	-nan(ind)	-0.2318370949173398	-0.01027786311653932	11.4881545673371	0	0	0
1.727	-20.64252667680123	263.4400540318082	0	0.840142817960423	0	0.1108297251433995	0	0	0	-nan(ind)	0	-nan(ind)	-0.2543793943434872	-0.01068218875607698	11.41017570883016	0	0	0
1.7375	-18.00106655042929	256.3848789924721	0	0.8418260823985241	0	0.1109568701842649	0	0	0	-nan(ind)	0	-nan(ind)	-0.2792934596837956	-0.005597395484316048	11.44558426415783	0	0	0
1.748	-16.41685089006141	249.8341183014538	0	0.8436056120048968	0	0.1110886124416289	-2.594238754222991e-12	3.242799386570717e-12	0	0.7488618177720584	0	-0.07863655668940808	-0.3040725795344569	-0.003732154944748182	11.43600174683205	2.633005728954545e-14	2.106403970110681e-14	-2.227185414638595e-13
1.7585	-14.06807687540939	243.7656278037996	0	0.8455933298549461	0	0.1112351280517442	-6.863612874840916e-11	8.579518439199973e-11	0	0.7868151756985994	0	-0.07863655668940807	-0.3312250079136825	-0.0001079177805561032	11.50220192005184	6.966179066036422e-13	5.572941729180939e-13	-5.317501887633775e-12
1.769	-13.2594378512538	239.3129919849191	0	0.8480852820077438	0	0.1114137647000174	-1.882219753228699e-09	2.352775306506938e-09	0	0.8256653239769647	0	-0.07863655668940808	-0.3663797306757561	0.001959411906171511	11.60377440981145	1.910346624163721e-11	1.528276899868132e-11	-1.287127343579225e-10
1.7795	-11.76648745929344	236.4952498446286	0	0.8509873335866721	0	0.1116128145915993	-5.456187055918063e-08	6.820235529182988e-08	0	0.8654088329986566	0	-0.07863588729729185	-0.4072881668625313	-0.001936770337702816	11.86614201619627	5.537264754653238e-10	4.429810693527213e-10	-3.21038597596983e-09
1.79	-10.40934496404825	233.3093339996239	0	0.8537729110712201	0	0.1117945014250776	-1.38240619646479e-06	1.728008164036384e-06	0	0.9061188435380174	0	-0.07863494075462951	-0.4423126844903541	-0.0005000809718418032	12.05851346415813	1.4027848629272e-08	1.122227618583957e-08	-6.780400217333667e-08
1.8005	-7.915397626917361	229.7872395975595	0	0.8566745961619349	0	0.1119783428830869	-2.525203765979385e-05	3.156505453425325e-05	0	0.9477945005649733	0	-0.0786318364490218	-0.4757725483526121	0.007444171753331248	12.27692694243217	2.561449030520592e-07	2.049158740162625e-07	-9.922817547571859e-07
1.811	-7.669515898628372	228.5720774170661	0	0.8606119799569856	0	0.1122119429005039	-0.0002685493421350258	0.0003356867560627045	0	0.9903370210844031	0	-0.0786217852004026	-0.5236598015611977	0.009012760337249862	12.56915105528083	2.720665309095665e-06	2.176531739005384e-06	-8.026255109465583e-06
1.8215	-6.38751585635015	229.6786984735534	0	0.8653921621385922	0	0.1124694624171384	-0.001403834335410841	0.001754793330367126	0	1.033540904995791	0	-0.0785884743427426	-0.5813724930526013	0.01427228021138486	13.07855367742867	1.416374986332577e-05	1.133099723639565e-05	-2.970544505662348e-05
1.832	-3.797810460241784	228.7465537012115	0	0.8696994798068101	0	0.1126807865280116	-0.003127646608021513	0.003909559189687858	0	1.07711981655105	0	-0.07847979222781665	-0.6234140159086208	0.02238322687053792	13.44783548312741	3.113096854128207e-05	2.490476891265688e-05	-4.215396899461071e-05
1.8425	-1.991114186706957	225.4497422182822	0	0.8737190809873175	0	0.112866901496997	-0.002736707589935494	0.003420885330136134	0	1.120479918086415	0	-0.07814830537746427	-0.6526464226022262	0.01921022126664101	13.60459481719751	2.610587561631409e-05	2.088469535187003e-05	-2.033478023818355e-05
1.853	-3.345327867956298	225.4746384735011	0	0.879230650106075	0	0.1130948926115209	-0.0009293161178336509	0.001161645450287453	0	1.162086296756462	0	-0.07726614015714608	-0.6989163085686645	0.01089802304983248	13.85449641926391	7.840775840972844e-06	6.272619038929213e-06	-4.121477375722309e-06
1.8635	-0.09959876288136282	229.3456457495814	0	0.8864651472663617	0	0.1133414945301419	-0.0001416969756018356	0.0001771212700597621	0	1.198050203976596	0	-0.07549844326487007	-0.7595995220657538	0.04820628419101552	14.52567563313769	8.842124116834416e-07	7.073697277995207e-07	-1.006332069608295e-06
1.874	4.8799179683317	228.0403014630173	0	0.8939329957570876	0	0.1135439191860303	-1.592375298871616e-05	1.990469773373079e-05	0	1.217515876820825	0	-0.07381396555507279	-0.7924942258610441	0.07452356806093535	14.85857457562481	6.837845098148831e-08	5.470274292504817e-08	-1.222556145126278e-07
1.8845	4.098213762591688	224.8680701485273	0	0.9020753511055017	0	0.113706114959819	-6.46539455716737e-06	8.081746265368116e-06	0	1.160308749967656	0	-0.07236977505883266	-0.8076393314972686	0.08461059931152955	14.62373787951589	2.088232503007155e-08	1.670585368693273e-08	-5.183304121473203e-08
1.895	-3.787678631813046	234.6585319493506	0	0.9113170979063807	0	0.1138076964127743	-3.659389363238821e-05	4.574238699793232e-05	0	1.132737965304876	0	-0.06581881579735341	-0.8535910729941902	0.06020060513251363	14.68186129138891	-1.748748396441654e-07	-1.398998107844621e-07	-1.804078472622457e-06
1.9055	11.65813389185331	241.3312755036398	0	0.9175382756236083	0	0.1138155645218927	-0.0002250397805455425	0.0002812998724943285	0	1.154127064506207	0	-0.06474139342491897	-0.8720330587279311	-0.1322111696593432	16.73369468784018	-1.378010553679093e-06	-1.102407867786887e-06	-1.260954256668324e-05
1.916	50.05320113657128	226.5231435487362	0	0.920979107986595	0	0.1136696666391675	-0.0008412342707841956	0.001051543561880087	0	1.179443242475617	0	-0.06460496424462014	-0.7837261191465545	-0.2645185762576792	19.0272489554311	-5.294665212892347e-06	-4.235729256646798e-06	-4.684685411162873e-05
1.9265	-31.74747341127548	174.8160588364231	0	0.9243338017142706	0	0.1134136216669791	-0.002307771840809633	0.002884717708640809	0	1.20212436245946	0	-0.06457918695776255	-0.5593241870378667	-0.3067635325229529	10.77244451777465	-1.459930620226287e-05	-1.167943318999957e-05	-0.000125809537908849
1.937	-69.77209966073879	87.21738762489487	0	0.9168680019782267	0	0.1133254781994651	-0.006663553110692057	0.008329455350068769	0	1.220594126456741	0	-0.06457237278260766	-0.2807634296163568	-0.224607017158568	2.560306839821952	-4.221140954911915e-05	-3.376907103689382e-05	-0.0003547021137469721
1.9475	-66.64976052821424	83.31575805554104	0	0.9160376898190075	0	0.1130226478639437	-0.02588239434267984	0.03235308418000869	0	1.234576311377952	0	-0.06457025144010879	-0.2473326544024758	-0.1978610337487679	2.720093918457717	-0.000164025244816634	-0.0001312198257507547	-0.001339857311321897
1.958	0.5025437476193773	172.159523542847	0	0.9280006776260813	0	0.1127255473252645	-0.1269085235801025	0.158636240995184	0	1.245801464926724	0	-0.06456956978971215	-0.445054106696207	-0.1927896550486808	13.67322258933711	-0.0008043698895175889	-0.0006434935324517056	-0.006363202609015468
1.9685	7.920629559614355	226.6075675830555	0	0.9334495347589831	0	0.1127244631218692	-0.6889198541366466	0.8611544695743639	0	1.255694060104591	0	-0.06456960331142733	-0.5752370439182057	-0.2750358811015009	17.93393901827585	-0.004366481087709663	-0.003493166000211364	-0.03336212932118582
1.979	52.57674704359385	233.9575966349226	0	0.9358351094053871	0	0.1123450057808169	-3.834282076585005	4.792973235145617	0	1.262280126150587	0	-0.06457141867082943	-0.5006012242271829	-0.2902753341951762	21.0927311102746	-0.02429405507192005	-0.01943475485316473	-0.1792550378893953
1.9895	19.44210182230269	248.0047321118723	0	0.9413586557119575	0	0.1117296066013785	-3.660281629791283	25.83408922858084	0	1.261278605660668	0	-0.06457813039467246	-0.3664458772480741	-0.4989663311083067	19.69089497678288	-0.1307713806622075	-0.01850915185274912	0.03797313494541446
2	32.84036970067986	196.7691725203765	0	0.9450048285688827	0	0.1107599321481797	-1.568640034895205	107.932313145434	0	1.261646729923285	0	-0.06459813479964949	-0.09339657196869089	-0.6784468245523411	16.54612381944797	-0.5441909979462082	-0.007759953389131858	0.959414900589576
