inDegrees=yes
DataType=double
version=3
OpenSimVersion=4.5-2023-11-26-efcdfd3eb
endheader
time	pelvis_tilt	pelvis_tx	pelvis_ty	hip_flexion_r	hip_flexion_l	lumbar_ext	knee_angle_r	knee_angle_l	ankle_angle_r	ankle_angle_l
0.95	-2.730984023605953	-0.009203468435611388	0.8217034863412906	-9.07943538454219	29.50810225714488	-5.815514228607891	-19.85254399080106	-9.908184574755357	12.24724940032306	-6.57539655997266
0.9604999999999999	-2.892835873166788	0.002792912131122793	0.8203348785723261	-9.11974783975365	29.4238882960744	-5.846603226399246	-20.28780818740232	-10.17861914767557	12.07187268825103	-6.506928234506803
0.971	-2.993060595638869	0.01534737797165788	0.8194935946475911	-9.086286927796586	29.26368228857401	-5.826004518232813	-21.37630480369328	-10.75718147863808	11.59974015104766	-6.503604636764845
0.9814999999999999	-3.044271690605441	0.02839621995645774	0.8192164545256502	-8.921068682824842	28.97526074982722	-5.751052912231968	-23.06427076587191	-11.54432083886535	10.88645417754225	-6.46115469925522
0.992	-3.052868494620391	0.04166557784055139	0.819434991285261	-8.580318851147597	28.57457256780813	-5.67774781684962	-25.24254070891675	-12.44437678485654	9.937194682248458	-6.254355380098044
1.0025	-3.030924360425225	0.05485137347884874	0.8200730412750601	-8.012127423502967	28.10634892118035	-5.658396020963126	-27.81521525438494	-13.3448746705339	8.81030660913869	-6.084309581091998
1.013	-2.979189939449613	0.0678669763163207	0.8210757817143575	-7.206404983881542	27.56588007512813	-5.704655212466077	-30.73284181174032	-14.18975278817788	7.600906278220489	-5.860897387220692
1.0235	-2.898149608319935	0.08067194894064704	0.8223818522672078	-6.16370941401938	26.94117022487395	-5.816619342677242	-33.94451439467353	-14.95749107836498	6.237881896658174	-5.496201660245327
1.034	-2.798877099501714	0.09319142887337517	0.8238855979248867	-4.884036083153089	26.23736699596829	-5.988432410285436	-37.39253935846737	-15.62539036848022	4.973428617226467	-5.033130447888336
1.0445	-2.690963930077011	0.1053531760530002	0.8254878940861277	-3.379967587881069	25.46060599506276	-6.21603097533001	-40.98886489839658	-16.1602803334483	3.66657274558218	-4.546869355766423
1.055	-2.579688597697409	0.1171124099649751	0.8271318978066442	-1.671808067789188	24.6250312759847	-6.495896794768822	-44.68429419809383	-16.55426194755351	2.462447089951453	-4.000662185386841
1.0655	-2.467875636296579	0.1284480165654548	0.8287896622052531	0.2145938237640815	23.74459049282808	-6.823416140081133	-48.41849493935452	-16.810535630081	1.671049422821134	-3.389141149560134
1.076	-2.358435916879299	0.1394109416757223	0.8304675041145314	2.245430481998051	22.82050384891626	-7.181698889698425	-52.07296116576134	-16.92836150450625	0.7615754694038694	-2.762785549237349
1.0865	-2.254607638949796	0.1500679214307507	0.8321698162515188	4.390145853792592	21.8483976162117	-7.552599104969409	-55.61185422318641	-16.90434700434189	0.1351893103440251	-2.114222963545828
1.097	-2.159324138426138	0.1604548775079205	0.8339130121780612	6.623392740142608	20.83359578366782	-7.929784377148504	-58.96848026626937	-16.74858189481966	-0.09454508412919375	-1.454882317869938
1.1075	-2.076531921482907	0.1706056941652599	0.8357071769657076	8.919778406510087	19.78407207582845	-8.306855878257128	-62.02977161864037	-16.4723157459886	-0.4334028993751199	-0.8101215389519614
1.118	-2.007553609795737	0.1805881499100199	0.8375363935662875	11.2434152282821	18.70037604138112	-8.672339706862632	-64.75526814566052	-16.08286378759009	-0.6846313708904738	-0.1835382788121704
1.1285	-1.952342280037437	0.1904741213407492	0.8393851603908941	13.5580996145513	17.58215469802735	-9.015109186341403	-67.11496913626242	-15.58816425544495	-0.700829776531752	0.4242622718177171
1.139	-1.911589916077353	0.2003229271655276	0.8412385893112148	15.83617238067221	16.43122658468898	-9.325562203338119	-69.0663468986543	-15.00238870545154	-0.5904150473291947	1.00887303139236
1.1495	-1.886321923777013	0.2101887511037264	0.8430763952049894	18.05180584272527	15.24955924441796	-9.594664860630994	-70.57152326046196	-14.33930922882966	-0.440218985072574	1.558366549660395
1.16	-1.876374966806428	0.2201155949536898	0.844868803790665	20.17915939030421	14.03902305506993	-9.816580626737037	-71.61665372093287	-13.61122494786229	-0.2354132271753635	2.087063866166327
1.1705	-1.881800460531714	0.2301402536664924	0.8465847658747961	22.19449151281502	12.80313495282888	-9.986413685504267	-72.19490371413907	-12.83137522194318	0.02958318495831147	2.591749879205262
1.181	-1.903383131924398	0.2402842674984165	0.8481969044068053	24.07937801242694	11.54771424363744	-10.10101424924521	-72.30593238749603	-12.01050034647116	0.3204726917064107	3.070656335566038
1.1915	-1.941858684231791	0.2505617946324082	0.8496811650432675	25.81777606562921	10.27977980481467	-10.15852660842047	-71.95278760442939	-11.1605572644847	0.6075947664976507	3.54212380808258
1.202	-1.997125373547462	0.2609749606787365	0.8510184522568599	27.39900155941519	9.005829331938944	-10.16012010795508	-71.146293224312	-10.29485975554594	0.8804661539487626	4.003443019871755
1.2125	-2.069176447278026	0.2715185756305664	0.8521900896673782	28.81537052019272	7.733109103205233	-10.10829807195235	-69.90001122807749	-9.426490011436989	1.129028699988174	4.453933253691394
1.223	-2.158227985913086	0.2821691964003853	0.8531800949669608	30.064022405637	6.472213857883596	-10.00922660718256	-68.23050727892533	-8.564023672559998	1.340030507769878	4.908682453637686
1.2335	-2.264112760013513	0.2928997957993256	0.853975633086196	31.14398489482575	5.233824978459766	-9.870251094504498	-66.15531932749589	-7.716322839862266	1.502387919509218	5.37120853422859
1.244	-2.385669989385318	0.3036876829939576	0.854569503522188	32.05845259840501	4.025701185025823	-9.698791352191584	-63.69487092132745	-6.897965316662901	1.61161163532496	5.830620720785388
1.2545	-2.5213346704783	0.314510663728429	0.8549565974865848	32.81209914423913	2.854533350042751	-9.502725624104457	-60.87106840579933	-6.1227071360886	1.664324182575559	6.299988332729379
1.265	-2.669841106172505	0.3253429637525281	0.8551323716777988	33.41307768536666	1.726729051586297	-9.290727142141586	-57.71039366620273	-5.39437036201914	1.658993614842634	6.794449982618384
1.2755	-2.829226083035006	0.3361626274247591	0.8550926924684646	33.87001655880264	0.6477945949214442	-9.07155504676965	-54.24203024144177	-4.718622872754048	1.594666465251632	7.294665593858862
1.286	-2.995095006919132	0.3469649909035198	0.8548344017098731	34.19140797332492	-0.3779610983793712	-8.852925491238699	-50.50272555979895	-4.122727501911046	1.473221674982718	7.794621199721569
1.2965	-3.163521571350136	0.3577536294860416	0.8543526901183701	34.38818479177	-1.349628901162804	-8.640290152863074	-46.53402609370049	-3.628157701949801	1.297606976879455	8.306400159938642
1.307	-3.333873226994221	0.3685483415321078	0.8536393947770724	34.4792164385462	-2.279817198490077	-8.432218000694631	-42.38800133902931	-3.212618341616067	1.074109730099206	8.844209180752831
1.3175	-3.503034508964773	0.3793760025542111	0.8526936240908612	34.48154194158334	-3.178612315452213	-8.228394330022493	-38.12310408574594	-2.872430866486008	0.8089071669474316	9.381956658664505
1.328	-3.657360540066757	0.3902723411317476	0.8515396267735538	34.40095796399272	-4.025937251131555	-8.037004266289014	-33.813731376229	-2.737800360872347	0.50946309792488	9.893152924214732
1.3385	-3.788940295402797	0.401266117542922	0.8501975793935533	34.250259256812	-4.810342328562866	-7.861752760049277	-29.54111393049135	-2.874639073227067	0.1881462443365517	10.43036491633433
1.349	-3.917825342279805	0.412356202653516	0.8486616175921904	34.06925474295725	-5.600707055205722	-7.685679985887666	-25.38632374208079	-2.920993574873996	-0.1401843416644898	10.94669579620213
1.3595	-4.062766762114199	0.4235467500955524	0.8469320074530375	33.89719105010084	-6.458986414623105	-7.491348397953488	-21.43465087719803	-2.552905964305022	-0.4636794257415872	11.40347150752455
1.37	-4.206589194128484	0.4348975832713431	0.8450643222215485	33.73956671634618	-7.346138530373056	-7.282976444967444	-17.7861751416528	-2.01339742368482	-0.7734987793286279	11.8540627635575
1.3805	-4.324876748038899	0.4464767112148675	0.8431311335501326	33.59263943871933	-8.216865613948423	-7.070770077060632	-14.53761064481969	-1.607129247628886	-1.053761081911064	12.23644788009478
1.391	-4.412692968199019	0.4583147817479805	0.8411806916713649	33.46928949322609	-9.065907784000647	-6.853631519827918	-11.76476145779843	-1.388383302572912	-1.287814569419257	12.53154842737229
1.4015	-4.471204599231035	0.470430144630338	0.8392512234552999	33.3852105921882	-9.892370509047348	-6.626608367376584	-9.532678801904316	-1.356810992997663	-1.470123458141301	12.78270843410886
1.412	-4.499338264375058	0.4828379471121802	0.8373857782249446	33.34258904025483	-10.69197176325702	-6.38836641905122	-7.887148539342406	-1.514262435330254	-1.617079266307551	12.9386235260443
1.4225	-4.496633858836898	0.4955402889001399	0.8356234766432545	33.33902108758966	-11.45566435187926	-6.140246040612312	-6.852659230944126	-1.865965424432433	-1.729110407498151	12.97276629194753
1.433	-4.465794823139463	0.5084902741208104	0.8339888050198772	33.36574706646601	-12.16278571509684	-5.892575183589969	-6.387161620492205	-2.413437318299642	-1.759626419367413	12.87985845535282
1.4435	-4.409374377337892	0.5216434427444522	0.8325004426723118	33.41428999275528	-12.79520082020768	-5.655567253337858	-6.441857667170084	-3.159492127409605	-1.716661112282181	12.64005542658668
1.454	-4.326714547657362	0.535014075716601	0.8311684505227402	33.48472334946214	-13.35482713444205	-5.429334671199348	-7.014059613577056	-4.117167706020751	-1.738662559342372	12.22073662326044
1.4645	-4.217014329203941	0.5485986589160082	0.8299942160827888	33.57659305059704	-13.842935484145	-5.219323646696153	-8.074041482601189	-5.300965810918065	-1.835872097794814	11.61476906954754
1.475	-4.087471452632152	0.5622507263302101	0.8289471739522482	33.68454730123629	-14.23110366909633	-5.057601767586207	-9.423483989057406	-6.716018579726178	-1.673267236033606	10.81117488803168
1.4855	-3.944778185209098	0.5758761897640978	0.8280047269776905	33.78885319797902	-14.48930280161516	-4.962985454194926	-10.89051762085931	-8.369140345381581	-1.336908433710466	9.79651151134845
1.496	-3.784021617272277	0.5897439447829527	0.8272085047599581	33.82504702802843	-14.61769325173954	-4.875062673765016	-12.60245840085339	-10.27551064187226	-1.548954138930731	8.547369111494337
1.5065	-3.600530853102036	0.6040695822590355	0.8266349588200351	33.74026075296034	-14.61362501570782	-4.741111749234957	-14.63435068410361	-12.4506235126155	-1.694619496261225	7.074014024315376
1.517	-3.388492011170687	0.618515976993113	0.8264320458688781	33.57081934452363	-14.4561042343302	-4.632095598525757	-16.69391693114101	-14.88056351386647	-0.9637510519744134	5.432562360527173
1.5275	-3.148787017766901	0.6327071399707075	0.8267213174405295	33.39014598867244	-14.1131810941607	-4.619088522404436	-18.58566229415856	-17.55249870664199	-0.6837536116107622	3.596964436596817
1.538	-2.893718655191452	0.6467092671415225	0.8274639105070607	33.18051347161501	-13.56474978477608	-4.66481129707035	-20.3923025041977	-20.4726349228052	-1.094419197779729	1.599676971051603
1.5485	-2.623726216551849	0.6606903576937192	0.8285763149251436	32.84638881996062	-12.82142059520288	-4.727984900070589	-22.10551142283327	-23.62080947114582	-0.7573026759915448	-0.5119189310458228
1.559	-2.343376222574676	0.6746231981177767	0.8299580873096336	32.36364360334161	-11.88159255591804	-4.802750494986903	-23.65189673760108	-26.96439828796041	0.0889240593563449	-2.601669837415542
1.5695	-2.066904462336155	0.6883934406040534	0.8315096818804179	31.7731966815277	-10.72681814159777	-4.887924242783404	-25.02979497078148	-30.48438185138869	0.4604745353016213	-4.687374897855639
1.58	-1.793721287036101	0.7018539518389429	0.8331525074994858	31.09494212319906	-9.37221379952088	-5.010539964115519	-26.20698182750083	-34.14617658936087	0.626079206943048	-6.719729646731885
1.5905	-1.519810931055096	0.7149020871561594	0.8348302260062064	30.3275330779991	-7.844462762783914	-5.192291585235854	-27.13092225864723	-37.87585283436113	1.164185247811122	-8.651998022060793
1.601	-1.254021166376561	0.7276310166626003	0.8365272011418846	29.45064033153536	-6.149230214177961	-5.393022048992344	-27.81306803374851	-41.64285111876535	1.870222618551848	-10.28948592402547
1.6115	-1.003254996988117	0.7401358133468885	0.8382389404100491	28.44783161928481	-4.29879656084986	-5.576964893112909	-28.27703583306542	-45.41755735272821	2.372571544255965	-11.55991944894356
1.622	-0.7651007331241753	0.7522962291262834	0.8399616836628941	27.34848918926608	-2.319814584706815	-5.777432798922419	-28.51136526824047	-49.08788927456149	2.83249007184631	-12.83453056219427
1.6325	-0.5387866651391289	0.7639955310022944	0.8416919285663077	26.18258920454804	-0.2297065231166254	-6.026883951514854	-28.49888717546882	-52.60104283362048	3.389355902123696	-13.67447951080148
1.643	-0.330176132505234	0.7753633443098488	0.8434400361538753	24.93787356065887	1.945880725444584	-6.294360124573528	-28.2688234113005	-55.91688003998771	3.936510426715727	-14.03193642505014
1.6535	-0.1445960346029503	0.7865521178050645	0.8452129765644634	23.59944049250952	4.174396598371234	-6.544655530210703	-27.85508252130891	-58.9614416462732	4.44476443856644	-14.35461523046173
1.664	0.01946672178125252	0.7975505250768645	0.8469985351197582	22.19034322990456	6.430862001267085	-6.787590741819726	-27.27429673940912	-61.68497963337858	4.900749661492585	-14.46820287747567
1.6745	0.1646853795947276	0.8083323247268437	0.8487801389941273	20.73589291992985	8.691704891662662	-7.037475402910704	-26.5414353888391	-64.04031986861693	5.343726591948673	-14.25453657972219
1.685	0.2896170155236962	0.8189738023999413	0.8505346241862635	19.24292818831254	10.92637598642694	-7.279549076021427	-25.68570503037425	-65.99111717181097	5.773294377026237	-13.81791601683709
1.6955	0.3919786723341522	0.8295605660616224	0.8522367297733185	17.7181212658847	13.10377763925848	-7.49543125049339	-24.73841130011178	-67.50803445545574	6.151041412171105	-13.2393895450794
1.706	0.4716435654673773	0.8401160197859785	0.8538615944374891	16.17764267004405	15.19904919097392	-7.682604359606548	-23.72022692566886	-68.56649116923161	6.493599417369813	-12.51702580861038
1.7165	0.5285457808901038	0.8506516204271012	0.8553842833582417	14.63880220272792	17.19019703715227	-7.840828695213881	-22.6508423534614	-69.14463216675171	6.826005849320788	-11.6586847609133
1.727	0.5621963827863488	0.8611962288070982	0.8567797884864025	13.1110090665874	19.05751081967883	-7.964558994969983	-21.55210354111588	-69.23180237137697	7.138249416893694	-10.70419289403969
1.7375	0.5717518964697899	0.871775884981267	0.858021996332807	11.60277342290853	20.78364615569782	-8.048140805918193	-20.44494692930884	-68.82225518716692	7.423400856521114	-9.689203275491652
1.748	0.5568833789776357	0.8823885247331918	0.8590863098383565	10.12467970379419	22.35661994686411	-8.092508001804967	-19.3418637323799	-67.91541859733846	7.702485195202159	-8.636463577844964
1.7585	0.5174246645038615	0.8930234443477398	0.8599502630042698	8.688631136731757	23.76691248442978	-8.100532093099803	-18.25540094044343	-66.51313567236777	7.965267224027829	-7.570028381007223
1.769	0.4535444386616693	0.9036671295581189	0.8605927573018715	7.303053787718382	25.00955982869266	-8.076067634727831	-17.19670473508026	-64.62534716350177	8.220667136572873	-6.516733302642339
1.7795	0.3656864197294902	0.9143044042585164	0.8609925569229953	5.974854135227358	26.081962351368	-8.023699646600615	-16.17675526159918	-62.26586240838733	8.480983264169597	-5.501394914987014
1.79	0.2549934945096287	0.9249150353307032	0.8611281898148994	4.709916325446494	26.98698539036213	-7.950019486777015	-15.20596592551176	-59.45681530292288	8.740471693872843	-4.543351860690608
1.8005	0.1230454415220624	0.935480307057282	0.8609783635285173	3.5128987033263	27.729285600146	-7.861923599957913	-14.29296298697748	-56.22503789446225	9.005646772413883	-3.660107260943195
1.811	-0.02795453136730237	0.9459913673585171	0.860523068418941	2.385999260291788	28.31689630155577	-7.76516709872383	-13.44628953992632	-52.61066878975527	9.291561072579725	-2.863464384668291
1.8215	-0.1950783979975814	0.956445039817808	0.8597446517565114	1.330141470528405	28.75877077852328	-7.66528816064852	-12.67570802505064	-48.66041661259489	9.590948805747843	-2.163228588258779
1.832	-0.3750429984848139	0.9668494938284082	0.8586275838492554	0.3442254580333504	29.06731999711999	-7.565988523303272	-11.99016843138686	-44.43641039679125	9.910401105186802	-1.562152533659083
1.8425	-0.5643617105215526	0.9772212827652993	0.8571576681650601	-0.5745169609794891	29.25643940456586	-7.469382872080434	-11.39759281801955	-40.00908806181628	10.26539525590377	-1.060940748423589
1.853	-0.7588482807586073	0.9875978518807138	0.8553274532694456	-1.431529192911255	29.34062980072289	-7.373502162351727	-10.90700403353851	-35.46344282980216	10.65211081962324	-0.6551340401255092
1.8635	-0.9542660180134603	0.9980250185574107	0.8531334020886515	-2.233017683776293	29.33520830477826	-7.274333121881435	-10.52701092316995	-30.89167975957783	11.06967629514656	-0.3375181036030112
1.874	-1.146336907966785	1.008562265270663	0.8505819105057321	-2.986326191877472	29.25390652856874	-7.164269883855643	-10.2656422576612	-26.39232948255747	11.51995803296438	-0.09938772681598158
1.8845	-1.331158388141681	1.019271451232878	0.8476839199789648	-3.698565545031862	29.11034127360769	-7.034348686855314	-10.13044639992743	-22.06562768860602	11.99779211828945	0.07132185785879021
1.895	-1.505333841816626	1.030213121561237	0.8444589049791419	-4.376827559414952	28.91540510963957	-6.87465024997405	-10.12545828727235	-18.00590038538771	12.49507173934599	0.185109109891829
1.9055	-1.666218038123723	1.04144592099876	0.8409286570402393	-5.028627144818117	28.6789452431308	-6.674509085298467	-10.25332031407578	-14.30045557574339	13.00934018968248	0.2540973898725863
1.916	-1.812241023022427	1.053025076075502	0.8371175660156657	-5.664720396858167	28.40868487260697	-6.422577890656169	-10.51474114236187	-11.01613812365854	13.51632473632822	0.2876467599567774
1.9265	-1.942549949740536	1.064992933659046	0.8330494729456788	-6.295230576624494	28.11208545277079	-6.109747905359117	-10.90765231920783	-8.204732861708994	14.00344588174349	0.293685676200208
1.937	-2.057846045470364	1.077343464076537	0.8287433781238642	-6.925534321652703	27.80129783026725	-5.736885146001765	-11.4171472750311	-5.88692216502175	14.46964424016256	0.2798092092902603
1.9475	-2.158814384899182	1.090049001124788	0.8242160011872184	-7.55946441230056	27.48955556730007	-5.310391365026691	-12.02379489635794	-4.065919966979759	14.89221683131048	0.2497458331203114
1.958	-2.246411063653586	1.103039879795863	0.8194754082119953	-8.19826497070885	27.19427758900765	-4.847092791283585	-12.69738051427084	-2.711278082993245	15.23256284307414	0.2080258898913194
1.9685	-2.322558656481427	1.116186277575125	0.8145251318354287	-8.827509931212775	26.93823579567697	-4.376794084751	-13.39428738116717	-1.779944040401947	15.53100179724772	0.1589995983672757
1.979	-2.38591158719982	1.129163435951345	0.8093821583746736	-9.377498045459651	26.7501956699209	-3.978622299160124	-14.02705631268883	-1.206627121049361	15.74389385784076	0.1103133121415359
1.9895	-2.435571806778099	1.141662857828775	0.8040641424143169	-9.779090832002931	26.65240127220559	-3.727959556715099	-14.50275332118126	-0.9184345629891717	15.85653681882644	0.07126090271029205
2	-2.483533752866987	1.153630915128728	0.7985647485891836	-10.01412753601469	26.64447433782255	-3.627122731276494	-14.74285413884238	-0.8343824243161715	15.91139937487539	0.05207743092785456
