DataType=double
version=3
OpenSimVersion=4.5-2023-11-26-efcdfd3eb
endheader
time	pelvis_tx_force	pelvis_ty_force	pelvis_tilt_moment	hip_flexion_r_moment	knee_angle_r_moment	ankle_angle_r_moment	hip_flexion_l_moment	knee_angle_l_moment	ankle_angle_l_moment	lumbar_ext_moment
0.9604999999999748	0.001924965202655627	0.004581707854875739	-0.0003678516463943909	4.914043742180404	-4.219885198326984	-83.93723933938196	-24.53345367549962	-12.24996347422208	6.598518526708524	32.18092777148655
0.9709999999999743	0.002185108468483385	0.009473692495323356	-0.001064686848845434	14.86897799819342	2.059703669203452	-76.50467595107929	-26.67116584921914	-7.894168974045343	8.348776621760901	24.09410040872785
0.9814999999999738	0.00161389164892285	0.01559492740782324	-0.003998299219595838	23.51198076886527	7.48728470697797	-68.7004689869209	-28.44021013515403	-3.553144842177319	9.784055554494241	16.73275404789135
0.9919999999999733	-0.0001628925035766999	0.02345993444812493	-0.01018559969860389	30.39948100311704	11.7567310771842	-60.45450054723242	-29.80197384922825	0.7178758765138209	10.80182040369787	10.44763767730213
1.002499999999973	-0.003473180800093881	0.03348397501539647	-0.02052454091356569	35.29612799802494	14.69011452462745	-51.81392686837752	-30.80702826700604	4.833402263273859	11.34874738770831	5.525602324870399
1.012999999999972	-0.008587534682533444	0.04597868129150631	-0.03576096138987834	38.17749510788455	16.25291564718675	-42.94848473415878	-31.54393158111382	8.693102266745493	11.4171448925593	2.137338476999243
1.023499999999972	-0.01571078076209338	0.06116217635290715	-0.05646447260220773	39.19776326070337	16.5479704664306	-34.1319709517683	-32.08937865943305	12.19715851373413	11.03479265756899	0.3101387728274141
1.033999999999971	-0.0249765543689787	0.07917933829020385	-0.08301514093192251	38.63645325865848	15.79075293577524	-25.70161918044749	-32.47944952834082	15.25658848381906	10.25228179768522	-0.0664218369908558
1.044499999999971	-0.03644483630306204	0.1001268696502427	-0.1156006520357139	36.84055223958413	14.2721296151132	-18.00290375081327	-32.7039824562635	17.79899339807383	9.131067483126385	0.7881804559963403
1.05499999999997	-0.05010243706466195	0.1240780767796279	-0.154222568000063	34.17303238858828	12.31482337046689	-11.33218659879368	-32.7178546149124	19.77161983732906	7.734310994763509	2.584797262202707
1.06549999999997	-0.06586626037258381	0.1511033052307335	-0.1987098139972073	30.972201919599	10.22918162473749	-5.890655648809511	-32.46150154552147	21.14288948835454	6.121284391678655	5.006993493096834
1.075999999999969	-0.08358909201419827	0.1812834151693566	-0.2487372203664813	27.52313751332095	8.27427760147445	-1.759363708849395	-31.88324945260675	21.9029539441297	4.344855425231083	7.7510396385873
1.086499999999969	-0.1030675451994553	0.2147152297316653	-0.3038468360636112	24.04230478325168	6.631017525136205	1.101307390868548	-30.95665282588624	22.0636966852745	2.450882022359159	10.55720372983425
1.096999999999968	-0.1240516452895089	0.2515093378399908	-0.3634699915997673	20.67627409841903	5.39245129351086	2.83113663972932	-29.68783062152151	21.65849634298057	0.4783718048966854	13.22591558628752
1.107499999999968	-0.1462554312714694	0.2917818045572784	-0.4269487691799242	17.51245648366282	4.57139283891306	3.636585866488379	-28.11170358850012	20.74160707498479	-1.540327087540827	15.61711964146744
1.117999999999967	-0.1693679324536299	0.3356420685399028	-0.493556379889887	14.59587857179715	4.119485587792438	3.753877136369883	-26.28074405628034	19.3863711305837	-3.579585438304662	17.63841882329059
1.128499999999967	-0.1930639271795938	0.3831794762608066	-0.5625165235963476	11.94589232486778	3.950089530470245	3.41639420966896	-24.25234520289189	17.68126177773049	-5.620747066298938	19.23050587108781
1.138999999999966	-0.2170139744955367	0.4344505897909329	-0.6330219421198041	9.570225559263573	3.960100959849536	2.830677390787748	-22.07991690030315	15.72330791617911	-7.652331161027516	20.35539166171688
1.149499999999966	-0.2408933100241062	0.4894688354186806	-0.7042522220513759	7.476067128825048	4.04854594840878	2.162094622731251	-19.80963825172727	13.60956442766924	-9.669870068170285	20.98898364237742
1.159999999999966	-0.2643893025441371	0.5481974234168026	-0.7753906564785998	5.677376560865255	4.130455867673101	1.529364332821002	-17.48167944932493	11.42830304694394	-11.67513407016021	21.11780680099319
1.170499999999965	-0.2872072709590844	0.6105458556557506	-0.8456397416765169	4.197155029496344	4.144889926787507	1.006130685987317	-15.13338215638735	9.251798212481878	-13.67470800742057	20.73925820097003
1.180999999999965	-0.3090745553236044	0.6763698061150611	-0.9142346975656228	3.064531308139995	4.05710664973919	0.6273313786675851	-12.80242669370512	7.131918911242474	-15.67816500154034	19.86452924068256
1.191499999999964	-0.3297428143501477	0.7454737651420412	-0.9804542600049045	2.307954387449119	3.856008405082725	0.3980925450300928	-10.52906524031602	5.098820898388132	-17.696264505418	18.5230361667082
1.201999999999964	-0.3489885877115586	0.8176156236358612	-1.043627938957756	1.946382355596606	3.548436500681346	0.3032485633057961	-8.356946438852574	3.162441935516569	-19.73958229898332	16.76691609690514
1.212499999999963	-0.3666122236475176	0.8925123510466183	-1.103139046812134	1.98015499514747	3.151849518644006	0.3161037963902807	-6.331811492386996	1.316386211009319	-21.81778193601832	14.67390598855492
1.222999999999963	-0.3824353365632063	0.9698460518650254	-1.158423114599431	2.382855385090761	2.68671326756379	0.4055750447717524	-4.497288244918717	-0.456234712636443	-23.9394915822734	12.34706350314511
1.233499999999962	-0.3962970280080119	1.049269891095611	-1.208961799187485	3.095451766798876	2.169733793706955	0.5413293149632249	-2.888104213344646	-2.175862569931376	-26.11260584411805	9.910676385703351
1.243999999999962	-0.4080491881406612	1.130413592843253	-1.25427295330093	4.024159817018168	1.608846853212283	0.6969258595003787	-1.522579091210301	-3.859874731578727	-28.34479233635525	7.502857823693494
1.254499999999961	-0.4175513038181332	1.212888401951055	-1.293898075624828	5.043086485568126	1.000529543773504	0.8512393802623894	-0.3964917715297609	-5.517619918563826	-30.64393708331974	5.265764624784867
1.264999999999961	-0.424665316703201	1.296291545079346	-1.327388820936982	6.001850008874953	0.32958668696327	0.9885780668956615	0.5204909139375702	-7.147816175317423	-33.01821370216285	3.3342259869917
1.27549999999996	-0.4292511583412644	1.380210332443197	-1.354294605596029	6.737759439839626	-0.4287097843757035	1.097952764802756	1.284854839954426	-8.738741092287027	-35.47553243954698	1.823860243960772
1.28599999999996	-0.4311636048890199	1.464226090068411	-1.374153512646829	7.091951147822856	-1.304361655272874	1.171935332448769	1.974252764243411	-10.27165183523973	-38.02235305771833	0.8204419347795843
1.296499999999959	-0.4302510315441078	1.547918085601634	-1.386488568193089	6.928525939710192	-2.326641314719642	1.205479493492783	2.676561075319553	-11.72724556769592	-40.66213597395841	0.3722483055416757
1.306999999999959	-0.4263565179208625	1.630867521510558	-1.390811003177585	6.154743762875508	-3.517063515214768	1.194976768580557	3.474223264977306	-13.09376674094164	-43.39395555880095	0.4861550404566748
1.317499999999958	-0.4193215829810679	1.712661563825936	-1.386631414385336	4.738857563464664	-4.882568472268352	1.137701025469383	4.427714100356551	-14.37443734906211	-46.21192093598878	1.127158966600333
1.327999999999958	-0.4089926195699508	1.792897294784064	-1.373478881916717	2.721024518583923	-6.410528167352371	1.031688882886599	5.564478495405718	-15.59065962432055	-49.10590180654968	2.219789462870281
1.338499999999957	-0.3952298366014356	1.871185441932795	-1.350927144115405	0.2130761585725862	-8.066986705934381	0.8760405670960957	6.881530108378241	-16.77537146663881	-52.06353301534558	3.648406210129419
1.348999999999957	-0.3779181603800532	1.947153732782664	-1.318625930758099	-2.61450917000418	-9.798662453220857	0.6716037373768193	8.366175143455701	-17.95259936383574	-55.07274695143859	5.254496698517623
1.359499999999956	-0.356979101322869	2.020449731771785	-1.276334615248647	-5.555802887639276	-11.53803289620662	0.4219888032049245	10.02591616078282	-19.10980523211146	-58.12355809703359	6.835680687441873
1.369999999999956	-0.3323822494284265	2.090743050565711	-1.223954683920685	-8.396727513853886	-13.20994014255432	0.1348395343204508	11.90610018144925	-20.18060637678515	-61.20776345993944	8.157320609657123
1.380499999999955	-0.3041550852342104	2.157726917243413	-1.161557385122088	-10.94081206712941	-14.73814477219851	-0.176752018849752	14.08017725217086	-21.05085418169284	-64.31564659428221	8.983037136188866
1.390999999999955	-0.2723901561623822	2.221119214362539	-1.089403364832024	-13.03127935448434	-16.05096684196887	-0.4928534094940931	16.61862200782713	-21.58365433180318	-67.42960285651972	9.117536315333806
1.401499999999954	-0.2372490772477481	2.280663165860843	-1.007951954011896	-14.56992873734954	-17.08579996048788	-0.7855795317319408	19.55537350408226	-21.64855148180519	-70.51566469992291	8.447753384101697
1.411999999999954	-0.1989631193145828	2.336127832627596	-0.9178588527732527	-15.53252333013412	-17.79218448623275	-1.018601769564193	22.86633615720983	-21.14400437005702	-73.51478919534441	6.970864379561667
1.422499999999953	-0.1578304215226615	2.387308498236013	-0.8199621385877629	-15.97734343418003	-18.1322946416858	-1.147644386116811	26.46445533299687	-20.01021466108357	-76.33602142112517	4.802778459530822
1.432999999999953	-0.114210166326038	2.434026923885967	-0.7152577813446084	-16.04131436373699	-18.0773037128042	-1.122352883709098	30.20898315664127	-18.23372575472021	-78.85328700036548	2.164460508458359
1.443499999999952	-0.06851434794162051	2.476131328574652	-0.604867159313101	-15.91941259190731	-17.59943978259703	-0.8900009199375188	33.92251285716415	-15.84688578872024	-80.90703493092808	-0.651734128908565
1.453999999999952	-0.02119801555054448	2.513495779035993	-0.4900002598898719	-15.82699103141198	-16.66153725844848	-0.4014113745309638	37.40831735499903	-12.92549937752592	-82.31148091832628	-3.329046055098948
1.464499999999951	0.0272509681664523	2.546018474897898	-0.3719189574767782	-15.94876511663121	-15.20649865333881	0.3811023964667517	40.46453441431915	-9.586091612777372	-82.86767476446994	-5.580009699814616
1.474999999999951	0.07632172380534841	2.573618417632532	-0.2519045735181976	-16.38594917963938	-13.15078470789962	1.474607113041377	42.89826526871464	-5.981342156425121	-82.38190600843839	-7.199432217683547
1.48549999999995	0.125489315937024	2.596230414272984	-0.1312325757790818	-17.12704968724091	-10.39178684660786	2.866220331858398	44.54507227113839	-2.291334250422841	-80.68808361835632	-8.099242202750951
1.49599999999995	0.1742231523246329	2.613799048684695	-0.01115493178642601	-18.06872158709916	-6.838576262461525	4.50549343020089	45.29445908063121	1.28999360699178	-77.67179148326525	-8.303370538801623
1.506499999999949	0.2219953214034486	2.626272588492007	0.1071119276781911	-19.07762303220503	-2.455949306526599	6.303447877153459	45.11297010187127	4.571447058115508	-73.29290824475291	-7.905720701647841
1.516999999999949	0.2682891147292747	2.633597759715232	0.2223968941337751	-20.04268696464775	2.709537126301687	8.144413229414177	44.05198445088408	7.381386078634118	-67.60319157642165	-7.02757062623428
1.527499999999948	0.3126077222957799	2.635716375731964	0.3335839786514453	-20.88051852784566	8.540987209171107	9.910295758182761	42.23436811183173	9.582488963042735	-60.75525529198909	-5.802945030863432
1.537999999999948	0.3544829618007643	2.632564926755477	0.439622035495525	-21.5124908666303	14.88336838897933	11.50670894018699	39.82766599284318	11.08370405341623	-53.00004653868329	-4.379690162024162
1.548499999999947	0.3934836626873628	2.624077907476146	0.5395333984039876	-21.85421307199492	21.56596846893286	12.87808045961279	37.01741161788419	11.84965206603325	-44.67129660375922	-2.909715291032872
1.558999999999947	0.4292230902143718	2.610194857591519	0.6324214211017596	-21.82755754117343	28.40482248086238	14.00664900130971	33.98816451701842	11.90721904603312	-36.15738058108348	-1.526811522687393
1.569499999999946	0.4613649984777815	2.590870337922279	0.717477965561073	-21.37557700708872	35.19709365268086	14.89932904704449	30.91058700767025	11.3470353569947	-27.8633491289225	-0.3302922512037167
1.579999999999946	0.489628453650143	2.566085593820532	0.7939918672174731	-20.4641710778105	41.72185459624848	15.57013674533128	27.92885230637487	10.31591969302916	-20.16824341667926	0.6158717562231003
1.590499999999945	0.5137918618078801	2.53586029985392	0.8613588069632268	-19.07560098895029	47.75044211762175	16.02453843651409	25.14617962037559	8.997845853169405	-13.38462566413851	1.277345718109154
1.600999999999945	0.5336964019721235	2.500262608162259	0.9190923751005637	-17.21029733748728	53.05983967390346	16.24900962213062	22.6129994212454	7.585737824458121	-7.727628707480719	1.651372527305602
1.611499999999944	0.5492485941354099	2.459416047459069	0.9668354934994234	-14.90123052407584	57.44440041176273	16.20727239179368	20.3249617199485	6.251537605081709	-3.298966236916557	1.776184765114611
1.621999999999944	0.5604214481300172	2.413502540799954	1.004370849972887	-12.22507268837544	60.72915131674159	15.84410804354806	18.23419649853741	5.123689091157765	-0.08782856071378342	1.731185344386097
1.632499999999943	0.5672537704605485	2.362761443335574	1.031628786967211	-9.295938193983872	62.78753467167733	15.09612502728458	16.27055691585186	4.277346934402691	2.012936705123474	1.617603497116368
1.642999999999943	0.5698475470588404	2.307484873629865	1.048691205213175	-6.247651378197534	63.55808958777003	13.90633248441929	14.36518527861524	3.736190462007371	3.179587960040603	1.531215564662163
1.653499999999942	0.5683634425620616	2.248009936646968	1.055790347737472	-3.217753175495841	63.05242197112166	12.23813601774734	12.46961619217976	3.481475428475046	3.625194291060933	1.543461708898346
1.663999999999942	0.5630143728201418	2.18470876407268	1.053301755261077	-0.3349941905092604	61.35345749091026	10.08530417413613	10.56775700723958	3.464809967926366	3.568775183504746	1.691847074542581
1.674499999999941	0.5540572234848058	2.117977429452329	1.041731270632221	2.294219186339316	58.60728383295492	7.476250596302178	8.680534602703004	3.622090217155834	3.210870844504424	1.972976081789321
1.684999999999941	0.5417831551841419	2.048224656967893	1.021696663855149	4.59844564342688	55.01004316670206	4.472521616850312	6.862884814499436	3.885691422245988	2.71768972963027	2.339545929408423
1.69549999999994	0.5265071934821671	1.975860967516037	0.9939050850732922	6.547054451937711	50.79005527973156	1.162506859110925	5.193380084283755	4.192652476418449	2.213569348599742	2.706963833079474
1.70599999999994	0.5085578101852587	1.901288632710082	0.9591280191606748	8.148230955458658	46.18732619761316	-2.347930743225967	3.75893509202245	4.488662885003627	1.780328133559353	2.969018662310981
1.71649999999994	0.4882671510184473	1.82489259733011	0.9181757010557885	9.442064735728696	41.43377526037656	-5.946103011468436	2.638136822756642	4.72901887792325	1.461658506956024	3.017225401545027
1.726999999999939	0.4659625506535739	1.747032404952542	0.871873073103796	10.49057521821349	36.73626300468886	-9.522931396578999	1.885871253979452	4.877578057708947	1.270551443203635	2.760408361454879
1.737499999999939	0.4419599088509826	1.668035128379349	0.8210393209874982	11.3655045503967	32.26337005099118	-12.98202712088552	1.520686874569094	4.904369438080752	1.197880229996457	2.143246775605665
1.747999999999938	0.4165593310919552	1.588189375221142	0.7664727619958551	12.13600424998679	28.1369549356108	-16.24654335048813	1.515858944201391	4.782625493389623	1.22069771526575	1.161549147941006
1.758499999999938	0.3900432155404963	1.507740611274798	0.7089423153390921	12.8588845445005	24.42932814799542	-19.26328476234965	1.795095686339422	4.486138519197293	1.309322602530293	-0.1287090914921585
1.768999999999937	0.3626767429331308	1.426888284042999	0.649185983041122	13.57256744106872	21.16577815977116	-22.00405669451966	2.23380385919666	3.987696025776774	1.432758035174305	-1.610278468919071
1.779499999999937	0.3347105060379858	1.345785468516588	0.5879158356017189	14.29428952169927	18.33113783104805	-24.46469376225442	2.666670390424302	3.259117146844565	1.562366221094035	-3.111661128802056
1.789999999999936	0.3063848090927973	1.264541942832828	0.5258280775205681	15.01976466578655	15.87879308984047	-26.66243778411922	2.901879918102295	2.273198421458016	1.674003654372576	-4.421873247733335
1.800499999999936	0.2779349944629134	1.183231691049665	0.4636159878775718	15.72492919444008	13.74084829796946	-28.63227220454291	2.741425825249328	1.007565871891618	1.74898093450945	-5.312164226429251
1.810999999999935	0.2495970279473197	1.101905751336779	0.4019829643186689	16.36987443227249	11.83868479068252	-30.42258107135194	2.005831425856042	-0.549971485195099	1.774253422135422	-5.563254861476268
1.821499999999935	0.2216125025504574	1.020610985005039	0.3416525868189816	16.90540138676259	10.09358474457873	-32.09030440978532	0.5605713771406498	-2.395293053558405	1.742206750146808	-4.995970597306876
1.831999999999934	0.1942322129923127	0.9394146778541947	0.2833726291031724	17.28261341945011	8.437240519306872	-33.69571826175867	-1.659198602711239	-4.501965992564179	1.650307178925164	-3.502511101471607
1.842499999999934	0.1677175223801495	0.8584339080013133	0.2279103734717158	17.46541048791827	6.821776532010069	-35.29702772041389	-4.629330367014286	-6.816386126125106	1.500764637514099	-1.074821637380462
1.852999999999933	0.1423388924933414	0.7778673867656645	0.1760374811285925	17.44488402590527	5.228577401883484	-36.9450314075436	-8.226453480119314	-9.25514780630251	1.300231667128974	2.174162797823653
1.863499999999933	0.1183711742048815	0.6980261219954058	0.1285040042409264	17.25392769302682	3.675055731555833	-38.67813922316621	-12.22986280782454	-11.70569352061981	1.059462650747579	6.000641437763338
1.873999999999932	0.0960855472231161	0.6193579544562736	0.08600276721604998	16.97997437854671	2.218540541761449	-40.51803038688907	-16.3372332276383	-14.0310599227333	0.7928056309696336	10.03478795745402
1.884499999999932	0.07573834789638503	0.5424600358576486	0.04912707913895221	16.77332446679941	0.9564846980557737	-42.46630439846002	-20.19384606280381	-16.0790535182691	0.517402364574278	13.80214835539861
1.894999999999931	0.05755740566280831	0.468072971272146	0.01832632559624043	16.84792426916079	0.02206420225954625	-44.5026133058283	-23.4324872598357	-17.69544937271174	0.2520270924975733	16.76162679992793
1.905499999999931	0.04172688060201525	0.3970509838267712	-0.00613482499239772	17.47109493209161	-0.4258327524290366	-46.5848824072574	-25.71858544012655	-18.73987726867503	0.0155857034959605	18.35802007231672
1.91599999999993	0.02837190126295134	0.330304379469486	-0.02420735302287088	18.93957679177234	-0.2187942567916195	-48.65220728368537	-26.79316064192997	-19.10213146994943	-0.1745985066573769	18.08443773081378
1.92649999999993	0.01754448871172282	0.2687139712038268	-0.03607315073453084	21.54218980884157	0.7994995819760602	-50.63077695487704	-26.50548996868894	-18.71600492053524	-0.3044963002282857	15.54664102606991
1.936999999999929	0.0092122885811982	0.213021912578152	-0.04214042811744775	25.51370801002295	2.748806872582524	-52.44275977341873	-24.82856648951996	-17.5677100950417	-0.364818984431413	10.51847871715781
1.947499999999929	0.003251505517378891	0.1637092103507904	-0.04301793997357561	30.98844061226893	5.689053599303413	-54.01760818157867	-21.8535539158717	-15.69672350971551	-0.3519571809585663	2.976979888828575
1.957999999999928	-0.0005548827480847511	0.1208762544304663	-0.0394706130046433	37.96512987485656	9.603362785855031	-55.30465538284177	-17.76428434361672	-13.1885007573526	-0.2682518798350499	-6.892567974293225
1.968499999999928	-0.002513073505090241	0.0841477802777249	-0.03236351924170918	46.2967203294764	14.3931323149492	-56.28508438499071	-12.79855155897564	-10.16069194851567	-0.1215626591156109	-18.72747818229493
1.978999999999927	-0.003008619874575247	0.0526260569411196	-0.0226050708481258	55.71365995929912	19.88884236298587	-56.98051687138505	-7.207505582431811	-6.746632301202931	0.07574955615306173	-32.05115090953767
1.989499999999927	-0.002491482084014509	0.02491356983913482	-0.01110235435782063	65.87236896424861	25.87313611195997	-57.45512271876476	-1.225360197511825	-3.0811012417315	0.3081516595344979	-46.34857333073327
1.999999999999926	-0.001456984939698384	-0.0007836815433004407	0.001260712551049668	76.40297088750565	32.10525454330612	-57.80898788964357	4.942198350022487	0.7073106125530497	0.5582365743489562	-61.12026890170763
