PathFileType	4	(X/Y/Z)	..\data\2015002\static\2015002_ST.trc
DataRate	CameraRate	NumFrames	NumMarkers	Units	OrigDataRate	OrigDataStartFrame	OrigNumFrames
100.000000	100.000000	2	52	mm	100.000000	0	2
Frame#	Time	L_IAS			L_IPS			R_IPS			R_IAS			L_FTC			L_FLE			L_FME			L_FAX			L_TTC			L_FAL			L_TAM			L_FCC			L_FM1			L_FM2			L_FM5			R_FTC			R_FLE			R_FME			R_FAX			R_TTC			R_FAL			R_TAM			R_FCC			R_FM1			R_FM2			R_FM5			CV7			TV10			SXS			SJN			L_SIA			L_SRS			L_SAA			L_SAE			L_HLE			L_HME			L_UOA			L_RSP			L_UHE			L_HM2			L_HM5			R_SIA			R_SRS			R_SAA			R_SAE			R_HLE			R_HME			R_UOA			R_RSP			R_UHE			R_HM2			R_HM5			
		X1	Y1	Z1	X2	Y2	Z2	X3	Y3	Z3	X4	Y4	Z4	X5	Y5	Z5	X6	Y6	Z6	X7	Y7	Z7	X8	Y8	Z8	X9	Y9	Z9	X10	Y10	Z10	X11	Y11	Z11	X12	Y12	Z12	X13	Y13	Z13	X14	Y14	Z14	X15	Y15	Z15	X16	Y16	Z16	X17	Y17	Z17	X18	Y18	Z18	X19	Y19	Z19	X20	Y20	Z20	X21	Y21	Z21	X22	Y22	Z22	X23	Y23	Z23	X24	Y24	Z24	X25	Y25	Z25	X26	Y26	Z26	X27	Y27	Z27	X28	Y28	Z28	X29	Y29	Z29	X30	Y30	Z30	X31	Y31	Z31	X32	Y32	Z32	X33	Y33	Z33	X34	Y34	Z34	X35	Y35	Z35	X36	Y36	Z36	X37	Y37	Z37	X38	Y38	Z38	X39	Y39	Z39	X40	Y40	Z40	X41	Y41	Z41	X42	Y42	Z42	X43	Y43	Z43	X44	Y44	Z44	X45	Y45	Z45	X46	Y46	Z46	X47	Y47	Z47	X48	Y48	Z48	X49	Y49	Z49	X50	Y50	Z50	X51	Y51	Z51	X52	Y52	Z52	

1	0	637.4926147460939	988.2038574218752	-332.2989807128907	733.5741577148439	1004.161743164063	-149.4257202148438	833.4407958984377	1002.615356445313	-159.4268493652344	892.173034667969	984.535095214844	-350.3529052734376	571.4346923828126	905.1456298828127	-256.2511596679688	577.2883911132814	490.2826232910157	-223.754867553711	714.8055419921876	475.4916381835939	-231.0423736572266	578.1140136718751	432.8421936035157	-194.3821105957032	630.2786865234376	408.1035461425782	-258.9419555664063	590.9586791992189	75.80558013916017	-148.7653045654297	678.9160766601564	85.2580032348633	-180.1949768066407	657.8148193359376	22.56810569763184	-93.81218719482423	658.6685180664064	17.59093284606934	-305.9015197753907	599.3771972656251	35.58934783935548	-308.1643066406251	542.3867187500001	19.28852462768555	-256.1253051757813	956.9594726562502	888.7322387695315	-279.3128967285157	930.377868652344	483.0561523437501	-230.2591247558594	804.560485839844	463.0886840820314	-263.8135681152344	927.7625122070315	425.5179443359376	-203.1265716552735	893.4240722656252	399.8414916992189	-277.2665405273438	900.2620239257815	77.02194976806642	-134.6819763183594	826.3843994140627	82.85433197021486	-197.6229553222657	830.3999023437502	21.6238079071045	-108.2233657836914	878.3041992187502	13.85075092315674	-313.8456726074219	936.6384887695315	35.78142547607423	-307.2210388183594	980.7126464843752	19.89127159118653	-230.6937408447266	759.3842773437501	1485.510498046875	-203.0734863281251	775.6845703125002	1228.9619140625	-133.80712890625	762.9517822265626	1193.085205078125	-386.7355346679689	756.8295288085939	1399.542236328125	-329.5354309082032	654.5937500000001	1254.271606445313	-128.8120422363282	675.3958740234376	1411.828491210938	-142.5185241699219	586.4242553710939	1415.983642578125	-192.0679321289063	555.2582397460939	1414.9287109375	-238.7058563232422	439.1992797851564	1138.451416015625	-205.8357391357422	499.806854248047	1101.022583007813	-252.3900756835938	451.2627563476564	1090.742431640625	-201.7086639404297	233.8431549072266	1007.461669921875	-295.7417602539063	275.7714538574219	955.3282470703127	-260.8265686035157	151.2927551269532	942.7962646484377	-313.9210510253907	238.3879394531251	885.6033935546877	-293.9533081054688	895.8038330078127	1263.823486328125	-137.0201110839844	867.1721801757815	1416.714965820313	-155.314453125	942.412048339844	1429.5849609375	-212.2155914306641	963.3016357421877	1432.403686523438	-255.0897827148438	1099.739379882813	1163.244873046875	-219.689437866211	1035.016357421875	1117.880004882813	-272.7623901367188	1077.234619140625	1098.648681640625	-221.7550964355469	1291.945678710938	1028.848510742188	-336.2340698242188	1259.30419921875	975.7080078125002	-290.6145019531251	1384.051025390625	970.7613525390627	-328.6176757812501	1301.63818359375	906.2353515625002	-313.6945495605469	
2	1	637.4926147460939	988.2038574218752	-332.2989807128907	733.5741577148439	1004.161743164063	-149.4257202148438	833.4407958984377	1002.615356445313	-159.4268493652344	892.173034667969	984.535095214844	-350.3529052734376	571.4346923828126	905.1456298828127	-256.2511596679688	577.2883911132814	490.2826232910157	-223.754867553711	714.8055419921876	475.4916381835939	-231.0423736572266	578.1140136718751	432.8421936035157	-194.3821105957032	630.2786865234376	408.1035461425782	-258.9419555664063	590.9586791992189	75.80558013916017	-148.7653045654297	678.9160766601564	85.2580032348633	-180.1949768066407	657.8148193359376	22.56810569763184	-93.81218719482423	658.6685180664064	17.59093284606934	-305.9015197753907	599.3771972656251	35.58934783935548	-308.1643066406251	542.3867187500001	19.28852462768555	-256.1253051757813	956.9594726562502	888.7322387695315	-279.3128967285157	930.377868652344	483.0561523437501	-230.2591247558594	804.560485839844	463.0886840820314	-263.8135681152344	927.7625122070315	425.5179443359376	-203.1265716552735	893.4240722656252	399.8414916992189	-277.2665405273438	900.2620239257815	77.02194976806642	-134.6819763183594	826.3843994140627	82.85433197021486	-197.6229553222657	830.3999023437502	21.6238079071045	-108.2233657836914	878.3041992187502	13.85075092315674	-313.8456726074219	936.6384887695315	35.78142547607423	-307.2210388183594	980.7126464843752	19.89127159118653	-230.6937408447266	759.3842773437501	1485.510498046875	-203.0734863281251	775.6845703125002	1228.9619140625	-133.80712890625	762.9517822265626	1193.085205078125	-386.7355346679689	756.8295288085939	1399.542236328125	-329.5354309082032	654.5937500000001	1254.271606445313	-128.8120422363282	675.3958740234376	1411.828491210938	-142.5185241699219	586.4242553710939	1415.983642578125	-192.0679321289063	555.2582397460939	1414.9287109375	-238.7058563232422	439.1992797851564	1138.451416015625	-205.8357391357422	499.806854248047	1101.022583007813	-252.3900756835938	451.2627563476564	1090.742431640625	-201.7086639404297	233.8431549072266	1007.461669921875	-295.7417602539063	275.7714538574219	955.3282470703127	-260.8265686035157	151.2927551269532	942.7962646484377	-313.9210510253907	238.3879394531251	885.6033935546877	-293.9533081054688	895.8038330078127	1263.823486328125	-137.0201110839844	867.1721801757815	1416.714965820313	-155.314453125	942.412048339844	1429.5849609375	-212.2155914306641	963.3016357421877	1432.403686523438	-255.0897827148438	1099.739379882813	1163.244873046875	-219.689437866211	1035.016357421875	1117.880004882813	-272.7623901367188	1077.234619140625	1098.648681640625	-221.7550964355469	1291.945678710938	1028.848510742188	-336.2340698242188	1259.30419921875	975.7080078125002	-290.6145019531251	1384.051025390625	970.7613525390627	-328.6176757812501	1301.63818359375	906.2353515625002	-313.6945495605469	
