Coordinates
version=1
nRows=56
nColumns=17
inDegrees=no
endheader
time	/jointset/ground_pelvis/pelvis_tilt/value	/jointset/ground_pelvis/pelvis_tx/value	/jointset/ground_pelvis/pelvis_ty/value	/jointset/hip_r/hip_flexion_r/value	/jointset/knee_r/knee_angle_r/value	/jointset/ankle_r/ankle_angle_r/value	/jointset/mtp_r/mtp_angle_r/value	/jointset/hip_l/hip_flexion_l/value	/jointset/knee_l/knee_angle_l/value	/jointset/ankle_l/ankle_angle_l/value	/jointset/mtp_l/mtp_angle_l/value	/jointset/back/lumbar_ext/value	/jointset/acromial_r/shoulder_flexion_r/value	/jointset/elbow_r/elbow_flexion_r/value	/jointset/acromial_l/shoulder_flexion_l/value	/jointset/elbow_l/elbow_flexion_l/value
      0.22000000	      0.21674357	      0.17760996	      1.00422951	     -0.24533700	     -0.85100945	     -0.33770048	     -0.00000000	     -0.05339168	     -0.10059073	     -0.10038835	     -0.00000000	     -0.42689578	      0.09774523	      0.46800725	     -0.09580374	      0.39989820
      0.23000000	      0.22205741	      0.18836301	      1.00589746	     -0.22217595	     -0.89749988	     -0.33592809	     -0.00000000	     -0.07743127	     -0.08900856	     -0.09402945	     -0.00000000	     -0.43309602	      0.09262346	      0.46323030	     -0.08406171	      0.40535152
      0.24000000	      0.22503216	      0.19930744	      1.00722777	     -0.19729755	     -0.94040612	     -0.32204720	     -0.00000000	     -0.10034215	     -0.07499268	     -0.08672686	      0.00000000	     -0.43598406	      0.08746309	      0.45448596	     -0.07511312	      0.41767894
      0.25000000	      0.22893659	      0.20974667	      1.00871002	     -0.17266010	     -0.97919210	     -0.31043837	     -0.00000000	     -0.12293397	     -0.06260491	     -0.08174227	      0.00000000	     -0.44082446	      0.08283042	      0.44900789	     -0.06321232	      0.42574773
      0.26000000	      0.23061924	      0.22052259	      1.00988119	     -0.14720465	     -1.01362784	     -0.28120174	     -0.00000000	     -0.14523446	     -0.04640259	     -0.07777114	      0.00000000	     -0.44195997	      0.07770940	      0.44156906	     -0.05399397	      0.43911587
      0.27000000	      0.23223844	      0.23090982	      1.01110771	     -0.12166218	     -1.04304978	     -0.25278960	     -0.00000000	     -0.16524457	     -0.03400561	     -0.07531968	      0.00000000	     -0.44429937	      0.07251801	      0.43649754	     -0.04288119	      0.45002751
      0.28000000	      0.23360179	      0.24148635	      1.01228508	     -0.09690694	     -1.06675982	     -0.22684856	      0.00000000	     -0.18601154	     -0.01974943	     -0.07310044	      0.00000000	     -0.44515490	      0.06629053	      0.43244073	     -0.03220662	      0.46018760
      0.29000000	      0.23426432	      0.25191729	      1.01337393	     -0.07204377	     -1.08533803	     -0.19882405	      0.00000000	     -0.20535205	     -0.00644910	     -0.07176028	      0.00000000	     -0.44580233	      0.05998152	      0.42927808	     -0.02119795	      0.47084265
      0.30000000	      0.23420743	      0.26225870	      1.01432771	     -0.04722742	     -1.09890231	     -0.17130440	      0.00000000	     -0.22278476	      0.00515524	     -0.07082115	      0.00000000	     -0.44576079	      0.05323905	      0.42707522	     -0.01042892	      0.48147879
      0.31000000	      0.23316472	      0.27254064	      1.01514140	     -0.02226082	     -1.10714984	     -0.14513712	      0.00000000	     -0.23875433	      0.01589626	     -0.06973080	      0.00000000	     -0.44403097	      0.04638448	      0.42584012	      0.00068320	      0.49251646
      0.32000000	      0.23174913	      0.28306409	      1.01581130	      0.00155385	     -1.10958309	     -0.12423564	      0.00000000	     -0.25505921	      0.02788609	     -0.06778534	      0.00000000	     -0.44093339	      0.03844667	      0.42469998	      0.01097203	      0.50290950
      0.33000000	      0.22872863	      0.29319907	      1.01621342	      0.02661975	     -1.10788491	     -0.10021769	      0.00000000	     -0.26739884	      0.03639583	     -0.06653561	      0.00000000	     -0.43751220	      0.03106064	      0.42502536	      0.02166641	      0.51521085
      0.34000000	      0.22587309	      0.30353763	      1.01650224	      0.04970368	     -1.10015035	     -0.08211480	      0.00000000	     -0.28059079	      0.04598573	     -0.06448698	      0.00000000	     -0.43322643	      0.02309055	      0.42501626	      0.03177985	      0.52673653
      0.35000000	      0.22262677	      0.31376693	      1.01658870	      0.07209113	     -1.08761465	     -0.06592267	      0.00000000	     -0.29277607	      0.05455897	     -0.06203906	      0.00000000	     -0.42862510	      0.01513478	      0.42543640	      0.04196263	      0.53870803
      0.36000000	      0.21806400	      0.32379422	      1.01639622	      0.09475932	     -1.07044559	     -0.04952322	      0.00000000	     -0.30230961	      0.06125075	     -0.05911751	      0.00000000	     -0.42326514	      0.00774148	      0.42692201	      0.05205190	      0.55232913
      0.37000000	      0.21382400	      0.33395104	      1.01606707	      0.11528464	     -1.04772407	     -0.03760846	      0.00000000	     -0.31257545	      0.06842166	     -0.05523435	      0.00000000	     -0.41772127	      0.00004402	      0.42765341	      0.06187125	      0.56481571
      0.38000000	      0.21016315	      0.34404002	      1.01561365	      0.13352700	     -1.01988361	     -0.02737492	      0.00000000	     -0.32339595	      0.07572360	     -0.05156606	      0.00000000	     -0.41294069	     -0.00698766	      0.42795157	      0.07176637	      0.57725069
      0.39000000	      0.20749798	      0.35368944	      1.01523241	      0.14937112	     -0.98618138	     -0.02375102	      0.00000000	     -0.33303953	      0.07926685	     -0.04861348	      0.00000000	     -0.41013231	     -0.01219560	      0.42740291	      0.08407785	      0.58476405
      0.40000000	      0.20242209	      0.36404062	      1.01421955	      0.16509660	     -0.94862858	     -0.00979826	      0.00000000	     -0.34262259	      0.08651427	     -0.04314946	      0.00000000	     -0.40359710	     -0.02010080	      0.42901343	      0.09060095	      0.60389893
      0.41000000	      0.19869960	      0.37392720	      1.01340138	      0.17788569	     -0.90483208	     -0.00692353	      0.00000000	     -0.35131189	      0.08987810	     -0.03934025	      0.00000000	     -0.39894993	     -0.02574212	      0.42847387	      0.10105770	      0.61223696
      0.42000000	      0.19500194	      0.38392414	      1.01233232	      0.18857767	     -0.85699902	      0.00180349	      0.00000000	     -0.36077568	      0.09466384	     -0.03289621	      0.00000000	     -0.39541563	     -0.03140200	      0.42916840	      0.10855433	      0.63031777
      0.43000000	      0.19047690	      0.39382508	      1.01121080	      0.19813872	     -0.80372890	      0.00334876	      0.00000000	     -0.36812154	      0.09721880	     -0.02899202	      0.00000000	     -0.39036505	     -0.03646913	      0.42838461	      0.11827463	      0.63817363
      0.44000000	      0.18921298	      0.40380774	      1.01022628	      0.20147103	     -0.74550292	      0.00778627	      0.00000000	     -0.37916560	      0.09986854	     -0.02219980	      0.00000000	     -0.38964949	     -0.04077357	      0.42792742	      0.12545247	      0.65555018
      0.45000000	      0.18393462	      0.41382727	      1.00887376	      0.20743423	     -0.68365158	      0.00852774	      0.00000000	     -0.38520247	      0.10130116	     -0.01823130	      0.00000000	     -0.38372112	     -0.04542067	      0.42687518	      0.13392795	      0.66308587
      0.46000000	      0.18468753	      0.42384143	      1.00796528	      0.20370127	     -0.61642620	      0.00828702	      0.00000000	     -0.39718944	      0.10135875	     -0.01023698	      0.00000000	     -0.38549059	     -0.04822064	      0.42444778	      0.14064705	      0.67946322
      0.47000000	      0.17878873	      0.43404827	      1.00639385	      0.20588164	     -0.54800400	      0.00871887	      0.00000000	     -0.40190772	      0.10134890	     -0.00670158	      0.00000000	     -0.37882603	     -0.05268219	      0.42357875	      0.14768643	      0.68645190
      0.48000000	      0.18278683	      0.44421105	      1.00570691	      0.19363257	     -0.47386646	      0.00295363	      0.00000000	     -0.41660901	      0.09948591	      0.00020954	      0.00000000	     -0.38415769	     -0.05473600	      0.42130306	      0.15401457	      0.70111519
      0.49000000	      0.17603675	      0.45470897	      1.00386008	      0.19305863	     -0.40297828	      0.00385559	      0.00000000	     -0.41973926	      0.09771822	      0.00402809	      0.00000000	     -0.37637018	     -0.05891414	      0.42002581	      0.15916667	      0.70775149
      0.50000000	      0.18320591	      0.46526635	      1.00330872	      0.17320786	     -0.32674370	     -0.00744047	      0.00000000	     -0.43753599	      0.09430322	      0.00998259	      0.00000000	     -0.38462245	     -0.06084075	      0.41758490	      0.16386661	      0.72159553
      0.51000000	      0.17660863	      0.47629448	      1.00129721	      0.16970450	     -0.25860998	     -0.00732844	      0.00000000	     -0.43997899	      0.08929305	      0.01514837	      0.00000000	     -0.37579329	     -0.06539717	      0.41541255	      0.16655132	      0.72805688
      0.52000000	      0.17454117	      0.48741396	      0.99966389	      0.15998236	     -0.19228337	     -0.01660848	      0.00000000	     -0.44693179	      0.08294430	      0.02487949	      0.00000000	     -0.37225722	     -0.06877234	      0.41158606	      0.16836022	      0.73684476
      0.53000000	      0.18146238	      0.49837126	      0.99888265	      0.13950332	     -0.12878960	     -0.03504171	      0.00000000	     -0.46276715	      0.07503255	      0.03309600	      0.00000000	     -0.37998639	     -0.06987668	      0.40888874	      0.17091634	      0.74891040
      0.54000000	      0.18144993	      0.50973628	      0.99735202	      0.12848811	     -0.07631719	     -0.04426696	      0.00000000	     -0.47127836	      0.06675061	      0.04066547	      0.00000000	     -0.37852162	     -0.07248279	      0.40558712	      0.17135479	      0.75710454
      0.55000000	      0.18179779	      0.52123064	      0.99589576	      0.11785781	     -0.03215874	     -0.05311390	      0.00000000	     -0.47955014	      0.05682856	      0.04750759	      0.00000000	     -0.37768181	     -0.07484044	      0.40220594	      0.17112317	      0.76471101
      0.56000000	      0.18278089	      0.53279804	      0.99458946	      0.10784019	      0.00258486	     -0.06179686	      0.00000000	     -0.48763871	      0.04497277	      0.05333521	      0.00000000	     -0.37765987	     -0.07644520	      0.39854683	      0.17002344	      0.77169963
      0.57000000	      0.18630676	      0.54427207	      0.99364860	      0.09660262	      0.02779538	     -0.07223363	      0.00000000	     -0.49698088	      0.03032722	      0.05650094	      0.00000000	     -0.38099702	     -0.07704976	      0.39507912	      0.16903119	      0.77884382
      0.58000000	      0.18547883	      0.55606170	      0.99241178	      0.09299030	      0.03951819	     -0.07351310	      0.00000000	     -0.50169088	      0.01551009	      0.05599118	      0.00000000	     -0.37882156	     -0.07889445	      0.39241230	      0.16663572	      0.78122147
      0.59000000	      0.18976895	      0.56761222	      0.99184643	      0.08271938	      0.04937025	     -0.08918553	      0.00000000	     -0.51012065	     -0.00272727	      0.06014187	      0.00000000	     -0.38364958	     -0.07717466	      0.38535081	      0.16373576	      0.78908389
      0.60000000	      0.19163011	      0.57939613	      0.99124546	      0.07808379	      0.04637149	     -0.09512031	      0.00000000	     -0.51504363	     -0.02238512	      0.05621528	      0.00000000	     -0.38506324	     -0.07690839	      0.38181366	      0.16019619	      0.79146304
      0.61000000	      0.19465420	      0.59123160	      0.99096895	      0.07340049	      0.03658446	     -0.10486557	      0.00000000	     -0.52017664	     -0.04388496	      0.05103061	      0.00000000	     -0.38824668	     -0.07556905	      0.37641136	      0.15569161	      0.79458122
      0.62000000	      0.19764875	      0.60313043	      0.99089120	      0.06976783	      0.02083846	     -0.11330278	      0.00000000	     -0.52338922	     -0.06865902	      0.04241743	      0.00000000	     -0.39131433	     -0.07402885	      0.37171351	      0.15050892	      0.79609674
      0.63000000	      0.20095574	      0.61510306	      0.99109648	      0.06676256	     -0.00002564	     -0.12258468	      0.00000000	     -0.52531313	     -0.09599688	      0.03019804	      0.00000000	     -0.39484980	     -0.07188742	      0.36604567	      0.14443435	      0.79736001
      0.64000000	      0.20432468	      0.62718120	      0.99151547	      0.06375461	     -0.02335697	     -0.12984089	      0.00000000	     -0.52507604	     -0.12702158	      0.01507223	      0.00000000	     -0.39831044	     -0.06962078	      0.36131149	      0.13732116	      0.79706952
      0.65000000	      0.20700709	      0.63925101	      0.99213964	      0.06230699	     -0.05005763	     -0.13646998	      0.00000000	     -0.52206451	     -0.16062784	     -0.00638305	      0.00000000	     -0.40128061	     -0.06641545	      0.35497533	      0.12922406	      0.79655115
      0.66000000	      0.20886571	      0.65145332	      0.99290389	      0.06110985	     -0.07695273	     -0.13945999	      0.00000000	     -0.51571646	     -0.19808560	     -0.03204540	      0.00000000	     -0.40265495	     -0.06338531	      0.34917944	      0.12026845	      0.79439815
      0.67000000	      0.21171853	      0.66348776	      0.99395794	      0.05753696	     -0.10162731	     -0.13941536	      0.00000000	     -0.50684549	     -0.24107379	     -0.05801725	      0.00000000	     -0.40618828	     -0.05990939	      0.34550762	      0.11122324	      0.79077101
      0.68000000	      0.20901517	      0.67570139	      0.99468766	      0.05967345	     -0.12666069	     -0.13309184	      0.00000000	     -0.48943643	     -0.28764710	     -0.09022804	      0.00000000	     -0.40223197	     -0.05699115	      0.34024199	      0.10095545	      0.78416016
      0.69000000	      0.21237611	      0.68765610	      0.99613348	      0.05281234	     -0.14675854	     -0.12765689	      0.00000000	     -0.47615099	     -0.33649059	     -0.12294485	      0.00000000	     -0.40640913	     -0.05346993	      0.33818831	      0.09103761	      0.77952437
      0.70000000	      0.21252250	      0.69953095	      0.99740391	      0.04785835	     -0.16372561	     -0.11630074	      0.00000000	     -0.45604577	     -0.38995409	     -0.16110049	      0.00000000	     -0.40681593	     -0.04925422	      0.33637850	      0.08050840	      0.77214272
      0.71000000	      0.21104635	      0.71110892	      0.99860113	      0.04356143	     -0.17819513	     -0.10345534	      0.00000000	     -0.43123048	     -0.44677035	     -0.19442377	      0.00000000	     -0.40614234	     -0.04485433	      0.33571561	      0.07061431	      0.76314043
      0.72000000	      0.21312191	      0.72254710	      1.00018976	      0.03242079	     -0.18655969	     -0.09003568	      0.00000000	     -0.40898064	     -0.50305196	     -0.22953151	      0.00000000	     -0.40983229	     -0.04006152	      0.33710951	      0.06076658	      0.75501539
      0.73000000	      0.21343523	      0.73375129	      1.00162027	      0.02165294	     -0.19149614	     -0.07509250	      0.00000000	     -0.38276116	     -0.56065041	     -0.26089796	      0.00000000	     -0.41206699	     -0.03500152	      0.33941900	      0.05134480	      0.74501432
      0.74000000	      0.21384236	      0.74475120	      1.00305652	      0.00918841	     -0.19290511	     -0.06040391	      0.00000000	     -0.35538258	     -0.61777302	     -0.28698362	      0.00000000	     -0.41478349	     -0.02953164	      0.34300976	      0.04234770	      0.73417210
      0.75000000	      0.21840580	      0.75556755	      1.00483868	     -0.01078331	     -0.18763335	     -0.05096153	      0.00000000	     -0.33242058	     -0.67249985	     -0.29980292	      0.00000000	     -0.42261653	     -0.02296209	      0.34658687	      0.03352993	      0.72550022
      0.76000000	      0.21324255	      0.76607159	      1.00570096	     -0.01806953	     -0.18664017	     -0.03394463	      0.00000000	     -0.29608704	     -0.72853945	     -0.31715982	      0.00000000	     -0.41971014	     -0.01735568	      0.35250247	      0.02604704	      0.70961779
      0.77000000	      0.21836183	      0.77652252	      1.00751846	     -0.04084464	     -0.17627218	     -0.02675339	      0.00000000	     -0.27274535	     -0.77779326	     -0.32134322	      0.00000000	     -0.42888374	     -0.00972818	      0.35687175	      0.01789143	      0.70085146
