PathFileType	4	(X/Y/Z)	..\data\2014034\static\2014034_ST.trc
DataRate	CameraRate	NumFrames	NumMarkers	Units	OrigDataRate	OrigDataStartFrame	OrigNumFrames
100.000000	100.000000	2	52	mm	100.000000	0	2
Frame#	Time	L_IAS			L_IPS			R_IPS			R_IAS			L_FTC			L_FLE			L_FME			L_FAX			L_TTC			L_FAL			L_TAM			L_FCC			L_FM1			L_FM2			L_FM5			R_FTC			R_FLE			R_FME			R_FAX			R_TTC			R_FAL			R_TAM			R_FCC			R_FM1			R_FM2			R_FM5			CV7			TV10			SXS			SJN			L_SIA			L_SRS			L_SAA			L_SAE			L_HLE			L_HME			L_UOA			L_RSP			L_UHE			L_HM2			L_HM5			R_SIA			R_SRS			R_SAA			R_SAE			R_HLE			R_HME			R_UOA			R_RSP			R_UHE			R_HM2			R_HM5			
		X1	Y1	Z1	X2	Y2	Z2	X3	Y3	Z3	X4	Y4	Z4	X5	Y5	Z5	X6	Y6	Z6	X7	Y7	Z7	X8	Y8	Z8	X9	Y9	Z9	X10	Y10	Z10	X11	Y11	Z11	X12	Y12	Z12	X13	Y13	Z13	X14	Y14	Z14	X15	Y15	Z15	X16	Y16	Z16	X17	Y17	Z17	X18	Y18	Z18	X19	Y19	Z19	X20	Y20	Z20	X21	Y21	Z21	X22	Y22	Z22	X23	Y23	Z23	X24	Y24	Z24	X25	Y25	Z25	X26	Y26	Z26	X27	Y27	Z27	X28	Y28	Z28	X29	Y29	Z29	X30	Y30	Z30	X31	Y31	Z31	X32	Y32	Z32	X33	Y33	Z33	X34	Y34	Z34	X35	Y35	Z35	X36	Y36	Z36	X37	Y37	Z37	X38	Y38	Z38	X39	Y39	Z39	X40	Y40	Z40	X41	Y41	Z41	X42	Y42	Z42	X43	Y43	Z43	X44	Y44	Z44	X45	Y45	Z45	X46	Y46	Z46	X47	Y47	Z47	X48	Y48	Z48	X49	Y49	Z49	X50	Y50	Z50	X51	Y51	Z51	X52	Y52	Z52	

1	0	792.9785156250002	1032.758178710938	-376.5867004394532	578.8158569335939	1071.378295898438	-292.6454162597657	577.5955810546876	1073.548950195313	-195.4471893310547	786.4796142578127	1044.782592773438	-101.0272827148438	698.3499755859376	972.4530029296877	-427.1519775390626	666.8508300781251	526.8900756835939	-410.7626953125001	668.3464965820314	509.8588867187501	-262.7320861816407	640.4157714843751	469.7718811035157	-416.7271118164064	721.0180664062501	454.2860107421876	-361.5488586425782	631.0649414062501	75.85325622558595	-414.7919311523439	650.8766479492189	83.34446716308595	-318.1967773437501	583.9841918945314	19.75952529907227	-370.1821594238282	795.5230712890627	27.02328872680665	-323.7204284667969	808.5218505859377	38.40338516235352	-386.6101684570314	770.1085205078127	19.74088096618653	-440.9835205078126	690.2389526367189	971.045349121094	-51.58987426757814	681.4780883789064	530.0806274414064	-80.48597717285158	706.1816406250001	507.6189270019532	-221.4684448242188	666.5941162109376	475.1039428710939	-78.18067169189455	740.6135253906251	453.6868896484376	-128.5596313476563	629.2972412109376	73.29576110839845	-75.5111541748047	663.5777587890626	81.93049621582033	-169.8309020996094	587.6439208984376	17.79483222961426	-127.5164031982422	802.7650146484377	25.04361152648926	-153.8900451660157	811.897644042969	39.45091247558594	-89.00740814208986	766.0090332031251	17.76689338684082	-39.02120208740235	638.2381591796876	1586.796997070313	-247.4953918457032	564.0338745117189	1319.54296875	-253.7797851562501	844.5451660156252	1296.459350585938	-248.8609008789063	771.826843261719	1504.825927734375	-240.9989013671876	558.9747924804689	1346.816772460938	-363.9386596679688	595.1267089843751	1507.915161132813	-361.9785156250001	657.8432617187501	1514.118896484375	-438.324920654297	726.6294555664064	1508.560302734375	-459.1210937500001	665.5941162109376	1169.290283203125	-520.3620605468751	663.5185546875001	1155.783935546875	-421.5755310058595	640.0020751953126	1141.666870117188	-473.9367065429689	775.520690917969	926.5171508789065	-595.2750854492189	700.2863159179689	906.9573364257815	-563.9811401367189	792.3920898437502	830.1101684570315	-646.8031005859376	739.2927856445314	810.7126464843752	-550.1483154296876	547.6419677734376	1355.021728515625	-155.0929565429688	590.2662963867189	1514.54150390625	-146.9582061767578	635.4892578125001	1518.4873046875	-67.46861267089845	690.4417114257814	1511.727172851563	-39.83117675781251	646.0868530273439	1172.863403320313	13.53901958465577	658.2349243164064	1151.24609375	-74.57459259033205	625.7750244140626	1145.2626953125	-28.39833450317384	748.5032958984376	931.3736572265627	127.9679718017578	691.3987426757814	907.210388183594	79.58761596679689	756.9747314453126	846.3374633789065	175.0312957763672	734.2554931640626	810.5327758789065	72.73600006103517	
2	1	792.9785156250002	1032.758178710938	-376.5867004394532	578.8158569335939	1071.378295898438	-292.6454162597657	577.5955810546876	1073.548950195313	-195.4471893310547	786.4796142578127	1044.782592773438	-101.0272827148438	698.3499755859376	972.4530029296877	-427.1519775390626	666.8508300781251	526.8900756835939	-410.7626953125001	668.3464965820314	509.8588867187501	-262.7320861816407	640.4157714843751	469.7718811035157	-416.7271118164064	721.0180664062501	454.2860107421876	-361.5488586425782	631.0649414062501	75.85325622558595	-414.7919311523439	650.8766479492189	83.34446716308595	-318.1967773437501	583.9841918945314	19.75952529907227	-370.1821594238282	795.5230712890627	27.02328872680665	-323.7204284667969	808.5218505859377	38.40338516235352	-386.6101684570314	770.1085205078127	19.74088096618653	-440.9835205078126	690.2389526367189	971.045349121094	-51.58987426757814	681.4780883789064	530.0806274414064	-80.48597717285158	706.1816406250001	507.6189270019532	-221.4684448242188	666.5941162109376	475.1039428710939	-78.18067169189455	740.6135253906251	453.6868896484376	-128.5596313476563	629.2972412109376	73.29576110839845	-75.5111541748047	663.5777587890626	81.93049621582033	-169.8309020996094	587.6439208984376	17.79483222961426	-127.5164031982422	802.7650146484377	25.04361152648926	-153.8900451660157	811.897644042969	39.45091247558594	-89.00740814208986	766.0090332031251	17.76689338684082	-39.02120208740235	638.2381591796876	1586.796997070313	-247.4953918457032	564.0338745117189	1319.54296875	-253.7797851562501	844.5451660156252	1296.459350585938	-248.8609008789063	771.826843261719	1504.825927734375	-240.9989013671876	558.9747924804689	1346.816772460938	-363.9386596679688	595.1267089843751	1507.915161132813	-361.9785156250001	657.8432617187501	1514.118896484375	-438.324920654297	726.6294555664064	1508.560302734375	-459.1210937500001	665.5941162109376	1169.290283203125	-520.3620605468751	663.5185546875001	1155.783935546875	-421.5755310058595	640.0020751953126	1141.666870117188	-473.9367065429689	775.520690917969	926.5171508789065	-595.2750854492189	700.2863159179689	906.9573364257815	-563.9811401367189	792.3920898437502	830.1101684570315	-646.8031005859376	739.2927856445314	810.7126464843752	-550.1483154296876	547.6419677734376	1355.021728515625	-155.0929565429688	590.2662963867189	1514.54150390625	-146.9582061767578	635.4892578125001	1518.4873046875	-67.46861267089845	690.4417114257814	1511.727172851563	-39.83117675781251	646.0868530273439	1172.863403320313	13.53901958465577	658.2349243164064	1151.24609375	-74.57459259033205	625.7750244140626	1145.2626953125	-28.39833450317384	748.5032958984376	931.3736572265627	127.9679718017578	691.3987426757814	907.210388183594	79.58761596679689	756.9747314453126	846.3374633789065	175.0312957763672	734.2554931640626	810.5327758789065	72.73600006103517	
