Coordinates

Units are S.I. units (second, meters, Newtons, ...)
If the header above contains a line with 'inDegrees', this indicates whether rotational values are in degrees (yes) or radians (no).

inDegrees=yes
nColumns=34
nRows=55
DataType=double
version=3
OpenSimVersion=4.5-2023-11-26-efcdfd3eb
endheader
time	pelvis_tilt	pelvis_tx	pelvis_ty	hip_flexion_l	hip_flexion_r	knee_angle_l	knee_angle_r	ankle_angle_l	ankle_angle_r	mtp_angle_l	mtp_angle_r	lumbar_ext	shoulder_flexion_r	elbow_flexion_r	shoulder_flexion_l	elbow_flexion_l
0.17	23.9409848	-0.90365151	0.96389924	-17.37244112	-29.68512081	5.82358618	-47.77529722	-14.1794537	-13.36306357	-18.45053292	5.50378403	-38.25920019	2.0709908	54.4831232	-13.23801515	36.79154369
0.18	23.6208474	-0.89159839	0.96440123	-17.8461699	-27.26100218	6.11776224	-51.31032312	-13.79195312	-14.4538625	-18.70921382	3.28914476	-37.87619319	2.05283541	53.83597073	-12.6963344	36.96398101
0.19	23.42199685	-0.8798176599999999	0.96508513	-18.50522726	-24.95773578	6.50078174	-54.44953702	-13.30856811	-15.34774473	-18.68991874	2.76406862	-37.64944082	2.11480755	53.12668327	-12.17912707	37.36033732
0.2	22.93837478	-0.86858274	0.96544755	-18.80595858	-22.20134749	6.82822573	-57.64272917	-12.66904905	-14.61751457	-19.03778389	-1.28834452	-37.1449695	2.13108152	52.45953246	-11.36888927	37.37445874
0.21	22.78342785	-0.85751775	0.96628155	-19.57612601	-19.94847641	7.3185671	-60.14202809	-12.10092947	-14.10160576	-19.02310057	-1.48656211	-37.02337332	2.28935125	51.68230134	-10.71394671	37.86233447
0.22	22.27457979	-0.8470731	0.96672164	-19.78747594	-17.13996847	7.55947402	-62.57126639	-11.57662639	-12.9726695	-19.05407784	-2.49537654	-36.54577231	2.43682333	50.80480745	-9.764518130000001	37.99712606
0.23	21.8097307	-0.83677852	0.96722423	-20.08313721	-14.47096192	7.83816778	-64.61585835	-10.93526737	-11.27259136	-19.0431427	-3.96230025	-36.14768965	2.53972848	50.06389998	-8.778678940000001	38.23717865
0.24	21.38219703	-0.82667286	0.96784241	-20.41180739	-11.97203363	8.05045367	-66.33035348	-10.19110087	-8.690428750000001	-18.761598	-7.84323717	-35.85912779	2.55872386	49.49990268	-7.68289001	38.5325101
0.25	21.21773978	-0.81664954	0.9689173	-21.07645425	-10.03831137	8.25029466	-67.30047143	-9.717560410000001	-6.53699222	-18.72400715	-7.61856477	-35.91811972	2.77515696	48.7625849	-6.76046575	39.23669721
0.26	20.47482033	-0.80700491	0.96908058	-20.91810715	-7.2298115	8.266834380000001	-68.24651334000001	-9.119731939999999	-4.55004437	-18.53480533	-8.45607478	-35.28829671	2.87376793	47.88877123	-5.60533211	39.58838888
0.27	19.95339795	-0.79722245	0.96957838	-21.03618897	-4.97422614	8.23665111	-68.69986887	-8.35502013	-1.91126568	-17.73118113	-11.1945757	-34.96745807	2.82589026	47.41346103	-4.40280958	40.03016512
0.28	19.72352054	-0.78752313	0.9706312	-21.43629505	-3.29097844	8.044862630000001	-68.49500949	-8.10748016	0.14350924	-17.69733628	-11.01828844	-35.03817338	2.91394618	46.77012655	-3.29163398	41.00132724
0.29	18.91058429	-0.77769634	0.97056853	-21.17418693	-0.88040363	7.89395272	-68.21149493999999	-7.13527171	2.05532551	-17.21401477	-12.5990783	-34.35778146	2.74115588	46.20579221	-2.0408495	41.47731753
0.3	18.55440506	-0.7677197100000001	0.97122838	-21.4629612	0.68631873	7.72814404	-67.28237867	-6.58254374	3.84531691	-17.09540251	-12.75771568	-34.25801502	2.69412139	45.65800437	-0.9612645	42.47472934
0.31	18.10517691	-0.75777207	0.97166248	-21.61429104	2.26790694	7.49084514	-66.04812328	-5.87216146	5.31789506	-16.92045441	-13.29455945	-34.04335824	2.5341959	45.20535929	0.21360706	43.35351747
0.32	17.70098168	-0.7476774	0.97207339	-21.8008232	3.65521519	7.18872947	-64.49205614	-5.02450274	6.52018217	-16.67177781	-14.4528599	-33.86645719	2.14821832	44.98874877	1.55613275	44.08197872
0.33	17.40553993	-0.73748604	0.97238008	-22.1296049	4.8210156	6.96443379	-62.62916962	-4.29472232	7.76000773	-16.50798374	-15.29613696	-33.77209996	1.80436816	44.80766088	2.79628565	45.05674072
0.34	17.13781026	-0.72720294	0.97249503	-22.41832841	5.9561333	6.71257996	-60.55862485	-4.06531846	8.60017783	-16.46561038	-15.5905426	-33.63967371	1.45816449	44.50088762	3.99535852	46.11754975
0.35	17.29365506	-0.71662694	0.97330003	-23.37721036	6.1553696	6.51393377	-58.02718645	-2.67985084	9.78146347	-16.12987976	-20.68562632	-34.063287	0.44310473	45.13689235	5.79204063	46.38411124
0.36	17.01033005	-0.70620988	0.97294424	-23.70871308	7.05693028	6.33055965	-55.44666905	-2.16028725	10.57034188	-16.07975032	-20.84135053	-33.90829493	0.11173958	44.80113795	6.87779957	47.64988018
0.37	17.33806001	-0.69532122	0.97355854	-24.8935771	6.8542539	6.25766795	-52.23639801	-1.12813262	10.67197376	-16.04825162	-21.48244874	-34.42801744	-0.5052023	45.01133056	8.196746559999999	48.34076955
0.38	17.85129971	-0.68433093	0.97408766	-26.29213364	6.39642771	6.2974485	-48.84726913	-0.42837937	10.93942842	-16.09024659	-22.27727232	-35.06592987	-1.27818819	45.35945995	9.615029939999999	49.0071702
0.39	18.20813497	-0.67330102	0.97413584	-27.49340531	6.06618681	6.31314717	-45.32727235	0.32607535	11.13587798	-16.00966368	-22.83684563	-35.51911698	-1.87534541	45.47808695	10.82204222	49.85422169
0.4	18.67738981	-0.66206214	0.97413552	-28.85365751	5.47781444	6.39498498	-41.56318077	1.02609967	11.22986471	-15.83933955	-23.15251998	-36.05348596	-2.46724429	45.58919302	11.94492707	50.73275829
0.41	19.20794585	-0.65058032	0.9739828699999999	-30.30445739	4.698804	6.5157935	-37.60338304	1.73415518	11.23020578	-15.55855737	-23.18342027	-36.59735406	-3.02810927	45.64786979	12.95665244	51.65165279
0.42	19.64951582	-0.63907462	0.97352713	-31.65629701	3.94333399	6.6486576	-33.51839695	2.40838441	11.17860138	-15.2430014	-23.04392768	-37.05070685	-3.47448812	45.5453228	13.83870468	52.6865933
0.43	20.49130177	-0.62731582	0.97341685	-33.46806581	2.5403099	6.81451401	-29.10722126	3.04860268	10.86868917	-14.49415488	-22.11140352	-37.87468831	-4.12513803	45.81774188	14.86079961	53.44861222
0.44	21.10146216	-0.61541896	0.97274418	-34.99874419	1.34742001	6.93957635	-24.66562237	3.72229497	10.29644492	-12.85267113	-19.52527391	-38.41234665	-4.69282271	45.85342305	15.75008411	54.23699849
0.45	21.70163001	-0.60328489	0.97195242	-36.52465221	0.07060856	7.04932917	-20.26493165	4.22086384	10.00998195	-12.49832819	-19.20984045	-38.90227696	-5.09943218	45.71456686	16.36218936	55.33931179
0.46	22.26611443	-0.59120323	0.97091313	-37.97348497	-1.21166512	7.10429216	-15.91917234	4.78364761	9.59887303	-11.9413967	-18.55818096	-39.36598233	-5.55843942	45.68845816	17.07015671	56.25484221
0.47	22.79841339	-0.5789769	0.96965792	-39.33419914	-2.46696835	7.02798174	-11.7835959	5.51612107	9.0362958	-11.09390632	-17.49993556	-39.7561033	-6.01477747	45.57414443	17.72934236	57.14045331
0.48	23.18289089	-0.56677449	0.96814206	-40.48369239	-3.54485721	6.86563032	-7.93754946	6.11562367	8.45079673	-10.3950015	-16.84081671	-40.00667613	-6.38069282	45.35070488	18.30201683	58.06485211
0.49	23.41973561	-0.5546059800000001	0.9664068099999999	-41.38946933	-4.39427035	6.5215829	-4.53740377	6.70202312	7.87026091	-9.85696821	-16.55230193	-40.11455474	-6.67939495	44.99414795	18.81162963	59.03698894
0.5	23.74448399	-0.5421030999999999	0.96471178	-42.4114961	-5.37206026	6.17879637	-1.48479408	7.49526543	7.33992597	-8.74436379	-15.67868606	-40.2861083	-7.13124751	44.99507555	19.37946595	59.6347282
0.51	23.62710477	-0.52978761	0.96267308	-42.84842013	-5.72062413	5.64969599	0.9212925199999999	7.91243257	7.08853068	-8.55479051	-15.79695721	-40.04917406	-7.27525466	44.54702237	19.64914241	60.48910778
0.52	24.08790902	-0.51731661	0.96155829	-43.85641221	-6.80127856	4.97222863	3.06851752	8.466725139999999	6.36062689	-8.07267401	-15.78272226	-40.42881769	-7.53922484	44.21774063	20.03805177	61.32193442
0.53	24.24562031	-0.50460858	0.96018767	-44.50807178	-7.44456549	4.1971733	4.55806243	9.040058399999999	5.9202233	-7.58259871	-15.60865015	-40.49914481	-7.77558377	43.88830232	20.29670911	61.98517117
0.54	24.20453425	-0.49191823	0.9588664	-44.88826717	-7.74958284	3.31716835	5.40195512	9.235358	5.63467578	-7.43155749	-15.58132476	-40.3928106	-7.86778605	43.41381253	20.38117199	62.69551826
0.55	24.26050655	-0.479125	0.95799525	-45.28876108	-8.152954169999999	2.26308452	5.82212928	9.30575234	5.18492593	-7.29297592	-15.47267936	-40.41835421	-7.94178015	42.93108309	20.42383637	63.35790335
0.5600000000000001	24.48781185	-0.46574403	0.95757565	-45.88901214	-8.8299927	1.14948849	6.03206668	9.736286740000001	4.23283192	-6.95894582	-14.76556511	-40.56562159	-8.05641389	42.52170238	20.28377062	63.94753774
0.57	24.49947619	-0.45222273	0.95717366	-46.14868302	-9.17132516	-0.18306186	5.74438103	9.805528410000001	3.34576444	-6.38693426	-12.88978489	-40.50853429	-8.12713115	42.07544231	20.00769528	64.45958524
0.58	24.47291549	-0.43889488	0.95712807	-46.28066851	-9.447702899999999	-1.59237196	5.146089	9.04797093	2.85661577	-6.34214694	-12.75526798	-40.46663097	-8.163356930000001	41.68731777	19.76295035	64.74135317
0.59	24.43962878	-0.42495567	0.95737492	-46.2727963	-9.798623510000001	-3.36598937	4.59981231	8.821804009999999	0.86744054	-4.7054471	-8.70078363	-40.36660005	-8.075474079999999	41.04289409	19.18417571	65.28132603
0.6	24.4509319	-0.41130431	0.95805785	-46.17857251	-10.15699632	-5.30390343	3.71537414	7.80691305	-0.05485382	-4.61673558	-8.634902	-40.36281162	-8.06202811	40.62237224	18.75419747	65.39873746000001
0.61	24.2574596	-0.397087	0.95875719	-45.74951723	-10.44388234	-7.58395367	3.01283322	7.17935964	-1.56756977	-3.69215546	-7.95613182	-40.1056219	-7.90088564	40.03021055	17.93783196	65.6977174
0.62	24.27163061	-0.38326807	0.9600386	-45.33004003	-10.93031361	-10.10354834	2.2183645	5.72702602	-2.53424835	-3.37001021	-7.85037513	-40.095369	-7.83710495	39.6717336	17.38208973	65.55838073
0.63	24.23166125	-0.36927356	0.9615221900000001	-44.67137371	-11.45952302	-12.96470374	1.56684888	4.16929819	-3.46185888	-2.86723606	-7.73774336	-40.01271615	-7.73019028	39.31699647	16.70630291	65.31052395
0.64	23.85629633	-0.35505253	0.96272182	-43.51906068	-11.72531856	-16.11009049	1.06662674	2.76467968	-4.49277601	-0.19700713	-7.40890682	-39.60238663	-7.4382967	38.72600244	15.67684839	65.31435105
0.65	23.88863047	-0.34126794	0.96463854	-42.54153159	-12.4564685	-19.51051579	0.67727526	0.46544772	-4.98695793	0.37608948	-7.4608193	-39.58728071	-7.34673721	38.56163268	15.04324854	64.71336372
0.66	24.11075859	-0.32771094	0.96679976	-41.62452778	-13.50852988	-23.06703106	0.50537668	-1.76844812	-4.91970572	0.7055615200000001	-7.42194251	-39.81325375	-7.2006886	38.40564714	14.39341736	64.0995348
0.67	23.40751915	-0.31402061	0.96790888	-39.47574593	-13.51101172	-26.93249172	0.23511833	-4.52009426	-5.13207568	6.15619526	-8.69944673	-39.05757846	-6.76370088	37.94218107	13.38639514	63.57852809
0.68	23.69364053	-0.30090351	0.97005665	-38.32568936	-14.7450583	-30.70711378	0.36036839	-6.97583346	-4.71738983	6.29042191	-8.63486045	-39.33891926	-6.62833374	37.96557482	12.8302234	62.77248191
0.6899999999999999	23.21762384	-0.28774666	0.9712897	-36.10386289	-15.06427741	-34.74015721	0.36963548	-10.03889462	-4.47379099	6.46773674	-8.75382774	-38.80609834	-6.43517564	38.11999069	12.21335125	61.50737909
0.7	22.7744061	-0.27514732	0.97236108	-33.77550592	-15.4536766	-38.77231304	0.49817068	-12.30531845	-3.70596828	6.71560851	-9.14585806	-38.34860319	-6.03314682	37.96045417	11.55510979	60.52001987
0.71	22.57010837	-0.262718	0.97357688	-31.68539392	-16.16215089	-42.53143888	0.78296037	-14.59752521	-3.06791578	6.55930337	-9.403468950000001	-38.13313957	-5.75119178	38.10562993	11.02552882	59.36002354
