Model Marker Errors from IK
version=1
nRows=55
nColumns=4
inDegrees=no
endheader
time	total_squared_error	marker_error_RMS	marker_error_max
      0.17000000	      0.02420075	      0.02459713	      0.07038928
      0.18000000	      0.02430533	      0.02465022	      0.07011567
      0.19000000	      0.02442044	      0.02470852	      0.06989283
      0.20000000	      0.02453078	      0.02476428	      0.06934926
      0.21000000	      0.02465847	      0.02482865	      0.06904945
      0.22000000	      0.02479925	      0.02489942	      0.06857481
      0.23000000	      0.02496484	      0.02498241	      0.06805375
      0.24000000	      0.02515559	      0.02507767	      0.06761001
      0.25000000	      0.02538939	      0.02519394	      0.06758475
      0.26000000	      0.02563418	      0.02531510	      0.06654037
      0.27000000	      0.02588308	      0.02543771	      0.06584274
      0.28000000	      0.02612694	      0.02555726	      0.06597980
      0.29000000	      0.02632776	      0.02565529	      0.06454750
      0.30000000	      0.02649558	      0.02573693	      0.06482001
      0.31000000	      0.02661679	      0.02579573	      0.06518020
      0.32000000	      0.02668990	      0.02583113	      0.06554104
      0.33000000	      0.02672898	      0.02585004	      0.06574445
      0.34000000	      0.02675473	      0.02586249	      0.06599570
      0.35000000	      0.02672109	      0.02584622	      0.06592090
      0.36000000	      0.02671475	      0.02584316	      0.06608245
      0.37000000	      0.02669437	      0.02583330	      0.06599704
      0.38000000	      0.02667952	      0.02582611	      0.06581265
      0.39000000	      0.02667326	      0.02582308	      0.06573083
      0.40000000	      0.02667494	      0.02582390	      0.06563829
      0.41000000	      0.02668611	      0.02582930	      0.06558676
      0.42000000	      0.02670919	      0.02584047	      0.06556900
      0.43000000	      0.02673910	      0.02585493	      0.06532335
      0.44000000	      0.02678076	      0.02587506	      0.06528932
      0.45000000	      0.02684203	      0.02590465	      0.06529840
      0.46000000	      0.02692520	      0.02594475	      0.06521177
      0.47000000	      0.02703210	      0.02599620	      0.06514926
      0.48000000	      0.02716908	      0.02606198	      0.06511436
      0.49000000	      0.02733233	      0.02614017	      0.06513288
      0.50000000	      0.02750611	      0.02622314	      0.06507660
      0.51000000	      0.02769352	      0.02631232	      0.06533697
      0.52000000	      0.02786578	      0.02639402	      0.06506325
      0.53000000	      0.02802588	      0.02646974	      0.06504123
      0.54000000	      0.02816817	      0.02653685	      0.06537213
      0.55000000	      0.02828466	      0.02659166	      0.06641676
      0.56000000	      0.02835845	      0.02662633	      0.06800866
      0.57000000	      0.02839370	      0.02664287	      0.06923590
      0.58000000	      0.02839489	      0.02664343	      0.07009218
      0.59000000	      0.02832496	      0.02661060	      0.07125587
      0.60000000	      0.02821839	      0.02656049	      0.07197050
      0.61000000	      0.02805628	      0.02648409	      0.07263080
      0.62000000	      0.02786101	      0.02639177	      0.07291818
      0.63000000	      0.02764029	      0.02628702	      0.07301297
      0.64000000	      0.02738872	      0.02616712	      0.07288550
      0.65000000	      0.02715296	      0.02605425	      0.07268188
      0.66000000	      0.02694217	      0.02595292	      0.07269305
      0.67000000	      0.02671252	      0.02584208	      0.07188718
      0.68000000	      0.02655142	      0.02576404	      0.07186098
      0.69000000	      0.02640995	      0.02569531	      0.07123984
      0.70000000	      0.02631373	      0.02564845	      0.07047685
      0.71000000	      0.02626389	      0.02562416	      0.07022305
