Coordinates
version=1
nRows=55
nColumns=34
inDegrees=yes

Units are S.I. units (second, meters, Newtons, ...)
If the header above contains a line with 'inDegrees', this indicates whether rotational values are in degrees (yes) or radians (no).

endheader
time	pelvis_tilt	pelvis_list	pelvis_rotation	pelvis_tx	pelvis_ty	pelvis_tz	hip_flexion_l	hip_adduction_l	hip_rotation_l	hip_flexion_r	hip_adduction_r	hip_rotation_r	knee_angle_l_beta	knee_angle_r_beta	knee_angle_l	knee_angle_r	ankle_angle_l	ankle_angle_r	subtalar_angle_l	subtalar_angle_r	mtp_angle_l	mtp_angle_r	lumbar_ext	lumbar_bend	lumbar_rota	shoulder_flexion_r	shoulder_adduction_r	shoulder_rotation_r	elbow_flexion_r	shoulder_flexion_l	shoulder_adduction_l	shoulder_rotation_l	elbow_flexion_l
      0.17000000	     23.94098480	      7.39709243	     -7.58071775	     -0.90365151	      0.96389924	      0.26774167	    -17.37244112	     13.49511406	      9.11675434	    -29.68512081	    -10.84026724	     -8.96506932	     -0.10164075	      0.83383624	      5.82358618	    -47.77529722	    -14.17945370	    -13.36306357	    -11.57310118	     22.70154767	    -18.45053292	      5.50378403	    -38.25920019	    -12.45734645	     -3.47176592	      2.07099080	      5.85770799	    -37.92069225	     54.48312320	    -13.23801515	      4.24445972	    -46.90974475	     36.79154369
      0.18000000	     23.62084740	      8.00315828	     -8.04408779	     -0.89159839	      0.96440123	      0.26817564	    -17.84616990	     14.17889873	      9.70551348	    -27.26100218	    -11.91790358	     -8.10181464	     -0.10677509	      0.89553408	      6.11776224	    -51.31032312	    -13.79195312	    -14.45386250	    -11.99308941	     21.68182707	    -18.70921382	      3.28914476	    -37.87619319	    -13.20650481	     -3.78068797	      2.05283541	      5.77293143	    -37.55253709	     53.83597073	    -12.69633440	      3.91861393	    -46.24170668	     36.96398101
      0.19000000	     23.42199685	      8.39336411	     -8.52033615	     -0.87981766	      0.96508513	      0.26866710	    -18.50522726	     14.67327329	      9.97098517	    -24.95773578	    -12.72599852	     -7.08427868	     -0.11346005	      0.95032370	      6.50078174	    -54.44953702	    -13.30856811	    -15.34774473	    -12.10146282	     20.55642478	    -18.68991874	      2.76406862	    -37.64944082	    -13.77568242	     -4.05678910	      2.11480755	      5.64345966	    -37.00366944	     53.12668327	    -12.17912707	      3.64236340	    -45.55988653	     37.36033732
      0.20000000	     22.93837478	      8.62768610	     -9.01084970	     -0.86858274	      0.96544755	      0.26916493	    -18.80595858	     15.00188727	     10.14856521	    -22.20134749	    -13.23508670	     -5.77424002	     -0.11917502	      1.00605541	      6.82822573	    -57.64272917	    -12.66904905	    -14.61751457	    -12.22732431	     19.64574763	    -19.03778389	     -1.28834452	    -37.14496950	    -14.16664308	     -3.92089545	      2.13108152	      5.49019942	    -36.73745153	     52.45953246	    -11.36888927	      3.29063040	    -44.70223560	     37.37445874
      0.21000000	     22.78342785	      8.54335556	     -9.45411962	     -0.85751775	      0.96628155	      0.26970239	    -19.57612601	     15.04660091	     10.15363516	    -19.94847641	    -13.32309502	     -4.45413504	     -0.12773309	      1.04967641	      7.31856710	    -60.14202809	    -12.10092947	    -14.10160576	    -12.33815771	     18.45076699	    -19.02310057	     -1.48656211	    -37.02337332	    -14.27145546	     -3.94183320	      2.28935125	      5.28766107	    -36.10818025	     51.68230134	    -10.71394671	      3.06296975	    -43.97767060	     37.86233447
      0.22000000	     22.27457979	      8.42784412	    -10.00670244	     -0.84707310	      0.96672164	      0.27021806	    -19.78747594	     15.10775957	      9.78160179	    -17.13996847	    -13.27608601	     -2.89021890	     -0.13193771	      1.09207462	      7.55947402	    -62.57126639	    -11.57662639	    -12.97266950	    -12.34781968	     17.30535459	    -19.05407784	     -2.49537654	    -36.54577231	    -14.35806701	     -3.56861038	      2.43682333	      5.01688686	    -35.58055923	     50.80480745	     -9.76451813	      2.80730997	    -43.24604996	     37.99712606
      0.23000000	     21.80973070	      8.13480654	    -10.51434001	     -0.83677852	      0.96722423	      0.27074396	    -20.08313721	     15.00356417	      9.28748133	    -14.47096192	    -12.91466264	     -1.35567431	     -0.13680184	      1.12775948	      7.83816778	    -64.61585835	    -10.93526737	    -11.27259136	    -12.28713106	     16.26179604	    -19.04314270	     -3.96230025	    -36.14768965	    -14.24929003	     -3.07437464	      2.53972848	      4.75423040	    -35.15330274	     50.06389998	     -8.77867894	      2.55971574	    -42.32866546	     38.23717865
      0.24000000	     21.38219703	      7.70217664	    -10.90276626	     -0.82667286	      0.96784241	      0.27119714	    -20.41180739	     14.73881689	      8.74942814	    -11.97203363	    -12.24887384	      0.04534648	     -0.14050692	      1.15768306	      8.05045367	    -66.33035348	    -10.19110087	     -8.69042875	    -11.95746653	     15.27020023	    -18.76159800	     -7.84323717	    -35.85912779	    -13.94080005	     -2.45638566	      2.55872386	      4.53226940	    -34.97330135	     49.49990268	     -7.68289001	      2.29967466	    -41.21976964	     38.53251010
      0.25000000	     21.21773978	      7.08609172	    -11.08997702	     -0.81664954	      0.96891730	      0.27131106	    -21.07645425	     14.29126089	      8.50803553	    -10.03831137	    -11.35151265	      1.13252635	     -0.14399481	      1.17461481	      8.25029466	    -67.30047143	     -9.71756041	     -6.53699222	    -12.14999010	     14.11406063	    -18.72400715	     -7.61856477	    -35.91811972	    -13.35982955	     -2.27316831	      2.77515696	      4.29599502	    -34.50022934	     48.76258490	     -6.76046575	      2.17961168	    -40.50976649	     39.23669721
      0.26000000	     20.47482033	      6.59157983	    -11.65631147	     -0.80700491	      0.96908058	      0.27179363	    -20.91810715	     14.04591037	      7.54799671	     -7.22981150	    -10.44128606	      2.69630703	     -0.14428348	      1.19112636	      8.26683438	    -68.24651334	     -9.11973194	     -4.55004437	    -12.07596918	     12.79105332	    -18.53480533	     -8.45607478	    -35.28829671	    -13.03516200	     -1.45561342	      2.87376793	      3.97221771	    -33.96535899	     47.88877123	     -5.60533211	      2.03446657	    -39.54881976	     39.58838888
      0.27000000	     19.95339795	      6.05051430	    -11.91047112	     -0.79722245	      0.96957838	      0.27207099	    -21.03618897	     13.67003157	      6.86158704	     -4.97422614	     -9.39944080	      3.80577913	     -0.14375668	      1.19903891	      8.23665111	    -68.69986887	     -8.35502013	     -1.91126568	    -11.66693607	     11.72463472	    -17.73118113	    -11.19457570	    -34.96745807	    -12.50871833	     -0.77305571	      2.82589026	      3.79548108	    -33.91502191	     47.41346103	     -4.40280958	      1.84458420	    -38.38611764	     40.03016512
      0.28000000	     19.72352054	      5.49512744	    -11.85207623	     -0.78752313	      0.97063120	      0.27165516	    -21.43629505	     13.24726274	      6.67939225	     -3.29097844	     -8.44848272	      4.43387011	     -0.14040934	      1.19546344	      8.04486263	    -68.49500949	     -8.10748016	      0.14350924	    -11.81029429	     10.72339858	    -17.69733628	    -11.01828844	    -35.03817338	    -11.83166901	     -0.57982700	      2.91394618	      3.60330634	    -33.67514573	     46.77012655	     -3.29163398	      1.83480619	    -37.75080068	     41.00132724
      0.29000000	     18.91058429	      5.00543231	    -12.14941694	     -0.77769634	      0.97056853	      0.27190648	    -21.17418693	     12.90960768	      5.83598128	     -0.88040363	     -7.34713918	      5.47447573	     -0.13777547	      1.19051517	      7.89395272	    -68.21149494	     -7.13527171	      2.05532551	    -11.48201981	      9.22239102	    -17.21401477	    -12.59907830	    -34.35778146	    -11.32580659	      0.32269948	      2.74115588	      3.39460648	    -33.60424646	     46.20579221	     -2.04084950	      1.71404649	    -36.41220219	     41.47731753
      0.30000000	     18.55440506	      4.49180641	    -11.99921295	     -0.76771971	      0.97122838	      0.27149438	    -21.46296120	     12.47505083	      5.71176120	      0.68631873	     -6.38945107	      5.91802923	     -0.13488156	      1.17429904	      7.72814404	    -67.28237867	     -6.58254374	      3.84531691	    -11.66121612	      8.32135690	    -17.09540251	    -12.75771568	    -34.25801502	    -10.61151987	      0.52151316	      2.69412139	      3.27629661	    -33.47479498	     45.65800437	     -0.96126450	      1.70174760	    -35.60135292	     42.47472934
      0.31000000	     18.10517691	      4.01230479	    -11.82338748	     -0.75777207	      0.97166248	      0.27114424	    -21.61429104	     12.03250829	      5.62162906	      2.26790694	     -5.44791527	      6.27658554	     -0.13073991	      1.15275722	      7.49084514	    -66.04812328	     -5.87216146	      5.31789506	    -11.66085033	      7.22439847	    -16.92045441	    -13.29455945	    -34.04335824	     -9.91280939	      0.86837101	      2.53419590	      3.18758196	    -33.49718097	     45.20535929	      0.21360706	      1.67086369	    -34.53705099	     43.35351747
      0.32000000	     17.70098168	      3.56850073	    -11.48635947	     -0.74767740	      0.97207339	      0.27063416	    -21.80082320	     11.57700912	      5.58679300	      3.65521519	     -4.57382009	      6.44286897	     -0.12546700	      1.12559872	      7.18872947	    -64.49205614	     -5.02450274	      6.52018217	    -11.38129487	      6.02000505	    -16.67177781	    -14.45285990	    -33.86645719	     -9.18265993	      1.36529072	      2.14821832	      3.14674046	    -33.87315150	     44.98874877	      1.55613275	      1.64153691	    -33.16838162	     44.08197872
      0.33000000	     17.40553993	      3.22581538	    -11.13090596	     -0.73748604	      0.97238008	      0.27014777	    -22.12960490	     11.22887500	      5.65771117	      4.82101560	     -3.91264707	      6.47579302	     -0.12155230	      1.09308522	      6.96443379	    -62.62916962	     -4.29472232	      7.76000773	    -11.26187799	      5.11205290	    -16.50798374	    -15.29613696	    -33.77209996	     -8.55830320	      1.67954520	      1.80436816	      3.18976459	    -34.29322913	     44.80766088	      2.79628565	      1.66643800	    -32.00210262	     45.05674072
      0.34000000	     17.13781026	      3.16301561	    -10.83326717	     -0.72720294	      0.97249503	      0.26958399	    -22.41832841	     11.19518648	      5.67481989	      5.95613330	     -3.61708700	      6.58187303	     -0.11715662	      1.05694739	      6.71257996	    -60.55862485	     -4.06531846	      8.60017783	    -11.23713266	      4.63462793	    -16.46561038	    -15.59054260	    -33.63967371	     -8.23864218	      1.81752628	      1.45816449	      3.21180245	    -34.46273596	     44.50088762	      3.99535852	      1.79472144	    -31.38955949	     46.11754975
      0.35000000	     17.29365506	      2.40324822	    -10.07067261	     -0.71662694	      0.97330003	      0.26900817	    -23.37721036	     10.31042643	      5.84388163	      6.15536960	     -2.64408205	      6.00660303	     -0.11368959	      1.01276546	      6.51393377	    -58.02718645	     -2.67985084	      9.78146347	    -10.30754934	      3.17976565	    -16.12987976	    -20.68562632	    -34.06328700	     -7.14541838	      2.96951412	      0.44310473	      3.37641749	    -36.08589474	     45.13689235	      5.79204063	      1.83154609	    -28.74647590	     46.38411124
      0.36000000	     17.01033005	      2.26374648	     -9.67927198	     -0.70620988	      0.97294424	      0.26860043	    -23.70871308	     10.12524926	      6.04427565	      7.05693028	     -2.33080163	      5.87914956	     -0.11048911	      0.96772693	      6.33055965	    -55.44666905	     -2.16028725	     10.57034188	    -10.39831297	      2.69917489	    -16.07975032	    -20.84135053	    -33.90829493	     -6.75036614	      3.07386843	      0.11173958	      3.48528938	    -36.35706491	     44.80113795	      6.87779957	      1.97895130	    -27.84513443	     47.64988018
      0.37000000	     17.33806001	      1.65537478	     -8.74486920	     -0.69532122	      0.97355854	      0.26771567	    -24.89357710	      9.32017127	      6.67487728	      6.85425390	     -1.73222971	      5.01744880	     -0.10921691	      0.91169713	      6.25766795	    -52.23639801	     -1.12813262	     10.67197376	    -10.08922319	      1.85170361	    -16.04825162	    -21.48244874	    -34.42801744	     -5.69849820	      3.30096897	     -0.50520230	      3.68115847	    -37.25456181	     45.01133056	      8.19674656	      2.04776673	    -26.03750271	     48.34076955
      0.38000000	     17.85129971	      1.11553026	     -8.09722727	     -0.68433093	      0.97408766	      0.26726838	    -26.29213364	      8.71014147	      6.74489615	      6.39642771	     -1.22464052	      4.38123332	     -0.10991121	      0.85254568	      6.29744850	    -48.84726913	     -0.42837937	     10.93942842	     -9.57886159	      1.29556000	    -16.09024659	    -22.27727232	    -35.06592987	     -4.91964463	      3.94343528	     -1.27818819	      3.88880380	    -38.28245612	     45.35945995	      9.61502994	      2.27610607	    -24.38112997	     49.00717020
      0.39000000	     18.20813497	      0.66374450	     -7.46680923	     -0.67330102	      0.97413584	      0.26684584	    -27.49340531	      8.14654784	      6.90017735	      6.06618681	     -0.80572908	      3.69779594	     -0.11018520	      0.79111014	      6.31314717	    -45.32727235	      0.32607535	     11.13587798	     -9.14587051	      1.09224306	    -16.00966368	    -22.83684563	    -35.51911698	     -4.20298788	      4.31721050	     -1.87534541	      4.10559288	    -39.07644785	     45.47808695	     10.82204222	      2.46040692	    -22.83061187	     49.85422169
      0.40000000	     18.67738981	      0.19064522	     -6.85391341	     -0.66206214	      0.97413552	      0.26650777	    -28.85365751	      7.56841513	      6.91907496	      5.47781444	     -0.38716646	      2.95834441	     -0.11161354	      0.72541435	      6.39498498	    -41.56318077	      1.02609967	     11.22986471	     -8.65325317	      1.14451401	    -15.83933955	    -23.15251998	    -36.05348596	     -3.49489798	      4.67079321	     -2.46724429	      4.33435044	    -39.83090798	     45.58919302	     11.94492707	      2.65931467	    -21.33777576	     50.73275829
      0.41000000	     19.20794585	     -0.29173853	     -6.25152384	     -0.65058032	      0.97398287	      0.26626325	    -30.30445739	      6.97272491	      6.82839867	      4.69880400	      0.02912840	      2.12874709	     -0.11372205	      0.65630284	      6.51579350	    -37.60338304	      1.73415518	     11.23020578	     -8.11715213	      1.51270586	    -15.55855737	    -23.18342027	    -36.59735406	     -2.78218935	      4.96854321	     -3.02810927	      4.56848097	    -40.53304638	     45.64786979	     12.95665244	      2.83358287	    -19.85369702	     51.65165279
      0.42000000	     19.64951582	     -0.73666148	     -5.73170326	     -0.63907462	      0.97352713	      0.26619593	    -31.65629701	      6.42070772	      6.71798795	      3.94333399	      0.43553141	      1.31114320	     -0.11604097	      0.58500639	      6.64865760	    -33.51839695	      2.40838441	     11.17860138	     -7.63811189	      2.23995846	    -15.24300140	    -23.04392768	    -37.05070685	     -2.15147714	      5.18173725	     -3.47448812	      4.79346052	    -41.11505876	     45.54532280	     13.83870468	      2.95957917	    -18.41489934	     52.68659330
      0.43000000	     20.49130177	     -1.25755295	     -5.15863359	     -0.62731582	      0.97341685	      0.26609343	    -33.46806581	      5.80204885	      6.23434948	      2.54030990	      0.89675043	      0.34312400	     -0.11893571	      0.50801685	      6.81451401	    -29.10722126	      3.04860268	     10.86868917	     -6.54617890	      3.16879307	    -14.49415488	    -22.11140352	    -37.87468831	     -1.46155937	      5.64129101	     -4.12513803	      5.06699409	    -41.92465215	     45.81774188	     14.86079961	      3.20906501	    -16.94655523	     53.44861222
      0.44000000	     21.10146216	     -1.67148279	     -4.67323981	     -0.61541896	      0.97274418	      0.26624800	    -34.99874419	      5.28668493	      5.63351410	      1.34742001	      1.30497378	     -0.57665129	     -0.12111846	      0.43049632	      6.93957635	    -24.66562237	      3.72229497	     10.29644492	     -5.38881997	      4.48837877	    -12.85267113	    -19.52527391	    -38.41234665	     -0.90355438	      6.01564275	     -4.69282271	      5.33593967	    -42.59062491	     45.85342305	     15.75008411	      3.36662597	    -15.41858505	     54.23699849
      0.45000000	     21.70163001	     -2.00430342	     -4.16327445	     -0.60328489	      0.97195242	      0.26636438	    -36.52465221	      4.81972252	      5.35161241	      0.07060856	      1.69033817	     -1.49524041	     -0.12303400	      0.35368978	      7.04932917	    -20.26493165	      4.22086384	     10.00998195	     -4.83837132	      6.07841193	    -12.49832819	    -19.20984045	    -38.90227696	     -0.38299672	      6.00857625	     -5.09943218	      5.56620571	    -42.97838729	     45.71456686	     16.36218936	      3.44894488	    -14.28231648	     55.33931179
      0.46000000	     22.26611443	     -2.25150366	     -3.72019786	     -0.59120323	      0.97091313	      0.26671934	    -37.97348497	      4.43932849	      4.93657876	     -1.21166512	      2.05966002	     -2.23246321	     -0.12399329	      0.27784197	      7.10429216	    -15.91917234	      4.78364761	      9.59887303	     -3.91734525	      7.73362682	    -11.94139670	    -18.55818096	    -39.36598233	      0.00112877	      6.15980478	     -5.55843942	      5.84416915	    -43.45215051	     45.68845816	     17.07015671	      3.56049347	    -13.06012520	     56.25484221
      0.47000000	     22.79841339	     -2.40154734	     -3.36554994	     -0.57897690	      0.96965792	      0.26731756	    -39.33419914	      4.18794115	      4.30635547	     -2.46696835	      2.37525647	     -2.76730880	     -0.12266142	      0.20566255	      7.02798174	    -11.78359590	      5.51612107	      9.03629580	     -2.85770996	      9.42828974	    -11.09390632	    -17.49993556	    -39.75610330	      0.24305436	      6.34606485	     -6.01477747	      6.12643683	    -44.03924036	     45.57414443	     17.72934236	      3.61162087	    -11.69088756	     57.14045331
      0.48000000	     23.18289089	     -2.43154133	     -3.08667945	     -0.56677449	      0.96814206	      0.26800945	    -40.48369239	      4.05990867	      3.84334454	     -3.54485721	      2.61354321	     -2.93974051	     -0.11982785	      0.13853637	      6.86563032	     -7.93754946	      6.11562367	      8.45079673	     -1.98141150	     10.76803785	    -10.39500150	    -16.84081671	    -40.00667613	      0.34790546	      6.41366948	     -6.38069282	      6.37421177	    -44.46042091	     45.35070488	     18.30201683	      3.65324041	    -10.49582171	     58.06485211
      0.49000000	     23.41973561	     -2.33660726	     -2.94548371	     -0.55460598	      0.96640681	      0.26900519	    -41.38946933	      4.09261172	      3.44513104	     -4.39427035	      2.73808621	     -2.80485453	     -0.11382309	      0.07919264	      6.52158290	     -4.53740377	      6.70202312	      7.87026091	     -1.29254422	     11.84336970	     -9.85696821	    -16.55230193	    -40.11455474	      0.25522776	      6.47658217	     -6.67939495	      6.61309482	    -44.86586239	     44.99414795	     18.81162963	      3.64964726	     -9.36966888	     59.03698894
      0.50000000	     23.74448399	     -2.40111364	     -2.71819088	     -0.54210310	      0.96471178	      0.26990873	    -42.41149610	      3.92530397	      2.67141943	     -5.37206026	      3.02767141	     -2.77360181	     -0.10784034	      0.02591455	      6.17879637	     -1.48479408	      7.49526543	      7.33992597	      0.24148602	     12.95443338	     -8.74436379	    -15.67868606	    -40.28610830	      0.35762431	      6.75572366	     -7.13124751	      6.88252905	    -45.42530000	     44.99507555	     19.37946595	      3.76159098	     -8.20235970	     59.63472820
      0.51000000	     23.62710477	     -2.20457674	     -2.74815493	     -0.52978761	      0.96267308	      0.27100941	    -42.84842013	      4.12128964	      2.51521606	     -5.72062413	      3.01625423	     -2.13040379	     -0.09860580	     -0.01607959	      5.64969599	      0.92129252	      7.91243257	      7.08853068	      0.28688231	     13.60738836	     -8.55479051	    -15.79695721	    -40.04917406	      0.16684888	      6.63077996	     -7.27525466	      7.05404601	    -45.65161622	     44.54702237	     19.64914241	      3.67918836	     -7.37943880	     60.48910778
      0.52000000	     24.08790902	     -2.25352647	     -2.35714179	     -0.51731661	      0.96155829	      0.27175082	    -43.85641221	      3.83264127	      2.10632390	     -6.80127856	      3.30772782	     -2.22773548	     -0.08678176	     -0.05355573	      4.97222863	      3.06851752	      8.46672514	      6.36062689	      1.53645338	     13.86045412	     -8.07267401	    -15.78272226	    -40.42881769	      0.33438482	      6.63574845	     -7.53922484	      7.24008752	    -45.99737814	     44.21774063	     20.03805177	      3.74122894	     -6.47857632	     61.32193442
      0.53000000	     24.24562031	     -2.38502465	     -2.19626560	     -0.50460858	      0.96018767	      0.27274112	    -44.50807178	      3.60421750	      1.48435224	     -7.44456549	      3.66366876	     -2.09756803	     -0.07325449	     -0.07955320	      4.19717330	      4.55806243	      9.04005840	      5.92022330	      2.71942626	     14.26056853	     -7.58259871	    -15.60865015	    -40.49914481	      0.50325387	      6.78386937	     -7.77558377	      7.37533558	    -46.34564356	     43.88830232	     20.29670911	      3.79148362	     -5.68050768	     61.98517117
      0.54000000	     24.20453425	     -2.49945159	     -2.17373415	     -0.49191823	      0.95886640	      0.27386795	    -44.88826717	      3.46805242	      1.19567080	     -7.74958284	      3.97729634	     -1.86200042	     -0.05789551	     -0.09428190	      3.31716835	      5.40195512	      9.23535800	      5.63467578	      2.89548060	     14.55730622	     -7.43155749	    -15.58132476	    -40.39281060	      0.60718224	      6.85917421	     -7.86778605	      7.42976547	    -46.55796668	     43.41381253	     20.38117199	      3.78862013	     -5.08964173	     62.69551826
      0.55000000	     24.26050655	     -2.74943189	     -2.01807776	     -0.47912500	      0.95799525	      0.27483465	    -45.28876108	      3.11987587	      0.86769124	     -8.15295417	      4.45352099	     -1.86518518	     -0.03949828	     -0.10161533	      2.26308452	      5.82212928	      9.30575234	      5.18492593	      3.31785051	     14.68962896	     -7.29297592	    -15.47267936	    -40.41835421	      0.90011760	      6.94491117	     -7.94178015	      7.45602462	    -46.75362671	     42.93108309	     20.42383637	      3.83073480	     -4.60455735	     63.35790335
      0.56000000	     24.48781185	     -3.30508433	     -1.71166113	     -0.46574403	      0.95757565	      0.27576260	    -45.88901214	      2.38405805	      0.12041038	     -8.82999270	      5.28547672	     -2.24651404	     -0.02006236	     -0.10527942	      1.14948849	      6.03206668	      9.73628674	      4.23283192	      5.01917580	     14.74701131	     -6.95894582	    -14.76556511	    -40.56562159	      1.55197872	      7.05001904	     -8.05641389	      7.47452755	    -46.92738160	     42.52170238	     20.28377062	      3.87736567	     -4.29870614	     63.94753774
      0.57000000	     24.49947619	     -3.86131187	     -1.61530971	     -0.45222273	      0.95717366	      0.27678352	    -46.14868302	      1.78388393	     -0.97225470	     -9.17132516	      6.05548628	     -2.40647110	      0.00319503	     -0.10025836	     -0.18306186	      5.74438103	      9.80552841	      3.34576444	      6.76697708	     14.84322506	     -6.38693426	    -12.88978489	    -40.50853429	      2.12831939	      7.23987819	     -8.12713115	      7.40535814	    -46.98742361	     42.07544231	     20.00769528	      3.94573295	     -4.17634611	     64.45958524
      0.58000000	     24.47291549	     -4.24934952	     -1.57352817	     -0.43889488	      0.95712807	      0.27785149	    -46.28066851	      1.34678896	     -0.95236240	     -9.44770290	      6.60747475	     -2.30651119	      0.02779213	     -0.08981620	     -1.59237196	      5.14608900	      9.04797093	      2.85661577	      6.87026767	     14.86082527	     -6.34214694	    -12.75526798	    -40.46663097	      2.54003496	      7.43032513	     -8.16335693	      7.35288781	    -47.09690470	     41.68731777	     19.76295035	      4.01684353	     -4.00332487	     64.74135317
      0.59000000	     24.43962878	     -4.97336366	     -1.40626308	     -0.42495567	      0.95737492	      0.27878979	    -46.27279630	      0.52215241	     -2.11796909	     -9.79862351	      7.53000627	     -2.68949152	      0.05874760	     -0.08028187	     -3.36598937	      4.59981231	      8.82180401	      0.86744054	      8.30089911	     14.52285974	     -4.70544710	     -8.70078363	    -40.36660005	      3.32152122	      7.47134492	     -8.07547408	      7.19610002	    -47.05855321	     41.04289409	     19.18417571	      4.03708011	     -4.17701848	     65.28132603
      0.60000000	     24.45093190	     -5.46333684	     -1.32080318	     -0.41130431	      0.95805785	      0.27975560	    -46.17857251	     -0.04920548	     -2.39188881	    -10.15699632	      8.15455396	     -2.77115688	      0.09257058	     -0.06484551	     -5.30390343	      3.71537414	      7.80691305	     -0.05485382	      8.54927742	     14.32502025	     -4.61673558	     -8.63490200	    -40.36281162	      3.84977044	      7.65762043	     -8.06202811	      7.08983800	    -47.14332895	     40.62237224	     18.75419747	      4.13498746	     -4.21480385	     65.39873746
      0.61000000	     24.25745960	     -6.22701994	     -1.27247134	     -0.39708700	      0.95875719	      0.28081222	    -45.74951723	     -0.91132516	     -3.37411565	    -10.44388234	      9.05147079	     -2.36786205	      0.13236496	     -0.05258386	     -7.58395367	      3.01283322	      7.17935964	     -1.56756977	     10.29387540	     13.17325243	     -3.69215546	     -7.95613182	    -40.10562190	      4.64521248	      7.65178737	     -7.90088564	      6.88108674	    -46.93269234	     40.03021055	     17.93783196	      4.17647994	     -4.76103064	     65.69771740
      0.62000000	     24.27163061	     -6.70439542	     -1.21721966	     -0.38326807	      0.96003860	      0.28175776	    -45.33004003	     -1.50906009	     -3.70750753	    -10.93031361	      9.59845384	     -2.28750694	      0.17634018	     -0.03871776	    -10.10354834	      2.21836450	      5.72702602	     -2.53424835	     10.69596930	     12.96531351	     -3.37001021	     -7.85037513	    -40.09536900	      5.15785104	      7.82921691	     -7.83710495	      6.74928254	    -46.97744611	     39.67173360	     17.38208973	      4.30577107	     -4.97191303	     65.55838073
      0.63000000	     24.23166125	     -7.21873324	     -1.13920872	     -0.36927356	      0.96152219	      0.28272462	    -44.67137371	     -2.21347082	     -4.12185892	    -11.45952302	     10.17294936	     -2.04689403	      0.22627677	     -0.02734667	    -12.96470374	      1.56684888	      4.16929819	     -3.46185888	     11.45215596	     12.55523208	     -2.86723606	     -7.73774336	    -40.01271615	      5.70667501	      7.92766669	     -7.73019028	      6.60727913	    -46.96162083	     39.31699647	     16.70630291	      4.43385000	     -5.34241857	     65.31052395
      0.64000000	     23.85629633	     -7.92234847	     -1.21798651	     -0.35505253	      0.96272182	      0.28405056	    -43.51906068	     -3.13650427	     -5.13895757	    -11.72531856	     10.93401621	     -0.99707190	      0.28117412	     -0.01861615	    -16.11009049	      1.06662674	      2.76467968	     -4.49277601	     13.44748276	     11.04044444	     -0.19700713	     -7.40890682	    -39.60238663	      6.40007492	      7.83111676	     -7.43829670	      6.36187299	    -46.52655055	     38.72600244	     15.67684839	      4.49044042	     -6.28224274	     65.31435105
      0.65000000	     23.88863047	     -8.33834057	     -1.07357258	     -0.34126794	      0.96463854	      0.28489117	    -42.54153159	     -3.87189265	     -5.37595207	    -12.45646850	     11.37541623	     -0.80509556	      0.34052274	     -0.01182068	    -19.51051579	      0.67727526	      0.46544772	     -4.98695793	     13.91435493	     10.98688659	      0.37608948	     -7.46081930	    -39.58728071	      6.87792444	      7.93394546	     -7.34673721	      6.23586797	    -46.53613831	     38.56163268	     15.04324854	      4.66729386	     -6.69277526	     64.71336372
      0.66000000	     24.11075859	     -8.75016946	     -0.92270436	     -0.32771094	      0.96679976	      0.28579737	    -41.62452778	     -4.61488919	     -5.46591809	    -13.50852988	     11.78215372	     -0.17356659	      0.40259564	     -0.00882049	    -23.06703106	      0.50537668	     -1.76844812	     -4.91970572	     14.40202395	     11.06206290	      0.70556152	     -7.42194251	    -39.81325375	      7.32726998	      8.05996097	     -7.20068860	      6.13564523	    -46.48260594	     38.40564714	     14.39341736	      4.84134434	     -7.14501510	     64.09953480
      0.67000000	     23.40751915	     -9.30976670	     -0.79918815	     -0.31402061	      0.96790888	      0.28693913	    -39.47574593	     -5.74152418	     -5.95892876	    -13.51101172	     12.44965700	      0.41369235	      0.47006066	     -0.00410359	    -26.93249172	      0.23511833	     -4.52009426	     -5.13207568	     15.21882888	      9.99346089	      6.15619526	     -8.69944673	    -39.05757846	      8.01119070	      7.63385635	     -6.76370088	      5.90638528	    -45.94604336	     37.94218107	     13.38639514	      4.90272321	     -8.33148977	     63.57852809
      0.68000000	     23.69364053	     -9.59673651	     -0.62240639	     -0.30090351	      0.97005665	      0.28797724	    -38.32568936	     -6.48226003	     -6.05001101	    -14.74505830	     12.73794244	      0.93527755	      0.53594024	     -0.00628961	    -30.70711378	      0.36036839	     -6.97583346	     -4.71738983	     15.57835019	     10.16381124	      6.29042191	     -8.63486045	    -39.33891926	      8.29468240	      7.81372190	     -6.62833374	      5.84476554	    -45.85880039	     37.96557482	     12.83022340	      5.08720342	     -8.86117330	     62.77248191
      0.69000000	     23.21762384	     -9.99742670	     -0.27571570	     -0.28774666	      0.97128970	      0.28875880	    -36.10386289	     -7.53367813	     -5.86612317	    -15.06427741	     13.26042685	      0.90295516	      0.60633013	     -0.00645136	    -34.74015721	      0.36963548	    -10.03889462	     -4.47379099	     15.48653640	     10.08979473	      6.46773674	     -8.75382774	    -38.80609834	      8.90392658	      7.67514725	     -6.43517564	      5.76659476	    -45.73045734	     38.11999069	     12.21335125	      5.24080808	     -9.50734356	     61.50737909
      0.70000000	     22.77440610	    -10.18478929	      0.03460543	     -0.27514732	      0.97236108	      0.28954612	    -33.77550592	     -8.30698008	     -5.39579366	    -15.45367660	     13.54461338	      1.12865428	      0.67670452	     -0.00869472	    -38.77231304	      0.49817068	    -12.30531845	     -3.70596828	     14.84347529	     10.11079662	      6.71560851	     -9.14585806	    -38.34860319	      9.26056124	      7.29299356	     -6.03314682	      5.63822593	    -45.33748333	     37.96045417	     11.55510979	      5.33774535	    -10.39309251	     60.52001987
      0.71000000	     22.57010837	    -10.35426818	      0.39437222	     -0.26271800	      0.97357688	      0.29034712	    -31.68539392	     -9.05734352	     -4.92480407	    -16.16215089	     13.82907950	      1.20338503	      0.74231364	     -0.01366524	    -42.53143888	      0.78296037	    -14.59752521	     -3.06791578	     14.11197016	     10.21681428	      6.55930337	     -9.40346895	    -38.13313957	      9.57129298	      7.09075167	     -5.75119178	      5.56081466	    -45.00177227	     38.10562993	     11.02552882	      5.45056431	    -11.12676564	     59.36002354
