PassiveFiberForceAlongTendon
version=1
nRows=98
nColumns=19
inDegrees=no

This analysis gathers basic information about muscles during a simulation (e.g., forces, tendon lengths, moment arms, etc).
Units are S.I. units (second, meters, Newtons, ...)
If the header above contains a line with 'inDegrees', this indicates whether rotational values are in degrees (yes) or radians (no).

endheader
time	hamstrings_r	bifemsh_r	glut_max_r	iliopsoas_r	rect_fem_r	vasti_r	gastroc_r	soleus_r	dorsiflexors_r	hamstrings_l	bifemsh_l	glut_max_l	iliopsoas_l	rect_fem_l	vasti_l	gastroc_l	soleus_l	dorsiflexors_l
      0.97100000	     -7.28727002	     -0.73755683	     37.42098403	     45.14538851	     21.16846811	     31.47494318	    -16.70725410	    -10.69358060	      0.02388837	     63.85062622	      0.62928991	    141.02205577	     19.29215830	      5.72289204	     15.06873879	    -11.01774732	    -14.44569738	      0.09519320
      0.98150000	     -9.81920395	     -1.49741591	     38.90286127	     44.46463893	     26.18423126	     41.56795075	    -22.19850713	    -14.76356395	      0.02457206	     56.71171653	      0.42034060	    138.85458487	     19.94488545	      7.87273329	     17.84967262	     -9.16902810	     -9.17827640	     -0.35281424
      0.99200000	    -10.79549176	     -2.15452510	     41.04259245	     43.44479084	     30.00394018	     49.67858828	    -26.78063033	    -19.73279454	      0.01650436	     50.65992573	      0.31546464	    136.53816999	     20.45754380	      9.20351327	     19.03276100	     -8.03378103	     -6.62157932	     -0.53763019
      1.00250000	    -10.77834236	     -2.75714926	     43.81546063	     42.08055955	     33.01161949	     56.49825925	    -27.98360078	    -22.93940004	      0.00307869	     45.69538716	      0.31078596	    134.09002613	     20.91906384	      9.83740512	     18.73339085	     -8.45950229	     -7.92827013	     -0.40187742
      1.01300000	    -10.45501460	     -3.31717666	     46.92810412	     40.50086844	     35.41923919	     62.04858104	    -29.24420264	    -27.81429250	      0.00253810	     40.70787498	      0.34178267	    131.22042569	     21.49212797	     10.41840220	     17.93774922	     -5.07900218	     -3.37989853	     -0.73733154
      1.02350000	     -9.64178501	     -3.81298674	     50.46636551	     38.68512878	     37.16390835	     66.32426641	    -27.37722796	    -30.87587436	      0.03926887	     35.94335297	      0.39848728	    128.01124686	     22.11345853	     10.86135196	     16.80335086	     -1.44962901	      1.42580374	     -1.04750627
      1.03400000	     -8.18269591	     -4.18915253	     54.39673770	     36.67037797	     38.12992949	     69.10701008	    -22.35779077	    -31.24282533	      0.11588304	     31.73829465	      0.49752469	    124.54915379	     22.75301671	     10.98664455	     15.09583635	      0.62659624	      3.42298322	     -1.10081006
      1.04450000	     -6.19322042	     -4.42462810	     58.64882725	     34.52101955	     38.35587355	     70.52606612	    -20.20489665	    -36.12727147	      0.28138046	     28.15137073	      0.63160817	    120.89140309	     23.40008005	     10.80385329	     12.93650413	      2.37502827	      4.68081488	     -1.08764386
      1.05500000	     -4.09757136	     -4.56812715	     63.21031402	     32.28437663	     38.13470322	     71.30474836	     -8.47697308	    -28.59944281	      0.34558095	     25.13802847	      0.77088649	    117.16804642	     24.01737016	     10.42707645	     10.76339865	      5.14457631	      7.60840902	     -1.16614964
      1.06550000	     -1.37331687	     -4.50870077	     68.02835131	     30.03056116	     36.87458780	     70.33211312	     -4.92784237	    -26.34013763	      0.40118074	     22.55592053	      0.91446610	    113.38752614	     24.63346076	      9.93222848	      8.58295605	      6.93502593	      9.02764164	     -1.11959357
      1.07600000	      1.72406025	     -4.28234687	     73.08080920	     27.81714938	     34.73891746	     68.16482950	     -3.99760130	    -29.65665347	      0.59607887	     20.21332631	      1.06941582	    109.47521051	     25.29907212	      9.38115035	      6.28624757	      8.25580586	      9.65035235	     -1.02109567
      1.08650000	      4.74818949	     -3.97996951	     78.41946931	     25.66364094	     32.11140379	     65.80018516	      7.79738404	    -16.16703140	      0.28392478	     18.07691293	      1.22667359	    105.45313746	     26.00238777	      8.80110997	      4.00021401	      9.80136475	     10.59768862	     -0.93714215
      1.09700000	      8.45009567	     -3.51363965	     84.08298417	     23.58926110	     28.43372108	     62.17874223	     10.60112783	    -13.81414548	      0.22050474	     16.20159940	      1.37297655	    101.42463244	     26.70328797	      8.19706996	      1.90988559	     10.67465048	     10.60899410	     -0.81048140
      1.10750000	     12.43753533	     -2.96124221	     90.01582616	     21.65095148	     24.05458899	     57.90394251	      8.55928768	    -17.19637884	      0.34702228	     14.52117335	      1.51265728	     97.39373428	     27.41872077	      7.58316794	     -0.05413080	     11.23961581	     10.19217042	     -0.68018486
      1.11800000	     16.05182437	     -2.42170844	     96.11013414	     19.91781658	     19.56917737	     53.78445276	     12.01755221	    -10.98795177	      0.13441929	     12.93090381	      1.64782199	     93.33117346	     28.17147740	      6.99277793	     -1.92541200	     11.79479449	      9.76176743	     -0.56605600
      1.12850000	     19.50260349	     -1.89719387	    102.35896823	     18.39282677	     15.00438784	     49.58174771	     13.90171123	     -5.66313990	     -0.06012029	     11.40359355	      1.77245520	     89.26162457	     28.95409577	      6.44967594	     -3.61663863	     12.31017723	      9.31987149	     -0.46701176
      1.13900000	     22.89001928	     -1.39950443	    108.74208904	     17.07197085	     10.45904224	     45.22289188	     12.68416455	     -3.80271892	     -0.12219963	      9.90287293	      1.88144380	     85.20918991	     29.76229643	      5.98261778	     -5.05309084	     12.49496842	      8.50452651	     -0.37313652
      1.14950000	     26.05515583	     -0.94950247	    115.17419179	     15.96948659	      6.17303159	     40.85305409	     10.39545759	     -2.69205878	     -0.15277411	      8.42989549	      1.97783604	     81.18531468	     30.59823527	      5.57643708	     -6.27898439	     12.67005296	      7.75588921	     -0.29754871
      1.16000000	     28.87726813	     -0.55151836	    121.55400898	     15.09250593	      2.33146213	     36.55561047	      8.27698388	     -0.76747189	     -0.20434030	      6.97706457	      2.06036922	     77.20922205	     31.45943423	      5.23729155	     -7.27499222	     13.00294583	      7.32415843	     -0.24058302
      1.17050000	     31.43402585	     -0.18947114	    127.79703255	     14.42645299	     -1.04153994	     32.24125218	      5.59484029	      0.59588317	     -0.22832629	      5.58733724	      2.13021038	     73.31612286	     32.33634377	      4.94123158	     -8.05885768	     13.04466705	      6.59253642	     -0.18846304
      1.18100000	     33.79128377	      0.15582484	    133.80973114	     13.95596904	     -3.95784484	     27.81991772	      2.18824941	      0.91063078	     -0.21585105	      4.30605972	      2.18873850	     69.54458600	     33.21889025	      4.66568828	     -8.65212219	     13.26892582	      6.20905825	     -0.15081999
      1.19150000	     36.03161356	      0.50488635	    139.49644609	     13.66170378	     -6.47222866	     23.19546548	     -1.45694579	      0.73844324	     -0.19075352	      3.11953959	      2.23379958	     65.92010820	     34.10299399	      4.42990588	     -9.02554871	     13.59027477	      6.08869794	     -0.12196140
      1.20200000	     38.24040637	      0.87606050	    144.77694023	     13.51939272	     -8.66620114	     18.29094860	     -5.03838744	      0.36405744	     -0.16357687	      2.00758851	      2.26443557	     62.45738783	     34.98763110	      4.25067066	     -9.16914486	     13.62826796	      5.75242107	     -0.09546310
      1.21250000	     40.52655592	      1.28683603	    149.57727627	     13.50533841	    -10.64418026	     13.01096314	     -8.55204181	     -0.33433549	     -0.13281381	      1.03882930	      2.28374092	     59.19528370	     35.85861259	      4.08625975	     -9.14142320	     13.72825461	      5.64284833	     -0.07528951
      1.22300000	     42.98157241	      1.74886227	    153.84038176	     13.59737552	    -12.50352537	      7.28766263	    -11.93129333	     -1.37950518	     -0.09943731	      0.29280645	      2.29578677	     56.17821546	     36.69909458	      3.88300181	     -9.02836792	     13.98677047	      5.84829516	     -0.05983693
      1.23350000	     45.68199106	      2.26628054	    157.51976424	     13.77547732	    -14.32858920	      1.08161224	    -14.98846506	     -2.61868629	     -0.06716141	     -0.30444375	      2.29623608	     53.40830167	     37.51002860	      3.70072526	     -8.76307576	     13.94827121	      5.83570342	     -0.04513225
      1.24400000	     48.69605313	      2.83436293	    160.59451940	     14.01944224	    -16.19177065	     -5.61768932	    -17.56469653	     -3.95491174	     -0.03707440	     -0.83123592	      2.28080556	     50.87674264	     38.29372213	      3.60072819	     -8.27511449	     13.67010180	      5.74441158	     -0.03272204
      1.25450000	     52.05718879	      3.43784133	    163.05385225	     14.31319839	    -18.13382271	    -12.77984261	    -19.54580740	     -5.37577645	     -0.00807919	     -1.24269041	      2.25641886	     48.58583116	     39.04512192	      3.53803887	     -7.66323858	     13.67042490	      6.15718368	     -0.02374765
      1.26500000	     55.80484516	      4.05376357	    164.91499608	     14.63902327	    -20.17947725	    -20.34349543	    -20.82394613	     -6.86116930	      0.02095041	     -1.48088305	      2.23167351	     46.53472256	     39.75932317	      3.45043015	     -7.05401688	     13.52844978	      6.43088521	     -0.01560587
      1.27550000	     59.89926612	      4.65105980	    166.18566142	     14.99272668	    -22.25594474	    -28.13488212	    -21.28880499	     -8.37707512	      0.05096161	     -1.69453895	      2.19172366	     44.70983648	     40.43607599	      3.48023818	     -6.21064983	     12.87252559	      6.28125795	     -0.00883631
      1.28600000	     64.30889844	      5.19662319	    166.88543270	     15.36858010	    -24.26698998	    -35.92950336	    -20.86843393	     -9.88460629	      0.08278924	     -2.02486046	      2.12026592	     43.10398345	     41.07133809	      3.77875730	     -4.87177968	     11.96406998	      6.23088419	     -0.00427720
      1.29650000	     69.08383906	      5.65619064	    167.09148314	     15.73724033	    -26.13411687	    -43.41404425	    -19.52980716	    -11.33467709	      0.11685573	     -2.39836967	      2.04678373	     41.63034329	     41.69626035	      4.15003822	     -3.50894515	     11.28546368	      6.48712462	     -0.00148688
      1.30700000	     74.28921804	      6.00155011	    166.92311213	     16.06813748	    -27.74298330	    -50.22987208	    -17.78125531	    -12.67093364	      0.15294401	     -2.75044507	      2.00442137	     40.15967711	     42.36053899	      4.36211290	     -2.65887835	     10.92511629	      6.73079866	     -0.00013133
      1.31750000	     79.69446163	      6.20857010	    166.39573530	     16.39217207	    -28.77705067	    -55.96915265	    -12.61287223	    -13.91482872	      0.19211810	     -3.41238130	      1.91075874	     38.82527696	     42.99947951	      5.02921302	     -0.98408679	      9.30066393	      6.05906626	     -0.00018527
      1.32800000	     85.02094415	      6.25807483	    165.49165893	     16.73399069	    -28.99852367	    -60.34193191	     -6.84737237	    -14.95953915	      0.23168398	     -4.80740034	      1.65263924	     37.88186997	     43.49580712	      7.01011531	      3.32227040	      6.54460048	      5.89408068	     -0.00121220
      1.33850000	     90.58906292	      6.15877556	    164.41556063	     17.00323207	    -28.47455383	    -63.02402872	     -0.94315778	    -15.66543274	      0.26635358	     -5.65019085	      1.50797352	     36.87336875	     44.04184692	      8.06957948	      5.62339453	      5.41369320	      6.07965828	     -0.00310713
      1.34900000	     96.78156006	      5.92887825	    163.50021378	     17.10110093	    -26.94765676	    -62.91408525	      4.56026900	    -16.00504606	      0.29238352	     -4.46207047	      1.80631711	     35.14734090	     44.92326883	      5.61589340	      0.70649085	      7.35706095	      4.90595104	     -0.00465710
      1.35950000	    103.05757446	      5.57611978	    162.77933253	     17.10637062	    -24.19706676	    -59.98613732	      9.00618281	    -16.10732006	      0.31091745	     -3.11262876	      2.14855551	     33.27618573	     45.90280737	      2.83499798	     -4.76942024	     10.01942496	      4.35845619	     -0.00607786
      1.37000000	    108.56052479	      5.11136470	    162.09088314	     17.12986428	    -20.27360397	    -54.43088239	     11.92844142	    -15.87100255	      0.31593036	     -3.49427592	      2.14429549	     31.90633216	     46.70118855	      2.89815533	     -4.49724419	      9.36384571	      3.93263375	     -0.00733830
      1.38050000	    113.22617660	      4.57830631	    161.48010876	     17.13473972	    -15.72608557	    -46.22913470	     13.24490605	    -15.09580719	      0.29652459	     -4.66612581	      1.99150999	     30.77764068	     47.42147352	      4.24709559	     -1.76653454	      6.33817233	      2.42502847	     -0.00655538
      1.39100000	    117.08324606	      4.00600323	    161.10555118	     17.05721533	    -11.43852175	    -36.75517979	     12.90290934	    -13.86486767	      0.25280244	     -5.81879727	      1.83838733	     29.70562988	     48.13857872	      5.61198036	      0.92399413	      4.03744537	      1.62435926	     -0.00599360
      1.40150000	    119.75791222	      3.41587690	    160.97617096	     16.92967809	     -7.77459201	    -26.91503663	     10.74366996	    -12.74624954	      0.20810605	     -6.93046106	      1.67553766	     28.73308334	     48.83186501	      7.03287770	      3.69923224	      1.73295638	      0.81865672	     -0.00504806
      1.41200000	    120.79374568	      2.81504749	    161.03669622	     16.78980005	     -4.80021599	    -17.14570803	      6.85169333	    -12.12914454	      0.18179042	     -7.97679327	      1.50209549	     27.87400034	     49.49174652	      8.49084039	      6.53870682	     -1.26498567	     -0.72510774	     -0.00247245
      1.42250000	    120.18416979	      2.23920456	    161.25051292	     16.65316855	     -2.49175003	     -7.82796433	      2.83070308	    -10.68786923	      0.11679051	     -8.83766251	      1.31371031	     27.21601367	     50.07622126	      9.95975257	      9.47727010	     -4.35915657	     -2.30566670	      0.00036098
      1.43300000	    118.13415735	      1.72346659	    161.53729260	     16.54643841	     -0.72047004	      0.48810853	     -0.15850668	     -7.85700744	     -0.01178678	     -9.36518478	      1.11268408	     26.85158065	     50.53606151	     11.36047634	     12.44000949	     -7.65156276	     -4.05131266	      0.00338509
      1.44350000	    114.44538839	      1.21917309	    161.90187819	     16.44619906	      0.86422803	      8.43674250	     -4.55032809	     -7.31835772	     -0.03432461	     -9.84869311	      0.88961084	     26.67434132	     50.90262872	     12.83486457	     15.54823689	    -11.57227904	     -6.33763197	      0.00680028
      1.45400000	    108.81077029	      0.67305735	    162.38324044	     16.32946868	      2.60006059	     16.70728840	    -11.75668354	    -11.04911333	      0.13294058	    -10.60554931	      0.63307201	     26.53699377	     51.23162099	     14.54042744	     18.94641113	    -16.14271602	     -9.14127473	      0.00959669
      1.46450000	    102.21493688	      0.19421337	    162.94296139	     16.21841752	      4.28884072	     23.52694580	    -14.21524867	     -9.39036818	      0.05560568	    -11.30227769	      0.34600493	     26.60234670	     51.45363261	     16.33913919	     22.55476164	    -21.13945170	    -12.38890018	      0.01024120
      1.47500000	     96.63160012	     -0.05745668	    163.53635296	     16.12709741	      5.34246177	     26.64974816	     -7.85340684	      2.00002319	     -0.44747987	    -11.56067154	      0.03074242	     27.10782905	     51.45519778	     18.10985509	     26.34944612	    -26.64035680	    -16.38501225	      0.00756272
      1.48550000	     90.12090587	     -0.29805287	    163.84518142	     16.19832509	      6.69343601	     29.65487290	    -12.98219086	     -4.60557352	     -0.13259579	    -11.78065932	     -0.32127762	     27.88452722	     51.28408188	     20.07607737	     30.53788914	    -32.69832832	    -21.39468956	      0.00197877
      1.49600000	     79.25470766	     -0.78009020	    163.34176210	     16.58992279	      9.80746771	     36.27187093	    -25.39130111	    -20.26781826	      0.53571989	    -12.30805325	     -0.72389065	     28.77130951	     51.00061570	     22.52976710	     35.50061484	    -39.44638356	    -27.84153260	      0.00186561
      1.50650000	     67.61524383	     -1.15414191	    162.17318988	     17.08217770	     12.96299852	     41.05139018	    -11.27405235	      1.77315295	     -0.43990951	    -12.77799393	     -1.16127605	     29.91340041	     50.54253347	     25.26433859	     40.97041127	    -45.20898343	    -34.37484769	      0.03658210
      1.51700000	     60.25169571	     -1.14392080	    161.08876377	     17.31581457	     13.76494419	     39.90101506	     -1.21875459	     13.78908260	     -0.82306199	    -12.79373114	     -1.60498222	     31.46545774	     49.83491742	     27.90259827	     46.35273231	    -50.37171208	    -41.84829640	      0.16580826
      1.52750000	     54.78380368	     -1.09656724	    160.23857157	     17.38328864	     13.81048816	     38.21369880	    -19.02303008	    -15.00519734	      0.28067485	    -12.47054673	     -2.07733997	     33.49924376	     48.83110243	     30.51493211	     51.79503363	    -55.16654540	    -50.60664539	      0.49705913
      1.53800000	     47.76820318	     -1.13263441	    158.74423430	     17.76786371	     14.79752694	     37.73380036	    -16.76534386	    -13.63012945	      0.23958859	    -12.15066272	     -2.57058146	     35.80578797	     47.60612123	     32.97998444	     56.80408873	    -58.81593996	    -59.85244000	      1.15722401
      1.54850000	     40.31872284	     -1.05733781	    156.15715682	     18.50731970	     15.82292736	     35.74629059	      3.80371298	     14.37613788	     -0.80373222	    -11.75936360	     -3.03895708	     38.26185354	     46.22201939	     35.13273515	     61.00058122	    -59.26424927	    -66.81038075	      2.14870862
      1.55900000	     33.91814459	     -0.92134499	    153.03956030	     19.21477721	     16.32784323	     33.11284230	      3.24583315	     11.30610707	     -0.54972029	    -10.90509701	     -3.47779510	     41.14024953	     44.57778437	     36.89580602	     64.56795581	    -57.41941716	    -72.05104018	      3.34089991
      1.56950000	     28.62168501	     -0.77049100	    149.68148789	     19.82648950	     16.41688164	     30.46108363	     -5.67059742	     -3.14344024	     -0.09341109	     -9.77401992	     -3.88705221	     44.39557903	     42.69661588	     38.16153015	     67.23306015	    -54.87558035	    -77.74711135	      4.72212497
      1.58000000	     24.59948717	     -0.52673493	    145.98629563	     20.45759116	     15.88867097	     26.69328247	     -1.10224163	      1.62735225	     -0.21306300	     -8.44730126	     -4.19441533	     47.74506559	     40.72290097	     38.80830577	     68.40309196	    -50.10849087	    -81.35342424	      5.96323981
      1.59050000	     21.23445748	     -0.23671373	    141.85677020	     21.17327290	     15.17799097	     22.46581198	      7.35388996	     11.97328040	     -0.41151422	     -6.68967716	     -4.37974430	     51.30713910	     38.64505682	     38.93817952	     68.49915735	    -43.16630037	    -82.15558532	      6.77950657
      1.60100000	     17.51796655	      0.02601268	    137.10188542	     22.05321456	     14.90982473	     18.74766334	      6.54951683	      9.64895399	     -0.28026518	     -4.78286509	     -4.51172637	     55.22114745	     36.43459504	     38.89881020	     68.54156841	    -29.35419004	    -71.33827651	      5.95923884
      1.61150000	     14.12626436	      0.28899840	    131.89477995	     22.97901544	     14.59296459	     15.11826081	      3.77901372	      4.95889175	     -0.15915570	     -2.39610534	     -4.48199617	     59.34521389	     34.18827177	     38.10369786	     67.31315664	    -25.01937573	    -70.79879453	      5.98372182
      1.62200000	     12.08441821	      0.59414327	    126.64423485	     23.79759299	     13.58866386	     10.98275299	      6.01282600	      7.05633319	     -0.15757939	      0.60226724	     -4.26971777	     63.69511128	     31.94199040	     36.36193758	     64.71611251	    -20.53761581	    -70.94399768	      5.95377941
      1.63250000	     10.54406258	      0.90029801	    121.28171655	     24.62728295	     12.45508130	      6.86352620	      7.59454487	      8.25514510	     -0.13398625	      3.68629109	     -3.98272256	     68.33053599	     29.70855527	     34.10879940	     61.92488804	     -4.76778783	    -49.38139109	      2.90234152
      1.64300000	      8.44094213	      1.15931936	    115.54521209	     25.60874948	     11.81490914	      3.37524192	      7.46051919	      7.28656892	     -0.09358849	      6.95156203	     -3.58636754	     73.14105508	     27.57552970	     31.18270533	     58.49792479	      1.33635026	    -42.59963309	      1.85585620
      1.65350000	      6.35644051	      1.39139934	    109.60438642	     26.63779899	     11.24751923	      0.22828023	      7.19208679	      6.17462589	     -0.06305275	     10.39960719	     -3.10631427	     78.13173962	     25.57288010	     27.63191399	     54.55768303	      2.80831857	    -42.24206931	      1.68642253
      1.66400000	      4.90809327	      1.61104126	    103.77908105	     27.59734806	     10.38543054	     -2.78144923	      7.12690766	      5.28547388	     -0.04267782	     13.94302149	     -2.59343247	     83.34838493	     23.70168865	     23.62703089	     50.43862075	      9.78855727	    -29.60834090	     -0.13292217
      1.67450000	      3.70390845	      1.80530590	     98.06854475	     28.54583595	      9.48435890	     -5.47837598	      7.80945383	      5.29169175	     -0.03057065	     17.48507125	     -2.07007429	     88.72904115	     22.00384563	     19.33424525	     46.16928079	     14.89034015	    -17.78391190	     -1.68487708
      1.68500000	      2.38886407	      1.95765393	     92.43318894	     29.52666913	      8.77243892	     -7.62515204	      7.81027532	      4.48455824	     -0.01915639	     20.81100745	     -1.56499422	     94.17341108	     20.52639837	     15.02325857	     41.86746055	     16.63052303	    -10.01943352	     -2.53682617
      1.69550000	      1.16564920	      2.07828893	     86.97105254	     30.50581099	      8.11697085	     -9.34686940	      7.53697993	      3.38732372	     -0.01125118	     23.93038451	     -1.08725017	     99.63988342	     19.27216728	     10.82888057	     37.52101042	     16.94212233	     -3.24866171	     -3.15872379
      1.70600000	      0.23413609	      2.17610304	     81.80305771	     31.44694857	      7.40398593	    -10.75481685	      7.86085121	      3.03069497	     -0.00701289	     26.89663340	     -0.63432098	    105.08286887	     18.23336173	      6.83264488	     33.07045471	     16.86813981	      4.09894443	     -3.75896968
      1.71650000	     -0.53029674	      2.24828754	     76.94662810	     32.36387767	      6.72320877	    -11.79865502	      8.27028096	      2.82787724	     -0.00413377	     29.70726820	     -0.19950953	    110.42307512	     17.40768689	      3.11591103	     28.47607570	     15.71656197	     10.30122108	     -4.11221973
      1.72700000	     -1.25732138	      2.29236219	     72.38570423	     33.27315390	      6.15915528	    -12.43218588	      8.26018671	      2.23689246	     -0.00206583	     32.36018531	      0.22924902	    115.56854360	     16.79015643	     -0.27376127	     23.68926404	     13.43134633	     14.73133868	     -4.17483648
      1.73750000	     -1.86264604	      2.31663477	     68.15170559	     34.16242361	      5.65137564	    -12.76632759	      8.43581064	      1.95887595	     -0.00094553	     34.94858624	      0.67144437	    120.44120978	     16.36177456	     -3.37760211	     18.60049641	     10.52515940	     17.90815256	     -4.04877374
      1.74800000	     -2.26132441	      2.32740117	     64.28259609	     35.01505725	      5.15040233	    -12.87761235	      8.64932165	      1.81078791	     -0.00031245	     37.57532238	      1.14764248	    124.96579319	     16.10241765	     -6.26967561	     13.08755824	      7.30013462	     20.03663302	     -3.78677888
      1.75850000	     -2.49170956	      2.32370997	     60.78523776	     35.82764746	      4.70494538	    -12.70943014	      8.61823213	      1.49548651	     -0.00003539	     40.31916417	      1.67292863	    129.06889593	     15.99171036	     -9.02750681	      7.06509595	      3.87187533	     20.98678566	     -3.40715280
      1.76900000	     -2.60140196	      2.30800302	     57.63804782	     36.60523526	      4.33263582	    -12.30091298	      8.81355667	      1.54573449	     -0.00001923	     43.24484096	      2.25545135	    132.69105659	     16.00878661	    -11.72856474	      0.47510575	      0.42971008	     20.79648466	     -2.95051262
      1.77950000	     -2.61534952	      2.27986945	     54.83248511	     37.34350279	      4.04654483	    -11.65718916	      8.90493465	      1.60332795	     -0.00021786	     46.41209477	      2.89302383	    135.79072406	     16.12951278	    -14.44918733	     -6.70317321	     -2.72011709	     19.72798723	     -2.47291747
      1.79000000	     -2.54360651	      2.24138036	     52.35392167	     38.03933417	      3.84000667	    -10.82257103	      8.80665932	      1.57159576	     -0.00060361	     49.86891358	      3.57266149	    138.35203444	     16.32950674	    -17.25409076	    -14.46423464	     -5.34489588	     17.95774930	     -2.01106754
      1.80050000	     -2.41755809	      2.19409468	     50.17560009	     38.69409556	      3.71584180	     -9.83389864	      8.88157539	      1.84432518	     -0.00123960	     53.58037499	      4.26509092	    140.36323599	     16.59153907	    -20.12925884	    -22.68108126	     -7.18715791	     15.69052632	     -1.59299826
      1.81100000	     -2.28613582	      2.13676141	     48.26680708	     39.30996380	      3.69574719	     -8.68453382	      8.88018066	      2.15442055	     -0.00219938	     57.49686083	      4.93167830	    141.83564963	     16.89827411	    -23.00845892	    -31.13176885	     -8.06114790	     13.09058918	     -1.23212870
      1.82150000	     -2.18662942	      2.06872701	     46.59766859	     39.88875343	      3.79296883	     -7.37605654	      8.64460194	      2.33432674	     -0.00341828	     61.53913031	      5.52815218	    142.78941955	     17.23565114	    -25.76567161	    -39.49955984	     -7.83118858	     10.33126652	     -0.93387703
      1.83200000	     -2.14060136	      1.99166160	     45.13401377	     40.43461517	      4.00207762	     -5.94411308	      8.57262437	      2.79414249	     -0.00523766	     65.63774324	      6.00953858	    143.27948311	     17.58248739	    -28.23048166	    -47.35351168	     -8.27926818	      7.58194429	     -0.69613607
      1.84250000	     -2.19649381	      1.90487362	     43.83522174	     40.95544862	      4.34004782	     -4.38661719	      8.46391324	      3.30877656	     -0.00776151	     69.69635202	      6.34148296	    143.35239231	     17.93070521	    -30.17467742	    -54.22789245	     -3.28112107	      4.90977583	     -0.50942370
      1.85300000	     -2.39626546	      1.80700973	     42.66265087	     41.45931910	      4.82426371	     -2.69063315	      8.14563870	      3.69141110	     -0.01079385	     73.61639945	      6.49818941	    143.07228004	     18.26757592	    -31.41568616	    -59.75776907	      2.75362717	      2.46255871	     -0.36712062
      1.86350000	     -2.74861380	      1.69871971	     41.58653156	     41.95178416	      5.44878633	     -0.87304123	      7.76729602	      4.07725088	     -0.01448014	     77.33514898	      6.47826113	    142.49606823	     18.58938818	    -31.79316279	    -63.66878218	      9.12164073	      0.23533386	     -0.25780333
      1.87400000	     -3.27095240	      1.57885810	     40.57916345	     42.43899322	      6.22115632	      1.07762086	      7.29108922	      4.41405285	     -0.01866064	     80.74379692	      6.29014141	    141.67839852	     18.89259022	    -30.82828172	    -64.89417770	     15.10488488	     -1.68449948	     -0.17574540
      1.88450000	     -3.94220451	      1.44922786	     39.62260119	     42.92417782	      7.11901063	      3.12806539	      6.60858464	      4.56302684	     -0.02264522	     83.77356793	      5.96424379	    140.67102260	     19.17634199	    -28.33816175	    -62.97330406	     19.98190836	     -3.30165141	     -0.11398489
      1.89500000	     -4.74419134	      1.31141701	     38.69979761	     43.41142049	      8.12341282	      5.25013997	      5.88522799	      4.66238111	     -0.02640811	     86.25938008	      5.53264482	    139.50766698	     19.44517850	    -24.74272794	    -58.62070105	     23.18553348	     -4.63003711	     -0.06753799
      1.90550000	     -5.69548348	      1.16664605	     37.77698841	     43.91319638	      9.23257121	      7.42244949	      4.97901155	      4.55627921	     -0.02894288	     88.10299793	      5.03886674	    138.22799559	     19.69824274	    -20.23690971	    -51.47309264	     24.46631051	     -5.66244501	     -0.03361179
      1.91600000	     -6.84196857	      1.01404302	     36.81011642	     44.44787102	     10.46771524	      9.65725163	      3.77754755	      4.15598475	     -0.02923316	     89.12761153	      4.51726915	    136.84971285	     19.94288983	    -15.62312873	    -43.03371265	     23.77351891	     -6.50347680	     -0.00726497
      1.92650000	     -8.03380553	      0.86360466	     35.81617252	     45.00841977	     11.71826886	     11.80168193	      2.63347763	      3.73262346	     -0.02831955	     89.34006059	      4.00253359	    135.43116639	     20.16238497	    -11.54334919	    -34.70938258	     21.45248999	     -7.12950603	      0.01174966
      1.93700000	     -9.16109669	      0.72415881	     34.80705373	     45.59012516	     12.89799213	     13.72733777	      1.64459964	      3.32766136	     -0.02656819	     88.80665638	      3.51612604	    134.04729449	     20.33950446	     -8.20150257	    -27.17139353	     17.92037067	     -7.62412611	      0.02647549
      1.94750000	    -10.10753443	      0.60566775	     33.79948352	     46.18649099	     13.91323930	     15.29111140	      0.18128068	      2.39868254	     -0.02143963	     87.67725666	      3.07536290	    132.76765609	     20.46145017	     -5.50763101	    -20.16153456	     13.72172067	     -8.02851185	      0.03837396
      1.95800000	    -10.80062758	      0.51697485	     32.79946766	     46.79531596	     14.69284264	     16.37203146	     -0.85654920	      1.69058150	     -0.01724103	     86.28573728	      2.69022037	    131.70300422	     20.49902309	     -3.42637413	    -13.74413071	      9.40938720	     -8.32521822	      0.04701875
      1.96850000	    -10.32864129	      0.49931570	     32.17154834	     47.25882685	     14.67502564	     16.35970299	     -1.31512654	      1.14485678	     -0.01387554	     85.02402835	      2.36331767	    130.98865377	     20.41801062	     -1.91062484	     -8.08499073	      5.41889709	     -8.47101237	      0.05106563
      1.97900000	     -7.83002658	      0.59208504	     32.36341958	     47.36652961	     13.32073403	     14.69275967	     -1.97381214	      0.06734226	     -0.00827161	     84.34928458	      2.09732614	    130.76812896	     20.18937844	     -0.91871773	     -3.38505325	      2.11867101	     -8.38190151	      0.04779752
      1.98950000	     -3.96915807	      0.79605534	     33.12857098	     47.19360446	     10.84893404	     11.40133810	     -1.75932377	     -0.68802136	     -0.00459037	     84.31698637	      1.89928077	    130.99580002	     19.87786810	     -0.35111312	      0.12403939	     -0.18341598	     -7.99246255	      0.03501190
