MomentArm_knee_angle_r
version=1
nRows=98
nColumns=19
inDegrees=no

This analysis gathers basic information about muscles during a simulation (e.g., forces, tendon lengths, moment arms, etc).
Units are S.I. units (second, meters, Newtons, ...)
If the header above contains a line with 'inDegrees', this indicates whether rotational values are in degrees (yes) or radians (no).

endheader
time	hamstrings_r	bifemsh_r	glut_max_r	iliopsoas_r	rect_fem_r	vasti_r	gastroc_r	soleus_r	dorsiflexors_r	hamstrings_l	bifemsh_l	glut_max_l	iliopsoas_l	rect_fem_l	vasti_l	gastroc_l	soleus_l	dorsiflexors_l
      0.97100000	     -0.04197957	     -0.03369661	      0.00000000	      0.00000000	      0.04131773	      0.03665030	     -0.01213456	     -0.00000000	      0.00000000	      0.00000000	      0.00000000	      0.00000000	      0.00000000	      0.00000000	      0.00000000	      0.00000000	      0.00000000	      0.00000000
      0.98150000	     -0.04248146	     -0.03445515	      0.00000000	      0.00000000	      0.04092955	      0.03619476	     -0.01076219	     -0.00000000	      0.00000000	      0.00000000	      0.00000000	      0.00000000	      0.00000000	      0.00000000	      0.00000000	      0.00000000	      0.00000000	      0.00000000
      0.99200000	     -0.04308480	     -0.03540821	      0.00000000	      0.00000000	      0.04035181	      0.03558887	     -0.00897030	     -0.00000000	     -0.00000000	      0.00000000	      0.00000000	      0.00000000	      0.00000000	      0.00000000	      0.00000000	      0.00000000	      0.00000000	      0.00000000
      1.00250000	     -0.04372918	     -0.03649467	      0.00000000	      0.00000000	      0.03949279	      0.03477553	     -0.00683024	      0.00000000	      0.00000000	      0.00000000	      0.00000000	      0.00000000	      0.00000000	      0.00000000	      0.00000000	      0.00000000	      0.00000000	      0.00000000
      1.01300000	     -0.04436428	     -0.03767284	      0.00000000	      0.00000000	      0.03819932	      0.03362380	     -0.00438357	      0.00000000	      0.00000000	      0.00000000	      0.00000000	      0.00000000	      0.00000000	      0.00000000	      0.00000000	      0.00000000	      0.00000000	      0.00000000
      1.02350000	     -0.04493885	     -0.03889955	      0.00000000	      0.00000000	      0.03665386	      0.03227746	     -0.00167073	     -0.00000000	     -0.00000000	      0.00000000	      0.00000000	      0.00000000	      0.00000000	      0.00000000	      0.00000000	      0.00000000	      0.00000000	      0.00000000
      1.03400000	     -0.04540312	     -0.04012954	      0.00000000	      0.00000000	      0.03503894	      0.03089600	      0.00123912	      0.00000000	     -0.00000000	      0.00000000	      0.00000000	      0.00000000	      0.00000000	      0.00000000	      0.00000000	      0.00000000	      0.00000000	      0.00000000
      1.04450000	     -0.04571161	     -0.04131008	      0.00000000	      0.00000000	      0.03340844	      0.02953016	      0.00426571	      0.00000000	     -0.00000000	      0.00000000	      0.00000000	      0.00000000	      0.00000000	      0.00000000	      0.00000000	      0.00000000	      0.00000000	      0.00000000
      1.05500000	     -0.04583456	     -0.04240687	      0.00000000	      0.00000000	      0.03171841	      0.02813494	      0.00734304	     -0.00000000	      0.00000000	      0.00000000	      0.00000000	      0.00000000	      0.00000000	      0.00000000	      0.00000000	      0.00000000	      0.00000000	      0.00000000
      1.06550000	     -0.04575314	     -0.04338716	      0.00000000	      0.00000000	      0.02996825	      0.02670436	      0.00827203	     -0.00000000	      0.00000000	      0.00000000	      0.00000000	      0.00000000	      0.00000000	      0.00000000	      0.00000000	      0.00000000	      0.00000000	      0.00000000
      1.07600000	     -0.04546909	     -0.04421344	      0.00000000	      0.00000000	      0.02821830	      0.02528411	      0.01013703	      0.00000000	     -0.00000000	      0.00000000	      0.00000000	      0.00000000	      0.00000000	      0.00000000	      0.00000000	      0.00000000	      0.00000000	      0.00000000
      1.08650000	     -0.04499911	     -0.04487974	      0.00000000	      0.00000000	      0.02649234	      0.02389059	      0.01188667	     -0.00000000	      0.00000000	      0.00000000	      0.00000000	      0.00000000	      0.00000000	      0.00000000	      0.00000000	      0.00000000	      0.00000000	      0.00000000
      1.09700000	     -0.04437576	     -0.04538234	      0.00000000	      0.00000000	      0.02483236	      0.02255386	      0.01348492	     -0.00000000	     -0.00000000	      0.00000000	      0.00000000	      0.00000000	      0.00000000	      0.00000000	      0.00000000	      0.00000000	      0.00000000	      0.00000000
      1.10750000	     -0.04365763	     -0.04572441	      0.00000000	      0.00000000	      0.02331112	      0.02132780	      0.01489661	     -0.00000000	      0.00000000	      0.00000000	      0.00000000	      0.00000000	      0.00000000	      0.00000000	      0.00000000	      0.00000000	      0.00000000	      0.00000000
      1.11800000	     -0.04290083	     -0.04593062	      0.00000000	      0.00000000	      0.02196136	      0.02023592	      0.01610876	     -0.00000000	      0.00000000	      0.00000000	      0.00000000	      0.00000000	      0.00000000	      0.00000000	      0.00000000	      0.00000000	      0.00000000	      0.00000000
      1.12850000	     -0.04215980	     -0.04603085	      0.00000000	      0.00000000	      0.02079171	      0.01928107	      0.01711814	      0.00000000	      0.00000000	      0.00000000	      0.00000000	      0.00000000	      0.00000000	      0.00000000	      0.00000000	      0.00000000	      0.00000000	      0.00000000
      1.13900000	     -0.04149110	     -0.04605667	      0.00000000	      0.00000000	      0.01982462	      0.01847871	      0.01792401	      0.00000000	      0.00000000	      0.00000000	      0.00000000	      0.00000000	      0.00000000	      0.00000000	      0.00000000	      0.00000000	      0.00000000	      0.00000000
      1.14950000	     -0.04094594	     -0.04604017	      0.00000000	      0.00000000	      0.01908582	      0.01784892	      0.01852749	     -0.00000000	     -0.00000000	      0.00000000	      0.00000000	      0.00000000	      0.00000000	      0.00000000	      0.00000000	      0.00000000	      0.00000000	      0.00000000
      1.16000000	     -0.04055936	     -0.04600959	      0.00000000	      0.00000000	      0.01859016	      0.01740486	      0.01893555	      0.00000000	     -0.00000000	      0.00000000	      0.00000000	      0.00000000	      0.00000000	      0.00000000	      0.00000000	      0.00000000	      0.00000000	      0.00000000
      1.17050000	     -0.04035375	     -0.04598583	      0.00000000	      0.00000000	      0.01834793	      0.01715652	      0.01915490	      0.00000000	     -0.00000000	      0.00000000	      0.00000000	      0.00000000	      0.00000000	      0.00000000	      0.00000000	      0.00000000	      0.00000000	      0.00000000
      1.18100000	     -0.04033862	     -0.04598071	      0.00000000	      0.00000000	      0.01836315	      0.01710860	      0.01919153	     -0.00000000	     -0.00000000	      0.00000000	      0.00000000	      0.00000000	      0.00000000	      0.00000000	      0.00000000	      0.00000000	      0.00000000	      0.00000000
      1.19150000	     -0.04051204	     -0.04599638	      0.00000000	      0.00000000	      0.01863417	      0.01726074	      0.01904818	     -0.00000000	      0.00000000	      0.00000000	      0.00000000	      0.00000000	      0.00000000	      0.00000000	      0.00000000	      0.00000000	      0.00000000	      0.00000000
      1.20200000	     -0.04085954	     -0.04602531	      0.00000000	      0.00000000	      0.01915119	      0.01760545	      0.01872588	     -0.00000000	      0.00000000	      0.00000000	      0.00000000	      0.00000000	      0.00000000	      0.00000000	      0.00000000	      0.00000000	      0.00000000	      0.00000000
      1.21250000	     -0.04135717	     -0.04605151	      0.00000000	      0.00000000	      0.01989989	      0.01813122	      0.01822290	      0.00000000	      0.00000000	      0.00000000	      0.00000000	      0.00000000	      0.00000000	      0.00000000	      0.00000000	      0.00000000	      0.00000000	      0.00000000
      1.22300000	     -0.04197267	     -0.04605206	      0.00000000	      0.00000000	      0.02086297	      0.01882413	      0.01753571	     -0.00000000	      0.00000000	      0.00000000	      0.00000000	      0.00000000	      0.00000000	      0.00000000	      0.00000000	      0.00000000	      0.00000000	      0.00000000
      1.23350000	     -0.04266742	     -0.04599906	      0.00000000	      0.00000000	      0.02202341	      0.01967103	      0.01665907	     -0.00000000	      0.00000000	      0.00000000	      0.00000000	      0.00000000	      0.00000000	      0.00000000	      0.00000000	      0.00000000	      0.00000000	      0.00000000
      1.24400000	     -0.04339726	     -0.04586169	      0.00000000	      0.00000000	      0.02336608	      0.02066151	      0.01558783	      0.00000000	      0.00000000	      0.00000000	      0.00000000	      0.00000000	      0.00000000	      0.00000000	      0.00000000	      0.00000000	      0.00000000	      0.00000000
      1.25450000	     -0.04411450	     -0.04560838	      0.00000000	      0.00000000	      0.02488123	      0.02179135	      0.01431773	     -0.00000000	      0.00000000	      0.00000000	      0.00000000	      0.00000000	      0.00000000	      0.00000000	      0.00000000	      0.00000000	      0.00000000	      0.00000000
      1.26500000	     -0.04476916	     -0.04520921	      0.00000000	      0.00000000	      0.02655610	      0.02305646	      0.01284810	      0.00000000	      0.00000000	      0.00000000	      0.00000000	      0.00000000	      0.00000000	      0.00000000	      0.00000000	      0.00000000	      0.00000000	      0.00000000
      1.27550000	     -0.04531179	     -0.04463799	      0.00000000	      0.00000000	      0.02835112	      0.02443203	      0.01118256	      0.00000000	      0.00000000	      0.00000000	      0.00000000	      0.00000000	      0.00000000	      0.00000000	      0.00000000	      0.00000000	      0.00000000	      0.00000000
      1.28600000	     -0.04569555	     -0.04387510	      0.00000000	      0.00000000	      0.03023103	      0.02589677	      0.00933255	      0.00000000	      0.00000000	      0.00000000	      0.00000000	      0.00000000	      0.00000000	      0.00000000	      0.00000000	      0.00000000	      0.00000000	      0.00000000
      1.29650000	     -0.04588005	     -0.04290908	      0.00000000	      0.00000000	      0.03215941	      0.02742893	      0.00731725	     -0.00000000	     -0.00000000	      0.00000000	      0.00000000	      0.00000000	      0.00000000	      0.00000000	      0.00000000	      0.00000000	      0.00000000	      0.00000000
      1.30700000	     -0.04583454	     -0.04173963	      0.00000000	      0.00000000	      0.03409694	      0.02900427	      0.00553327	     -0.00000000	      0.00000000	      0.00000000	      0.00000000	      0.00000000	      0.00000000	      0.00000000	      0.00000000	      0.00000000	      0.00000000	      0.00000000
      1.31750000	     -0.04554158	     -0.04037803	      0.00000000	      0.00000000	      0.03601942	      0.03061258	      0.00203650	     -0.00000000	      0.00000000	      0.00000000	      0.00000000	      0.00000000	      0.00000000	      0.00000000	      0.00000000	      0.00000000	      0.00000000	      0.00000000
      1.32800000	     -0.04500100	     -0.03885109	      0.00000000	      0.00000000	      0.03799127	      0.03233122	     -0.00151167	      0.00000000	      0.00000000	      0.00000000	      0.00000000	      0.00000000	      0.00000000	      0.00000000	      0.00000000	      0.00000000	      0.00000000	      0.00000000
      1.33850000	     -0.04423194	     -0.03719873	      0.00000000	      0.00000000	      0.03997085	      0.03412778	     -0.00501754	      0.00000000	      0.00000000	      0.00000000	      0.00000000	      0.00000000	      0.00000000	      0.00000000	      0.00000000	      0.00000000	      0.00000000	      0.00000000
      1.34900000	     -0.04327071	     -0.03547006	      0.00000000	      0.00000000	      0.04146288	      0.03554694	     -0.00838999	      0.00000000	      0.00000000	      0.00000000	      0.00000000	      0.00000000	      0.00000000	      0.00000000	      0.00000000	      0.00000000	      0.00000000	      0.00000000
      1.35950000	     -0.04216944	     -0.03372311	      0.00000000	      0.00000000	      0.04248404	      0.03663442	     -0.01154181	     -0.00000000	     -0.00000000	      0.00000000	      0.00000000	      0.00000000	      0.00000000	      0.00000000	      0.00000000	      0.00000000	      0.00000000	      0.00000000
      1.37000000	     -0.04099804	     -0.03202803	      0.00000000	      0.00000000	      0.04316682	      0.03748532	     -0.01438574	      0.00000000	      0.00000000	      0.00000000	      0.00000000	      0.00000000	      0.00000000	      0.00000000	      0.00000000	      0.00000000	      0.00000000	      0.00000000
      1.38050000	     -0.03983591	     -0.03045723	      0.00000000	      0.00000000	      0.04316844	      0.03762298	     -0.01685205	      0.00000000	     -0.00000000	      0.00000000	      0.00000000	      0.00000000	      0.00000000	      0.00000000	      0.00000000	      0.00000000	      0.00000000	      0.00000000
      1.39100000	     -0.03875889	     -0.02907373	      0.00000000	      0.00000000	      0.04291199	      0.03742544	     -0.01890034	     -0.00000000	      0.00000000	      0.00000000	      0.00000000	      0.00000000	      0.00000000	      0.00000000	      0.00000000	      0.00000000	      0.00000000	      0.00000000
      1.40150000	     -0.03783680	     -0.02793320	      0.00000000	      0.00000000	      0.04269380	      0.03718774	     -0.02050681	      0.00000000	      0.00000000	      0.00000000	      0.00000000	      0.00000000	      0.00000000	      0.00000000	      0.00000000	      0.00000000	      0.00000000	      0.00000000
      1.41200000	     -0.03712623	     -0.02707781	      0.00000000	      0.00000000	      0.04274913	      0.03725285	     -0.02166454	     -0.00000000	      0.00000000	      0.00000000	      0.00000000	      0.00000000	      0.00000000	      0.00000000	      0.00000000	      0.00000000	      0.00000000	      0.00000000
      1.42250000	     -0.03666599	     -0.02653398	      0.00000000	      0.00000000	      0.04290339	      0.03744767	     -0.02237982	     -0.00000000	      0.00000000	      0.00000000	      0.00000000	      0.00000000	      0.00000000	      0.00000000	      0.00000000	      0.00000000	      0.00000000	      0.00000000
      1.43300000	     -0.03645482	     -0.02628778	      0.00000000	      0.00000000	      0.04299912	      0.03757086	     -0.02269916	      0.00000000	     -0.00000000	      0.00000000	      0.00000000	      0.00000000	      0.00000000	      0.00000000	      0.00000000	      0.00000000	      0.00000000	      0.00000000
      1.44350000	     -0.03647813	     -0.02631675	      0.00000000	      0.00000000	      0.04298898	      0.03755529	     -0.02266287	      0.00000000	      0.00000000	      0.00000000	      0.00000000	      0.00000000	      0.00000000	      0.00000000	      0.00000000	      0.00000000	      0.00000000	      0.00000000
      1.45400000	     -0.03673397	     -0.02661913	      0.00000000	      0.00000000	      0.04287912	      0.03740997	     -0.02226805	     -0.00000000	      0.00000000	      0.00000000	      0.00000000	      0.00000000	      0.00000000	      0.00000000	      0.00000000	      0.00000000	      0.00000000	      0.00000000
      1.46450000	     -0.03720132	     -0.02717557	      0.00000000	      0.00000000	      0.04273808	      0.03722983	     -0.02152720	      0.00000000	      0.00000000	      0.00000000	      0.00000000	      0.00000000	      0.00000000	      0.00000000	      0.00000000	      0.00000000	      0.00000000	      0.00000000
      1.47500000	     -0.03778164	     -0.02787681	      0.00000000	      0.00000000	      0.04269859	      0.03718211	     -0.02057842	     -0.00000000	     -0.00000000	      0.00000000	      0.00000000	      0.00000000	      0.00000000	      0.00000000	      0.00000000	      0.00000000	      0.00000000	      0.00000000
      1.48550000	     -0.03839354	     -0.02862979	      0.00000000	      0.00000000	      0.04282742	      0.03733136	     -0.01953497	     -0.00000000	      0.00000000	      0.00000000	      0.00000000	      0.00000000	      0.00000000	      0.00000000	      0.00000000	      0.00000000	      0.00000000	      0.00000000
      1.49600000	     -0.03908378	     -0.02949569	      0.00000000	      0.00000000	      0.04300855	      0.03750479	     -0.01827673	     -0.00000000	      0.00000000	      0.00000000	      0.00000000	      0.00000000	      0.00000000	      0.00000000	      0.00000000	      0.00000000	      0.00000000	      0.00000000
      1.50650000	     -0.03986848	     -0.03050480	      0.00000000	      0.00000000	      0.04317751	      0.03762578	     -0.01675795	      0.00000000	      0.00000000	      0.00000000	      0.00000000	      0.00000000	      0.00000000	      0.00000000	      0.00000000	      0.00000000	      0.00000000	      0.00000000
      1.51700000	     -0.04062238	     -0.03150613	      0.00000000	      0.00000000	      0.04322003	      0.03759126	     -0.01521911	     -0.00000000	      0.00000000	      0.00000000	      0.00000000	      0.00000000	      0.00000000	      0.00000000	      0.00000000	      0.00000000	      0.00000000	      0.00000000
      1.52750000	     -0.04127550	     -0.03240591	      0.00000000	      0.00000000	      0.04307478	      0.03736144	     -0.01376955	      0.00000000	      0.00000000	      0.00000000	      0.00000000	      0.00000000	      0.00000000	      0.00000000	      0.00000000	      0.00000000	      0.00000000	      0.00000000
      1.53800000	     -0.04186332	     -0.03324661	      0.00000000	      0.00000000	      0.04271852	      0.03692193	     -0.01234162	      0.00000000	      0.00000000	      0.00000000	      0.00000000	      0.00000000	      0.00000000	      0.00000000	      0.00000000	      0.00000000	      0.00000000	      0.00000000
      1.54850000	     -0.04238928	     -0.03402640	      0.00000000	      0.00000000	      0.04230633	      0.03645299	     -0.01099834	     -0.00000000	     -0.00000000	      0.00000000	      0.00000000	      0.00000000	      0.00000000	      0.00000000	      0.00000000	      0.00000000	      0.00000000	      0.00000000
      1.55900000	     -0.04283772	     -0.03471517	      0.00000000	      0.00000000	      0.04191286	      0.03603526	     -0.00979567	     -0.00000000	     -0.00000000	      0.00000000	      0.00000000	      0.00000000	      0.00000000	      0.00000000	      0.00000000	      0.00000000	      0.00000000	      0.00000000
      1.56950000	     -0.04321536	     -0.03531644	      0.00000000	      0.00000000	      0.04152806	      0.03565034	     -0.00870189	      0.00000000	      0.00000000	      0.00000000	      0.00000000	      0.00000000	      0.00000000	      0.00000000	      0.00000000	      0.00000000	      0.00000000	      0.00000000
      1.58000000	     -0.04352154	     -0.03582057	      0.00000000	      0.00000000	      0.04116178	      0.03530076	     -0.00775611	      0.00000000	      0.00000000	      0.00000000	      0.00000000	      0.00000000	      0.00000000	      0.00000000	      0.00000000	      0.00000000	      0.00000000	      0.00000000
      1.59050000	     -0.04375216	     -0.03620994	      0.00000000	      0.00000000	      0.04084172	      0.03500692	     -0.00702765	      0.00000000	      0.00000000	      0.00000000	      0.00000000	      0.00000000	      0.00000000	      0.00000000	      0.00000000	      0.00000000	      0.00000000	      0.00000000
      1.60100000	     -0.04391839	     -0.03649378	      0.00000000	      0.00000000	      0.04058070	      0.03477628	     -0.00650187	     -0.00000000	      0.00000000	      0.00000000	      0.00000000	      0.00000000	      0.00000000	      0.00000000	      0.00000000	      0.00000000	      0.00000000	      0.00000000
      1.61150000	     -0.04403157	     -0.03668506	      0.00000000	      0.00000000	      0.04038477	      0.03461179	     -0.00614504	     -0.00000000	     -0.00000000	      0.00000000	      0.00000000	      0.00000000	      0.00000000	      0.00000000	      0.00000000	      0.00000000	      0.00000000	      0.00000000
      1.62200000	     -0.04409272	     -0.03678111	      0.00000000	      0.00000000	      0.04027002	      0.03452617	     -0.00597395	      0.00000000	     -0.00000000	      0.00000000	      0.00000000	      0.00000000	      0.00000000	      0.00000000	      0.00000000	      0.00000000	      0.00000000	      0.00000000
      1.63250000	     -0.04410011	     -0.03677600	      0.00000000	      0.00000000	      0.04025038	      0.03453078	     -0.00600914	     -0.00000000	      0.00000000	      0.00000000	      0.00000000	      0.00000000	      0.00000000	      0.00000000	      0.00000000	      0.00000000	      0.00000000	      0.00000000
      1.64300000	     -0.04406036	     -0.03668168	      0.00000000	      0.00000000	      0.04031413	      0.03461476	     -0.00622193	      0.00000000	      0.00000000	      0.00000000	      0.00000000	      0.00000000	      0.00000000	      0.00000000	      0.00000000	      0.00000000	      0.00000000	      0.00000000
      1.65350000	     -0.04397941	     -0.03651116	      0.00000000	      0.00000000	      0.04044261	      0.03476165	     -0.00658279	     -0.00000000	     -0.00000000	      0.00000000	      0.00000000	      0.00000000	      0.00000000	      0.00000000	      0.00000000	      0.00000000	      0.00000000	      0.00000000
      1.66400000	     -0.04385817	     -0.03626986	      0.00000000	      0.00000000	      0.04062221	      0.03495949	     -0.00707678	     -0.00000000	      0.00000000	      0.00000000	      0.00000000	      0.00000000	      0.00000000	      0.00000000	      0.00000000	      0.00000000	      0.00000000	      0.00000000
      1.67450000	     -0.04369650	     -0.03596217	      0.00000000	      0.00000000	      0.04083911	      0.03519664	     -0.00769254	      0.00000000	      0.00000000	      0.00000000	      0.00000000	      0.00000000	      0.00000000	      0.00000000	      0.00000000	      0.00000000	      0.00000000	      0.00000000
      1.68500000	     -0.04349750	     -0.03559844	      0.00000000	      0.00000000	      0.04107536	      0.03545855	     -0.00840520	     -0.00000000	     -0.00000000	      0.00000000	      0.00000000	      0.00000000	      0.00000000	      0.00000000	      0.00000000	      0.00000000	      0.00000000	      0.00000000
      1.69550000	     -0.04326527	     -0.03519028	      0.00000000	      0.00000000	      0.04131591	      0.03573350	     -0.00918638	      0.00000000	      0.00000000	      0.00000000	      0.00000000	      0.00000000	      0.00000000	      0.00000000	      0.00000000	      0.00000000	      0.00000000	      0.00000000
      1.70600000	     -0.04300206	     -0.03474526	      0.00000000	      0.00000000	      0.04155305	      0.03601659	     -0.01001902	     -0.00000000	     -0.00000000	      0.00000000	      0.00000000	      0.00000000	      0.00000000	      0.00000000	      0.00000000	      0.00000000	      0.00000000	      0.00000000
      1.71650000	     -0.04271068	     -0.03427095	      0.00000000	      0.00000000	      0.04178282	      0.03630621	     -0.01088739	      0.00000000	     -0.00000000	      0.00000000	      0.00000000	      0.00000000	      0.00000000	      0.00000000	      0.00000000	      0.00000000	      0.00000000	      0.00000000
      1.72700000	     -0.04239549	     -0.03377640	      0.00000000	      0.00000000	      0.04200351	      0.03660252	     -0.01177260	     -0.00000000	      0.00000000	      0.00000000	      0.00000000	      0.00000000	      0.00000000	      0.00000000	      0.00000000	      0.00000000	      0.00000000	      0.00000000
      1.73750000	     -0.04206170	     -0.03327083	      0.00000000	      0.00000000	      0.04221587	      0.03690717	     -0.01265700	      0.00000000	      0.00000000	      0.00000000	      0.00000000	      0.00000000	      0.00000000	      0.00000000	      0.00000000	      0.00000000	      0.00000000	      0.00000000
      1.74800000	     -0.04171295	     -0.03276005	      0.00000000	      0.00000000	      0.04240537	      0.03720419	     -0.01353128	      0.00000000	      0.00000000	      0.00000000	      0.00000000	      0.00000000	      0.00000000	      0.00000000	      0.00000000	      0.00000000	      0.00000000	      0.00000000
      1.75850000	     -0.04135366	     -0.03225024	      0.00000000	      0.00000000	      0.04250370	      0.03741767	     -0.01438494	      0.00000000	      0.00000000	      0.00000000	      0.00000000	      0.00000000	      0.00000000	      0.00000000	      0.00000000	      0.00000000	      0.00000000	      0.00000000
      1.76900000	     -0.04098842	     -0.03174717	      0.00000000	      0.00000000	      0.04251648	      0.03755103	     -0.01520978	     -0.00000000	      0.00000000	      0.00000000	      0.00000000	      0.00000000	      0.00000000	      0.00000000	      0.00000000	      0.00000000	      0.00000000	      0.00000000
      1.77950000	     -0.04062236	     -0.03125679	      0.00000000	      0.00000000	      0.04245977	      0.03761854	     -0.01599824	      0.00000000	      0.00000000	      0.00000000	      0.00000000	      0.00000000	      0.00000000	      0.00000000	      0.00000000	      0.00000000	      0.00000000	      0.00000000
      1.79000000	     -0.04026088	     -0.03078493	      0.00000000	      0.00000000	      0.04235039	      0.03763496	     -0.01674267	      0.00000000	      0.00000000	      0.00000000	      0.00000000	      0.00000000	      0.00000000	      0.00000000	      0.00000000	      0.00000000	      0.00000000	      0.00000000
      1.80050000	     -0.03990912	     -0.03033670	      0.00000000	      0.00000000	      0.04220458	      0.03761440	     -0.01743765	     -0.00000000	      0.00000000	      0.00000000	      0.00000000	      0.00000000	      0.00000000	      0.00000000	      0.00000000	      0.00000000	      0.00000000	      0.00000000
      1.81100000	     -0.03957242	     -0.02991727	      0.00000000	      0.00000000	      0.04203713	      0.03756949	     -0.01807848	     -0.00000000	      0.00000000	      0.00000000	      0.00000000	      0.00000000	      0.00000000	      0.00000000	      0.00000000	      0.00000000	      0.00000000	      0.00000000
      1.82150000	     -0.03925674	     -0.02953242	      0.00000000	      0.00000000	      0.04186114	      0.03751107	     -0.01865872	      0.00000000	      0.00000000	      0.00000000	      0.00000000	      0.00000000	      0.00000000	      0.00000000	      0.00000000	      0.00000000	      0.00000000	      0.00000000
      1.83200000	     -0.03896782	     -0.02918760	      0.00000000	      0.00000000	      0.04168750	      0.03744802	     -0.01917341	      0.00000000	      0.00000000	      0.00000000	      0.00000000	      0.00000000	      0.00000000	      0.00000000	      0.00000000	      0.00000000	      0.00000000	      0.00000000
      1.84250000	     -0.03871094	     -0.02888773	      0.00000000	      0.00000000	      0.04152462	      0.03738705	     -0.01961881	      0.00000000	     -0.00000000	      0.00000000	      0.00000000	      0.00000000	      0.00000000	      0.00000000	      0.00000000	      0.00000000	      0.00000000	      0.00000000
      1.85300000	     -0.03849166	     -0.02863820	      0.00000000	      0.00000000	      0.04137903	      0.03733321	     -0.01998958	     -0.00000000	      0.00000000	      0.00000000	      0.00000000	      0.00000000	      0.00000000	      0.00000000	      0.00000000	      0.00000000	      0.00000000	      0.00000000
      1.86350000	     -0.03831518	     -0.02844414	      0.00000000	      0.00000000	      0.04125544	      0.03729000	     -0.02028078	      0.00000000	      0.00000000	      0.00000000	      0.00000000	      0.00000000	      0.00000000	      0.00000000	      0.00000000	      0.00000000	      0.00000000	      0.00000000
      1.87400000	     -0.03818615	     -0.02831028	      0.00000000	      0.00000000	      0.04115722	      0.03725975	     -0.02048790	     -0.00000000	      0.00000000	      0.00000000	      0.00000000	      0.00000000	      0.00000000	      0.00000000	      0.00000000	      0.00000000	      0.00000000	      0.00000000
      1.88450000	     -0.03810870	     -0.02824091	      0.00000000	      0.00000000	      0.04108695	      0.03724397	     -0.02060622	      0.00000000	      0.00000000	      0.00000000	      0.00000000	      0.00000000	      0.00000000	      0.00000000	      0.00000000	      0.00000000	      0.00000000	      0.00000000
      1.89500000	     -0.03808504	     -0.02823835	      0.00000000	      0.00000000	      0.04104620	      0.03724339	     -0.02063308	      0.00000000	      0.00000000	      0.00000000	      0.00000000	      0.00000000	      0.00000000	      0.00000000	      0.00000000	      0.00000000	      0.00000000	      0.00000000
      1.90550000	     -0.03811629	     -0.02830396	      0.00000000	      0.00000000	      0.04103622	      0.03725831	     -0.02056663	      0.00000000	      0.00000000	      0.00000000	      0.00000000	      0.00000000	      0.00000000	      0.00000000	      0.00000000	      0.00000000	      0.00000000	      0.00000000
      1.91600000	     -0.03820216	     -0.02843786	      0.00000000	      0.00000000	      0.04105760	      0.03728859	     -0.02040496	      0.00000000	      0.00000000	      0.00000000	      0.00000000	      0.00000000	      0.00000000	      0.00000000	      0.00000000	      0.00000000	      0.00000000	      0.00000000
      1.92650000	     -0.03834065	     -0.02863853	      0.00000000	      0.00000000	      0.04110993	      0.03733328	     -0.02014817	      0.00000000	      0.00000000	      0.00000000	      0.00000000	      0.00000000	      0.00000000	      0.00000000	      0.00000000	      0.00000000	      0.00000000	      0.00000000
      1.93700000	     -0.03852431	     -0.02889765	      0.00000000	      0.00000000	      0.04118912	      0.03738914	     -0.01980577	     -0.00000000	      0.00000000	      0.00000000	      0.00000000	      0.00000000	      0.00000000	      0.00000000	      0.00000000	      0.00000000	      0.00000000	      0.00000000
      1.94750000	     -0.03874374	     -0.02920457	      0.00000000	      0.00000000	      0.04128844	      0.03745131	     -0.01938932	     -0.00000000	      0.00000000	      0.00000000	      0.00000000	      0.00000000	      0.00000000	      0.00000000	      0.00000000	      0.00000000	      0.00000000	      0.00000000
      1.95800000	     -0.03898550	     -0.02954328	      0.00000000	      0.00000000	      0.04139729	      0.03751291	     -0.01891747	      0.00000000	      0.00000000	      0.00000000	      0.00000000	      0.00000000	      0.00000000	      0.00000000	      0.00000000	      0.00000000	      0.00000000	      0.00000000
      1.96850000	     -0.03923214	     -0.02989139	      0.00000000	      0.00000000	      0.04150256	      0.03756603	     -0.01842324	      0.00000000	     -0.00000000	      0.00000000	      0.00000000	      0.00000000	      0.00000000	      0.00000000	      0.00000000	      0.00000000	      0.00000000	      0.00000000
      1.97900000	     -0.03945280	     -0.03020536	      0.00000000	      0.00000000	      0.04158827	      0.03760274	     -0.01796856	      0.00000000	      0.00000000	      0.00000000	      0.00000000	      0.00000000	      0.00000000	      0.00000000	      0.00000000	      0.00000000	      0.00000000	      0.00000000
      1.98950000	     -0.03961659	     -0.03044007	      0.00000000	      0.00000000	      0.04164474	      0.03762189	     -0.01762243	     -0.00000000	      0.00000000	      0.00000000	      0.00000000	      0.00000000	      0.00000000	      0.00000000	      0.00000000	      0.00000000	      0.00000000	      0.00000000
