PassiveFiberForce
version=1
nRows=98
nColumns=19
inDegrees=no

This analysis gathers basic information about muscles during a simulation (e.g., forces, tendon lengths, moment arms, etc).
Units are S.I. units (second, meters, Newtons, ...)
If the header above contains a line with 'inDegrees', this indicates whether rotational values are in degrees (yes) or radians (no).

endheader
time	hamstrings_r	bifemsh_r	glut_max_r	iliopsoas_r	rect_fem_r	vasti_r	gastroc_r	soleus_r	dorsiflexors_r	hamstrings_l	bifemsh_l	glut_max_l	iliopsoas_l	rect_fem_l	vasti_l	gastroc_l	soleus_l	dorsiflexors_l
      0.97100000	     -8.06214963	     -0.81048822	     40.37145737	     46.35823355	     22.06728180	     36.46393901	     18.77419237	     17.59866126	     -0.24351468	     65.33409683	      0.68091384	    147.93652888	     20.01597604	      7.58938593	     18.32784444	     11.63082364	     17.07990080	      0.17223706
      0.98150000	    -10.90485956	     -1.65056327	     41.96241037	     45.66062582	     27.24821868	     47.87873359	     24.75242844	     23.73227528	     -0.30398742	     58.05078776	      0.45523441	    145.68163501	     20.69104863	     10.23694110	     21.62147584	      9.67198052	     10.85602162	     -0.63983135
      0.99200000	    -12.04510315	     -2.38513003	     44.25364079	     44.61624246	     31.16060976	     56.82718709	     29.60434056	     30.80533437	     -0.29769834	     51.88085034	      0.34201724	    143.27729364	     21.21984609	     11.71319691	     22.95001475	      8.47093734	      7.84640544	     -0.98613738
      1.00250000	    -12.08732533	     -3.06945479	     47.21392596	     43.21994310	     34.21408007	     64.15169819	     30.67356719	     34.68361010	     -0.14031110	     46.82171051	      0.33731761	    140.73842480	     21.69495378	     12.27061396	     22.48980551	      8.91563173	      9.40922028	     -0.74420392
      1.01300000	    -11.78773993	     -3.71946904	     50.52394599	     41.60400077	     36.63680581	     69.92767142	     31.81776693	     40.75755478	      0.14361265	     41.73562300	      0.37135893	    137.76096823	     22.28502344	     12.76170220	     21.44861724	      5.35151277	      4.01944273	     -1.38302215
      1.02350000	    -10.93031547	     -4.31412524	     54.27346816	     39.74700505	     38.37135926	     74.20519909	     29.59029025	     43.82185472	      0.59299243	     36.87430577	      0.43340655	    134.43119240	     22.92426577	     13.08943183	     20.02137288	      1.52769830	     -1.70137294	     -2.00780341
      1.03400000	     -9.32517588	     -4.79329669	     58.42349505	     37.68669684	     39.30509658	     76.79255476	     24.04911283	     43.17145773	      1.01458562	     32.58262241	      0.54161014	    130.83930811	     23.58152280	     13.05167272	     17.93313000	     -0.66069997	     -4.10275198	     -2.17164260
      1.04450000	     -7.09074128	     -5.13307914	     62.89638884	     35.48883198	     39.48376793	     77.88301218	     21.65254457	     48.68427598	      1.69547992	     28.92105924	      0.68808262	    127.04463094	     24.24569225	     12.67675272	     15.33199474	     -2.50615046	     -5.63751127	     -2.21532571
      1.05500000	     -4.70891700	     -5.38984170	     67.67785988	     33.20158417	     39.21185240	     78.30316871	      9.06346826	     37.73828610	      1.60906219	     25.84450153	      0.84027964	    123.18257171	     24.87824892	     12.10661711	     12.73488369	     -5.43426844	     -9.21510185	     -2.46747131
      1.06550000	     -1.58217951	     -5.43016799	     72.71111441	     30.89658028	     37.88272306	     76.85308064	      5.25750342	     34.31427212	      1.62365973	     23.20737409	      0.99714772	    119.26087990	     25.50891348	     11.42994642	     10.14400593	     -7.33560614	    -11.00591871	     -2.47961021
      1.07600000	      1.98786355	     -5.28475846	     77.97345937	     28.63260681	     35.66656510	     74.16787972	      4.26333638	     38.10400016	      2.09783849	     20.81311679	      1.16630436	    115.20068500	     26.19019838	     10.71489973	      7.42588461	     -8.74659263	    -11.84787362	     -2.37815737
      1.08650000	      5.46957618	     -5.05442609	     83.52127589	     26.42938928	     32.95640805	     71.33426648	     -8.32277755	     20.58581649	      0.91746103	     18.62788443	      1.33776344	    111.02504659	     26.90978500	      9.98864580	      4.72589279	    -10.40333366	    -13.11016383	     -2.30891222
      1.09700000	      9.70693629	     -4.61198433	     89.39655573	     24.30646957	     29.17779188	     67.20123983	    -11.34293476	     17.53363132	      0.69189496	     16.70870889	      1.49698190	    106.84208304	     27.62617173	      9.25309292	      2.25784366	    -11.35417874	    -13.23082096	     -2.12444865
      1.10750000	     14.21995630	     -4.03070900	     95.54129075	     22.32234522	     24.68665336	     62.42398177	     -9.17884551	     21.72584260	      1.04450267	     14.98777583	      1.64863155	    102.65534174	     28.35695848	      8.52118109	     -0.06406815	    -11.98267674	    -12.81689442	     -1.90399812
      1.11800000	     18.23764459	     -3.42583657	    101.84334331	     20.54817909	     20.09010820	     57.86540000	    -12.92073611	     13.83563392	      0.39279438	     13.35735934	      1.79496636	     98.43368074	     29.12570097	      7.82752270	     -2.28271324	    -12.60609639	    -12.37975471	     -1.69815871
      1.12850000	     21.99804479	     -2.79089602	    108.29824679	     18.98709811	     15.41224916	     53.25797253	    -14.99688342	      7.12929447	     -0.17535239	     11.78955012	      1.92941364	     94.20284200	     29.92464873	      7.19603824	     -4.29710128	    -13.19284092	    -11.92106867	     -1.50692008
      1.13900000	     25.61698717	     -2.13668298	    114.88697920	     17.63512828	     10.75147473	     48.51592596	    -13.73338757	      4.79424205	     -0.36102651	     10.24685148	      2.04643633	     89.98788776	     30.74937042	      6.65633537	     -6.01958742	    -13.43039166	    -10.97224515	     -1.29906851
      1.14950000	     28.92455590	     -1.49693714	    121.52185775	     16.50720057	      6.35173186	     43.78858648	    -11.29353320	      3.40082491	     -0.45945962	      8.73047186	      2.14940502	     85.80055352	     31.60209022	      6.18952210	     -7.50271843	    -13.66132395	    -10.09120215	     -1.11923005
      1.16000000	     31.80315552	     -0.89086194	    128.09879400	     15.61096660	      2.40173765	     39.15903876	     -9.01906212	      0.97223099	     -0.63002521	      7.23252167	      2.23701036	     81.66083261	     32.48024569	      5.80096416	     -8.72264447	    -14.06785281	     -9.61037760	     -0.98087011
      1.17050000	     34.35647878	     -0.31042506	    134.53158095	     14.93165719	     -1.07438583	     34.52638233	     -6.11159308	     -0.75762987	     -0.72781450	      5.79750143	      2.31059678	     77.60561356	     33.37399651	      5.46301590	     -9.69896508	    -14.16451283	     -8.72324040	     -0.83507523
      1.18100000	     36.67066188	      0.25601298	    140.72435416	     14.45367998	     -4.08896627	     29.78987632	     -2.39436774	     -1.16256775	     -0.71474083	      4.47252968	      2.37173244	     73.67535582	     34.27299880	      5.15006350	    -10.45556188	    -14.46439567	     -8.28395080	     -0.72794600
      1.19150000	     38.84540284	      0.82223706	    146.57901241	     14.15726349	     -6.69829389	     24.84277054	      1.59521335	     -0.94664582	     -0.65689811	      3.24354133	      2.41816071	     69.89676599	     35.17311839	      4.88284500	    -10.95443386	    -14.87804038	     -8.19210955	     -0.64493730
      1.20200000	     40.97886730	      1.39941746	    152.01337029	     14.01749344	     -8.98638921	     19.59879189	      5.51424324	     -0.46857713	     -0.58564638	      2.08967505	      2.44893043	     66.28525246	     36.07337416	      4.67932808	    -11.17975258	    -14.98887246	     -7.80605249	     -0.55637198
      1.21250000	     43.19049678	      1.99911520	    156.95164095	     14.00997075	    -11.06152926	     13.95137723	      9.34637306	      0.43192668	     -0.49337278	      1.08253756	      2.46746845	     62.88195488	     36.95922505	      4.49316512	    -11.19886502	    -15.17447848	     -7.72377002	     -0.48679105
      1.22300000	     45.57776222	      2.62638595	    161.33533302	     14.11182733	    -13.02563735	      7.82239453	     13.00916440	      1.78791325	     -0.38157796	      0.30548546	      2.47822605	     59.73397922	     37.81344530	      4.26528351	    -11.11427601	    -15.54505165	     -8.07753683	     -0.43415932
      1.23350000	     48.22024646	      3.27890053	    165.11680523	     14.30235246	    -14.96838962	      1.16255099	     16.29278912	      3.40247782	     -0.26444583	     -0.31800987	      2.47656627	     56.84365492	     38.63716045	      4.06138925	    -10.84123732	    -15.59549692	     -8.13712923	     -0.37308362
      1.24400000	     51.18749320	      3.94685823	    168.27480272	     14.56061650	    -16.96870683	     -6.04857502	     19.02599020	      5.14740612	     -0.14858802	     -0.86934657	      2.45793446	     54.20188137	     39.43286052	      3.94843400	    -10.28845834	    -15.38325817	     -8.08857787	     -0.31298562
      1.25450000	     54.51199525	      4.61190184	    170.79839175	     14.86994063	    -19.07455465	    -13.79014587	     21.09233928	      7.00248238	     -0.03266183	     -1.30129976	      2.42984760	     51.81144227	     40.19544174	      3.87675422	     -9.57430306	    -15.49108670	     -8.76007885	     -0.26945746
      1.26500000	     58.23265715	      5.25155350	    172.70558808	     15.21191965	    -21.31985011	    -22.01120197	     22.38680414	      8.93660522	      0.08462194	     -1.55270015	      2.40157158	     49.67182719	     40.91995247	      3.77810099	     -8.85517571	    -15.44763677	     -9.25373602	     -0.21895856
      1.27550000	     62.30626354	      5.83759983	    174.00424191	     15.58219462	    -23.63873446	    -30.54265599	     22.80404458	     10.90005978	      0.20368085	     -1.77899287	      2.35713729	     47.76897573	     41.60622331	      3.80821699	     -7.83222999	    -14.81896282	     -9.14676161	     -0.16149464
      1.28600000	     66.69959205	      6.34257319	    174.71451577	     15.97480347	    -25.94297764	    -39.16281457	     22.28031161	     12.83732863	      0.32445911	     -2.12853803	      2.27908638	     46.09566793	     42.25016831	      4.13191818	     -6.16949805	    -13.89009339	     -9.18646647	     -0.11050140
      1.29650000	     71.46470484	      6.73861484	    174.91657359	     16.35925007	    -28.16654720	    -47.55422544	     20.79150713	     14.68080684	      0.44546143	     -2.52452499	      2.19915917	     44.55956181	     42.88386490	      4.53406794	     -4.45954332	    -13.21662190	     -9.69124612	     -0.06487368
      1.30700000	     76.66887669	      7.00467373	    174.73402672	     16.70381469	    -30.20939573	    -55.34724517	     18.91141376	     16.35597687	      0.56347046	     -2.89907352	      2.15288303	     43.02309085	     43.55830501	      4.76130597	     -3.38961309	    -12.91267142	    -10.20160717	     -0.01869565
      1.31750000	     82.07491919	      7.12256966	    174.18181206	     17.04068388	    -31.75207100	    -62.11073714	     13.39034536	     17.89077496	      0.68074473	     -3.60187844	      2.05169885	     41.62957814	     44.20686268	      5.48373095	     -1.25777971	    -11.09606913	     -9.32298458	      0.02283156
      1.32800000	     87.39948803	      7.07778966	    173.24095178	     17.39548270	    -32.54847711	    -67.53076657	      7.26292645	     19.15010088	      0.78707807	     -5.08221356	      1.77434204	     40.65192663	     44.70919654	      7.63201930	      4.25065088	     -7.87027529	     -9.20565926	      0.05567530
      1.33850000	     92.97529204	      6.88475466	    172.12474850	     17.67433705	    -32.68187847	    -71.23698485	      1.00038350	     19.96199473	      0.86665431	     -5.98348254	      1.61920663	     39.60087492	     45.26314565	      8.76658159	      7.18724413	     -6.55155558	     -9.65228538	      0.08796809
      1.34900000	     99.19477603	      6.56542101	    171.17881487	     17.77482703	    -31.85130056	    -71.93598120	     -4.84101795	     20.30165303	      0.91219983	     -4.73341178	      1.93963185	     37.77775113	     46.16159089	      6.09011172	      0.90264409	     -8.96719633	     -7.91782226	      0.09796849
      1.35950000	    105.50301308	      6.12813123	    170.43579906	     17.77912635	    -29.71902318	    -69.47996881	     -9.57615185	     20.34163590	      0.93244821	     -3.30694493	      2.30642692	     35.79867673	     47.16002244	      3.07252057	     -6.11095303	    -12.34466396	     -7.14129764	      0.10540157
      1.37000000	    111.02698371	      5.58378646	    169.72570179	     17.80246570	    -26.14543555	    -63.93333724	    -12.71221211	     19.96077982	      0.91381231	     -3.71785602	      2.30084541	     34.35754362	     47.97187953	      3.14062324	     -5.78691977	    -11.69376842	     -6.54400908	      0.10950649
      1.38050000	    115.70611784	      4.97826212	    169.09616273	     17.80652921	    -21.50716972	    -55.08242155	    -14.15400825	     18.91668182	      0.83115419	     -4.97268752	      2.13621342	     33.17368297	     48.70353523	      4.60045841	     -2.28067252	     -8.00954858	     -4.09047147	      0.08806734
      1.39100000	    119.57220342	      4.34065013	    168.71234579	     17.72512834	    -16.70990193	    -44.39715090	    -13.82987735	     17.32229455	      0.69087727	     -6.21234773	      1.97162523	     32.04857632	     49.43201271	      6.07351231	      1.19508938	     -5.14573974	     -2.76959802	      0.07507055
      1.40150000	    122.24482251	      3.69173194	    168.58259628	     17.59203159	    -12.15731609	    -32.90552002	    -11.54917870	     15.88822590	      0.55792156	     -7.41426348	      1.79692852	     31.02854200	     50.13613514	      7.60117586	      4.78583528	     -2.22074106	     -1.40899134	      0.05994423
      1.41200000	    123.25958009	      3.03704792	    168.64889647	     17.44639694	     -7.98822819	    -21.16345948	     -7.38322935	     15.09138828	      0.48005428	     -8.55302049	      1.61111988	     30.12884272	     50.80611642	      9.16107022	      8.44825266	      1.62268735	      1.25539225	      0.02847732
      1.42250000	    122.61065596	      2.41326615	    168.87306476	     17.30439863	     -4.34555397	     -9.72410990	     -3.05514616	     13.27976764	      0.30493313	     -9.49992720	      1.40945467	     29.44429595	     51.39894672	     10.72343805	     12.20963229	      5.56907660	      3.99706059	     -0.00413100
      1.43300000	    120.50612600	      1.85658897	    169.17156689	     17.19367027	     -1.28812556	      0.60814675	      0.17121762	      9.75874561	     -0.03068062	    -10.09454109	      1.19430544	     29.07486223	     51.86432854	     12.20243323	     15.95653178	      9.68906668	      6.99841971	     -0.03943127
      1.44350000	    116.74216844	      1.31341330	    169.55004710	     17.08982696	      1.54549932	     10.50784294	      4.91555496	      9.09451154	     -0.08973173	    -10.64691406	      0.95545900	     28.90540653	     52.23465518	     13.75018560	     19.82924502	     14.46144481	     10.84951896	     -0.08317939
      1.45400000	    111.00435994	      0.72549299	    170.04930118	     16.96898535	      4.53803474	     20.73318714	     12.68420224	     13.72700730	      0.34676744	    -11.50181749	      0.68048954	     28.77665576	     52.56708247	     15.53359971	     23.99420436	     19.83235607	     15.41052309	     -0.12943959
      1.46450000	    104.29493998	      0.20957002	    170.62911402	     16.85417781	      7.16780543	     29.00748177	     15.29930203	     11.65238857	      0.14364578	    -12.30079987	      0.37231455	     28.86532972	     52.79039356	     17.40291011	     28.33149448	     25.46875445	     20.44541301	     -0.16484050
      1.47500000	     98.62250183	     -0.06208925	    171.24304600	     16.75997150	      8.50106120	     32.60125439	      8.43727320	     -2.48675323	     -1.17493812	    -12.63042436	      0.03312405	     29.42840860	     52.78845995	     19.22902068	     32.79728587	     31.44009687	     26.32865368	     -0.17029894
      1.48550000	     92.00404750	     -0.32261769	    171.55923416	     16.83466836	     10.16270348	     35.98598164	     13.93114572	      5.75047501	     -0.36048378	    -12.92374801	     -0.34673870	     30.28166949	     52.61057808	     21.24935472	     37.63556543	     37.80345126	     33.31942947	     -0.10280986
      1.49600000	     80.94230870	     -0.84612178	    171.02962874	     17.24188953	     14.16563316	     43.62627874	     27.15768598	     25.23905239	      1.42457849	    -13.56278528	     -0.78285283	     31.24988018	     52.31863082	     23.76960868	     43.28967818	     44.71631759	     41.85997044	      0.11877524
      1.50650000	     69.09289984	     -1.25512958	    169.81183798	     17.75291144	     17.76047963	     48.89097435	     12.02115584	     -2.20409167	     -1.15257196	    -14.15030799	     -1.25902992	     32.49018772	     51.84874635	     26.56713352	     49.40125942	     50.33712489	     49.79137214	      0.59046054
      1.51700000	     61.60732589	     -1.24761249	    168.68784542	     17.99455292	     18.02492831	     47.08352834	      1.29952841	    -17.29933423	     -2.33012096	    -14.24409212	     -1.74544769	     34.16897513	     51.12422080	     29.24550745	     55.24907322	     55.22309532	     58.42712478	      1.39617837
      1.52750000	     56.05156839	     -1.19940408	    167.80980825	     18.06342318	     17.47423279	     44.73934061	     20.26279348	     18.89422466	      0.82025955	    -13.96372378	     -2.26760507	     36.36146419	     50.09738913	     31.88211804	     61.02636868	     59.68469840	     68.15741024	      2.65788317
      1.53800000	     48.90555282	     -1.24251653	    166.25902365	     18.46156810	     18.21123821	     43.87119331	     17.80790001	     17.07109513	      0.66857595	    -13.68742375	     -2.81885126	     38.83798420	     48.84528588	     34.35361641	     66.17500850	     62.93451148	     77.92465026	      4.37939572
      1.54850000	     41.30892830	     -1.16340760	    163.57182192	     19.22745130	     19.01662773	     41.30680327	     -4.03898441	    -18.08455912	     -2.32906592	    -13.33061633	     -3.35101487	     41.46345565	     47.43134325	     36.49357739	     70.30308094	     62.84681117	     84.34990729	      6.21195372
      1.55900000	     34.77924626	     -1.01671723	    160.33814541	     19.95879191	     19.23454471	     38.06672438	     -3.45147789	    -14.38696253	     -1.76571883	    -12.44303125	     -3.86080358	     44.53140014	     45.75175424	     38.22771910	     73.67176181	     60.46702943	     88.62229638	      7.88729821
      1.56950000	     29.37368406	     -0.85258524	    156.85863665	     20.58962439	     19.02014720	     34.86690455	      6.03137153	      4.02116067	     -0.31521407	    -11.22468576	     -4.35052458	     47.98888569	     43.83024436	     39.45046252	     76.00984273	     57.47318922	     93.50555560	      9.52793654
      1.58000000	     25.26846899	     -0.58430106	    153.03029535	     21.23965308	     18.15893412	     30.44699939	      1.17218425	     -2.08674219	     -0.73562312	     -9.76159782	     -4.74126094	     51.52869304	     41.81466341	     40.04168886	     76.69553767	     52.26094193	     96.00667246	     10.66574770
      1.59050000	     21.83178713	     -0.26311719	    148.75076998	     21.97647575	     17.15677947	     25.55744405	     -7.82943926	    -15.47646342	     -1.53685722	     -7.77433093	     -5.00984692	     55.27876931	     39.69269836	     40.11091417	     76.24547544	     44.88016617	     95.44025081	     11.06308272
      1.60100000	     18.02769386	      0.02895903	    143.82027796	     22.88248314	     16.70011213	     21.28740782	     -6.98587756	    -12.60978217	     -1.17290630	     -5.58466592	     -5.23467109	     59.38779696	     37.43479971	     40.01733417	     75.80573265	     30.45854318	     81.89942413	      9.12272526
      1.61150000	     14.55177091	      0.32207967	    138.42042173	     23.83449883	     16.21734752	     17.14481958	     -4.03632961	     -6.53371645	     -0.72860928	     -2.80750142	     -5.28935930	     63.70209528	     35.14002489	     39.15784240	     74.03084181	     25.91496092	     80.60518145	      8.78005369
      1.62200000	     12.46116633	      0.66252079	    132.97746662	     24.67393962	     15.00217865	     12.44718668	     -6.43114353	     -9.36961902	     -0.78907670	      0.70679221	     -5.13977435	     68.23921987	     32.84488511	     37.33855728	     70.83468378	     21.25480453	     80.15058963	      8.41712238
      1.63250000	     10.88384543	      1.00387989	    127.41707610	     25.52381175	     13.67753769	      7.77896206	     -8.13808987	    -11.06885874	     -0.75643466	      4.32345352	     -4.90476042	     73.06327138	     30.56225685	     35.00641252	     67.50557831	      4.93375405	     55.52564936	      4.01403016
      1.64300000	      8.72194447	      1.29200021	    121.46396586	     26.52970355	     12.91705943	      3.82776742	     -8.01056598	     -9.86822597	     -0.60326163	      8.13039441	     -4.53178418	     78.05707984	     28.38193194	     31.99398070	     63.55305471	     -1.38376095	     47.80704075	      2.54424450
      1.65350000	      6.57514059	      1.54914726	    115.29624520	     27.58336718	     12.24972739	      0.25917565	     -7.73821406	     -8.44345263	     -0.46727625	     12.10357192	     -4.03706632	     83.22809701	     26.33454646	     28.34899954	     59.10614014	     -2.91015916	     47.32440230	      2.29430707
      1.66400000	      5.08263051	      1.79131630	    109.24818896	     28.56374920	     11.27409772	     -3.16294948	     -7.68383862	     -7.29282399	     -0.36462523	     16.11868657	     -3.47169011	     88.62668560	     24.42112675	     24.24388562	     54.51928751	    -10.15440398	     33.15087339	     -0.18035830
      1.67450000	      3.83998266	      2.00405846	    103.31723408	     29.53164684	     10.26826629	     -6.24272324	     -8.43839087	     -7.36765925	     -0.30597062	     20.04955330	     -2.85445651	     94.18850282	     22.68481640	     19.84619376	     49.81432619	    -15.47063014	     19.93411800	     -2.29759979
      1.68500000	      2.47951361	      2.16919312	     97.46099318	     30.53204113	      9.47625659	     -8.71079024	     -8.45950876	     -6.30069183	     -0.22923219	     23.64951682	     -2.21904891	     99.80955270	     21.17417562	     15.42968774	     45.10996657	    -17.31047342	     11.25725251	     -3.49602283
      1.69550000	      1.21134326	      2.29836132	     91.78220217	     31.52979012	      8.75164601	    -10.70836666	     -8.18329866	     -4.79836399	     -0.16203697	     26.94165665	     -1.57925007	    105.44864479	     19.89226924	     11.13016103	     40.38561549	    -17.66992541	      3.66174890	     -4.41755715
      1.70600000	      0.24361732	      2.40167866	     86.40766128	     32.48756080	      7.97036980	    -12.36107585	     -8.55651023	     -4.32618686	     -0.12339077	     30.00131576	     -0.93829180	    111.06013444	     18.83127886	      7.02929069	     35.57100572	    -17.62974840	     -4.63950012	     -5.36124666
      1.71650000	     -0.55247365	      2.47631072	     81.35526437	     33.41984639	      7.22825285	    -13.60868716	     -9.02690681	     -4.06758704	     -0.09223780	     32.84065284	     -0.29822067	    116.56274454	     17.98908088	      3.20916726	     30.61814364	    -16.46157169	    -11.72078266	     -6.01550332
      1.72700000	     -1.31161048	      2.51982041	     76.60806413	     34.34388643	      6.61494899	    -14.39381412	     -9.04226934	     -3.24124894	     -0.06125202	     35.47196467	      0.34322694	    121.86193475	     17.36078032	     -0.28232221	     25.46987706	    -14.09734456	    -16.86495853	     -6.29925510
      1.73750000	     -1.94566942	      2.54160921	     72.19947828	     35.24705316	      6.06446480	    -14.83987656	     -9.26278419	     -2.85796380	     -0.03976614	     38.00923685	      0.99776740	    126.87786094	     16.92698029	     -3.48844813	     20.00371009	    -11.06791815	    -20.64560531	     -6.33669126
      1.74800000	     -2.36533490	      2.54874762	     68.16998342	     36.11234704	      5.52317180	    -15.03186595	     -9.52854597	     -2.66012023	     -0.02198508	     40.57121084	      1.67845606	    131.53332949	     16.66708133	     -6.48654152	     14.08301111	     -7.68889762	    -23.27934050	     -6.18351713
      1.75850000	     -2.60990245	      2.54031578	     64.52723314	     36.93643438	      5.04288005	    -14.89958221	     -9.52726942	     -2.21149422	     -0.00659384	     43.24602027	      2.39124608	    135.75298580	     16.56016523	     -9.35811411	      7.60954445	     -4.08314086	    -24.58981775	     -5.83873214
      1.76900000	     -2.72856143	      2.51908188	     61.24892928	     37.72465287	      4.64204140	    -14.48403573	     -9.77907875	     -2.30082890	      0.00625815	     46.10385425	      3.13513668	    139.47579150	     16.58475785	    -12.18562542	      0.51239599	     -0.45353516	    -24.58592355	     -5.33470268
      1.77950000	     -2.74697426	      2.48467186	     58.32667857	     38.47266949	      4.33428995	    -13.78661621	     -9.91949080	     -2.40287920	      0.01892619	     49.20778065	      3.89967928	    142.65927824	     16.71594266	    -15.05189094	     -7.24215464	      2.87213412	    -23.53971754	     -4.73846407
      1.79000000	     -2.67528207	      2.43939906	     55.74565208	     39.17737846	      4.11220387	    -12.85538264	     -9.85082433	     -2.37171243	      0.03055752	     52.60726516	      4.66662147	    145.28744360	     16.92851105	    -18.02990229	    -15.66337371	      5.64388124	    -21.62884258	     -4.09713964
      1.80050000	     -2.54615394	      2.38498969	     53.47810335	     39.84027442	      3.97860605	    -11.73067317	     -9.97818330	     -2.80349974	      0.04427754	     56.26436306	      5.40364478	    147.34830919	     17.20462930	    -21.11336169	    -24.63375102	      7.58740851	    -19.07275401	     -3.45602956
      1.81100000	     -2.41096039	      2.32010146	     51.49206428	     40.46365548	      3.95655691	    -10.40182116	    -10.02337890	     -3.30107629	      0.05997103	     60.12737063	      6.07382329	    148.85372367	     17.52634138	    -24.24425152	    -33.93701908	      8.50668877	    -16.05305757	     -2.84581550
      1.82150000	     -2.30906653	      2.24404112	     49.75638269	     41.04942763	      4.06006509	     -8.86834613	     -9.80528114	     -3.60742112	      0.07509147	     64.11513979	      6.63801758	    149.82457176	     17.87907277	    -27.30475778	    -43.25682307	      8.26048883	    -12.77308550	     -2.29075126
      1.83200000	     -2.26342264	      2.15862511	     48.23526641	     41.60187578	      4.28313355	     -7.17163182	     -9.77336739	     -4.35853855	      0.09577939	     68.15835485	      7.05866261	    150.31786867	     18.24087273	    -30.13255470	    -52.15153898	      8.74174002	     -9.44299540	     -1.80580080
      1.84250000	     -2.32556204	      2.06309567	     46.88594588	     42.12911904	      4.64369952	     -5.30883015	     -9.70163824	     -5.21664067	      0.12029178	     72.16067093	      7.31019052	    150.38161156	     18.60339442	    -32.50450966	    -60.13542068	      3.46379373	     -6.15397799	     -1.38912296
      1.85300000	     -2.54043643	      1.95597675	     45.66771894	     42.63941401	      5.16000693	     -3.26477650	     -9.38930558	     -5.88996101	      0.14427358	     76.02445467	      7.37459039	    150.08211872	     18.95347789	    -34.24362197	    -66.82188795	     -2.90846742	     -3.10308991	     -1.04487270
      1.86350000	     -2.91796131	      1.83795368	     44.54927210	     43.13842517	      5.82520235	     -1.06150691	     -9.00472748	     -6.59298620	      0.16951789	     79.68916116	      7.25813919	    149.47803710	     19.28733572	    -35.19174969	    -71.90963159	     -9.64750723	     -0.29781814	     -0.75995380
      1.87400000	     -3.47745222	      1.70775922	     43.50144969	     43.63241140	      6.64667028	      1.31211765	     -8.50192223	     -7.24474062	      0.19388318	     83.04654347	      6.97437485	    148.62570261	     19.60134769	    -34.81394772	    -74.16424333	    -16.01142635	      2.13874942	     -0.53239367
      1.88450000	     -4.19748314	      1.56730621	     42.50545669	     44.12463102	      7.59965935	      3.81157939	     -7.75045627	     -7.61319556	      0.21157839	     86.02907269	      6.55809923	    147.57842089	     19.89471740	    -32.83290535	    -72.95089875	    -21.24835217	      4.20199176	     -0.35230855
      1.89500000	     -5.05975683	      1.41825900	     41.54340175	     44.61921591	      8.66302182	      6.39752441	     -6.94018556	     -7.91844171	      0.22482298	     88.46967505	      6.04345640	    146.37077398	     20.17221429	    -29.59932253	    -68.94116052	    -24.75578500	      5.90208595	     -0.21161774
      1.90550000	     -6.08534687	      1.26187574	     40.57939924	     45.12891732	      9.83383956	      9.03822930	     -5.90181271	     -7.88787271	      0.22720778	     90.26940456	      5.47569110	    145.04365276	     20.43301232	    -25.15136237	    -61.51596387	    -26.25128262	      7.22521094	     -0.10620230
      1.91600000	     -7.32508856	      1.09714270	     39.56653185	     45.67250320	     11.13358700	     11.74276942	     -4.49754206	     -7.33793202	      0.21449004	     91.24795537	      4.88928234	    143.61506060	     20.68479281	    -20.26587963	    -52.26998008	    -25.64828852	      8.30232671	     -0.02304930
      1.92650000	     -8.62067539	      0.93479956	     38.52338331	     46.24265190	     12.44364218	     14.31994552	     -3.14639328	     -6.72159833	      0.19664070	     91.41244541	      4.31900293	    142.14568632	     20.91025211	    -15.65756261	    -42.81744071	    -23.27780528	      9.10229914	      0.03730532
      1.93700000	     -9.85548065	      0.78432686	     37.46289611	     46.83445953	     13.67239515	     16.61157437	     -1.97001396	     -6.11108858	      0.17637253	     90.82942524	      3.78553717	    140.71336622	     21.09162471	    -11.61963072	    -33.99908270	    -19.55481254	      9.73185727	      0.08391719
      1.94750000	    -10.90475512	      0.65646842	     36.40317240	     47.44121185	     14.72141265	     18.44568975	     -0.21747799	     -4.48711663	      0.13745368	     89.65026288	      3.30556197	    139.39027364	     21.21575274	     -8.11162199	    -25.54240682	    -15.04888575	     10.24364890	      0.12118488
      1.95800000	    -11.68925598	      0.56080099	     35.35070222	     48.06063280	     15.51728351	     19.68220570	      1.02771612	     -3.21141062	      0.10787885	     88.21357097	      2.88826887	    138.29161610	     21.25251249	     -5.20508158	    -17.58841350	    -10.36193685	     10.61592351	      0.14773381
      1.96850000	    -11.21592637	      0.54212220	     34.69808413	     48.53083336	     15.47065175	     19.59966020	      1.57722700	     -2.20503100	      0.08520601	     86.91702723	      2.53538436	    137.55811111	     21.16663130	     -2.96554108	    -10.42325733	     -5.98511889	     10.79433537	      0.15950139
      1.97900000	     -8.52942013	      0.64337279	     34.92657840	     48.63637194	     14.02149143	     17.54887011	      2.36472803	     -0.13101701	      0.05018791	     86.22468674	      2.24901142	    137.33874853	     20.92824776	     -1.44444661	     -4.38492022	     -2.34428378	     10.67344814	      0.14842345
      1.98950000	     -4.33421614	      0.86555743	     35.76864058	     48.45515998	     11.40720804	     13.58701449	      2.10502569	      1.34582837	      0.02768832	     86.19055911	      2.03618860	    137.58424855	     20.60463780	     -0.55567476	      0.16107422	      0.20311921	     10.17194998	      0.10821524
