NormalizedFiberLength
version=1
nRows=98
nColumns=19
inDegrees=no

This analysis gathers basic information about muscles during a simulation (e.g., forces, tendon lengths, moment arms, etc).
Units are S.I. units (second, meters, Newtons, ...)
If the header above contains a line with 'inDegrees', this indicates whether rotational values are in degrees (yes) or radians (no).

endheader
time	hamstrings_r	bifemsh_r	glut_max_r	iliopsoas_r	rect_fem_r	vasti_r	gastroc_r	soleus_r	dorsiflexors_r	hamstrings_l	bifemsh_l	glut_max_l	iliopsoas_l	rect_fem_l	vasti_l	gastroc_l	soleus_l	dorsiflexors_l
      0.97100000	      0.52223823	      0.62994617	      0.95711488	      1.04225136	      0.76219800	      0.52435807	      0.39697530	      0.46869770	      0.20176039	      1.05432800	      0.68375888	      1.18872739	      0.88876785	      0.32782530	      0.46509460	      0.56519645	      0.69768642	      0.24092864
      0.98150000	      0.51359109	      0.62082226	      0.95819716	      1.04165227	      0.77811293	      0.53351798	      0.40931585	      0.47544328	      0.20144643	      1.04613365	      0.68017398	      1.18719941	      0.88997512	      0.33685839	      0.46913851	      0.56894007	      0.69703066	      0.24068589
      0.99200000	      0.50367481	      0.60879646	      0.96042808	      1.04041430	      0.79767633	      0.54524195	      0.42484477	      0.48475687	      0.20109652	      1.03584616	      0.67601819	      1.18506997	      0.89165275	      0.34809242	      0.47379087	      0.57105201	      0.69384227	      0.23951321
      1.00250000	      0.49357388	      0.59425033	      0.96414438	      1.03834294	      0.81936439	      0.55891582	      0.44217781	      0.49630159	      0.20083559	      1.02467380	      0.67180074	      1.18257176	      0.89361370	      0.36022760	      0.47847390	      0.57346989	      0.69122836	      0.23856135
      1.01300000	      0.48366742	      0.57734178	      0.96940593	      1.03539061	      0.84219242	      0.57410757	      0.45960359	      0.50926587	      0.20081861	      1.01289930	      0.66779034	      1.17967498	      0.89587779	      0.37283122	      0.48289114	      0.57477601	      0.68780493	      0.23732793
      1.02350000	      0.47427140	      0.55827930	      0.97619939	      1.03154417	      0.86511305	      0.59032609	      0.47720544	      0.52456684	      0.20122895	      1.00051261	      0.66410187	      1.17630932	      0.89849528	      0.38580767	      0.48692239	      0.57378716	      0.68224321	      0.23535686
      1.03400000	      0.46579729	      0.53736877	      0.98451083	      1.02678454	      0.88716753	      0.60713454	      0.49154269	      0.53939198	      0.20210989	      0.98772328	      0.66085926	      1.17249539	      0.90144443	      0.39886548	      0.49044082	      0.57099297	      0.67522956	      0.23293084
      1.04450000	      0.45876096	      0.51517166	      0.99423976	      1.02113678	      0.90731745	      0.62401333	      0.50368354	      0.55532784	      0.20361079	      0.97481996	      0.65823999	      1.16825913	      0.90469913	      0.41159628	      0.49326488	      0.56724845	      0.66792390	      0.23047728
      1.05500000	      0.45337456	      0.49208024	      1.00523151	      1.01465474	      0.92498405	      0.64066675	      0.51169193	      0.57054185	      0.20558471	      0.96203432	      0.65629811	      1.16367086	      0.90819944	      0.42372751	      0.49534790	      0.56210863	      0.65979139	      0.22783796
      1.06550000	      0.44987416	      0.46860900	      1.01729275	      1.00741558	      0.93957241	      0.65675494	      0.51954657	      0.58080865	      0.20721206	      0.94952528	      0.65502928	      1.15880158	      0.91188602	      0.43509265	      0.49670392	      0.55556680	      0.65078109	      0.22503196
      1.07600000	      0.44877415	      0.44567432	      1.03017833	      0.99953176	      0.95025864	      0.67174998	      0.52104726	      0.59286098	      0.20941887	      0.93731659	      0.65444441	      1.15365318	      0.91575266	      0.44562644	      0.49732761	      0.54828203	      0.64165829	      0.22232339
      1.08650000	      0.45006220	      0.42367579	      1.04366531	      0.99110959	      0.95697948	      0.68553919	      0.51785464	      0.60131551	      0.21115276	      0.92537647	      0.65456369	      1.14819612	      0.91981629	      0.45530036	      0.49720048	      0.54016438	      0.63232794	      0.21969743
      1.09700000	      0.45394219	      0.40317716	      1.05756624	      0.98224125	      0.95954635	      0.69793346	      0.50908243	      0.60444709	      0.21183291	      0.91370700	      0.65533643	      1.14245505	      0.92405305	      0.46411521	      0.49637603	      0.53140164	      0.62296636	      0.21721570
      1.10750000	      0.46085508	      0.38495005	      1.07169718	      0.97302512	      0.95765388	      0.70864267	      0.50137169	      0.60909590	      0.21287966	      0.90233477	      0.65670289	      1.13647071	      0.92842786	      0.47206201	      0.49491447	      0.52234293	      0.61393551	      0.21497275
      1.11800000	      0.47061097	      0.36922498	      1.08581635	      0.96360807	      0.95168912	      0.71769437	      0.49298360	      0.61256517	      0.21368928	      0.89121746	      0.65862031	      1.13024239	      0.93293651	      0.47917514	      0.49285584	      0.51304229	      0.60527925	      0.21296718
      1.12850000	      0.48290740	      0.35608614	      1.09969082	      0.95414501	      0.94217043	      0.72515910	      0.48271199	      0.61278951	      0.21374246	      0.88029677	      0.66104081	      1.12376430	      0.93757833	      0.48550732	      0.49024447	      0.50351398	      0.59699808	      0.21118484
      1.13900000	      0.49758434	      0.34561445	      1.11315031	      0.94476098	      0.92951179	      0.73106606	      0.47235021	      0.61126187	      0.21338230	      0.86950304	      0.66388488	      1.11704337	      0.94234343	      0.49115210	      0.48715860	      0.49384292	      0.58914262	      0.20962055
      1.14950000	      0.51445906	      0.33781268	      1.12604580	      0.93557648	      0.91415553	      0.73545414	      0.46336192	      0.60918977	      0.21290125	      0.85877207	      0.66707511	      1.11008780	      0.94722116	      0.49620187	      0.48367522	      0.48420184	      0.58185918	      0.20828248
      1.16000000	      0.53320966	      0.33254964	      1.13823862	      0.92671358	      0.89664680	      0.73841311	      0.45585817	      0.60637538	      0.21226175	      0.84804900	      0.67054200	      1.10290572	      0.95220114	      0.50073944	      0.47986412	      0.47444741	      0.57494476	      0.20711384
      1.17050000	      0.55352109	      0.32969524	      1.14961220	      0.91828582	      0.87749541	      0.74001880	      0.44995321	      0.60275303	      0.21146246	      0.83729590	      0.67421296	      1.09551560	      0.95726621	      0.50484367	      0.47580011	      0.46465588	      0.56843135	      0.20610462
      1.18100000	      0.57513922	      0.32915201	      1.16008835	      0.91038333	      0.85711697	      0.74032452	      0.44611044	      0.59880183	      0.21062153	      0.82652088	      0.67802900	      1.08795063	      0.96238986	      0.50855174	      0.47154450	      0.45487982	      0.56233054	      0.20524063
      1.19150000	      0.59786135	      0.33088527	      1.16960807	      0.90308413	      0.83583607	      0.73934924	      0.44465345	      0.59492783	      0.20982880	      0.81574183	      0.68192758	      1.08025254	      0.96754100	      0.51190495	      0.46716398	      0.44495191	      0.55640175	      0.20447667
      1.20200000	      0.62154439	      0.33490201	      1.17814552	      0.89644109	      0.81386755	      0.73709044	      0.44558904	      0.59127030	      0.20910960	      0.80496453	      0.68584269	      1.07246126	      0.97269113	      0.51496526	      0.46273060	      0.43496722	      0.55067590	      0.20380975
      1.21250000	      0.64610015	      0.34126200	      1.18569236	      0.89049171	      0.79132301	      0.73351478	      0.44885042	      0.58795932	      0.20848330	      0.79420787	      0.68971264	      1.06462258	      0.97780926	      0.51778789	      0.45831263	      0.42500417	      0.54515744	      0.20323275
      1.22300000	      0.67150385	      0.35005280	      1.19226529	      0.88525070	      0.76819977	      0.72856576	      0.45433942	      0.58516429	      0.20797308	      0.78355984	      0.69349883	      1.05680442	      0.98285174	      0.52035333	      0.45394737	      0.41494522	      0.53966101	      0.20272183
      1.23350000	      0.69775779	      0.36137068	      1.19788861	      0.88072282	      0.74441772	      0.72216541	      0.46187796	      0.58302347	      0.20759383	      0.77310804	      0.69716374	      1.04907692	      0.98777560	      0.52264705	      0.44966960	      0.40481477	      0.53414817	      0.20227272
      1.24400000	      0.72489076	      0.37527900	      1.20260493	      0.87689387	      0.71981516	      0.71422701	      0.47115073	      0.58158811	      0.20734518	      0.76287223	      0.70064807	      1.04149330	      0.99255057	      0.52474081	      0.44554409	      0.39483739	      0.52875099	      0.20189365
      1.25450000	      0.75291947	      0.39178661	      1.20646025	      0.87374265	      0.69418688	      0.70465647	      0.48177582	      0.58089678	      0.20722704	      0.75286498	      0.70389972	      1.03410088	      0.99715144	      0.52671612	      0.44163347	      0.38497175	      0.52331883	      0.20157158
      1.26500000	      0.78183685	      0.41080684	      1.20951398	      0.87123307	      0.66729134	      0.69336720	      0.49329086	      0.58096665	      0.20723894	      0.74315023	      0.70691054	      1.02694576	      1.00155488	      0.52857296	      0.43795275	      0.37510268	      0.51768714	      0.20129918
      1.27550000	      0.81157632	      0.43215437	      1.21182347	      0.86932715	      0.63891088	      0.68028854	      0.50518887	      0.58181054	      0.20738342	      0.73376935	      0.70966549	      1.02006859	      1.00574181	      0.53034240	      0.43452851	      0.36550312	      0.51208616	      0.20108848
      1.28600000	      0.84196182	      0.45551287	      1.21344146	      0.86798784	      0.60892632	      0.66539960	      0.51689850	      0.58340742	      0.20766111	      0.72463301	      0.71206393	      1.01350251	      1.00969836	      0.53227239	      0.43149929	      0.35643125	      0.50658619	      0.20093783
      1.29650000	      0.87275405	      0.48046064	      1.21442948	      0.86716834	      0.57729595	      0.64873095	      0.52784598	      0.58572510	      0.20807409	      0.71564478	      0.71403234	      1.00725867	      1.01342408	      0.53458695	      0.42897706	      0.34791780	      0.50105915	      0.20084000
      1.30700000	      0.90367957	      0.50645499	      1.21488587	      0.86678937	      0.54406258	      0.63040219	      0.53177915	      0.58868916	      0.20861932	      0.70677867	      0.71567056	      1.00126045	      1.01697003	      0.53719392	      0.42685155	      0.33969579	      0.49536485	      0.20079220
      1.31750000	      0.93435730	      0.53288790	      1.21489753	      0.86677969	      0.50947187	      0.61061665	      0.53926492	      0.59222717	      0.20929499	      0.69793938	      0.71700103	      0.99544609	      1.02037661	      0.54014922	      0.42510682	      0.33202764	      0.48978948	      0.20079385
      1.32800000	      0.96413942	      0.55906390	      1.21449354	      0.86711516	      0.47412319	      0.58967629	      0.54312075	      0.59624895	      0.21009558	      0.68869247	      0.71752490	      0.98994873	      1.02356999	      0.54456647	      0.42441513	      0.32601126	      0.48460052	      0.20083485
      1.33850000	      0.99242616	      0.58429830	      1.21373716	      0.86774270	      0.43869050	      0.56795112	      0.54317606	      0.60059597	      0.21099935	      0.67883505	      0.71699242	      0.98484641	      1.02651028	      0.55101954	      0.42511816	      0.32151803	      0.47926572	      0.20091261
      1.34900000	      1.01898969	      0.60799306	      1.21282713	      0.86849676	      0.40388545	      0.54601155	      0.53957349	      0.60507116	      0.21197087	      0.66943740	      0.71681169	      0.97969312	      1.02945711	      0.55655366	      0.42535615	      0.31671993	      0.47425387	      0.20101449
      1.35950000	      1.04364131	      0.62963373	      1.21196048	      0.86921387	      0.37085501	      0.52467571	      0.53282167	      0.60951298	      0.21297572	      0.66145499	      0.71824189	      0.97408384	      1.03263889	      0.55848960	      0.42346405	      0.30998202	      0.46991562	      0.20112190
      1.37000000	      1.06578274	      0.64874822	      1.21116523	      0.86987106	      0.34098582	      0.50469545	      0.52380199	      0.61379694	      0.21398251	      0.65407126	      0.72031762	      0.96827226	      1.03590738	      0.55884254	      0.42068098	      0.30230531	      0.46572487	      0.20123960
      1.38050000	      1.08483327	      0.66500752	      1.21042281	      0.87048387	      0.31563737	      0.48692426	      0.51353854	      0.61769717	      0.21493073	      0.64625115	      0.72186454	      0.96255570	      1.03909491	      0.56021454	      0.41857715	      0.29617343	      0.46223823	      0.20134582
      1.39100000	      1.10063711	      0.67828306	      1.20979866	      0.87099850	      0.29536566	      0.47198919	      0.50307238	      0.62097231	      0.21574988	      0.63779772	      0.72269167	      0.95697034	      1.04218323	      0.56310687	      0.41744142	      0.29207220	      0.45959157	      0.20143026
      1.40150000	      1.11319482	      0.68854722	      1.20937278	      0.87134937	      0.28006995	      0.46019590	      0.49351439	      0.62353464	      0.21640511	      0.62873667	      0.72281072	      0.95152372	      1.04517033	      0.56752584	      0.41727732	      0.28956680	      0.45736946	      0.20150302
      1.41200000	      1.12247652	      0.69586473	      1.20915676	      0.87152725	      0.26937477	      0.45162078	      0.48603673	      0.62560720	      0.21694422	      0.61911246	      0.72221619	      0.94624567	      1.04804215	      0.57347406	      0.41809525	      0.28911258	      0.45600416	      0.20154832
      1.42250000	      1.12849722	      0.70035417	      1.20913867	      0.87154215	      0.26281255	      0.44625176	      0.48132779	      0.62719145	      0.21736177	      0.60899574	      0.72088060	      0.94119755	      1.05076807	      0.58095610	      0.41991833	      0.29096149	      0.45570663	      0.20155823
      1.43300000	      1.13152375	      0.70234602	      1.20927415	      0.87143060	      0.25974358	      0.44383641	      0.47890657	      0.62762362	      0.21747648	      0.59858971	      0.71878083	      0.93651777	      1.05327712	      0.58987822	      0.42274574	      0.29516640	      0.45651747	      0.20153124
      1.44350000	      1.13179227	      0.70211289	      1.20952012	      0.87122801	      0.25971685	      0.44412026	      0.47871525	      0.62701522	      0.21731509	      0.58804789	      0.71587897	      0.93232827	      1.05550879	      0.60017569	      0.42657936	      0.30194229	      0.45862812	      0.20146163
      1.45400000	      1.12931332	      0.69965942	      1.20987680	      0.87093410	      0.26271082	      0.44708913	      0.48240298	      0.62732670	      0.21739763	      0.57724460	      0.71208617	      0.92861804	      1.05747381	      0.61198296	      0.43147098	      0.31170811	      0.46238022	      0.20134137
      1.46450000	      1.12419522	      0.69504448	      1.21034166	      0.87055081	      0.26872903	      0.45259177	      0.48977299	      0.62870459	      0.21776494	      0.56604516	      0.70729355	      0.92537993	      1.05918014	      0.62544251	      0.43748004	      0.32466402	      0.46793941	      0.20117587
      1.47500000	      1.11745984	      0.68903943	      1.21088735	      0.87010052	      0.27680750	      0.45962449	      0.49538450	      0.62640131	      0.21715293	      0.55466320	      0.70141552	      0.92280361	      1.06053202	      0.64047868	      0.44462672	      0.34097823	      0.47555828	      0.20098552
      1.48550000	      1.10984317	      0.68234897	      1.21141403	      0.86966555	      0.28614529	      0.46734382	      0.49916821	      0.62166136	      0.21592485	      0.54330312	      0.69434636	      0.92108936	      1.06142875	      0.65707055	      0.45296312	      0.36082360	      0.48557313	      0.20082444
      1.49600000	      1.09975105	      0.67433273	      1.21159666	      0.86951464	      0.29839898	      0.47647059	      0.51042807	      0.62464562	      0.21669309	      0.53180087	      0.68592955	      0.92023679	      1.06187391	      0.67550205	      0.46263185	      0.38447689	      0.49849325	      0.20081201
      1.50650000	      1.08600158	      0.66453415	      1.21116874	      0.86986817	      0.31498376	      0.48745011	      0.52178210	      0.62670332	      0.21723262	      0.52001462	      0.67598914	      0.92026381	      1.06185981	      0.69612175	      0.47382326	      0.41178312	      0.51454480	      0.20117371
      1.51700000	      1.07081341	      0.65429755	      1.21031245	      0.87057490	      0.33350355	      0.49870059	      0.52175285	      0.61644199	      0.21462231	      0.50814980	      0.66447334	      0.92130980	      1.06131357	      0.71880357	      0.48651779	      0.44180772	      0.53342283	      0.20221831
      1.52750000	      1.05635562	      0.64463476	      1.20939779	      0.87132877	      0.35143473	      0.50908694	      0.52574919	      0.61255302	      0.21368640	      0.49652696	      0.65133062	      0.92358639	      1.06012180	      0.74323585	      0.50063323	      0.47444002	      0.55571715	      0.20439327
      1.53800000	      1.04192817	      0.63518296	      1.20833444	      0.87220384	      0.36939137	      0.51899032	      0.53710544	      0.61826493	      0.21507124	      0.48525416	      0.63642096	      0.92722563	      1.05820852	      0.76912451	      0.51608043	      0.50891693	      0.58131559	      0.20818700
      1.54850000	      1.02646353	      0.62602610	      1.20663498	      0.87359938	      0.38817309	      0.52832270	      0.53842038	      0.61357227	      0.21392880	      0.47430527	      0.61974803	      0.93215450	      1.05560106	      0.79588726	      0.53255719	      0.54409599	      0.60980092	      0.21399690
      1.55900000	      1.01019155	      0.61760544	      1.20416960	      0.87561726	      0.40734420	      0.53669204	      0.53255282	      0.60194485	      0.21128782	      0.46388697	      0.60141288	      0.93837934	      1.05228110	      0.82286344	      0.54979816	      0.57766156	      0.63932933	      0.22165401
      1.56950000	      0.99365133	      0.60998306	      1.20113822	      0.87808768	      0.42638438	      0.54410219	      0.53153952	      0.59690961	      0.21023038	      0.45433389	      0.58148129	      0.94601548	      1.04816689	      0.84927418	      0.56753906	      0.60920140	      0.67002857	      0.23117626
      1.58000000	      0.97733148	      0.60338551	      1.19763450	      0.88092830	      0.44471755	      0.55039274	      0.53217646	      0.59467932	      0.20977903	      0.44577251	      0.56014900	      0.95495279	      1.04329253	      0.87425447	      0.58536570	      0.63751745	      0.70103186	      0.24217525
      1.59050000	      0.96160044	      0.59815408	      1.19364269	      0.88414539	      0.46182399	      0.55530024	      0.52761364	      0.58749262	      0.20839692	      0.43848428	      0.53789964	      0.96500210	      1.03773413	      0.89699400	      0.60283065	      0.66157139	      0.73142722	      0.25408562
      1.60100000	      0.94614747	      0.59426262	      1.18904591	      0.88782464	      0.47799296	      0.55890451	      0.52051028	      0.57820518	      0.20677715	      0.43272021	      0.51501583	      0.97610978	      1.03149279	      0.91710251	      0.61977640	      0.67861734	      0.75783338	      0.26518489
      1.61150000	      0.93061260	      0.59160202	      1.18374323	      0.89203522	      0.49358604	      0.56134589	      0.51540179	      0.57169728	      0.20575606	      0.42866554	      0.49180959	      0.98817526	      1.02459454	      0.93424825	      0.63605449	      0.69479776	      0.77870158	      0.27437227
      1.62200000	      0.91543467	      0.59025410	      1.17787461	      0.89665331	      0.50811964	      0.56257562	      0.51041371	      0.56581344	      0.20491487	      0.42685753	      0.46912977	      1.00100209	      1.01712205	      0.94762148	      0.65117851	      0.70300475	      0.79995226	      0.28405033
      1.63250000	      0.90109930	      0.59032595	      1.17158817	      0.90155161	      0.52104480	      0.56251019	      0.50393048	      0.55878609	      0.20401316	      0.42754052	      0.44746577	      1.01445316	      1.00912798	      0.95695494	      0.66497848	      0.70406684	      0.81411892	      0.29066049
      1.64300000	      0.88724607	      0.59164921	      1.16480689	      0.90677958	      0.53270799	      0.56130275	      0.49724409	      0.55198630	      0.20324799	      0.43076226	      0.42720350	      1.02833885	      1.00070134	      0.96223471	      0.67737596	      0.69774423	      0.82018548	      0.29352623
      1.65350000	      0.87344520	      0.59402214	      1.15743593	      0.91239694	      0.54351843	      0.55912593	      0.49071142	      0.54576479	      0.20264055	      0.43665880	      0.40888650	      1.04242902	      0.99196443	      0.96340204	      0.68820776	      0.69053025	      0.82568063	      0.29613911
      1.66400000	      0.85985836	      0.59733819	      1.14958897	      0.91830319	      0.55330301	      0.55605919	      0.48445754	      0.54026208	      0.20217690	      0.44525387	      0.39284025	      1.05654716	      0.98301662	      0.96061687	      0.69744051	      0.68073279	      0.82761920	      0.29706463
      1.67450000	      0.84669024	      0.60149712	      1.14139805	      0.92438813	      0.56185938	      0.55217241	      0.47799660	      0.53498892	      0.20179701	      0.45653043	      0.37930006	      1.07053160	      0.97395692	      0.95412382	      0.70507352	      0.66741240	      0.82397442	      0.29532613
      1.68500000	      0.83382032	      0.60631652	      1.13289592	      0.93061883	      0.56933269	      0.54761212	      0.47132496	      0.52994462	      0.20149204	      0.47029538	      0.36837283	      1.08418540	      0.96491718	      0.94433339	      0.71114634	      0.65249122	      0.81655059	      0.29180674
      1.69550000	      0.82111573	      0.61160410	      1.12411632	      0.93696296	      0.57590329	      0.54253918	      0.46488073	      0.52556586	      0.20127303	      0.48628471	      0.36008362	      1.09731860	      0.95603595	      0.93171819	      0.71571031	      0.63750083	      0.80676495	      0.28721435
      1.70600000	      0.80863921	      0.61723005	      1.11515050	      0.94334894	      0.58156716	      0.53706060	      0.45847263	      0.52164168	      0.20111232	      0.50427137	      0.35441889	      1.10978926	      0.94742930	      0.91671117	      0.71881176	      0.62280283	      0.79463036	      0.28159863
      1.71650000	      0.79647794	      0.62307307	      1.10610069	      0.94970142	      0.58631924	      0.53128018	      0.45183228	      0.51787665	      0.20098919	      0.52405804	      0.35136900	      1.12148146	      0.93920262	      0.89969600	      0.72047660	      0.60880265	      0.78033723	      0.27510623
      1.72700000	      0.78460880	      0.62900414	      1.09702620	      0.95597878	      0.59027231	      0.52531490	      0.44510643	      0.51437882	      0.20090154	      0.54543620	      0.35091195	      1.13230041	      0.93145172	      0.88102755	      0.72072582	      0.59617619	      0.76460989	      0.26813103
      1.73750000	      0.77300673	      0.63490436	      1.08798311	      0.96214406	      0.59355253	      0.51927802	      0.43842264	      0.51121761	      0.20084402	      0.56823403	      0.35306569	      1.14217132	      0.92426143	      0.86098192	      0.71955083	      0.58542583	      0.74808715	      0.26101502
      1.74800000	      0.76173027	      0.64070463	      1.07904178	      0.96815292	      0.59619558	      0.51323796	      0.43159057	      0.50815455	      0.20080752	      0.59235382	      0.35789126	      1.15105432	      0.91769237	      0.83971500	      0.71691216	      0.57676839	      0.73117948	      0.25398458
      1.75850000	      0.75085448	      0.64633922	      1.07028260	      0.97395701	      0.59825136	      0.50727290	      0.42477578	      0.50529854	      0.20079013	      0.61775131	      0.36549855	      1.15892547	      0.91179258	      0.81727511	      0.71273267	      0.57032991	      0.71430143	      0.24724994
      1.76900000	      0.74042003	      0.65175328	      1.06176629	      0.97952344	      0.59980603	      0.50145879	      0.41793909	      0.50254910	      0.20078819	      0.64441544	      0.37599365	      1.16578636	      0.90658876	      0.79361224	      0.70691854	      0.56613458	      0.69788932	      0.24100386
      1.77950000	      0.73044953	      0.65689619	      1.05354502	      0.98482657	      0.60096011	      0.49586724	      0.41101446	      0.49977363	      0.20080055	      0.67235154	      0.38946904	      1.17165011	      0.90209562	      0.76859141	      0.69935337	      0.56406856	      0.68232218	      0.23538456
      1.79000000	      0.72095619	      0.66172333	      1.04566492	      0.98984576	      0.60181662	      0.49056268	      0.40413653	      0.49703419	      0.20082643	      0.70156928	      0.40594101	      1.17655678	      0.89830330	      0.74199623	      0.68991939	      0.56382568	      0.66787127	      0.23045989
      1.80050000	      0.71194884	      0.66620161	      1.03816444	      0.99456606	      0.60246854	      0.48559567	      0.39730530	      0.49426296	      0.20086597	      0.73203928	      0.42533482	      1.18055227	      0.89519321	      0.71357450	      0.67849654	      0.56498476	      0.65476109	      0.22625574
      1.81100000	      0.70340623	      0.67030037	      1.03106621	      0.99898272	      0.60302417	      0.48101270	      0.39043452	      0.49130720	      0.20092241	      0.76363311	      0.44740661	      1.18369644	      0.89273185	      0.68312146	      0.66501536	      0.56695749	      0.64311732	      0.22274737
      1.82150000	      0.69528417	      0.67398479	      1.02438413	      1.00309626	      0.60360893	      0.47686380	      0.38368407	      0.48824824	      0.20099560	      0.79612111	      0.47177192	      1.18604985	      0.89088147	      0.65051283	      0.64945371	      0.56910336	      0.63302876	      0.21988946
      1.83200000	      0.68751932	      0.67722531	      1.01811842	      1.00691510	      0.60435031	      0.47319221	      0.37706413	      0.48502526	      0.20108813	      0.82913512	      0.49785960	      1.18768756	      0.88958975	      0.61578446	      0.63189272	      0.56419500	      0.62448080	      0.21760651
      1.84250000	      0.68003489	      0.67999779	      1.01225770	      1.01045391	      0.60537264	      0.47003418	      0.37048901	      0.48149373	      0.20120650	      0.86219914	      0.52498294	      1.18868906	      0.88879816	      0.57915515	      0.61251148	      0.56505880	      0.61743389	      0.21582366
      1.85300000	      0.67271619	      0.68227284	      1.00677246	      1.01373729	      0.60682545	      0.46743111	      0.36407921	      0.47770705	      0.20135155	      0.89469684	      0.55234511	      1.18913435	      0.88844581	      0.54109320	      0.59161330	      0.56247126	      0.61178324	      0.21446071
      1.86350000	      0.66544274	      0.68402231	      1.00162727	      1.01679220	      0.60885443	      0.46542217	      0.35791830	      0.47368967	      0.20152380	      0.92596028	      0.57913693	      1.18910568	      0.88846850	      0.50220205	      0.56955536	      0.55606008	      0.60739537	      0.21344417
      1.87400000	      0.65808452	      0.68521917	      0.99677838	      1.01964933	      0.61160346	      0.46404412	      0.35205390	      0.46944131	      0.20172374	      0.95529004	      0.60459314	      1.18867566	      0.88880876	      0.46343248	      0.54687071	      0.54589455	      0.60412587	      0.21271086
      1.88450000	      0.65051716	      0.68583618	      0.99218273	      1.02233786	      0.61520697	      0.46333253	      0.34659520	      0.46502898	      0.20194727	      0.98204649	      0.62805922	      1.18791553	      0.88940966	      0.42634299	      0.52444442	      0.53246478	      0.60179282	      0.21220033
      1.89500000	      0.64263636	      0.68585892	      0.98779667	      1.02488636	      0.61976335	      0.46330629	      0.34165244	      0.46054303	      0.20218690	      1.00569815	      0.64905224	      1.18688181	      0.89022569	      0.39230436	      0.50303568	      0.51665869	      0.60024275	      0.21186706
      1.90550000	      0.63433995	      0.68527546	      0.98357323	      1.02732446	      0.62535953	      0.46397923	      0.33726175	      0.45601853	      0.20243642	      1.02585897	      0.66726107	      1.18562540	      0.89121571	      0.36259968	      0.48347146	      0.49959965	      0.59930493	      0.21166772
      1.91600000	      0.62549876	      0.68407862	      0.97944384	      1.02969328	      0.63208451	      0.46535741	      0.33364984	      0.45167330	      0.20267848	      1.04234633	      0.68258464	      1.18418608	      0.89234744	      0.33804331	      0.46642236	      0.48249382	      0.59884939	      0.21157153
      1.92650000	      0.61600713	      0.68226985	      0.97534350	      1.03203093	      0.63999472	      0.46743454	      0.33090063	      0.44760695	      0.20290245	      1.05513703	      0.69505905	      1.18260243	      0.89358967	      0.31868698	      0.45213323	      0.46648624	      0.59876744	      0.21155427
      1.93700000	      0.60588848	      0.67990672	      0.97123766	      1.03435734	      0.64898916	      0.47013815	      0.32891726	      0.44381569	      0.20310483	      1.06448011	      0.70487910	      1.18093849	      0.89489154	      0.30395495	      0.44044283	      0.45244278	      0.59895578	      0.21159396
      1.94750000	      0.59521086	      0.67706719	      0.96710161	      1.03668645	      0.65891072	      0.47337186	      0.32778474	      0.44046464	      0.20327520	      1.07073049	      0.71229105	      1.17926478	      0.89619756	      0.29328282	      0.43120997	      0.44099533	      0.59936404	      0.21168024
      1.95800000	      0.58413613	      0.67388177	      0.96292746	      1.03902249	      0.66947594	      0.47698018	      0.32768673	      0.43782502	      0.20340168	      1.07444618	      0.71762793	      1.17767519	      0.89743473	      0.28602801	      0.42427879	      0.43236038	      0.59993106	      0.21180061
      1.96850000	      0.57308042	      0.67055039	      0.95880986	      1.04131268	      0.68016906	      0.48073202	      0.32802070	      0.43555419	      0.20350375	      1.07626890	      0.72120823	      1.17629346	      0.89850757	      0.28153411	      0.41947293	      0.42649821	      0.60059807	      0.21194304
      1.97900000	      0.56332016	      0.66749452	      0.95520638	      1.04330547	      0.68971352	      0.48415376	      0.32880193	      0.43395937	      0.20357110	      1.07698323	      0.72337585	      1.17527673	      0.89929551	      0.27902873	      0.41649612	      0.42304224	      0.60126121	      0.21208550
      1.98950000	      0.55613878	      0.66517791	      0.95257266	      1.04475524	      0.69679660	      0.48673485	      0.32978807	      0.43312400	      0.20360481	      1.07729221	      0.72445493	      1.17474730	      0.89970530	      0.27779922	      0.41499421	      0.42145813	      0.60179365	      0.21220051
