TendonForce
version=1
nRows=98
nColumns=19
inDegrees=no

This analysis gathers basic information about muscles during a simulation (e.g., forces, tendon lengths, moment arms, etc).
Units are S.I. units (second, meters, Newtons, ...)
If the header above contains a line with 'inDegrees', this indicates whether rotational values are in degrees (yes) or radians (no).

endheader
time	hamstrings_r	bifemsh_r	glut_max_r	iliopsoas_r	rect_fem_r	vasti_r	gastroc_r	soleus_r	dorsiflexors_r	hamstrings_l	bifemsh_l	glut_max_l	iliopsoas_l	rect_fem_l	vasti_l	gastroc_l	soleus_l	dorsiflexors_l
      0.97100000	   1528.23721624	    260.65267094	   1398.74139317	   1008.86213563	   1005.64413787	   3914.97825999	   1737.86340002	   2629.24439871	    938.17095568	   1515.47106135	    259.92106852	   1392.51288425	   1005.91666198	    993.28383389	   3852.20778544	   1780.60455542	   2690.55679760	    958.51642183
      0.98150000	   1528.23721624	    260.65267094	   1398.74139317	   1008.86213563	   1005.64413787	   3914.97825999	   1737.86340002	   2629.24439871	    938.17095568	   1515.47106135	    259.92106852	   1392.51288425	   1005.91666198	    993.28383389	   3852.20778544	   1780.60455542	   2690.55679760	    958.51642183
      0.99200000	   1528.23721624	    260.65267094	   1398.74139317	   1008.86213563	   1005.64413787	   3914.97825999	   1737.86340002	   2629.24439871	    938.17095568	   1515.47106135	    259.92106852	   1392.51288425	   1005.91666198	    993.28383389	   3852.20778544	   1780.60455542	   2690.55679760	    958.51642183
      1.00250000	   1528.23721624	    260.65267094	   1398.74139317	   1008.86213563	   1005.64413787	   3914.97825999	   1737.86340002	   2629.24439871	    938.17095568	   1515.47106135	    259.92106852	   1392.51288425	   1005.91666198	    993.28383389	   3852.20778544	   1780.60455542	   2690.55679760	    958.51642183
      1.01300000	   1528.23721624	    260.65267094	   1398.74139317	   1008.86213563	   1005.64413787	   3914.97825999	   1737.86340002	   2629.24439871	    938.17095568	   1515.47106135	    259.92106852	   1392.51288425	   1005.91666198	    993.28383389	   3852.20778544	   1780.60455542	   2690.55679760	    958.51642183
      1.02350000	   1528.23721624	    260.65267094	   1398.74139317	   1008.86213563	   1005.64413787	   3914.97825999	   1737.86340002	   2629.24439871	    938.17095568	   1515.47106135	    259.92106852	   1392.51288425	   1005.91666198	    993.28383389	   3852.20778544	   1780.60455542	   2690.55679760	    958.51642183
      1.03400000	   1528.23721624	    260.65267094	   1398.74139317	   1008.86213563	   1005.64413787	   3914.97825999	   1737.86340002	   2629.24439871	    938.17095568	   1515.47106135	    259.92106852	   1392.51288425	   1005.91666198	    993.28383389	   3852.20778544	   1780.60455542	   2690.55679760	    958.51642183
      1.04450000	   1528.23721624	    260.65267094	   1398.74139317	   1008.86213563	   1005.64413787	   3914.97825999	   1737.86340002	   2629.24439871	    938.17095568	   1515.47106135	    259.92106852	   1392.51288425	   1005.91666198	    993.28383389	   3852.20778544	   1780.60455542	   2690.55679760	    958.51642183
      1.05500000	   1528.23721624	    260.65267094	   1398.74139317	   1008.86213563	   1005.64413787	   3914.97825999	   1737.86340002	   2629.24439871	    938.17095568	   1515.47106135	    259.92106852	   1392.51288425	   1005.91666198	    993.28383389	   3852.20778544	   1780.60455542	   2690.55679760	    958.51642183
      1.06550000	   1528.23721624	    260.65267094	   1398.74139317	   1008.86213563	   1005.64413787	   3914.97825999	   1737.86340002	   2629.24439871	    938.17095568	   1515.47106135	    259.92106852	   1392.51288425	   1005.91666198	    993.28383389	   3852.20778544	   1780.60455542	   2690.55679760	    958.51642183
      1.07600000	   1528.23721624	    260.65267094	   1398.74139317	   1008.86213563	   1005.64413787	   3914.97825999	   1737.86340002	   2629.24439871	    938.17095568	   1515.47106135	    259.92106852	   1392.51288425	   1005.91666198	    993.28383389	   3852.20778544	   1780.60455542	   2690.55679760	    958.51642183
      1.08650000	   1528.23721624	    260.65267094	   1398.74139317	   1008.86213563	   1005.64413787	   3914.97825999	   1737.86340002	   2629.24439871	    938.17095568	   1515.47106135	    259.92106852	   1392.51288425	   1005.91666198	    993.28383389	   3852.20778544	   1780.60455542	   2690.55679760	    958.51642183
      1.09700000	   1528.23721624	    260.65267094	   1398.74139317	   1008.86213563	   1005.64413787	   3914.97825999	   1737.86340002	   2629.24439871	    938.17095568	   1515.47106135	    259.92106852	   1392.51288425	   1005.91666198	    993.28383389	   3852.20778544	   1780.60455542	   2690.55679760	    958.51642183
      1.10750000	   1528.23721624	    260.65267094	   1398.74139317	   1008.86213563	   1005.64413787	   3914.97825999	   1737.86340002	   2629.24439871	    938.17095568	   1515.47106135	    259.92106852	   1392.51288425	   1005.91666198	    993.28383389	   3852.20778544	   1780.60455542	   2690.55679760	    958.51642183
      1.11800000	   1528.23721624	    260.65267094	   1398.74139317	   1008.86213563	   1005.64413787	   3914.97825999	   1737.86340002	   2629.24439871	    938.17095568	   1515.47106135	    259.92106852	   1392.51288425	   1005.91666198	    993.28383389	   3852.20778544	   1780.60455542	   2690.55679760	    958.51642183
      1.12850000	   1528.23721624	    260.65267094	   1398.74139317	   1008.86213563	   1005.64413787	   3914.97825999	   1737.86340002	   2629.24439871	    938.17095568	   1515.47106135	    259.92106852	   1392.51288425	   1005.91666198	    993.28383389	   3852.20778544	   1780.60455542	   2690.55679760	    958.51642183
      1.13900000	   1528.23721624	    260.65267094	   1398.74139317	   1008.86213563	   1005.64413787	   3914.97825999	   1737.86340002	   2629.24439871	    938.17095568	   1515.47106135	    259.92106852	   1392.51288425	   1005.91666198	    993.28383389	   3852.20778544	   1780.60455542	   2690.55679760	    958.51642183
      1.14950000	   1528.23721624	    260.65267094	   1398.74139317	   1008.86213563	   1005.64413787	   3914.97825999	   1737.86340002	   2629.24439871	    938.17095568	   1515.47106135	    259.92106852	   1392.51288425	   1005.91666198	    993.28383389	   3852.20778544	   1780.60455542	   2690.55679760	    958.51642183
      1.16000000	   1528.23721624	    260.65267094	   1398.74139317	   1008.86213563	   1005.64413787	   3914.97825999	   1737.86340002	   2629.24439871	    938.17095568	   1515.47106135	    259.92106852	   1392.51288425	   1005.91666198	    993.28383389	   3852.20778544	   1780.60455542	   2690.55679760	    958.51642183
      1.17050000	   1528.23721624	    260.65267094	   1398.74139317	   1008.86213563	   1005.64413787	   3914.97825999	   1737.86340002	   2629.24439871	    938.17095568	   1515.47106135	    259.92106852	   1392.51288425	   1005.91666198	    993.28383389	   3852.20778544	   1780.60455542	   2690.55679760	    958.51642183
      1.18100000	   1528.23721624	    260.65267094	   1398.74139317	   1008.86213563	   1005.64413787	   3914.97825999	   1737.86340002	   2629.24439871	    938.17095568	   1515.47106135	    259.92106852	   1392.51288425	   1005.91666198	    993.28383389	   3852.20778544	   1780.60455542	   2690.55679760	    958.51642183
      1.19150000	   1528.23721624	    260.65267094	   1398.74139317	   1008.86213563	   1005.64413787	   3914.97825999	   1737.86340002	   2629.24439871	    938.17095568	   1515.47106135	    259.92106852	   1392.51288425	   1005.91666198	    993.28383389	   3852.20778544	   1780.60455542	   2690.55679760	    958.51642183
      1.20200000	   1528.23721624	    260.65267094	   1398.74139317	   1008.86213563	   1005.64413787	   3914.97825999	   1737.86340002	   2629.24439871	    938.17095568	   1515.47106135	    259.92106852	   1392.51288425	   1005.91666198	    993.28383389	   3852.20778544	   1780.60455542	   2690.55679760	    958.51642183
      1.21250000	   1528.23721624	    260.65267094	   1398.74139317	   1008.86213563	   1005.64413787	   3914.97825999	   1737.86340002	   2629.24439871	    938.17095568	   1515.47106135	    259.92106852	   1392.51288425	   1005.91666198	    993.28383389	   3852.20778544	   1780.60455542	   2690.55679760	    958.51642183
      1.22300000	   1528.23721624	    260.65267094	   1398.74139317	   1008.86213563	   1005.64413787	   3914.97825999	   1737.86340002	   2629.24439871	    938.17095568	   1515.47106135	    259.92106852	   1392.51288425	   1005.91666198	    993.28383389	   3852.20778544	   1780.60455542	   2690.55679760	    958.51642183
      1.23350000	   1528.23721624	    260.65267094	   1398.74139317	   1008.86213563	   1005.64413787	   3914.97825999	   1737.86340002	   2629.24439871	    938.17095568	   1515.47106135	    259.92106852	   1392.51288425	   1005.91666198	    993.28383389	   3852.20778544	   1780.60455542	   2690.55679760	    958.51642183
      1.24400000	   1528.23721624	    260.65267094	   1398.74139317	   1008.86213563	   1005.64413787	   3914.97825999	   1737.86340002	   2629.24439871	    938.17095568	   1515.47106135	    259.92106852	   1392.51288425	   1005.91666198	    993.28383389	   3852.20778544	   1780.60455542	   2690.55679760	    958.51642183
      1.25450000	   1528.23721624	    260.65267094	   1398.74139317	   1008.86213563	   1005.64413787	   3914.97825999	   1737.86340002	   2629.24439871	    938.17095568	   1515.47106135	    259.92106852	   1392.51288425	   1005.91666198	    993.28383389	   3852.20778544	   1780.60455542	   2690.55679760	    958.51642183
      1.26500000	   1528.23721624	    260.65267094	   1398.74139317	   1008.86213563	   1005.64413787	   3914.97825999	   1737.86340002	   2629.24439871	    938.17095568	   1515.47106135	    259.92106852	   1392.51288425	   1005.91666198	    993.28383389	   3852.20778544	   1780.60455542	   2690.55679760	    958.51642183
      1.27550000	   1528.23721624	    260.65267094	   1398.74139317	   1008.86213563	   1005.64413787	   3914.97825999	   1737.86340002	   2629.24439871	    938.17095568	   1515.47106135	    259.92106852	   1392.51288425	   1005.91666198	    993.28383389	   3852.20778544	   1780.60455542	   2690.55679760	    958.51642183
      1.28600000	   1528.23721624	    260.65267094	   1398.74139317	   1008.86213563	   1005.64413787	   3914.97825999	   1737.86340002	   2629.24439871	    938.17095568	   1515.47106135	    259.92106852	   1392.51288425	   1005.91666198	    993.28383389	   3852.20778544	   1780.60455542	   2690.55679760	    958.51642183
      1.29650000	   1528.23721624	    260.65267094	   1398.74139317	   1008.86213563	   1005.64413787	   3914.97825999	   1737.86340002	   2629.24439871	    938.17095568	   1515.47106135	    259.92106852	   1392.51288425	   1005.91666198	    993.28383389	   3852.20778544	   1780.60455542	   2690.55679760	    958.51642183
      1.30700000	   1528.23721624	    260.65267094	   1398.74139317	   1008.86213563	   1005.64413787	   3914.97825999	   1737.86340002	   2629.24439871	    938.17095568	   1515.47106135	    259.92106852	   1392.51288425	   1005.91666198	    993.28383389	   3852.20778544	   1780.60455542	   2690.55679760	    958.51642183
      1.31750000	   1528.23721624	    260.65267094	   1398.74139317	   1008.86213563	   1005.64413787	   3914.97825999	   1737.86340002	   2629.24439871	    938.17095568	   1515.47106135	    259.92106852	   1392.51288425	   1005.91666198	    993.28383389	   3852.20778544	   1780.60455542	   2690.55679760	    958.51642183
      1.32800000	   1528.23721624	    260.65267094	   1398.74139317	   1008.86213563	   1005.64413787	   3914.97825999	   1737.86340002	   2629.24439871	    938.17095568	   1515.47106135	    259.92106852	   1392.51288425	   1005.91666198	    993.28383389	   3852.20778544	   1780.60455542	   2690.55679760	    958.51642183
      1.33850000	   1528.23721624	    260.65267094	   1398.74139317	   1008.86213563	   1005.64413787	   3914.97825999	   1737.86340002	   2629.24439871	    938.17095568	   1515.47106135	    259.92106852	   1392.51288425	   1005.91666198	    993.28383389	   3852.20778544	   1780.60455542	   2690.55679760	    958.51642183
      1.34900000	   1528.23721624	    260.65267094	   1398.74139317	   1008.86213563	   1005.64413787	   3914.97825999	   1737.86340002	   2629.24439871	    938.17095568	   1515.47106135	    259.92106852	   1392.51288425	   1005.91666198	    993.28383389	   3852.20778544	   1780.60455542	   2690.55679760	    958.51642183
      1.35950000	   1528.23721624	    260.65267094	   1398.74139317	   1008.86213563	   1005.64413787	   3914.97825999	   1737.86340002	   2629.24439871	    938.17095568	   1515.47106135	    259.92106852	   1392.51288425	   1005.91666198	    993.28383389	   3852.20778544	   1780.60455542	   2690.55679760	    958.51642183
      1.37000000	   1528.23721624	    260.65267094	   1398.74139317	   1008.86213563	   1005.64413787	   3914.97825999	   1737.86340002	   2629.24439871	    938.17095568	   1515.47106135	    259.92106852	   1392.51288425	   1005.91666198	    993.28383389	   3852.20778544	   1780.60455542	   2690.55679760	    958.51642183
      1.38050000	   1528.23721624	    260.65267094	   1398.74139317	   1008.86213563	   1005.64413787	   3914.97825999	   1737.86340002	   2629.24439871	    938.17095568	   1515.47106135	    259.92106852	   1392.51288425	   1005.91666198	    993.28383389	   3852.20778544	   1780.60455542	   2690.55679760	    958.51642183
      1.39100000	   1528.23721624	    260.65267094	   1398.74139317	   1008.86213563	   1005.64413787	   3914.97825999	   1737.86340002	   2629.24439871	    938.17095568	   1515.47106135	    259.92106852	   1392.51288425	   1005.91666198	    993.28383389	   3852.20778544	   1780.60455542	   2690.55679760	    958.51642183
      1.40150000	   1528.23721624	    260.65267094	   1398.74139317	   1008.86213563	   1005.64413787	   3914.97825999	   1737.86340002	   2629.24439871	    938.17095568	   1515.47106135	    259.92106852	   1392.51288425	   1005.91666198	    993.28383389	   3852.20778544	   1780.60455542	   2690.55679760	    958.51642183
      1.41200000	   1528.23721624	    260.65267094	   1398.74139317	   1008.86213563	   1005.64413787	   3914.97825999	   1737.86340002	   2629.24439871	    938.17095568	   1515.47106135	    259.92106852	   1392.51288425	   1005.91666198	    993.28383389	   3852.20778544	   1780.60455542	   2690.55679760	    958.51642183
      1.42250000	   1528.23721624	    260.65267094	   1398.74139317	   1008.86213563	   1005.64413787	   3914.97825999	   1737.86340002	   2629.24439871	    938.17095568	   1515.47106135	    259.92106852	   1392.51288425	   1005.91666198	    993.28383389	   3852.20778544	   1780.60455542	   2690.55679760	    958.51642183
      1.43300000	   1528.23721624	    260.65267094	   1398.74139317	   1008.86213563	   1005.64413787	   3914.97825999	   1737.86340002	   2629.24439871	    938.17095568	   1515.47106135	    259.92106852	   1392.51288425	   1005.91666198	    993.28383389	   3852.20778544	   1780.60455542	   2690.55679760	    958.51642183
      1.44350000	   1528.23721624	    260.65267094	   1398.74139317	   1008.86213563	   1005.64413787	   3914.97825999	   1737.86340002	   2629.24439871	    938.17095568	   1515.47106135	    259.92106852	   1392.51288425	   1005.91666198	    993.28383389	   3852.20778544	   1780.60455542	   2690.55679760	    958.51642183
      1.45400000	   1528.23721624	    260.65267094	   1398.74139317	   1008.86213563	   1005.64413787	   3914.97825999	   1737.86340002	   2629.24439871	    938.17095568	   1515.47106135	    259.92106852	   1392.51288425	   1005.91666198	    993.28383389	   3852.20778544	   1780.60455542	   2690.55679760	    958.51642183
      1.46450000	   1528.23721624	    260.65267094	   1398.74139317	   1008.86213563	   1005.64413787	   3914.97825999	   1737.86340002	   2629.24439871	    938.17095568	   1515.47106135	    259.92106852	   1392.51288425	   1005.91666198	    993.28383389	   3852.20778544	   1780.60455542	   2690.55679760	    958.51642183
      1.47500000	   1528.23721624	    260.65267094	   1398.74139317	   1008.86213563	   1005.64413787	   3914.97825999	   1737.86340002	   2629.24439871	    938.17095568	   1515.47106135	    259.92106852	   1392.51288425	   1005.91666198	    993.28383389	   3852.20778544	   1780.60455542	   2690.55679760	    958.51642183
      1.48550000	   1528.23721624	    260.65267094	   1398.74139317	   1008.86213563	   1005.64413787	   3914.97825999	   1737.86340002	   2629.24439871	    938.17095568	   1515.47106135	    259.92106852	   1392.51288425	   1005.91666198	    993.28383389	   3852.20778544	   1780.60455542	   2690.55679760	    958.51642183
      1.49600000	   1528.23721624	    260.65267094	   1398.74139317	   1008.86213563	   1005.64413787	   3914.97825999	   1737.86340002	   2629.24439871	    938.17095568	   1515.47106135	    259.92106852	   1392.51288425	   1005.91666198	    993.28383389	   3852.20778544	   1780.60455542	   2690.55679760	    958.51642183
      1.50650000	   1528.23721624	    260.65267094	   1398.74139317	   1008.86213563	   1005.64413787	   3914.97825999	   1737.86340002	   2629.24439871	    938.17095568	   1515.47106135	    259.92106852	   1392.51288425	   1005.91666198	    993.28383389	   3852.20778544	   1780.60455542	   2690.55679760	    958.51642183
      1.51700000	   1528.23721624	    260.65267094	   1398.74139317	   1008.86213563	   1005.64413787	   3914.97825999	   1737.86340002	   2629.24439871	    938.17095568	   1515.47106135	    259.92106852	   1392.51288425	   1005.91666198	    993.28383389	   3852.20778544	   1780.60455542	   2690.55679760	    958.51642183
      1.52750000	   1528.23721624	    260.65267094	   1398.74139317	   1008.86213563	   1005.64413787	   3914.97825999	   1737.86340002	   2629.24439871	    938.17095568	   1515.47106135	    259.92106852	   1392.51288425	   1005.91666198	    993.28383389	   3852.20778544	   1780.60455542	   2690.55679760	    958.51642183
      1.53800000	   1528.23721624	    260.65267094	   1398.74139317	   1008.86213563	   1005.64413787	   3914.97825999	   1737.86340002	   2629.24439871	    938.17095568	   1515.47106135	    259.92106852	   1392.51288425	   1005.91666198	    993.28383389	   3852.20778544	   1780.60455542	   2690.55679760	    958.51642183
      1.54850000	   1528.23721624	    260.65267094	   1398.74139317	   1008.86213563	   1005.64413787	   3914.97825999	   1737.86340002	   2629.24439871	    938.17095568	   1515.47106135	    259.92106852	   1392.51288425	   1005.91666198	    993.28383389	   3852.20778544	   1780.60455542	   2690.55679760	    958.51642183
      1.55900000	   1528.23721624	    260.65267094	   1398.74139317	   1008.86213563	   1005.64413787	   3914.97825999	   1737.86340002	   2629.24439871	    938.17095568	   1515.47106135	    259.92106852	   1392.51288425	   1005.91666198	    993.28383389	   3852.20778544	   1780.60455542	   2690.55679760	    958.51642183
      1.56950000	   1528.23721624	    260.65267094	   1398.74139317	   1008.86213563	   1005.64413787	   3914.97825999	   1737.86340002	   2629.24439871	    938.17095568	   1515.47106135	    259.92106852	   1392.51288425	   1005.91666198	    993.28383389	   3852.20778544	   1780.60455542	   2690.55679760	    958.51642183
      1.58000000	   1528.23721624	    260.65267094	   1398.74139317	   1008.86213563	   1005.64413787	   3914.97825999	   1737.86340002	   2629.24439871	    938.17095568	   1515.47106135	    259.92106852	   1392.51288425	   1005.91666198	    993.28383389	   3852.20778544	   1780.60455542	   2690.55679760	    958.51642183
      1.59050000	   1528.23721624	    260.65267094	   1398.74139317	   1008.86213563	   1005.64413787	   3914.97825999	   1737.86340002	   2629.24439871	    938.17095568	   1515.47106135	    259.92106852	   1392.51288425	   1005.91666198	    993.28383389	   3852.20778544	   1780.60455542	   2690.55679760	    958.51642183
      1.60100000	   1528.23721624	    260.65267094	   1398.74139317	   1008.86213563	   1005.64413787	   3914.97825999	   1737.86340002	   2629.24439871	    938.17095568	   1515.47106135	    259.92106852	   1392.51288425	   1005.91666198	    993.28383389	   3852.20778544	   1780.60455542	   2690.55679760	    958.51642183
      1.61150000	   1528.23721624	    260.65267094	   1398.74139317	   1008.86213563	   1005.64413787	   3914.97825999	   1737.86340002	   2629.24439871	    938.17095568	   1515.47106135	    259.92106852	   1392.51288425	   1005.91666198	    993.28383389	   3852.20778544	   1780.60455542	   2690.55679760	    958.51642183
      1.62200000	   1528.23721624	    260.65267094	   1398.74139317	   1008.86213563	   1005.64413787	   3914.97825999	   1737.86340002	   2629.24439871	    938.17095568	   1515.47106135	    259.92106852	   1392.51288425	   1005.91666198	    993.28383389	   3852.20778544	   1780.60455542	   2690.55679760	    958.51642183
      1.63250000	   1528.23721624	    260.65267094	   1398.74139317	   1008.86213563	   1005.64413787	   3914.97825999	   1737.86340002	   2629.24439871	    938.17095568	   1515.47106135	    259.92106852	   1392.51288425	   1005.91666198	    993.28383389	   3852.20778544	   1780.60455542	   2690.55679760	    958.51642183
      1.64300000	   1528.23721624	    260.65267094	   1398.74139317	   1008.86213563	   1005.64413787	   3914.97825999	   1737.86340002	   2629.24439871	    938.17095568	   1515.47106135	    259.92106852	   1392.51288425	   1005.91666198	    993.28383389	   3852.20778544	   1780.60455542	   2690.55679760	    958.51642183
      1.65350000	   1528.23721624	    260.65267094	   1398.74139317	   1008.86213563	   1005.64413787	   3914.97825999	   1737.86340002	   2629.24439871	    938.17095568	   1515.47106135	    259.92106852	   1392.51288425	   1005.91666198	    993.28383389	   3852.20778544	   1780.60455542	   2690.55679760	    958.51642183
      1.66400000	   1528.23721624	    260.65267094	   1398.74139317	   1008.86213563	   1005.64413787	   3914.97825999	   1737.86340002	   2629.24439871	    938.17095568	   1515.47106135	    259.92106852	   1392.51288425	   1005.91666198	    993.28383389	   3852.20778544	   1780.60455542	   2690.55679760	    958.51642183
      1.67450000	   1528.23721624	    260.65267094	   1398.74139317	   1008.86213563	   1005.64413787	   3914.97825999	   1737.86340002	   2629.24439871	    938.17095568	   1515.47106135	    259.92106852	   1392.51288425	   1005.91666198	    993.28383389	   3852.20778544	   1780.60455542	   2690.55679760	    958.51642183
      1.68500000	   1528.23721624	    260.65267094	   1398.74139317	   1008.86213563	   1005.64413787	   3914.97825999	   1737.86340002	   2629.24439871	    938.17095568	   1515.47106135	    259.92106852	   1392.51288425	   1005.91666198	    993.28383389	   3852.20778544	   1780.60455542	   2690.55679760	    958.51642183
      1.69550000	   1528.23721624	    260.65267094	   1398.74139317	   1008.86213563	   1005.64413787	   3914.97825999	   1737.86340002	   2629.24439871	    938.17095568	   1515.47106135	    259.92106852	   1392.51288425	   1005.91666198	    993.28383389	   3852.20778544	   1780.60455542	   2690.55679760	    958.51642183
      1.70600000	   1528.23721624	    260.65267094	   1398.74139317	   1008.86213563	   1005.64413787	   3914.97825999	   1737.86340002	   2629.24439871	    938.17095568	   1515.47106135	    259.92106852	   1392.51288425	   1005.91666198	    993.28383389	   3852.20778544	   1780.60455542	   2690.55679760	    958.51642183
      1.71650000	   1528.23721624	    260.65267094	   1398.74139317	   1008.86213563	   1005.64413787	   3914.97825999	   1737.86340002	   2629.24439871	    938.17095568	   1515.47106135	    259.92106852	   1392.51288425	   1005.91666198	    993.28383389	   3852.20778544	   1780.60455542	   2690.55679760	    958.51642183
      1.72700000	   1528.23721624	    260.65267094	   1398.74139317	   1008.86213563	   1005.64413787	   3914.97825999	   1737.86340002	   2629.24439871	    938.17095568	   1515.47106135	    259.92106852	   1392.51288425	   1005.91666198	    993.28383389	   3852.20778544	   1780.60455542	   2690.55679760	    958.51642183
      1.73750000	   1528.23721624	    260.65267094	   1398.74139317	   1008.86213563	   1005.64413787	   3914.97825999	   1737.86340002	   2629.24439871	    938.17095568	   1515.47106135	    259.92106852	   1392.51288425	   1005.91666198	    993.28383389	   3852.20778544	   1780.60455542	   2690.55679760	    958.51642183
      1.74800000	   1528.23721624	    260.65267094	   1398.74139317	   1008.86213563	   1005.64413787	   3914.97825999	   1737.86340002	   2629.24439871	    938.17095568	   1515.47106135	    259.92106852	   1392.51288425	   1005.91666198	    993.28383389	   3852.20778544	   1780.60455542	   2690.55679760	    958.51642183
      1.75850000	   1528.23721624	    260.65267094	   1398.74139317	   1008.86213563	   1005.64413787	   3914.97825999	   1737.86340002	   2629.24439871	    938.17095568	   1515.47106135	    259.92106852	   1392.51288425	   1005.91666198	    993.28383389	   3852.20778544	   1780.60455542	   2690.55679760	    958.51642183
      1.76900000	   1528.23721624	    260.65267094	   1398.74139317	   1008.86213563	   1005.64413787	   3914.97825999	   1737.86340002	   2629.24439871	    938.17095568	   1515.47106135	    259.92106852	   1392.51288425	   1005.91666198	    993.28383389	   3852.20778544	   1780.60455542	   2690.55679760	    958.51642183
      1.77950000	   1528.23721624	    260.65267094	   1398.74139317	   1008.86213563	   1005.64413787	   3914.97825999	   1737.86340002	   2629.24439871	    938.17095568	   1515.47106135	    259.92106852	   1392.51288425	   1005.91666198	    993.28383389	   3852.20778544	   1780.60455542	   2690.55679760	    958.51642183
      1.79000000	   1528.23721624	    260.65267094	   1398.74139317	   1008.86213563	   1005.64413787	   3914.97825999	   1737.86340002	   2629.24439871	    938.17095568	   1515.47106135	    259.92106852	   1392.51288425	   1005.91666198	    993.28383389	   3852.20778544	   1780.60455542	   2690.55679760	    958.51642183
      1.80050000	   1528.23721624	    260.65267094	   1398.74139317	   1008.86213563	   1005.64413787	   3914.97825999	   1737.86340002	   2629.24439871	    938.17095568	   1515.47106135	    259.92106852	   1392.51288425	   1005.91666198	    993.28383389	   3852.20778544	   1780.60455542	   2690.55679760	    958.51642183
      1.81100000	   1528.23721624	    260.65267094	   1398.74139317	   1008.86213563	   1005.64413787	   3914.97825999	   1737.86340002	   2629.24439871	    938.17095568	   1515.47106135	    259.92106852	   1392.51288425	   1005.91666198	    993.28383389	   3852.20778544	   1780.60455542	   2690.55679760	    958.51642183
      1.82150000	   1528.23721624	    260.65267094	   1398.74139317	   1008.86213563	   1005.64413787	   3914.97825999	   1737.86340002	   2629.24439871	    938.17095568	   1515.47106135	    259.92106852	   1392.51288425	   1005.91666198	    993.28383389	   3852.20778544	   1780.60455542	   2690.55679760	    958.51642183
      1.83200000	   1528.23721624	    260.65267094	   1398.74139317	   1008.86213563	   1005.64413787	   3914.97825999	   1737.86340002	   2629.24439871	    938.17095568	   1515.47106135	    259.92106852	   1392.51288425	   1005.91666198	    993.28383389	   3852.20778544	   1780.60455542	   2690.55679760	    958.51642183
      1.84250000	   1528.23721624	    260.65267094	   1398.74139317	   1008.86213563	   1005.64413787	   3914.97825999	   1737.86340002	   2629.24439871	    938.17095568	   1515.47106135	    259.92106852	   1392.51288425	   1005.91666198	    993.28383389	   3852.20778544	   1780.60455542	   2690.55679760	    958.51642183
      1.85300000	   1528.23721624	    260.65267094	   1398.74139317	   1008.86213563	   1005.64413787	   3914.97825999	   1737.86340002	   2629.24439871	    938.17095568	   1515.47106135	    259.92106852	   1392.51288425	   1005.91666198	    993.28383389	   3852.20778544	   1780.60455542	   2690.55679760	    958.51642183
      1.86350000	   1528.23721624	    260.65267094	   1398.74139317	   1008.86213563	   1005.64413787	   3914.97825999	   1737.86340002	   2629.24439871	    938.17095568	   1515.47106135	    259.92106852	   1392.51288425	   1005.91666198	    993.28383389	   3852.20778544	   1780.60455542	   2690.55679760	    958.51642183
      1.87400000	   1528.23721624	    260.65267094	   1398.74139317	   1008.86213563	   1005.64413787	   3914.97825999	   1737.86340002	   2629.24439871	    938.17095568	   1515.47106135	    259.92106852	   1392.51288425	   1005.91666198	    993.28383389	   3852.20778544	   1780.60455542	   2690.55679760	    958.51642183
      1.88450000	   1528.23721624	    260.65267094	   1398.74139317	   1008.86213563	   1005.64413787	   3914.97825999	   1737.86340002	   2629.24439871	    938.17095568	   1515.47106135	    259.92106852	   1392.51288425	   1005.91666198	    993.28383389	   3852.20778544	   1780.60455542	   2690.55679760	    958.51642183
      1.89500000	   1528.23721624	    260.65267094	   1398.74139317	   1008.86213563	   1005.64413787	   3914.97825999	   1737.86340002	   2629.24439871	    938.17095568	   1515.47106135	    259.92106852	   1392.51288425	   1005.91666198	    993.28383389	   3852.20778544	   1780.60455542	   2690.55679760	    958.51642183
      1.90550000	   1528.23721624	    260.65267094	   1398.74139317	   1008.86213563	   1005.64413787	   3914.97825999	   1737.86340002	   2629.24439871	    938.17095568	   1515.47106135	    259.92106852	   1392.51288425	   1005.91666198	    993.28383389	   3852.20778544	   1780.60455542	   2690.55679760	    958.51642183
      1.91600000	   1528.23721624	    260.65267094	   1398.74139317	   1008.86213563	   1005.64413787	   3914.97825999	   1737.86340002	   2629.24439871	    938.17095568	   1515.47106135	    259.92106852	   1392.51288425	   1005.91666198	    993.28383389	   3852.20778544	   1780.60455542	   2690.55679760	    958.51642183
      1.92650000	   1528.23721624	    260.65267094	   1398.74139317	   1008.86213563	   1005.64413787	   3914.97825999	   1737.86340002	   2629.24439871	    938.17095568	   1515.47106135	    259.92106852	   1392.51288425	   1005.91666198	    993.28383389	   3852.20778544	   1780.60455542	   2690.55679760	    958.51642183
      1.93700000	   1528.23721624	    260.65267094	   1398.74139317	   1008.86213563	   1005.64413787	   3914.97825999	   1737.86340002	   2629.24439871	    938.17095568	   1515.47106135	    259.92106852	   1392.51288425	   1005.91666198	    993.28383389	   3852.20778544	   1780.60455542	   2690.55679760	    958.51642183
      1.94750000	   1528.23721624	    260.65267094	   1398.74139317	   1008.86213563	   1005.64413787	   3914.97825999	   1737.86340002	   2629.24439871	    938.17095568	   1515.47106135	    259.92106852	   1392.51288425	   1005.91666198	    993.28383389	   3852.20778544	   1780.60455542	   2690.55679760	    958.51642183
      1.95800000	   1528.23721624	    260.65267094	   1398.74139317	   1008.86213563	   1005.64413787	   3914.97825999	   1737.86340002	   2629.24439871	    938.17095568	   1515.47106135	    259.92106852	   1392.51288425	   1005.91666198	    993.28383389	   3852.20778544	   1780.60455542	   2690.55679760	    958.51642183
      1.96850000	   1528.23721624	    260.65267094	   1398.74139317	   1008.86213563	   1005.64413787	   3914.97825999	   1737.86340002	   2629.24439871	    938.17095568	   1515.47106135	    259.92106852	   1392.51288425	   1005.91666198	    993.28383389	   3852.20778544	   1780.60455542	   2690.55679760	    958.51642183
      1.97900000	   1528.23721624	    260.65267094	   1398.74139317	   1008.86213563	   1005.64413787	   3914.97825999	   1737.86340002	   2629.24439871	    938.17095568	   1515.47106135	    259.92106852	   1392.51288425	   1005.91666198	    993.28383389	   3852.20778544	   1780.60455542	   2690.55679760	    958.51642183
      1.98950000	   1528.23721624	    260.65267094	   1398.74139317	   1008.86213563	   1005.64413787	   3914.97825999	   1737.86340002	   2629.24439871	    938.17095568	   1515.47106135	    259.92106852	   1392.51288425	   1005.91666198	    993.28383389	   3852.20778544	   1780.60455542	   2690.55679760	    958.51642183
