MomentArm_hip_flexion_l
version=1
nRows=98
nColumns=19
inDegrees=no

This analysis gathers basic information about muscles during a simulation (e.g., forces, tendon lengths, moment arms, etc).
Units are S.I. units (second, meters, Newtons, ...)
If the header above contains a line with 'inDegrees', this indicates whether rotational values are in degrees (yes) or radians (no).

endheader
time	hamstrings_r	bifemsh_r	glut_max_r	iliopsoas_r	rect_fem_r	vasti_r	gastroc_r	soleus_r	dorsiflexors_r	hamstrings_l	bifemsh_l	glut_max_l	iliopsoas_l	rect_fem_l	vasti_l	gastroc_l	soleus_l	dorsiflexors_l
      0.97100000	      0.00000000	      0.00000000	      0.00000000	      0.00000000	      0.00000000	      0.00000000	      0.00000000	      0.00000000	      0.00000000	     -0.07766178	      0.00000000	     -0.05037439	      0.02922349	      0.05018353	      0.00000000	      0.00000000	      0.00000000	     -0.00000000
      0.98150000	      0.00000000	      0.00000000	      0.00000000	      0.00000000	      0.00000000	      0.00000000	      0.00000000	      0.00000000	      0.00000000	     -0.07778054	     -0.00000000	     -0.05051477	      0.02922748	      0.05001816	      0.00000000	      0.00000000	      0.00000000	     -0.00000000
      0.99200000	      0.00000000	      0.00000000	      0.00000000	      0.00000000	      0.00000000	      0.00000000	      0.00000000	      0.00000000	      0.00000000	     -0.07793729	      0.00000000	     -0.05070912	      0.02923173	      0.04979356	      0.00000000	     -0.00000000	      0.00000000	     -0.00000000
      1.00250000	      0.00000000	      0.00000000	      0.00000000	      0.00000000	      0.00000000	      0.00000000	      0.00000000	      0.00000000	      0.00000000	     -0.07811170	      0.00000000	     -0.05093522	      0.02923481	      0.04953391	      0.00000000	     -0.00000000	     -0.00000000	     -0.00000000
      1.01300000	      0.00000000	      0.00000000	      0.00000000	      0.00000000	      0.00000000	      0.00000000	      0.00000000	      0.00000000	      0.00000000	     -0.07830211	      0.00000000	     -0.05119485	      0.02923590	      0.04923682	      0.00000000	     -0.00000000	     -0.00000000	     -0.00000000
      1.02350000	      0.00000000	      0.00000000	      0.00000000	      0.00000000	      0.00000000	      0.00000000	      0.00000000	      0.00000000	      0.00000000	     -0.07850935	     -0.00000000	     -0.05149311	      0.02923393	      0.04889486	      0.00000000	      0.00000000	      0.00000000	      0.00000000
      1.03400000	      0.00000000	      0.00000000	      0.00000000	      0.00000000	      0.00000000	      0.00000000	      0.00000000	      0.00000000	      0.00000000	     -0.07872833	     -0.00000000	     -0.05182675	      0.02922765	      0.04850915	     -0.00000000	      0.00000000	     -0.00000000	      0.00000000
      1.04450000	      0.00000000	      0.00000000	      0.00000000	      0.00000000	      0.00000000	      0.00000000	      0.00000000	      0.00000000	      0.00000000	     -0.07895351	     -0.00000000	     -0.05219202	      0.02921586	      0.04808166	     -0.00000000	      0.00000000	      0.00000000	      0.00000000
      1.05500000	      0.00000000	      0.00000000	      0.00000000	      0.00000000	      0.00000000	      0.00000000	      0.00000000	      0.00000000	      0.00000000	     -0.07917783	      0.00000000	     -0.05258144	      0.02919763	      0.04761833	      0.00000000	     -0.00000000	      0.00000000	     -0.00000000
      1.06550000	      0.00000000	      0.00000000	      0.00000000	      0.00000000	      0.00000000	      0.00000000	      0.00000000	      0.00000000	      0.00000000	     -0.07939518	     -0.00000000	     -0.05298778	      0.02917240	      0.04712533	      0.00000000	     -0.00000000	      0.00000000	      0.00000000
      1.07600000	      0.00000000	      0.00000000	      0.00000000	      0.00000000	      0.00000000	      0.00000000	      0.00000000	      0.00000000	      0.00000000	     -0.07960298	      0.00000000	     -0.05340980	      0.02913946	      0.04660225	      0.00000000	     -0.00000000	     -0.00000000	      0.00000000
      1.08650000	      0.00000000	      0.00000000	      0.00000000	      0.00000000	      0.00000000	      0.00000000	      0.00000000	      0.00000000	      0.00000000	     -0.07979963	     -0.00000000	     -0.05384873	      0.02909790	      0.04604566	      0.00000000	      0.00000000	     -0.00000000	      0.00000000
      1.09700000	      0.00000000	      0.00000000	      0.00000000	      0.00000000	      0.00000000	      0.00000000	      0.00000000	      0.00000000	      0.00000000	     -0.07998143	     -0.00000000	     -0.05430137	      0.02904720	      0.04545736	     -0.00000000	     -0.00000000	     -0.00000000	      0.00000000
      1.10750000	      0.00000000	      0.00000000	      0.00000000	      0.00000000	      0.00000000	      0.00000000	      0.00000000	      0.00000000	      0.00000000	     -0.08014460	      0.00000000	     -0.05476340	      0.02898718	      0.04484101	     -0.00000000	     -0.00000000	     -0.00000000	      0.00000000
      1.11800000	      0.00000000	      0.00000000	      0.00000000	      0.00000000	      0.00000000	      0.00000000	      0.00000000	      0.00000000	      0.00000000	     -0.08028679	     -0.00000000	     -0.05523387	      0.02891738	      0.04419618	     -0.00000000	     -0.00000000	     -0.00000000	      0.00000000
      1.12850000	      0.00000000	      0.00000000	      0.00000000	      0.00000000	      0.00000000	      0.00000000	      0.00000000	      0.00000000	      0.00000000	     -0.08040566	      0.00000000	     -0.05571214	      0.02883730	      0.04352199	     -0.00000000	      0.00000000	     -0.00000000	     -0.00000000
      1.13900000	      0.00000000	      0.00000000	      0.00000000	      0.00000000	      0.00000000	      0.00000000	      0.00000000	      0.00000000	      0.00000000	     -0.08049858	     -0.00000000	     -0.05619664	      0.02874663	      0.04281878	     -0.00000000	     -0.00000000	      0.00000000	      0.00000000
      1.14950000	      0.00000000	      0.00000000	      0.00000000	      0.00000000	      0.00000000	      0.00000000	      0.00000000	      0.00000000	      0.00000000	     -0.08056293	     -0.00000000	     -0.05668571	      0.02864514	      0.04208713	      0.00000000	     -0.00000000	      0.00000000	      0.00000000
      1.16000000	      0.00000000	      0.00000000	      0.00000000	      0.00000000	      0.00000000	      0.00000000	      0.00000000	      0.00000000	      0.00000000	     -0.08059616	      0.00000000	     -0.05717777	      0.02853266	      0.04132771	     -0.00000000	      0.00000000	      0.00000000	      0.00000000
      1.17050000	      0.00000000	      0.00000000	      0.00000000	      0.00000000	      0.00000000	      0.00000000	      0.00000000	      0.00000000	      0.00000000	     -0.08059579	      0.00000000	     -0.05767054	      0.02840924	      0.04054234	     -0.00000000	      0.00000000	      0.00000000	      0.00000000
      1.18100000	      0.00000000	      0.00000000	      0.00000000	      0.00000000	      0.00000000	      0.00000000	      0.00000000	      0.00000000	      0.00000000	     -0.08055972	      0.00000000	     -0.05816097	      0.02827531	      0.03973467	      0.00000000	      0.00000000	     -0.00000000	      0.00000000
      1.19150000	      0.00000000	      0.00000000	      0.00000000	      0.00000000	      0.00000000	      0.00000000	      0.00000000	      0.00000000	      0.00000000	     -0.08048652	      0.00000000	     -0.05864565	      0.02813158	      0.03890933	      0.00000000	      0.00000000	      0.00000000	      0.00000000
      1.20200000	      0.00000000	      0.00000000	      0.00000000	      0.00000000	      0.00000000	      0.00000000	      0.00000000	      0.00000000	      0.00000000	     -0.08037545	     -0.00000000	     -0.05912161	      0.02797890	      0.03807074	      0.00000000	     -0.00000000	     -0.00000000	      0.00000000
      1.21250000	      0.00000000	      0.00000000	      0.00000000	      0.00000000	      0.00000000	      0.00000000	      0.00000000	      0.00000000	      0.00000000	     -0.08022657	      0.00000000	     -0.05958579	      0.02781836	      0.03722398	      0.00000000	     -0.00000000	     -0.00000000	      0.00000000
      1.22300000	      0.00000000	      0.00000000	      0.00000000	      0.00000000	      0.00000000	      0.00000000	      0.00000000	      0.00000000	      0.00000000	     -0.08004137	      0.00000000	     -0.06003420	      0.02765170	      0.03637661	     -0.00000000	      0.00000000	     -0.00000000	     -0.00000000
      1.23350000	      0.00000000	      0.00000000	      0.00000000	      0.00000000	      0.00000000	      0.00000000	      0.00000000	      0.00000000	      0.00000000	     -0.07982265	     -0.00000000	     -0.06046321	      0.02748085	      0.03553630	     -0.00000000	      0.00000000	      0.00000000	      0.00000000
      1.24400000	      0.00000000	      0.00000000	      0.00000000	      0.00000000	      0.00000000	      0.00000000	      0.00000000	      0.00000000	      0.00000000	     -0.07957366	      0.00000000	     -0.06087055	      0.02730755	      0.03470844	      0.00000000	      0.00000000	     -0.00000000	      0.00000000
      1.25450000	      0.00000000	      0.00000000	      0.00000000	      0.00000000	      0.00000000	      0.00000000	      0.00000000	      0.00000000	      0.00000000	     -0.07929824	     -0.00000000	     -0.06125459	      0.02713349	      0.03389771	      0.00000000	      0.00000000	      0.00000000	      0.00000000
      1.26500000	      0.00000000	      0.00000000	      0.00000000	      0.00000000	      0.00000000	      0.00000000	      0.00000000	      0.00000000	      0.00000000	     -0.07900097	      0.00000000	     -0.06161405	      0.02696040	      0.03310928	      0.00000000	      0.00000000	      0.00000000	      0.00000000
      1.27550000	      0.00000000	      0.00000000	      0.00000000	      0.00000000	      0.00000000	      0.00000000	      0.00000000	      0.00000000	      0.00000000	     -0.07868674	      0.00000000	     -0.06194817	      0.02678989	      0.03234762	      0.00000000	      0.00000000	     -0.00000000	      0.00000000
      1.28600000	      0.00000000	      0.00000000	      0.00000000	      0.00000000	      0.00000000	      0.00000000	      0.00000000	      0.00000000	      0.00000000	     -0.07835996	      0.00000000	     -0.06225671	      0.02662345	      0.03161482	     -0.00000000	     -0.00000000	     -0.00000000	      0.00000000
      1.29650000	      0.00000000	      0.00000000	      0.00000000	      0.00000000	      0.00000000	      0.00000000	      0.00000000	      0.00000000	      0.00000000	     -0.07802400	      0.00000000	     -0.06254059	      0.02646198	      0.03091071	     -0.00000000	      0.00000000	      0.00000000	      0.00000000
      1.30700000	      0.00000000	      0.00000000	      0.00000000	      0.00000000	      0.00000000	      0.00000000	      0.00000000	      0.00000000	      0.00000000	     -0.07767795	      0.00000000	     -0.06280451	      0.02630400	      0.03022782	      0.00000000	      0.00000000	      0.00000000	      0.00000000
      1.31750000	      0.00000000	      0.00000000	      0.00000000	      0.00000000	      0.00000000	      0.00000000	      0.00000000	      0.00000000	      0.00000000	     -0.07732019	      0.00000000	     -0.06305203	      0.02614827	      0.02955909	     -0.00000000	     -0.00000000	     -0.00000000	      0.00000000
      1.32800000	      0.00000000	      0.00000000	      0.00000000	      0.00000000	      0.00000000	      0.00000000	      0.00000000	      0.00000000	      0.00000000	     -0.07695700	      0.00000000	     -0.06327848	      0.02599872	      0.02891070	     -0.00000000	      0.00000000	     -0.00000000	      0.00000000
      1.33850000	      0.00000000	      0.00000000	      0.00000000	      0.00000000	      0.00000000	      0.00000000	      0.00000000	      0.00000000	      0.00000000	     -0.07659377	     -0.00000000	     -0.06348200	      0.02585796	      0.02828699	      0.00000000	      0.00000000	     -0.00000000	      0.00000000
      1.34900000	      0.00000000	      0.00000000	      0.00000000	      0.00000000	      0.00000000	      0.00000000	      0.00000000	      0.00000000	      0.00000000	     -0.07621307	     -0.00000000	     -0.06368099	      0.02571391	      0.02766180	      0.00000000	     -0.00000000	     -0.00000000	      0.00000000
      1.35950000	      0.00000000	      0.00000000	      0.00000000	      0.00000000	      0.00000000	      0.00000000	      0.00000000	      0.00000000	      0.00000000	     -0.07579575	     -0.00000000	     -0.06388999	      0.02555500	      0.02701117	      0.00000000	      0.00000000	      0.00000000	      0.00000000
      1.37000000	      0.00000000	      0.00000000	      0.00000000	      0.00000000	      0.00000000	      0.00000000	      0.00000000	      0.00000000	      0.00000000	     -0.07535037	     -0.00000000	     -0.06409807	      0.02538809	      0.02634756	     -0.00000000	      0.00000000	      0.00000000	      0.00000000
      1.38050000	      0.00000000	      0.00000000	      0.00000000	      0.00000000	      0.00000000	      0.00000000	      0.00000000	      0.00000000	      0.00000000	     -0.07488805	     -0.00000000	     -0.06429421	      0.02522169	      0.02568328	      0.00000000	      0.00000000	      0.00000000	      0.00000000
      1.39100000	      0.00000000	      0.00000000	      0.00000000	      0.00000000	      0.00000000	      0.00000000	      0.00000000	      0.00000000	      0.00000000	     -0.07440967	      0.00000000	     -0.06447755	      0.02505700	      0.02501811	     -0.00000000	     -0.00000000	     -0.00000000	     -0.00000000
      1.40150000	      0.00000000	      0.00000000	      0.00000000	      0.00000000	      0.00000000	      0.00000000	      0.00000000	      0.00000000	      0.00000000	     -0.07391616	     -0.00000000	     -0.06464828	      0.02489443	      0.02435276	      0.00000000	     -0.00000000	     -0.00000000	      0.00000000
      1.41200000	      0.00000000	      0.00000000	      0.00000000	      0.00000000	      0.00000000	      0.00000000	      0.00000000	      0.00000000	      0.00000000	     -0.07341062	     -0.00000000	     -0.06480601	      0.02473507	      0.02369059	      0.00000000	      0.00000000	      0.00000000	      0.00000000
      1.42250000	      0.00000000	      0.00000000	      0.00000000	      0.00000000	      0.00000000	      0.00000000	      0.00000000	      0.00000000	      0.00000000	     -0.07289962	      0.00000000	     -0.06494961	      0.02458097	      0.02303874	      0.00000000	      0.00000000	      0.00000000	      0.00000000
      1.43300000	      0.00000000	      0.00000000	      0.00000000	      0.00000000	      0.00000000	      0.00000000	      0.00000000	      0.00000000	      0.00000000	     -0.07239866	      0.00000000	     -0.06507627	      0.02443667	      0.02241444	      0.00000000	     -0.00000000	     -0.00000000	     -0.00000000
      1.44350000	      0.00000000	      0.00000000	      0.00000000	      0.00000000	      0.00000000	      0.00000000	      0.00000000	      0.00000000	      0.00000000	     -0.07192325	      0.00000000	     -0.06518429	      0.02430632	      0.02183322	      0.00000000	      0.00000000	      0.00000000	      0.00000000
      1.45400000	      0.00000000	      0.00000000	      0.00000000	      0.00000000	      0.00000000	      0.00000000	      0.00000000	      0.00000000	      0.00000000	     -0.07147529	      0.00000000	     -0.06527564	      0.02418996	      0.02129375	      0.00000000	      0.00000000	     -0.00000000	      0.00000000
      1.46450000	      0.00000000	      0.00000000	      0.00000000	      0.00000000	      0.00000000	      0.00000000	      0.00000000	      0.00000000	      0.00000000	     -0.07105681	      0.00000000	     -0.06535199	      0.02408770	      0.02079574	      0.00000000	      0.00000000	      0.00000000	      0.00000000
      1.47500000	      0.00000000	      0.00000000	      0.00000000	      0.00000000	      0.00000000	      0.00000000	      0.00000000	      0.00000000	      0.00000000	     -0.07069247	      0.00000000	     -0.06541046	      0.02400588	      0.02036530	      0.00000000	      0.00000000	      0.00000000	      0.00000000
      1.48550000	      0.00000000	      0.00000000	      0.00000000	      0.00000000	      0.00000000	      0.00000000	      0.00000000	      0.00000000	      0.00000000	     -0.07040946	      0.00000000	     -0.06544823	      0.02395120	      0.02003144	      0.00000000	      0.00000000	      0.00000000	      0.00000000
      1.49600000	      0.00000000	      0.00000000	      0.00000000	      0.00000000	      0.00000000	      0.00000000	      0.00000000	      0.00000000	      0.00000000	     -0.07021205	     -0.00000000	     -0.06546667	      0.02392394	      0.01979943	      0.00000000	      0.00000000	     -0.00000000	      0.00000000
      1.50650000	      0.00000000	      0.00000000	      0.00000000	      0.00000000	      0.00000000	      0.00000000	      0.00000000	      0.00000000	      0.00000000	     -0.07010589	     -0.00000000	     -0.06546609	      0.02392481	      0.01967774	     -0.00000000	     -0.00000000	     -0.00000000	     -0.00000000
      1.51700000	      0.00000000	      0.00000000	      0.00000000	      0.00000000	      0.00000000	      0.00000000	      0.00000000	      0.00000000	      0.00000000	     -0.07011153	     -0.00000000	     -0.06544342	      0.02395824	      0.01968782	     -0.00000000	      0.00000000	      0.00000000	     -0.00000000
      1.52750000	      0.00000000	      0.00000000	      0.00000000	      0.00000000	      0.00000000	      0.00000000	      0.00000000	      0.00000000	      0.00000000	     -0.07025644	     -0.00000000	     -0.06539291	      0.02403078	      0.01985704	     -0.00000000	      0.00000000	      0.00000000	      0.00000000
      1.53800000	      0.00000000	      0.00000000	      0.00000000	      0.00000000	      0.00000000	      0.00000000	      0.00000000	      0.00000000	      0.00000000	     -0.07055534	      0.00000000	     -0.06530886	      0.02414607	      0.02019914	     -0.00000000	      0.00000000	     -0.00000000	      0.00000000
      1.54850000	      0.00000000	      0.00000000	      0.00000000	      0.00000000	      0.00000000	      0.00000000	      0.00000000	      0.00000000	      0.00000000	     -0.07099717	      0.00000000	     -0.06518866	      0.02430089	      0.02070107	     -0.00000000	      0.00000000	      0.00000000	      0.00000000
      1.55900000	      0.00000000	      0.00000000	      0.00000000	      0.00000000	      0.00000000	      0.00000000	      0.00000000	      0.00000000	      0.00000000	     -0.07157686	      0.00000000	     -0.06502664	      0.02449424	      0.02135952	      0.00000000	      0.00000000	      0.00000000	     -0.00000000
      1.56950000	      0.00000000	      0.00000000	      0.00000000	      0.00000000	      0.00000000	      0.00000000	      0.00000000	      0.00000000	      0.00000000	     -0.07229601	     -0.00000000	     -0.06481271	      0.02472808	      0.02218286	     -0.00000000	     -0.00000000	     -0.00000000	     -0.00000000
      1.58000000	      0.00000000	      0.00000000	      0.00000000	      0.00000000	      0.00000000	      0.00000000	      0.00000000	      0.00000000	      0.00000000	     -0.07312746	     -0.00000000	     -0.06454173	      0.02499701	      0.02315232	      0.00000000	      0.00000000	      0.00000000	      0.00000000
      1.59050000	      0.00000000	      0.00000000	      0.00000000	      0.00000000	      0.00000000	      0.00000000	      0.00000000	      0.00000000	      0.00000000	     -0.07403412	      0.00000000	     -0.06421132	      0.02529317	      0.02424567	     -0.00000000	      0.00000000	     -0.00000000	      0.00000000
      1.60100000	      0.00000000	      0.00000000	      0.00000000	      0.00000000	      0.00000000	      0.00000000	      0.00000000	      0.00000000	      0.00000000	     -0.07498924	      0.00000000	     -0.06381542	      0.02561265	      0.02545705	      0.00000000	      0.00000000	     -0.00000000	     -0.00000000
      1.61150000	      0.00000000	      0.00000000	      0.00000000	      0.00000000	      0.00000000	      0.00000000	      0.00000000	      0.00000000	      0.00000000	     -0.07595961	     -0.00000000	     -0.06334995	      0.02595000	      0.02677469	      0.00000000	      0.00000000	     -0.00000000	     -0.00000000
      1.62200000	      0.00000000	      0.00000000	      0.00000000	      0.00000000	      0.00000000	      0.00000000	      0.00000000	      0.00000000	      0.00000000	     -0.07690451	      0.00000000	     -0.06281568	      0.02629714	      0.02817902	     -0.00000000	      0.00000000	     -0.00000000	      0.00000000
      1.63250000	      0.00000000	      0.00000000	      0.00000000	      0.00000000	      0.00000000	      0.00000000	      0.00000000	      0.00000000	      0.00000000	     -0.07778993	      0.00000000	     -0.06221268	      0.02664777	      0.02965539	     -0.00000000	      0.00000000	      0.00000000	      0.00000000
      1.64300000	      0.00000000	      0.00000000	      0.00000000	      0.00000000	      0.00000000	      0.00000000	      0.00000000	      0.00000000	      0.00000000	     -0.07858257	      0.00000000	     -0.06154501	      0.02699445	      0.03118211	      0.00000000	      0.00000000	     -0.00000000	     -0.00000000
      1.65350000	      0.00000000	      0.00000000	      0.00000000	      0.00000000	      0.00000000	      0.00000000	      0.00000000	      0.00000000	      0.00000000	     -0.07925407	     -0.00000000	     -0.06082102	      0.02732923	      0.03273433	     -0.00000000	      0.00000000	     -0.00000000	     -0.00000000
      1.66400000	      0.00000000	      0.00000000	      0.00000000	      0.00000000	      0.00000000	      0.00000000	      0.00000000	      0.00000000	      0.00000000	     -0.07978755	      0.00000000	     -0.06004871	      0.02764611	      0.03429250	      0.00000000	      0.00000000	     -0.00000000	      0.00000000
      1.67450000	      0.00000000	      0.00000000	      0.00000000	      0.00000000	      0.00000000	      0.00000000	      0.00000000	      0.00000000	      0.00000000	     -0.08017494	      0.00000000	     -0.05923724	      0.02794001	      0.03583850	      0.00000000	      0.00000000	      0.00000000	     -0.00000000
      1.68500000	      0.00000000	      0.00000000	      0.00000000	      0.00000000	      0.00000000	      0.00000000	      0.00000000	      0.00000000	      0.00000000	     -0.08041586	     -0.00000000	     -0.05839983	      0.02820592	      0.03734967	     -0.00000000	     -0.00000000	     -0.00000000	     -0.00000000
      1.69550000	      0.00000000	      0.00000000	      0.00000000	      0.00000000	      0.00000000	      0.00000000	      0.00000000	      0.00000000	      0.00000000	     -0.08051906	      0.00000000	     -0.05755157	      0.02844004	      0.03880444	     -0.00000000	      0.00000000	      0.00000000	     -0.00000000
      1.70600000	      0.00000000	      0.00000000	      0.00000000	      0.00000000	      0.00000000	      0.00000000	      0.00000000	      0.00000000	      0.00000000	     -0.08050099	     -0.00000000	     -0.05670643	      0.02864062	      0.04018727	      0.00000000	      0.00000000	      0.00000000	     -0.00000000
      1.71650000	      0.00000000	      0.00000000	      0.00000000	      0.00000000	      0.00000000	      0.00000000	      0.00000000	      0.00000000	      0.00000000	     -0.08038290	     -0.00000000	     -0.05587803	      0.02880734	      0.04148604	      0.00000000	      0.00000000	     -0.00000000	     -0.00000000
      1.72700000	      0.00000000	      0.00000000	      0.00000000	      0.00000000	      0.00000000	      0.00000000	      0.00000000	      0.00000000	      0.00000000	     -0.08018860	      0.00000000	     -0.05507957	      0.02894124	      0.04269114	      0.00000000	      0.00000000	      0.00000000	      0.00000000
      1.73750000	      0.00000000	      0.00000000	      0.00000000	      0.00000000	      0.00000000	      0.00000000	      0.00000000	      0.00000000	      0.00000000	     -0.07994266	     -0.00000000	     -0.05432350	      0.02904452	      0.04379552	     -0.00000000	      0.00000000	      0.00000000	      0.00000000
      1.74800000	      0.00000000	      0.00000000	      0.00000000	      0.00000000	      0.00000000	      0.00000000	      0.00000000	      0.00000000	      0.00000000	     -0.07966816	      0.00000000	     -0.05361990	      0.02912049	      0.04479629	      0.00000000	      0.00000000	      0.00000000	      0.00000000
      1.75850000	      0.00000000	      0.00000000	      0.00000000	      0.00000000	      0.00000000	      0.00000000	      0.00000000	      0.00000000	      0.00000000	     -0.07938572	      0.00000000	     -0.05297753	      0.02917311	      0.04569254	      0.00000000	      0.00000000	     -0.00000000	     -0.00000000
      1.76900000	      0.00000000	      0.00000000	      0.00000000	      0.00000000	      0.00000000	      0.00000000	      0.00000000	      0.00000000	      0.00000000	     -0.07911214	     -0.00000000	     -0.05240269	      0.02920672	      0.04648603	      0.00000000	      0.00000000	     -0.00000000	      0.00000000
      1.77950000	      0.00000000	      0.00000000	      0.00000000	      0.00000000	      0.00000000	      0.00000000	      0.00000000	      0.00000000	      0.00000000	     -0.07886032	      0.00000000	     -0.05190008	      0.02922570	      0.04717970	      0.00000000	     -0.00000000	     -0.00000000	      0.00000000
      1.79000000	      0.00000000	      0.00000000	      0.00000000	      0.00000000	      0.00000000	      0.00000000	      0.00000000	      0.00000000	      0.00000000	     -0.07863836	      0.00000000	     -0.05147130	      0.02923419	      0.04777899	     -0.00000000	      0.00000000	      0.00000000	     -0.00000000
      1.80050000	      0.00000000	      0.00000000	      0.00000000	      0.00000000	      0.00000000	      0.00000000	      0.00000000	      0.00000000	      0.00000000	     -0.07845062	      0.00000000	     -0.05111651	      0.02923585	      0.04828953	      0.00000000	     -0.00000000	     -0.00000000	      0.00000000
      1.81100000	      0.00000000	      0.00000000	      0.00000000	      0.00000000	      0.00000000	      0.00000000	      0.00000000	      0.00000000	      0.00000000	     -0.07829776	      0.00000000	     -0.05083369	      0.02923367	      0.04871729	      0.00000000	      0.00000000	      0.00000000	      0.00000000
      1.82150000	      0.00000000	      0.00000000	      0.00000000	      0.00000000	      0.00000000	      0.00000000	      0.00000000	      0.00000000	      0.00000000	     -0.07817821	      0.00000000	     -0.05061988	      0.02922996	      0.04906756	      0.00000000	      0.00000000	      0.00000000	     -0.00000000
      1.83200000	      0.00000000	      0.00000000	      0.00000000	      0.00000000	      0.00000000	      0.00000000	      0.00000000	      0.00000000	      0.00000000	     -0.07808802	      0.00000000	     -0.05047001	      0.02922629	      0.04934615	     -0.00000000	      0.00000000	      0.00000000	      0.00000000
      1.84250000	      0.00000000	      0.00000000	      0.00000000	      0.00000000	      0.00000000	      0.00000000	      0.00000000	      0.00000000	      0.00000000	     -0.07802235	      0.00000000	     -0.05037792	      0.02922360	      0.04955876	     -0.00000000	     -0.00000000	      0.00000000	     -0.00000000
      1.85300000	      0.00000000	      0.00000000	      0.00000000	      0.00000000	      0.00000000	      0.00000000	      0.00000000	      0.00000000	      0.00000000	     -0.07797636	      0.00000000	     -0.05033686	      0.02922230	      0.04971059	     -0.00000000	      0.00000000	      0.00000000	      0.00000000
      1.86350000	      0.00000000	      0.00000000	      0.00000000	      0.00000000	      0.00000000	      0.00000000	      0.00000000	      0.00000000	      0.00000000	     -0.07794569	      0.00000000	     -0.05033951	      0.02922238	      0.04980668	      0.00000000	      0.00000000	      0.00000000	      0.00000000
      1.87400000	      0.00000000	      0.00000000	      0.00000000	      0.00000000	      0.00000000	      0.00000000	      0.00000000	      0.00000000	      0.00000000	     -0.07792751	     -0.00000000	     -0.05037915	      0.02922364	      0.04985210	      0.00000000	      0.00000000	      0.00000000	     -0.00000000
      1.88450000	      0.00000000	      0.00000000	      0.00000000	      0.00000000	      0.00000000	      0.00000000	      0.00000000	      0.00000000	      0.00000000	     -0.07792003	     -0.00000000	     -0.05044907	      0.02922571	      0.04985805	      0.00000000	      0.00000000	      0.00000000	      0.00000000
      1.89500000	      0.00000000	      0.00000000	      0.00000000	      0.00000000	      0.00000000	      0.00000000	      0.00000000	      0.00000000	      0.00000000	     -0.07792318	     -0.00000000	     -0.05054386	      0.02922821	      0.04983646	     -0.00000000	     -0.00000000	     -0.00000000	     -0.00000000
      1.90550000	      0.00000000	      0.00000000	      0.00000000	      0.00000000	      0.00000000	      0.00000000	      0.00000000	      0.00000000	      0.00000000	     -0.07793768	      0.00000000	     -0.05065857	      0.02923077	      0.04979836	      0.00000000	      0.00000000	     -0.00000000	      0.00000000
      1.91600000	      0.00000000	      0.00000000	      0.00000000	      0.00000000	      0.00000000	      0.00000000	      0.00000000	      0.00000000	      0.00000000	     -0.07796482	      0.00000000	     -0.05078935	      0.02923305	      0.04975156	     -0.00000000	     -0.00000000	     -0.00000000	      0.00000000
      1.92650000	      0.00000000	      0.00000000	      0.00000000	      0.00000000	      0.00000000	      0.00000000	      0.00000000	      0.00000000	      0.00000000	     -0.07800553	      0.00000000	     -0.05093246	      0.02923479	      0.04969777	      0.00000000	     -0.00000000	      0.00000000	     -0.00000000
      1.93700000	      0.00000000	      0.00000000	      0.00000000	      0.00000000	      0.00000000	      0.00000000	      0.00000000	      0.00000000	      0.00000000	     -0.07805812	     -0.00000000	     -0.05108194	      0.02923575	      0.04963293	     -0.00000000	     -0.00000000	     -0.00000000	     -0.00000000
      1.94750000	      0.00000000	      0.00000000	      0.00000000	      0.00000000	      0.00000000	      0.00000000	      0.00000000	      0.00000000	      0.00000000	     -0.07811969	      0.00000000	     -0.05123140	      0.02923585	      0.04955386	      0.00000000	     -0.00000000	     -0.00000000	     -0.00000000
      1.95800000	      0.00000000	      0.00000000	      0.00000000	      0.00000000	      0.00000000	      0.00000000	      0.00000000	      0.00000000	      0.00000000	     -0.07818480	     -0.00000000	     -0.05137251	      0.02923514	      0.04946524	      0.00000000	     -0.00000000	     -0.00000000	      0.00000000
      1.96850000	      0.00000000	      0.00000000	      0.00000000	      0.00000000	      0.00000000	      0.00000000	      0.00000000	      0.00000000	      0.00000000	     -0.07824578	      0.00000000	     -0.05149451	      0.02923391	      0.04937799	      0.00000000	     -0.00000000	     -0.00000000	     -0.00000000
      1.97900000	      0.00000000	      0.00000000	      0.00000000	      0.00000000	      0.00000000	      0.00000000	      0.00000000	      0.00000000	      0.00000000	     -0.07829250	      0.00000000	     -0.05158389	      0.02923265	      0.04930882	      0.00000000	      0.00000000	     -0.00000000	     -0.00000000
      1.98950000	      0.00000000	      0.00000000	      0.00000000	      0.00000000	      0.00000000	      0.00000000	      0.00000000	      0.00000000	      0.00000000	     -0.07831682	      0.00000000	     -0.05163031	      0.02923187	      0.04927236	      0.00000000	     -0.00000000	     -0.00000000	      0.00000000
