MuscleActuatorPower
version=1
nRows=98
nColumns=19
inDegrees=no

This analysis gathers basic information about muscles during a simulation (e.g., forces, tendon lengths, moment arms, etc).
Units are S.I. units (second, meters, Newtons, ...)
If the header above contains a line with 'inDegrees', this indicates whether rotational values are in degrees (yes) or radians (no).

endheader
time	hamstrings_r	bifemsh_r	glut_max_r	iliopsoas_r	rect_fem_r	vasti_r	gastroc_r	soleus_r	dorsiflexors_r	hamstrings_l	bifemsh_l	glut_max_l	iliopsoas_l	rect_fem_l	vasti_l	gastroc_l	soleus_l	dorsiflexors_l
      0.97100000	    132.64212581	     20.48125891	    -13.47973334	      3.80109682	    -93.24124213	   -334.59170641	    118.81101825	     98.33829394	    -16.38239061	    109.20038606	      8.50106833	     25.54312527	    -10.70432251	    -66.46479627	   -164.81062315	     42.98639746	      2.86498696	     -0.88140258
      0.98150000	    165.03808633	     29.15727769	    -36.30812653	     10.25706126	   -123.76399423	   -460.05065280	    157.38895773	    136.98063640	    -24.69533559	    151.68483794	     10.61512772	     41.35025761	    -17.28279543	    -88.81016641	   -203.31736809	     29.96646650	    -27.58305615	      8.48364392
      0.99200000	    177.20795184	     36.60926857	    -66.45090608	     18.84309697	   -142.73697199	   -552.67335869	    187.26044644	    178.50864707	    -35.18453583	    174.48497663	     11.46650167	     51.42995082	    -21.41643952	    -99.54643238	   -216.63075440	     22.02306760	    -40.98096975	     12.58824032
      1.00250000	    176.39781393	     43.52571620	   -101.80691833	     29.05026079	   -153.32557785	   -622.95611054	    191.15315081	    195.73484392	    -42.09241551	    183.97455557	     11.14284780	     59.03462257	    -24.47663264	   -101.86621779	   -207.64319899	     24.30284046	    -32.03001829	      9.82798903
      1.01300000	    171.63756952	     50.15524914	   -136.28091496	     39.23427348	   -157.25550855	   -672.36020083	    195.48088119	    225.16200363	    -52.23441607	    194.39202258	     10.42369463	     69.02839068	    -28.47611694	   -103.63133103	   -191.72467771	      1.76226983	    -57.26315944	     17.54422438
      1.02350000	    160.24100033	     56.33999363	   -170.83766524	     49.75122382	   -154.42144244	   -702.16419273	    177.54935213	    233.45371279	    -57.99105472	    203.17017932	      9.43310396	     79.30451104	    -32.52361147	   -104.05913400	   -171.41848643	    -21.92979136	    -83.41100315	     25.48956748
      1.03400000	    139.77929489	     61.47242772	   -204.05454912	     60.26761560	   -144.54199209	   -710.86255724	    138.69445575	    220.11624033	    -57.52513707	    207.40168227	      7.98070220	     88.97725280	    -36.24780286	   -101.56400211	   -143.46864354	    -35.05853806	    -92.65723351	     28.21514225
      1.04450000	    111.59763761	     65.32941960	   -234.04665382	     70.27804878	   -128.87433596	   -701.43223506	    120.94570609	    242.63481700	    -66.15134048	    207.35288976	      6.16423195	     97.74989664	    -39.52697561	    -96.52229973	   -109.83529164	    -45.88678968	    -97.66016132	     29.61834052
      1.05500000	     81.58836780	     68.59905783	   -260.12394608	     79.58548381	   -110.47476147	   -683.58917711	     37.75657754	    171.91037590	    -48.37522083	    204.03300496	      4.34142595	    104.59848314	    -41.95688985	    -90.16092821	    -76.84069600	    -63.27735630	   -112.92587072	     34.07754081
      1.06550000	     42.39998779	     69.71654714	   -281.01116379	     87.76806537	    -86.19944613	   -644.50142130	     11.84280793	    147.85159320	    -42.34288645	    199.20240521	      2.52251645	    110.55358388	    -43.96751911	    -83.20210575	    -44.44987245	    -74.06001737	   -119.18638690	     35.74483966
      1.07600000	     -2.07701812	     68.94720558	   -296.32848520	     94.62291847	    -58.84796608	   -592.21218117	      5.16846930	    163.20886984	    -47.56650592	    194.77359823	      0.62491991	    117.19167312	    -46.18703109	    -76.16839862	    -10.98923928	    -81.72359325	   -120.85271965	     35.98981752
      1.08650000	    -45.04112722	     67.42450468	   -307.04605281	    100.35280285	    -31.98308652	   -539.09031265	    -75.96166305	     63.79021595	    -18.78900547	    190.73790488	     -1.23998975	    124.03460235	    -48.41632118	    -69.24602209	     21.81443207	    -90.89413926	   -124.88688026	     36.88978193
      1.09700000	    -96.65905261	     63.36707381	   -313.84816423	    105.07727903	     -2.25083969	   -473.00407217	    -94.49178794	     46.04686034	    -13.61174448	    186.19611494	     -2.91623331	    129.82141693	    -50.16521607	    -62.42282791	     51.44297073	    -95.63118942	   -123.25612283	     36.07372709
      1.10750000	   -150.53546855	     57.37638220	   -315.92871526	    108.40990098	     27.28350769	   -401.97427321	    -79.52353440	     67.02896639	    -19.91463951	    181.72210322	     -4.45840002	    135.16666119	    -51.68302682	    -55.78150160	     79.02180200	    -98.39508957	   -119.08480852	     34.50459488
      1.11800000	   -196.94470291	     50.73034568	   -312.33124735	    109.85830179	     52.95081779	   -335.70334285	   -103.04434048	     23.19209155	     -6.91506515	    178.22037139	     -5.89302003	    140.77755183	    -53.24142361	    -49.57301367	    105.13918904	   -101.19635951	   -114.99969472	     32.96220186
      1.12850000	   -238.78850865	     43.13912769	   -304.34502285	    109.69561883	     75.61297098	   -271.40678350	   -115.68624002	    -13.00051706	      3.87716582	    175.71762357	     -7.15055933	    146.35732115	    -54.72452021	    -43.96406392	    128.62356575	   -103.84182047	   -110.98338589	     31.44414561
      1.13900000	   -277.45655283	     34.57211612	   -293.02096580	    108.15812768	     95.59608702	   -208.33981728	   -106.54463484	    -25.11869277	      7.47965225	    174.37329068	     -8.17580255	    151.74326354	    -56.07235703	    -39.16304457	    148.46433350	   -104.35229731	   -104.49306107	     29.24406644
      1.14950000	   -310.92319591	     25.46011693	   -278.55055766	    105.19843622	    112.21183913	   -148.25268786	    -89.77052207	    -32.03466318	      9.51859719	    173.96266046	     -9.01092247	    156.98990366	    -57.30755231	    -35.00405311	    165.35281397	   -104.91661036	    -98.49780111	     27.22018087
      1.16000000	   -337.90880179	     16.19402792	   -261.22731236	    100.82221483	    125.13339566	    -92.01195499	    -74.15889460	    -44.39174146	     13.15057260	    174.41050729	     -9.64668669	    161.99280314	    -58.39471784	    -31.51357099	    179.02904766	   -106.69006489	    -94.77605740	     25.84711651
      1.17050000	   -359.76532639	      6.86187424	   -241.86420403	     95.26308811	    134.97034715	    -38.45165002	    -54.42185537	    -52.83082182	     15.58704450	    175.10072153	    -10.10347254	    166.43111917	    -59.22470374	    -28.46518888	    189.75786445	   -106.56753285	    -88.91155765	     23.91730057
      1.18100000	   -377.54423082	     -2.43390152	   -221.05234126	     88.70983680	    142.32161019	     13.60219724	    -29.40553949	    -54.04582708	     15.87100869	    175.46261502	    -10.40319068	    170.00679371	    -59.70418154	    -25.65515385	    197.84503135	   -107.84767066	    -85.59939949	     22.70440307
      1.19150000	   -392.36198578	    -11.59848046	   -199.36802665	     81.37782778	    147.87960484	     65.37385022	     -2.73778368	    -51.91730546	     15.17206132	    175.62606557	    -10.52693058	    172.66274203	    -59.83009094	    -23.23742075	    202.81858446	   -109.95740550	    -84.29264360	     22.02606850
      1.20200000	   -405.21471612	    -20.51714663	   -177.37915257	     73.51039254	    152.36105819	    117.87846598	     23.22676800	    -48.40986036	     14.07870736	    175.78150762	    -10.47084260	    174.45445893	    -59.63883621	    -21.34186375	    204.46793201	   -110.20110563	    -81.39882371	     20.93742074
      1.21250000	   -417.23793305	    -29.14517992	   -155.55307523	     65.33280748	    156.54397033	    172.35227365	     48.30307147	    -42.64851001	     12.34610028	    175.08960944	    -10.27860270	    174.98900947	    -59.01500163	    -19.60535036	    203.61788457	   -111.03243730	    -80.29063084	     20.31343914
      1.22300000	   -429.18949559	    -37.42136834	   -134.23121828	     57.03440238	    161.09170044	    229.74848313	     71.87774178	    -34.46458569	      9.93644728	    172.64270118	    -10.00289344	    173.86147758	    -57.84811124	    -17.57716738	    201.54053112	   -113.18523630	    -81.75265645	     20.31513665
      1.23350000	   -441.50211403	    -45.26591434	   -113.68247775	     48.78142754	    166.56196462	    290.74793643	     92.52545801	    -24.96897872	      7.17554593	    169.32309927	     -9.59812477	    171.35492618	    -56.25981837	    -15.76313036	    197.14116516	   -113.34105963	    -81.59716741	     19.88153613
      1.24400000	   -454.34890841	    -52.57987626	    -94.15425878	     40.73476210	    173.43758973	    355.79400326	    109.13328625	    -14.89222481	      4.27019217	    165.99608147	     -9.02239585	    167.76921348	    -54.36890947	    -14.66720835	    189.22292497	   -111.85310355	    -80.88341018	     19.29701023
      1.25450000	   -467.33373995	    -59.21744963	    -75.79453067	     33.01092304	    182.00766213	    424.96823837	    120.99765153	     -4.37404972	      1.25284916	    162.06515266	     -8.36389033	    163.12585747	    -52.19785722	    -13.89929179	    179.26254367	   -112.60233338	    -84.50649967	     19.69887756
      1.26500000	   -479.96415586	    -65.03070673	    -58.79898715	     25.74354947	    192.49796999	    498.13993377	    127.53185440	      6.38309109	     -1.82849641	    156.81791006	     -7.72479412	    157.46504291	    -49.77295251	    -12.93756389	    169.24947991	   -112.44979666	    -87.20660007	     19.79720518
      1.27550000	   -490.66868716	    -69.82213523	    -43.01180099	     18.90603619	    204.46190236	    574.00434368	    128.17611993	     17.06894763	     -4.89604803	    151.98514690	     -6.93569721	    151.00450591	    -47.17318159	    -12.96799404	    155.29820842	   -108.40999784	    -86.39964738	     19.05153299
      1.28600000	   -497.91509834	    -73.41114611	    -28.36648181	     12.50300021	    217.34137254	    650.81366127	    122.66698164	     27.34962658	     -7.86430983	    149.13061357	     -5.82134189	    143.79502486	    -44.42064135	    -15.21767487	    132.99763175	   -102.33187996	    -86.56417127	     18.49320821
      1.29650000	   -501.05755144	    -75.59899578	    -15.48034554	      6.83466933	    230.78161361	    725.84337171	    111.00519010	     36.83143592	    -10.62765025	    147.26819863	     -4.73394086	    137.21660718	    -41.94013314	    -18.01482074	    110.04863360	    -98.00454562	    -89.72451878	     18.50289502
      1.30700000	   -499.58537954	    -76.24975802	     -4.94311210	      2.18410276	    244.22167597	    795.82776781	     98.11821575	     45.10498493	    -13.07074500	    145.57357461	     -4.04573435	    133.00233324	    -40.23954953	    -19.43720048	     95.47361601	    -96.27328492	    -93.10843629	     18.43489331
      1.31750000	   -489.87577188	    -75.23581793	      4.36551836	     -1.92893235	    255.48603879	    856.73513237	     61.09488805	     52.33687104	    -15.24045163	    147.96701680	     -2.80116756	    128.26317231	    -38.42453285	    -24.57720880	     66.94039829	    -83.87297274	    -87.75935478	     16.61443729
      1.32800000	   -468.89473638	    -72.45753299	     13.23762105	     -5.84512703	    262.89350752	    905.66899829	     20.89726246	     57.81166056	    -16.92313091	    159.35024093	      0.24572291	    118.85727189	    -35.27641425	    -40.34552713	     -5.90182435	    -61.19439027	    -87.29584400	     15.76953003
      1.33850000	   -441.32635699	    -68.12777060	     19.23649773	     -8.48306619	    267.23763874	    938.79591196	    -19.46851723	     60.65813119	    -17.85127866	    164.08497721	      1.85388021	    113.28290717	    -33.33271793	    -48.08962714	    -44.29911672	    -51.86713262	    -90.66820996	     15.51116846
      1.34900000	   -412.36034962	    -62.52625348	     19.97067545	     -8.79322035	    266.24937606	    941.17385072	    -56.54352485	     60.84260059	    -17.99802759	    144.63202374	     -1.61676475	    121.29977145	    -35.38189041	    -27.07622693	     38.56644471	    -69.43329419	    -79.50978626	     12.83586928
      1.35950000	   -377.34477719	    -55.77861256	     18.13581149	     -7.97354199	    256.84153271	    910.11572938	    -86.10279971	     59.39079482	    -17.65302164	    124.07700360	     -5.39726123	    130.71379426	    -37.76829140	     -4.00225603	    130.54194085	    -94.49810349	    -74.58203274	     11.37736931
      1.37000000	   -331.08597172	    -48.04963619	     16.98039022	     -7.45543137	    236.52057579	    844.67228846	   -105.16867564	     55.71839181	    -16.63358412	    125.17670029	     -5.09051458	    130.90685631	    -37.45504386	     -4.47209374	    125.70894285	    -90.56075204	    -70.80488655	     10.15672245
      1.38050000	   -279.11979965	    -39.88565954	     15.40287581	     -6.75423205	    206.03098625	    740.02570452	   -113.26932007	     48.63799235	    -14.57416758	    136.00951771	     -3.13439542	    127.89104152	    -36.24141305	    -15.32743265	     78.65301683	    -63.72075874	    -53.82514676	      7.29140354
      1.39100000	   -226.96547452	    -31.63585633	     11.71408326	     -5.13119648	    170.97626967	    611.66389547	   -110.00459717	     38.87724392	    -11.68414179	    146.60670148	     -1.26508978	    125.12707841	    -35.12647929	    -26.06412660	     32.02452773	    -42.41834407	    -44.50545680	      5.74761265
      1.40150000	   -174.86022570	    -23.55135932	      7.03486879	     -3.07928237	    133.37235268	    470.93644381	    -94.13925266	     30.27280332	     -9.11852379	    156.75919032	      0.62764667	    121.77924143	    -33.87515659	    -36.96985331	    -15.90845786	    -20.30114052	    -34.72768161	      4.29426150
      1.41200000	   -121.96185900	    -15.70642701	      2.48554421	     -1.08756243	     93.72279129	    324.55660324	    -66.12886204	     25.26574385	     -7.62366015	    166.22764953	      2.55461181	    117.62327609	    -32.43051715	    -47.84677650	    -64.34209102	      8.93472718	    -15.40125836	      1.85119908
      1.42250000	    -71.45762201	     -8.49836689	     -1.50589661	      0.65889224	     54.19610933	    180.14614129	    -37.26636828	     15.05378129	     -4.54823296	    173.56892038	      4.56534952	    111.17491693	    -30.39429657	    -58.43802131	   -113.39342506	     38.70344014	      4.50107181	     -0.53758872
      1.43300000	    -25.97544961	     -2.28649995	     -4.27030926	      1.86887142	     17.77901044	     49.08351582	    -15.82783776	     -3.80976399	      1.15145581	    176.98681928	      6.63468175	    101.10491759	    -27.42549427	    -68.08007497	   -161.32686748	     69.08981879	     26.01092364	     -3.16047020
      1.44350000	     17.36984583	      3.53880090	     -6.58488838	      2.88304597	    -17.13388001	    -75.85113838	     15.33161608	     -7.13113222	      2.15423608	    180.14716349	      8.87261542	     89.67794705	    -24.15598137	    -77.88774812	   -209.78948969	    103.20595103	     52.95304967	     -6.71365308
      1.45400000	     62.02869948	      9.61555064	     -9.11251517	      3.99214862	    -52.59972016	   -202.97137441	     65.78136756	     17.38183939	     -5.25219127	    187.07312789	     11.40934300	     79.46301242	    -21.27217080	    -89.03268937	   -260.71427659	    140.08462766	     83.60496006	    -11.35332205
      1.46450000	     98.63210384	     14.70999184	    -11.21884559	      4.91883282	    -80.43059785	   -302.68576585	     81.79009736	      5.86822906	     -1.77514011	    193.54475400	     14.21056555	     67.29557019	    -17.91784694	   -100.30120506	   -312.26580064	    176.93940687	    115.56070658	    -17.14012072
      1.47500000	    113.75400457	     17.05692632	    -12.56432246	      5.51388964	    -90.90403619	   -341.71091503	     36.12198048	    -68.51985157	     20.68868966	    194.72532643	     17.25567822	     49.27452858	    -13.06338296	   -110.67155372	   -363.68474242	    214.16843027	    150.62923461	    -24.70462227
      1.48550000	    135.25079879	     19.24886400	     -9.27324199	      4.07325070	   -103.78305739	   -376.98833663	     71.38973743	    -23.18602583	      6.97255818	    195.75802702	     20.65385573	     29.10839359	     -7.69503266	   -121.81420155	   -417.89013109	    252.18561977	    189.61190519	    -34.56938245
      1.49600000	    192.31303206	     24.21055150	      2.42961820	     -1.06753692	   -138.11710553	   -462.38108139	    155.52987107	     79.67415418	    -24.02145408	    201.17232510	     24.57921820	      9.73658821	     -2.57028976	   -135.77859557	   -480.11310095	    292.09211496	    234.22097848	    -47.45055657
      1.50650000	    240.48156947	     27.84196236	     15.61462072	     -6.85581593	   -164.32316943	   -515.80353924	     55.31023394	    -67.10345840	     20.26604828	    206.23729768	     28.86735793	    -11.51796481	      3.04067903	   -150.62801245	   -545.32437319	    321.84689764	    270.40876192	    -60.41487113
      1.51700000	    239.27772000	     26.97047051	     20.37059646	     -8.93091478	   -158.69947210	   -483.33415787	    -14.14013590	   -145.24949554	     43.47213018	    205.64926160	     33.22174077	    -37.05851891	      9.80031032	   -163.23310849	   -604.44618839	    345.90644554	    306.95270330	    -74.58719501
      1.52750000	    227.32426296	     25.74269208	     20.19823508	     -8.84149179	   -147.77368255	   -445.78000316	    107.97338015	     50.44393374	    -15.04042196	    200.80698443	     37.95232561	    -67.41442686	     17.89587291	   -173.96353765	   -659.99932089	    366.44811948	    345.64046531	    -90.15391971
      1.53800000	    238.84536445	     25.56885985	     28.84822299	    -12.60488840	   -149.15369632	   -426.49660709	     89.99577662	     38.53584736	    -11.55318064	    196.25035325	     43.02039696	    -98.01680733	     26.17807259	   -181.67665342	   -705.37603429	    378.57196774	    380.61189731	   -105.07869707
      1.54850000	    256.43906915	     24.10959896	     46.33703214	    -20.18732386	   -151.38490749	   -387.94870143	    -51.19060126	   -148.92540028	     44.44878577	    190.91424778	     47.94510993	   -126.48979042	     34.06185904	   -185.02583688	   -736.43832485	    369.11330344	    394.59249959	   -113.76051550
      1.55900000	    264.88851608	     21.97710167	     61.19688016	    -26.54797991	   -149.10387449	   -342.64625779	    -46.49738374	   -126.81454293	     37.37995455	    179.19382332	     52.74249092	   -157.45266535	     42.84354940	   -183.43471544	   -756.81504963	    345.32222271	    396.37110188	   -117.81022001
      1.56950000	    265.70355879	     19.71526208	     72.00919697	    -31.07472663	   -143.78721276	   -298.92105211	     14.93285309	    -25.21546987	      7.38743359	    163.44315757	     57.49108629	   -189.03988158	     52.10103470	   -176.30412375	   -763.73032270	    317.68527353	    400.02229235	   -121.46521709
      1.58000000	    258.17006746	     16.36673304	     82.31566758	    -35.30618483	   -133.84995481	   -242.25946062	    -16.56745731	    -58.11094529	     16.97660976	    144.63288931	     61.35842421	   -215.69058092	     60.34501270	   -163.23405514	   -750.58648919	    276.52704358	    390.55080454	   -120.30485994
      1.59050000	    249.63611052	     12.50652768	     93.98682375	    -40.03138331	   -123.34497546	   -181.60594257	    -74.07968243	   -130.49884953	     37.75221448	    119.17135349	     64.11508122	   -239.54093230	     68.16071636	   -145.77903800	   -724.07700719	    222.69433921	    365.25544787	   -113.55120974
      1.60100000	    249.91764338	      9.03977376	    109.12724154	    -46.10586747	   -117.42586480	   -129.38650501	    -67.64579403	   -113.27834704	     32.30536110	     91.05159472	     66.67946172	   -262.47577111	     76.09932793	   -127.26086868	   -697.53581442	    127.57974674	    279.37138835	    -87.30020241
      1.61150000	    249.93971288	      5.62546033	    123.98313829	    -51.89414959	   -111.47900111	    -79.71867957	    -47.83132612	    -78.18194792	     22.04682708	     55.40186241	     67.59439056	   -281.31811621	     83.24374899	   -104.24138824	   -655.75918079	     93.26330947	    256.00078363	    -80.21117029
      1.62200000	    238.66591731	      1.75396074	    134.20459060	    -55.59101717	   -100.15992853	    -24.72923450	    -62.73010301	    -93.33350152	     26.02716943	     10.42948392	     66.37732106	   -296.22967719	     89.58427447	    -76.90873968	   -598.61140212	     61.22649197	    234.91657922	    -73.73190403
      1.63250000	    226.25007873	     -2.04743516	    143.61695963	    -58.82852203	    -88.31846156	     28.87481120	    -73.04104888	   -102.17526091	     28.07643373	    -35.53139754	     64.34576842	   -307.92655559	     95.27782701	    -49.58916934	   -541.06125514	    -39.37212479	    105.60246543	    -33.16769018
      1.64300000	    223.59294237	     -5.17888885	    156.31195023	    -63.25946705	    -80.95948178	     73.40333703	    -71.44164412	    -94.53609745	     25.56862500	    -83.28233877	     60.73682316	   -314.40173444	     99.61603695	    -21.77430932	   -477.86177397	    -75.56674820	     63.54837029	    -19.96326823
      1.65350000	    222.91587655	     -7.89559966	    168.81253282	    -67.42561162	    -74.42224530	    112.90859605	    -68.94599435	    -85.59775235	     22.78180463	   -132.15593741	     55.55458515	   -316.20177369	    102.63624661	      5.71949420	   -410.94541107	    -82.12510616	     55.90850891	    -17.56560643
      1.66400000	    217.17713738	    -10.37766529	    177.61780080	    -69.95544655	    -65.71578668	    150.24015590	    -67.93405240	    -78.26601364	     20.50734768	   -180.26686797	     49.25207279	   -314.55860289	    104.61515526	     31.76868270	   -344.57068268	   -123.04625512	    -12.36043327	      3.88360530
      1.67450000	    210.95467471	    -12.46662825	    184.76656994	    -71.71478402	    -56.96326701	    183.26163666	    -72.24188854	    -78.19083939	     20.15497733	   -225.81575407	     41.89513224	   -308.95714902	    105.26711505	     55.69215572	   -279.20990961	   -151.23510997	    -70.74827492	     22.22721444
      1.68500000	    207.92898977	    -13.97015950	    191.64085116	    -73.26383829	    -49.96221441	    209.00590903	    -71.76025000	    -71.33583439	     18.07660652	   -265.70259588	     33.81119291	   -298.83237641	    104.26031764	     76.45147094	   -216.32105806	   -157.94971417	   -104.63396297	     32.86632917
      1.69550000	    205.39627161	    -15.02949047	    197.13501541	    -74.19570766	    -43.59080015	    229.22617373	    -69.37202838	    -61.83765402	     15.41990966	   -300.33192557	     25.14489341	   -285.09239620	    101.77040329	     94.13358514	   -155.75125884	   -155.94050811	   -131.90439237	     41.41551168
      1.70600000	    200.96243131	    -15.76507842	    200.19185292	    -74.15610921	    -36.93057934	    245.45407320	    -71.30398678	    -58.56294119	     14.37886782	   -330.74865380	     15.98494602	   -268.63810301	     98.01228093	    109.12301763	    -96.76018099	   -151.91535059	   -161.37700910	     50.63281226
      1.71650000	    196.02089859	    -16.15423438	    201.46909599	    -73.44272063	    -30.69803950	    257.04447909	    -73.90703067	    -56.60031170	     13.67754181	   -357.18404810	      6.49895065	   -249.93712786	     93.07985379	    121.64021543	    -38.84102772	   -141.37850694	   -184.53036900	     57.82735325
      1.72700000	    191.91321431	    -16.18037785	    201.64563892	    -72.33874970	    -25.54166998	    263.36221681	    -73.52910709	    -51.14413005	     12.16534772	   -379.83518279	     -3.12839497	   -229.37272457	     87.06250904	    131.98320077	     18.66073815	   -123.93649160	   -198.73218994	     62.16278435
      1.73750000	    187.50269114	    -15.95713388	    200.43247330	    -70.76822367	    -20.95393066	    265.86990278	    -74.55717945	    -48.43337734	     11.34693711	   -400.03072510	    -12.81384011	   -207.64021586	     80.19563417	    140.90204328	     77.12978267	   -102.86941112	   -207.19461875	     64.63934797
      1.74800000	    181.72823199	    -15.56862411	    197.44716581	    -68.62925894	    -16.53415536	    265.56128677	    -75.92265427	    -46.88083862	     10.81315379	   -419.02245378	    -22.49577121	   -185.27763153	     72.68729610	    149.20107130	    138.11970918	    -80.09102222	   -211.14784615	     65.63808580
      1.75850000	    174.98528090	    -15.01129018	    192.83490483	    -66.00742619	    -12.65860680	    261.59479045	    -75.54323037	    -43.76016422	      9.93910323	   -437.57200008	    -32.04633486	   -162.73970283	     64.73621752	    157.58657189	    202.77335953	    -56.33107197	   -209.80144398	     64.91914162
      1.76900000	    167.75207954	    -14.32143814	    187.01594831	    -63.07243295	     -9.45018861	    254.43136492	    -76.90440949	    -44.05069071	      9.84959828	   -456.10393172	    -41.31289495	   -140.39781931	     56.52653773	    166.69472707	    272.00001959	    -32.83261329	   -203.14570923	     62.50196239
      1.77950000	    160.23477203	    -13.50096493	    180.07495637	    -59.87015835	     -6.99343042	    244.05607228	    -77.55765812	    -44.43992378	      9.77199290	   -474.82101875	    -50.10394193	   -118.69264865	     48.28179638	    177.13061592	    346.37425102	    -11.62274279	   -192.37085798	     58.78884044
      1.79000000	    152.46642247	    -12.58083408	    172.14206104	    -56.45662399	     -5.21684150	    231.00956197	    -76.83762336	    -43.99394532	      9.50665958	   -493.60514213	    -58.21988353	    -98.00463000	     40.21011336	    189.42426181	    426.32949863	      5.77823460	   -178.15438213	     54.02894578
      1.80050000	    144.74185638	    -11.58470245	    163.50912334	    -52.93484427	     -4.12613055	    215.74356000	    -77.49129897	    -46.56533164	      9.87607052	   -511.16964574	    -65.35654471	    -78.50517146	     32.43512545	    203.55911631	    511.02461801	     17.71848289	   -161.39324479	     48.53985971
      1.81100000	    137.55926049	    -10.50274481	    154.45251659	    -49.39484280	     -3.87377617	    198.09948087	    -77.62755091	    -49.61161681	     10.30170793	   -525.94125577	    -71.21566763	    -60.36510160	     25.07728394	    219.19394283	    598.71272968	     23.07835204	   -142.81674261	     42.58112115
      1.82150000	    131.28024627	     -9.33270559	    145.20966869	    -45.90840242	     -4.54253974	    178.04722137	    -75.99511768	    -51.45937173	     10.43834007	   -535.90148940	    -75.49709942	    -43.69066124	     18.22462256	    235.59295268	    686.66975290	     21.10470707	   -123.32165421	     36.45098488
      1.83200000	    126.08227681	     -8.09907371	    136.05263266	    -42.55342057	     -6.06692916	    156.07483173	    -75.67901341	    -56.32443791	     11.12714820	   -539.16833612	    -77.92295565	    -28.79967324	     12.04732739	    251.72763077	    770.88378436	     25.10147431	   -103.88734814	     30.45279529
      1.84250000	    122.47409866	     -6.79779191	    127.34905668	    -39.43341630	     -8.55775135	    132.14261205	    -75.12380906	    -62.03125000	     11.87691627	   -533.68456758	    -78.33565169	    -15.63479236	      6.55161646	    266.12318502	    846.82629813	     -8.10872902	    -84.93338029	     24.70874515
      1.85300000	    120.88294005	     -5.41737976	    119.38162393	    -36.62130421	    -12.12250956	    106.07331493	    -72.91943528	    -66.64645183	     12.30182437	   -517.83581719	    -76.63794311	     -4.30837868	      1.80677823	    277.62749373	    910.96702663	    -47.52296442	    -67.46260703	     19.49687229
      1.86350000	    121.34827224	     -3.96938870	    112.29241033	    -34.14546690	    -16.68205999	     78.16104885	    -70.22063618	    -71.63994922	     12.66976883	   -491.12588122	    -72.98090608	      5.32065261	     -2.23117867	    285.18074404	    960.47018364	    -88.64221326	    -51.50696957	     14.80421428
      1.87400000	    124.02544730	     -2.44376010	    106.19016957	    -32.02420305	    -22.25929311	     48.30827491	    -66.68879696	    -76.48967344	     12.86318046	   -453.59405668	    -67.57409718	     13.35394888	     -5.59572010	    284.65933616	    981.16251865	   -127.00967748	    -37.71645436	     10.79398866
      1.88450000	    128.61948385	     -0.86437226	    101.05201855	    -30.23726860	    -28.63792795	     17.12163913	    -61.37498685	    -79.55966704	     12.61457727	   -406.92611046	    -60.85075782	     19.95823505	     -8.35212152	    273.42138643	    964.84694169	   -158.16495088	    -26.10646019	      7.44757574
      1.89500000	    134.89122855	      0.74943033	     96.87078567	    -28.77087658	    -35.63006591	    -14.84596277	    -55.60471641	    -82.37084562	     12.20031142	   -352.83338910	    -53.22675249	     25.41626900	    -10.61716196	    253.30240314	    917.90554352	   -178.55123486	    -16.61314004	      4.72905861
      1.90550000	    143.06493213	      2.38357385	     93.95816984	    -27.70648498	    -43.17880401	    -47.12721715	    -48.14979482	    -82.90259972	     11.34543667	   -294.57716568	    -45.23472352	     29.82900189	    -12.43336613	    223.06798719	    830.57354893	   -186.50541182	     -9.28576582	      2.63973246
      1.91600000	    153.71065349	      4.04967387	     92.74525907	    -27.15802574	    -51.39924622	    -79.75652188	    -37.99265729	    -79.60024844	      9.97335945	   -234.53436983	    -37.27807294	     33.51539442	    -13.93505114	    187.47958310	    719.82295771	   -181.44714102	     -3.40366863	      0.96695149
      1.92650000	    165.01199665	      5.63367066	     92.60048408	    -26.92800938	    -59.37920717	   -110.30727337	    -28.15819987	    -75.69409001	      8.61145128	   -176.64297225	    -29.75410680	     36.05859797	    -14.95122913	    151.61510476	    604.21584250	   -165.33579225	      0.89033148	     -0.25290518
      1.93700000	    175.67738459	      7.04072758	     93.14231386	    -26.89812432	    -66.43590394	   -136.82570330	    -19.55602880	    -71.70739467	      7.33989293	   -123.75530153	    -22.88951028	     37.08891489	    -15.33393989	    117.86062150	    494.01520618	   -140.63538864	      4.19220353	     -1.19114995
      1.94750000	    184.31965538	      8.16396671	     93.95527208	    -26.94396272	    -71.85297808	   -157.24781003	     -6.74747117	    -59.43871464	      5.45115146	    -78.22752662	    -16.85721074	     36.38688068	    -14.99985606	     86.06469143	    385.88680879	   -110.86795835	      6.79595286	     -1.93209897
      1.95800000	    190.08348999	      8.91316972	     94.89722688	    -27.02307825	    -75.13426317	   -169.98921170	      2.33402462	    -49.51275866	      4.10597639	    -42.45138742	    -11.73277242	     33.29308727	    -13.68646611	     57.69361589	    282.08169419	    -79.87844864	      8.60350816	     -2.44797136
      1.96850000	    181.46339429	      8.82055947	     89.66322460	    -25.35605259	    -72.10977805	   -166.49933096	      6.31781893	    -41.49847304	      3.11569321	    -18.18186585	     -7.50657050	     27.07575006	    -11.10374130	     34.52903325	    187.08012674	    -50.90096945	      9.34403491	     -2.66118799
      1.97900000	    147.41625384	      7.45447839	     71.78148484	    -20.17645987	    -59.08051101	   -139.38622228	     11.99862331	    -24.36883915	      1.69120155	     -6.59866325	     -4.16491535	     17.26217540	     -7.06662979	     18.19941036	    106.20685608	    -26.78967891	      8.49082520	     -2.42044553
      1.98950000	     96.26461683	      4.83966297	     47.38531859	    -13.26027007	    -38.20353387	    -89.84154402	     10.03875445	    -11.99215798	      0.79590011	     -4.52886145	     -1.74608126	      6.19715927	     -2.53458749	      8.46130854	     45.05169085	     -9.94187516	      5.65441041	     -1.61307577
