FiberLength
version=1
nRows=98
nColumns=19
inDegrees=no

This analysis gathers basic information about muscles during a simulation (e.g., forces, tendon lengths, moment arms, etc).
Units are S.I. units (second, meters, Newtons, ...)
If the header above contains a line with 'inDegrees', this indicates whether rotational values are in degrees (yes) or radians (no).

endheader
time	hamstrings_r	bifemsh_r	glut_max_r	iliopsoas_r	rect_fem_r	vasti_r	gastroc_r	soleus_r	dorsiflexors_r	hamstrings_l	bifemsh_l	glut_max_l	iliopsoas_l	rect_fem_l	vasti_l	gastroc_l	soleus_l	dorsiflexors_l
      0.97100000	      0.05623317	      0.06298162	      0.15094301	      0.12206575	      0.05251801	      0.05317602	      0.02411785	      0.02004955	      0.01312157	      0.11448347	      0.06855420	      0.18830827	      0.10439496	      0.02286935	      0.04793457	      0.03351372	      0.02916493	      0.01533631
      0.98150000	      0.05530207	      0.06206942	      0.15111369	      0.12199559	      0.05361460	      0.05410495	      0.02486758	      0.02033811	      0.01310115	      0.11359369	      0.06819478	      0.18806622	      0.10453676	      0.02349951	      0.04835135	      0.03373570	      0.02913752	      0.01532086
      0.99200000	      0.05423431	      0.06086709	      0.15146552	      0.12185060	      0.05496258	      0.05529389	      0.02581103	      0.02073652	      0.01307840	      0.11247663	      0.06777811	      0.18772889	      0.10473382	      0.02428320	      0.04883085	      0.03386093	      0.02900424	      0.01524621
      1.00250000	      0.05314667	      0.05941277	      0.15205160	      0.12160801	      0.05645696	      0.05668058	      0.02686408	      0.02123037	      0.01306143	      0.11126349	      0.06735527	      0.18733315	      0.10496415	      0.02512976	      0.04931350	      0.03400430	      0.02889497	      0.01518562
      1.01300000	      0.05207997	      0.05772227	      0.15288138	      0.12126224	      0.05802989	      0.05822120	      0.02792277	      0.02178495	      0.01306032	      0.10998497	      0.06695318	      0.18687427	      0.10523009	      0.02600900	      0.04976876	      0.03408175	      0.02875186	      0.01510710
      1.02350000	      0.05106824	      0.05581641	      0.15395275	      0.12081175	      0.05960920	      0.05986595	      0.02899215	      0.02243948	      0.01308701	      0.10863997	      0.06658337	      0.18634110	      0.10553754	      0.02691425	      0.05018423	      0.03402311	      0.02851937	      0.01498164
      1.03400000	      0.05015577	      0.05372579	      0.15526352	      0.12025432	      0.06112883	      0.06157052	      0.02986320	      0.02307365	      0.01314430	      0.10725124	      0.06625827	      0.18573693	      0.10588395	      0.02782517	      0.05054686	      0.03385743	      0.02822618	      0.01482721
      1.04450000	      0.04939812	      0.05150654	      0.15679783	      0.11959287	      0.06251723	      0.06328223	      0.03060080	      0.02375535	      0.01324191	      0.10585015	      0.06599566	      0.18506586	      0.10626625	      0.02871328	      0.05083792	      0.03363539	      0.02792079	      0.01467103
      1.05500000	      0.04881812	      0.04919787	      0.15853130	      0.11883371	      0.06373451	      0.06497108	      0.03108734	      0.02440616	      0.01337029	      0.10446183	      0.06580096	      0.18433903	      0.10667740	      0.02955957	      0.05105260	      0.03333062	      0.02758083	      0.01450302
      1.06550000	      0.04844121	      0.04685123	      0.16043343	      0.11798588	      0.06473970	      0.06660261	      0.03156454	      0.02484534	      0.01347612	      0.10310354	      0.06567375	      0.18356768	      0.10711042	      0.03035241	      0.05119236	      0.03294272	      0.02720418	      0.01432440
      1.07600000	      0.04832276	      0.04455824	      0.16246557	      0.11706254	      0.06547602	      0.06812328	      0.03165572	      0.02536091	      0.01361964	      0.10177787	      0.06561511	      0.18275211	      0.10756460	      0.03108725	      0.05125664	      0.03251077	      0.02682282	      0.01415199
      1.08650000	      0.04846146	      0.04235884	      0.16459255	      0.11607616	      0.06593911	      0.06952167	      0.03146175	      0.02572257	      0.01373241	      0.10048136	      0.06562707	      0.18188765	      0.10804192	      0.03176211	      0.05124354	      0.03202942	      0.02643279	      0.01398484
      1.09700000	      0.04887924	      0.04030940	      0.16678481	      0.11503752	      0.06611597	      0.07077859	      0.03092881	      0.02585653	      0.01377664	      0.09921424	      0.06570454	      0.18097820	      0.10853957	      0.03237704	      0.05115857	      0.03150983	      0.02604146	      0.01382686
      1.10750000	      0.04962360	      0.03848706	      0.16901335	      0.11395816	      0.06598558	      0.07186463	      0.03046035	      0.02605539	      0.01384472	      0.09797939	      0.06584155	      0.18003021	      0.10905343	      0.03293142	      0.05100793	      0.03097269	      0.02566395	      0.01368409
      1.11800000	      0.05067409	      0.03691488	      0.17124003	      0.11285526	      0.06557458	      0.07278258	      0.02995074	      0.02620380	      0.01389737	      0.09677223	      0.06603379	      0.17904357	      0.10958302	      0.03342764	      0.05079576	      0.03042120	      0.02530210	      0.01355642
      1.12850000	      0.05199814	      0.03560127	      0.17342812	      0.11174697	      0.06491871	      0.07353959	      0.02932669	      0.02621339	      0.01390083	      0.09558641	      0.06627647	      0.17801736	      0.11012825	      0.03386937	      0.05052662	      0.02985621	      0.02495592	      0.01344297
      1.13900000	      0.05357851	      0.03455432	      0.17555077	      0.11064793	      0.06404649	      0.07413862	      0.02869718	      0.02614804	      0.01387741	      0.09441438	      0.06656162	      0.17695269	      0.11068796	      0.03426316	      0.05020858	      0.02928276	      0.02462755	      0.01334339
      1.14950000	      0.05539553	      0.03377430	      0.17758447	      0.10957227	      0.06298839	      0.07458363	      0.02815110	      0.02605941	      0.01384612	      0.09324917	      0.06688147	      0.17585085	      0.11126090	      0.03461544	      0.04984957	      0.02871109	      0.02432308	      0.01325822
      1.16000000	      0.05741455	      0.03324810	      0.17950735	      0.10853427	      0.06178198	      0.07488370	      0.02769522	      0.02593901	      0.01380453	      0.09208481	      0.06722907	      0.17471312	      0.11184585	      0.03493198	      0.04945678	      0.02813269	      0.02403404	      0.01318383
      1.17050000	      0.05960163	      0.03296272	      0.18130104	      0.10754723	      0.06046239	      0.07504654	      0.02733647	      0.02578406	      0.01375255	      0.09091719	      0.06759712	      0.17354244	      0.11244080	      0.03521829	      0.04903793	      0.02755210	      0.02376177	      0.01311959
      1.18100000	      0.06192941	      0.03290841	      0.18295319	      0.10662171	      0.05905824	      0.07507754	      0.02710300	      0.02561504	      0.01369786	      0.08974719	      0.06797972	      0.17234406	      0.11304262	      0.03547697	      0.04859933	      0.02697242	      0.02350674	      0.01306459
      1.19150000	      0.06437606	      0.03308170	      0.18445451	      0.10576685	      0.05759192	      0.07497864	      0.02701449	      0.02544932	      0.01364630	      0.08857676	      0.06837059	      0.17112459	      0.11364768	      0.03571089	      0.04814785	      0.02638373	      0.02325890	      0.01301596
      1.20200000	      0.06692619	      0.03348329	      0.18580092	      0.10498883	      0.05607821	      0.07474957	      0.02707133	      0.02529286	      0.01359953	      0.08740651	      0.06876313	      0.16989036	      0.11425261	      0.03592438	      0.04769093	      0.02579169	      0.02301955	      0.01297351
      1.21250000	      0.06957028	      0.03411916	      0.18699110	      0.10429206	      0.05452482	      0.07438695	      0.02726947	      0.02515123	      0.01355880	      0.08623851	      0.06915113	      0.16864863	      0.11485379	      0.03612129	      0.04723559	      0.02520092	      0.02278886	      0.01293678
      1.22300000	      0.07230568	      0.03499806	      0.18802770	      0.10367825	      0.05293155	      0.07388507	      0.02760295	      0.02503166	      0.01352562	      0.08508230	      0.06953074	      0.16741014	      0.11544608	      0.03630026	      0.04678569	      0.02460447	      0.02255910	      0.01290425
      1.23350000	      0.07513264	      0.03612961	      0.18891453	      0.10314795	      0.05129289	      0.07323600	      0.02806094	      0.02494009	      0.01350095	      0.08394740	      0.06989818	      0.16618601	      0.11602444	      0.03646027	      0.04634481	      0.02400377	      0.02232865	      0.01287567
      1.24400000	      0.07805424	      0.03752016	      0.18965832	      0.10269952	      0.04959769	      0.07243095	      0.02862430	      0.02487868	      0.01348478	      0.08283595	      0.07024752	      0.16498468	      0.11658531	      0.03660633	      0.04591962	      0.02341216	      0.02210303	      0.01285154
      1.25450000	      0.08107229	      0.03917058	      0.19026633	      0.10233045	      0.04783181	      0.07146038	      0.02926982	      0.02484911	      0.01347710	      0.08174932	      0.07057354	      0.16381363	      0.11712573	      0.03674413	      0.04551657	      0.02282717	      0.02187596	      0.01283104
      1.26500000	      0.08418604	      0.04107221	      0.19074792	      0.10203654	      0.04597862	      0.07031552	      0.02996940	      0.02485210	      0.01347787	      0.08069445	      0.07087540	      0.16268018	      0.11764296	      0.03687367	      0.04513722	      0.02224198	      0.02164054	      0.01281370
      1.27550000	      0.08738830	      0.04320652	      0.19111214	      0.10181332	      0.04402311	      0.06898919	      0.03069226	      0.02488820	      0.01348727	      0.07967583	      0.07115162	      0.16159075	      0.11813475	      0.03699711	      0.04478430	      0.02167276	      0.02140640	      0.01280028
      1.28600000	      0.09066013	      0.04554189	      0.19136731	      0.10165646	      0.04195707	      0.06747928	      0.03140366	      0.02495651	      0.01350533	      0.07868377	      0.07139209	      0.16055061	      0.11859949	      0.03713174	      0.04447210	      0.02113484	      0.02117649	      0.01279069
      1.29650000	      0.09397575	      0.04803615	      0.19152313	      0.10156049	      0.03977763	      0.06578888	      0.03206877	      0.02505565	      0.01353219	      0.07770779	      0.07158944	      0.15956151	      0.11903712	      0.03729321	      0.04421215	      0.02063003	      0.02094545	      0.01278447
      1.30700000	      0.09730572	      0.05063505	      0.19159510	      0.10151610	      0.03748774	      0.06393013	      0.03230772	      0.02518245	      0.01356765	      0.07674507	      0.07175369	      0.15861132	      0.11945363	      0.03747507	      0.04399308	      0.02014250	      0.02070741	      0.01278142
      1.31750000	      0.10060902	      0.05327780	      0.19159694	      0.10151497	      0.03510433	      0.06192365	      0.03276251	      0.02533379	      0.01361159	      0.07578526	      0.07188709	      0.15769026	      0.11985376	      0.03768124	      0.04381327	      0.01968781	      0.02047435	      0.01278153
      1.32800000	      0.10381587	      0.05589486	      0.19153323	      0.10155426	      0.03266868	      0.05980005	      0.03299677	      0.02550583	      0.01366365	      0.07478119	      0.07193961	      0.15681942	      0.12022886	      0.03798939	      0.04374198	      0.01933107	      0.02025744	      0.01278414
      1.33850000	      0.10686171	      0.05841778	      0.19141395	      0.10162775	      0.03022725	      0.05759687	      0.03300013	      0.02569179	      0.01372243	      0.07371083	      0.07188622	      0.15601115	      0.12057423	      0.03843956	      0.04381443	      0.01906464	      0.02003443	      0.01278909
      1.34900000	      0.10972200	      0.06078676	      0.19127043	      0.10171607	      0.02782907	      0.05537194	      0.03278126	      0.02588322	      0.01378561	      0.07269039	      0.07186810	      0.15519481	      0.12092036	      0.03882562	      0.04383896	      0.01878013	      0.01982493	      0.01279557
      1.35950000	      0.11237642	      0.06295038	      0.19113375	      0.10180005	      0.02555316	      0.05320824	      0.03237106	      0.02607323	      0.01385097	      0.07182363	      0.07201149	      0.15430623	      0.12129409	      0.03896068	      0.04364396	      0.01838060	      0.01964358	      0.01280241
      1.37000000	      0.11476055	      0.06486144	      0.19100834	      0.10187702	      0.02349507	      0.05118201	      0.03182308	      0.02625649	      0.01391644	      0.07102187	      0.07221961	      0.15338561	      0.12167801	      0.03898530	      0.04335712	      0.01792540	      0.01946839	      0.01280990
      1.38050000	      0.11681186	      0.06648703	      0.19089125	      0.10194879	      0.02174848	      0.04937980	      0.03119953	      0.02642333	      0.01397811	      0.07017273	      0.07237471	      0.15248004	      0.12205242	      0.03908101	      0.04314029	      0.01756181	      0.01932264	      0.01281666
      1.39100000	      0.11851357	      0.06781431	      0.19079282	      0.10200906	      0.02035169	      0.04786521	      0.03056367	      0.02656343	      0.01403138	      0.06925482	      0.07245763	      0.15159526	      0.12241518	      0.03928278	      0.04302324	      0.01731862	      0.01921201	      0.01282204
      1.40150000	      0.11986575	      0.06884052	      0.19072566	      0.10205016	      0.01929776	      0.04666923	      0.02998298	      0.02667304	      0.01407400	      0.06827093	      0.07246957	      0.15073245	      0.12276604	      0.03959105	      0.04300633	      0.01717007	      0.01911912	      0.01282667
      1.41200000	      0.12086518	      0.06957212	      0.19069159	      0.10207099	      0.01856083	      0.04579961	      0.02952869	      0.02676170	      0.01410906	      0.06722590	      0.07240996	      0.14989634	      0.12310337	      0.04000600	      0.04309062	      0.01714313	      0.01906205	      0.01282955
      1.42250000	      0.12151347	      0.07002097	      0.19068873	      0.10207274	      0.01810867	      0.04525513	      0.02924260	      0.02682947	      0.01413621	      0.06612738	      0.07227605	      0.14909666	      0.12342355	      0.04052796	      0.04327852	      0.01725276	      0.01904961	      0.01283019
      1.43300000	      0.12183936	      0.07022011	      0.19071010	      0.10205967	      0.01789721	      0.04501019	      0.02909550	      0.02684795	      0.01414367	      0.06499745	      0.07206553	      0.14835533	      0.12371827	      0.04115037	      0.04356992	      0.01750210	      0.01908350	      0.01282847
      1.44350000	      0.12186827	      0.07019681	      0.19074889	      0.10203594	      0.01789537	      0.04503897	      0.02908388	      0.02682193	      0.01413318	      0.06385277	      0.07177459	      0.14769166	      0.12398040	      0.04186873	      0.04396503	      0.01790388	      0.01917173	      0.01282404
      1.45400000	      0.12160135	      0.06995151	      0.19080514	      0.10200152	      0.01810166	      0.04534005	      0.02930792	      0.02683525	      0.01413855	      0.06267970	      0.07139432	      0.14710392	      0.12421121	      0.04269242	      0.04446918	      0.01848295	      0.01932858	      0.01281638
      1.46450000	      0.12105024	      0.06949011	      0.19087845	      0.10195663	      0.01851634	      0.04589808	      0.02975568	      0.02689419	      0.01416243	      0.06146362	      0.07091381	      0.14659097	      0.12441164	      0.04363136	      0.04508850	      0.01925118	      0.01956097	      0.01280585
      1.47500000	      0.12032499	      0.06888973	      0.19096451	      0.10190390	      0.01907297	      0.04661128	      0.03009660	      0.02679567	      0.01412263	      0.06022772	      0.07032447	      0.14618285	      0.12457043	      0.04468030	      0.04582507	      0.02021854	      0.01987945	      0.01279373
      1.48550000	      0.11950485	      0.06822082	      0.19104757	      0.10185295	      0.01971637	      0.04739411	      0.03032648	      0.02659290	      0.01404276	      0.05899419	      0.06961571	      0.14591129	      0.12467576	      0.04583776	      0.04668425	      0.02139529	      0.02029810	      0.01278348
      1.49600000	      0.11841816	      0.06741936	      0.19107637	      0.10183528	      0.02056069	      0.04831968	      0.03101056	      0.02672056	      0.01409273	      0.05774523	      0.06877183	      0.14577623	      0.12472805	      0.04712356	      0.04768075	      0.02279783	      0.02083819	      0.01278268
      1.50650000	      0.11693766	      0.06643971	      0.19100889	      0.10187668	      0.02170344	      0.04943313	      0.03170036	      0.02680859	      0.01412781	      0.05646543	      0.06777520	      0.14578051	      0.12472639	      0.04856200	      0.04883418	      0.02441697	      0.02150918	      0.01280571
      1.51700000	      0.11530224	      0.06541626	      0.19087385	      0.10195945	      0.02297952	      0.05057406	      0.03169858	      0.02636963	      0.01395805	      0.05517709	      0.06662062	      0.14594621	      0.12466223	      0.05014431	      0.05014253	      0.02619730	      0.02229833	      0.01287220
      1.52750000	      0.11374546	      0.06445018	      0.19072960	      0.10204775	      0.02421504	      0.05162735	      0.03194138	      0.02620328	      0.01389718	      0.05391503	      0.06530292	      0.14630685	      0.12452225	      0.05184872	      0.05159733	      0.02813225	      0.02323028	      0.01301065
      1.53800000	      0.11219195	      0.06350519	      0.19056190	      0.10215023	      0.02545231	      0.05263167	      0.03263132	      0.02644762	      0.01398725	      0.05269099	      0.06380806	      0.14688335	      0.12429751	      0.05365473	      0.05318938	      0.03017659	      0.02430036	      0.01325214
      1.54850000	      0.11052676	      0.06258970	      0.19029389	      0.10231367	      0.02674643	      0.05357808	      0.03271120	      0.02624688	      0.01391295	      0.05150211	      0.06213642	      0.14766414	      0.12399124	      0.05552173	      0.05488754	      0.03226255	      0.02549111	      0.01362197
      1.55900000	      0.10877464	      0.06174780	      0.18990508	      0.10255000	      0.02806739	      0.05442683	      0.03235473	      0.02574949	      0.01374119	      0.05037084	      0.06029813	      0.14865022	      0.12360128	      0.05740360	      0.05666447	      0.03425285	      0.02672547	      0.01410938
      1.56950000	      0.10699364	      0.06098572	      0.18942701	      0.10283933	      0.02937932	      0.05517831	      0.03229316	      0.02553410	      0.01367242	      0.04933353	      0.05829977	      0.14985988	      0.12311802	      0.05924604	      0.05849292	      0.03612302	      0.02800877	      0.01471552
      1.58000000	      0.10523636	      0.06032610	      0.18887445	      0.10317202	      0.03064254	      0.05581624	      0.03233186	      0.02543869	      0.01364307	      0.04840390	      0.05616098	      0.15127565	      0.12254547	      0.06098868	      0.06033021	      0.03780204	      0.02930478	      0.01541566
      1.59050000	      0.10354248	      0.05980307	      0.18824492	      0.10354879	      0.03182123	      0.05631392	      0.03205465	      0.02513126	      0.01355318	      0.04761251	      0.05393024	      0.15286758	      0.12189258	      0.06257501	      0.06213022	      0.03922834	      0.03057538	      0.01617382
      1.60100000	      0.10187855	      0.05941400	      0.18751998	      0.10397970	      0.03293532	      0.05667944	      0.03162309	      0.02473397	      0.01344784	      0.04698662	      0.05163589	      0.15462717	      0.12115947	      0.06397780	      0.06387672	      0.04023909	      0.03167922	      0.01688034
      1.61150000	      0.10020580	      0.05914800	      0.18668371	      0.10447283	      0.03400974	      0.05692702	      0.03131273	      0.02445558	      0.01338143	      0.04654635	      0.04930921	      0.15653848	      0.12034920	      0.06517390	      0.06555440	      0.04119852	      0.03255156	      0.01746516
      1.62200000	      0.09857148	      0.05901323	      0.18575820	      0.10501369	      0.03501115	      0.05705173	      0.03100969	      0.02420389	      0.01332672	      0.04635003	      0.04703532	      0.15857040	      0.11947148	      0.06610682	      0.06711315	      0.04168516	      0.03343988	      0.01808122
      1.63250000	      0.09702789	      0.05902042	      0.18476679	      0.10558736	      0.03590174	      0.05704509	      0.03061580	      0.02390328	      0.01326808	      0.04642419	      0.04486327	      0.16070120	      0.11853250	      0.06675793	      0.06853543	      0.04174814	      0.03403208	      0.01850199
      1.64300000	      0.09553621	      0.05915272	      0.18369733	      0.10619965	      0.03670537	      0.05692265	      0.03020958	      0.02361240	      0.01321832	      0.04677402	      0.04283176	      0.16290086	      0.11754270	      0.06712625	      0.06981317	      0.04137323	      0.03428568	      0.01868441
      1.65350000	      0.09405017	      0.05938996	      0.18253489	      0.10685754	      0.03745025	      0.05670189	      0.02981269	      0.02334627	      0.01317881	      0.04741429	      0.04099528	      0.16513291	      0.11651646	      0.06720769	      0.07092954	      0.04094547	      0.03451539	      0.01885073
      1.66400000	      0.09258718	      0.05972150	      0.18129737	      0.10754927	      0.03812444	      0.05639089	      0.02943274	      0.02311087	      0.01314866	      0.04834758	      0.03938647	      0.16736938	      0.11546545	      0.06701339	      0.07188110	      0.04036453	      0.03459643	      0.01890964
      1.67450000	      0.09116927	      0.06013730	      0.18000562	      0.10826192	      0.03871400	      0.05599672	      0.02904022	      0.02288530	      0.01312395	      0.04957204	      0.03802892	      0.16958468	      0.11440129	      0.06656043	      0.07266779	      0.03957468	      0.03444407	      0.01879898
      1.68500000	      0.08978347	      0.06061914	      0.17866478	      0.10899164	      0.03922894	      0.05553426	      0.02863489	      0.02266952	      0.01310412	      0.05106670	      0.03693335	      0.17174760	      0.11333948	      0.06587744	      0.07329368	      0.03868992	      0.03413373	      0.01857495
      1.69550000	      0.08841548	      0.06114779	      0.17728018	      0.10973465	      0.03968168	      0.05501980	      0.02824337	      0.02248221	      0.01308988	      0.05280289	      0.03610227	      0.17382806	      0.11229629	      0.06499740	      0.07376406	      0.03780106	      0.03372467	      0.01828262
      1.70600000	      0.08707204	      0.06171027	      0.17586621	      0.11048256	      0.04007193	      0.05446421	      0.02785406	      0.02231435	      0.01307942	      0.05475596	      0.03553432	      0.17580355	      0.11128535	      0.06395050	      0.07408371	      0.03692953	      0.03321742	      0.01792515
      1.71650000	      0.08576255	      0.06229445	      0.17443900	      0.11122654	      0.04039937	      0.05387801	      0.02745063	      0.02215329	      0.01307142	      0.05690448	      0.03522853	      0.17765573	      0.11031904	      0.06276350	      0.07425530	      0.03609938	      0.03261993	      0.01751188
      1.72700000	      0.08448451	      0.06288744	      0.17300790	      0.11196173	      0.04067175	      0.05327306	      0.02704201	      0.02200366	      0.01306572	      0.05922581	      0.03518271	      0.17936958	      0.10940862	      0.06146118	      0.07428098	      0.03535068	      0.03196249	      0.01706788
      1.73750000	      0.08323523	      0.06347734	      0.17158174	      0.11268379	      0.04089777	      0.05266085	      0.02663594	      0.02186844	      0.01306198	      0.06170130	      0.03539864	      0.18093325	      0.10856404	      0.06006278	      0.07415988	      0.03471323	      0.03127180	      0.01661491
      1.74800000	      0.08202102	      0.06405725	      0.17017164	      0.11338754	      0.04107988	      0.05204831	      0.02622086	      0.02173741	      0.01305960	      0.06432033	      0.03588246	      0.18234042	      0.10779244	      0.05857918	      0.07388793	      0.03419988	      0.03056502	      0.01616738
      1.75850000	      0.08084994	      0.06462059	      0.16879026	      0.11406730	      0.04122153	      0.05144339	      0.02580684	      0.02161523	      0.01305847	      0.06707810	      0.03664517	      0.18358730	      0.10709945	      0.05701376	      0.07345718	      0.03381811	      0.02985948	      0.01573869
      1.76900000	      0.07972639	      0.06516188	      0.16744719	      0.11471922	      0.04132865	      0.05085377	      0.02539148	      0.02149762	      0.01305834	      0.06997340	      0.03769742	      0.18467415	      0.10648821	      0.05536302	      0.07285795	      0.03356935	      0.02917341	      0.01534110
      1.77950000	      0.07865279	      0.06567607	      0.16615064	      0.11534031	      0.04140817	      0.05028672	      0.02497078	      0.02137889	      0.01305915	      0.07300682	      0.03904847	      0.18560303	      0.10596044	      0.05361754	      0.07207825	      0.03344684	      0.02852267	      0.01498340
      1.79000000	      0.07763057	      0.06615868	      0.16490790	      0.11592815	      0.04146719	      0.04974878	      0.02455292	      0.02126171	      0.01306083	      0.07617941	      0.04069996	      0.18638031	      0.10551499	      0.05176224	      0.07110594	      0.03343244	      0.02791859	      0.01466992
      1.80050000	      0.07666069	      0.06660642	      0.16372503	      0.11648097	      0.04151211	      0.04924506	      0.02413789	      0.02114316	      0.01306340	      0.07948798	      0.04264440	      0.18701324	      0.10514968	      0.04977952	      0.06992866	      0.03350117	      0.02737055	      0.01440230
      1.81100000	      0.07574084	      0.06701621	      0.16260559	      0.11699824	      0.04155040	      0.04878030	      0.02372047	      0.02101672	      0.01306707	      0.08291857	      0.04485734	      0.18751131	      0.10486057	      0.04765509	      0.06853923	      0.03361814	      0.02688382	      0.01417898
      1.82150000	      0.07486628	      0.06738458	      0.16155179	      0.11748001	      0.04159069	      0.04835955	      0.02331035	      0.02088587	      0.01307183	      0.08644626	      0.04730022	      0.18788412	      0.10464322	      0.04538029	      0.06693538	      0.03374538	      0.02646209	      0.01399706
      1.83200000	      0.07403018	      0.06770856	      0.16056364	      0.11792726	      0.04164177	      0.04798721	      0.02290816	      0.02074800	      0.01307785	      0.09003106	      0.04991579	      0.18814355	      0.10449150	      0.04295761	      0.06512548	      0.03345434	      0.02610476	      0.01385174
      1.84250000	      0.07322428	      0.06798575	      0.15963937	      0.11834172	      0.04171221	      0.04766695	      0.02250870	      0.02059693	      0.01308555	      0.09362129	      0.05263520	      0.18830220	      0.10439852	      0.04040232	      0.06312796	      0.03350556	      0.02581019	      0.01373825
      1.85300000	      0.07243622	      0.06821321	      0.15877432	      0.11872626	      0.04181232	      0.04740297	      0.02211928	      0.02043495	      0.01309498	      0.09715003	      0.05537855	      0.18837274	      0.10435713	      0.03774709	      0.06097411	      0.03335213	      0.02557398	      0.01365149
      1.86350000	      0.07165304	      0.06838812	      0.15796289	      0.11908404	      0.04195212	      0.04719924	      0.02174498	      0.02026310	      0.01310619	      0.10054475	      0.05806472	      0.18836820	      0.10435979	      0.03503401	      0.05870073	      0.03297197	      0.02539055	      0.01358678
      1.87400000	      0.07086073	      0.06850778	      0.15719819	      0.11941866	      0.04214154	      0.04705949	      0.02138869	      0.02008136	      0.01311919	      0.10372950	      0.06061698	      0.18830008	      0.10439976	      0.03232942	      0.05636276	      0.03236920	      0.02525388	      0.01354011
      1.88450000	      0.07004589	      0.06856947	      0.15647342	      0.11973353	      0.04238983	      0.04698732	      0.02105705	      0.01989262	      0.01313373	      0.10663483	      0.06296971	      0.18817967	      0.10447034	      0.02974202	      0.05405141	      0.03157287	      0.02515635	      0.01350761
      1.89500000	      0.06919731	      0.06857174	      0.15578172	      0.12003201	      0.04270378	      0.04698466	      0.02075676	      0.01970072	      0.01314931	      0.10920303	      0.06507449	      0.18801591	      0.10456619	      0.02736746	      0.05184494	      0.03063564	      0.02509156	      0.01348639
      1.90550000	      0.06830398	      0.06851341	      0.15511565	      0.12031755	      0.04308938	      0.04705291	      0.02049001	      0.01950718	      0.01316554	      0.11139218	      0.06690012	      0.18781688	      0.10468248	      0.02529524	      0.04982857	      0.02962411	      0.02505235	      0.01347370
      1.91600000	      0.06735198	      0.06839375	      0.15446442	      0.12059498	      0.04355275	      0.04719267	      0.02027057	      0.01932130	      0.01318128	      0.11318245	      0.06843647	      0.18758888	      0.10481542	      0.02358217	      0.04807142	      0.02860981	      0.02503331	      0.01346758
      1.92650000	      0.06632995	      0.06821291	      0.15381777	      0.12086876	      0.04409779	      0.04740331	      0.02010354	      0.01914735	      0.01319585	      0.11457132	      0.06968716	      0.18733801	      0.10496133	      0.02223186	      0.04659872	      0.02766063	      0.02502989	      0.01346648
      1.93700000	      0.06524040	      0.06797665	      0.15317026	      0.12114122	      0.04471754	      0.04767749	      0.01998305	      0.01898517	      0.01320901	      0.11558583	      0.07067173	      0.18707442	      0.10511425	      0.02120414	      0.04539386	      0.02682791	      0.02503776	      0.01346901
      1.94750000	      0.06409066	      0.06769275	      0.15251798	      0.12141400	      0.04540117	      0.04800543	      0.01991424	      0.01884182	      0.01322009	      0.11626452	      0.07141486	      0.18680928	      0.10526765	      0.02045964	      0.04444228	      0.02614913	      0.02505483	      0.01347450
      1.95800000	      0.06289817	      0.06737428	      0.15185968	      0.12168759	      0.04612915	      0.04837135	      0.01990829	      0.01872891	      0.01322831	      0.11666799	      0.07194994	      0.18655747	      0.10541297	      0.01995354	      0.04372793	      0.02563711	      0.02507853	      0.01348216
      1.96850000	      0.06170772	      0.06704121	      0.15121031	      0.12195582	      0.04686594	      0.04875183	      0.01992858	      0.01863177	      0.01323495	      0.11686591	      0.07230890	      0.18633859	      0.10553899	      0.01964004	      0.04323261	      0.02528951	      0.02510641	      0.01349123
      1.97900000	      0.06065676	      0.06673568	      0.15064202	      0.12218921	      0.04752358	      0.04909884	      0.01997604	      0.01856355	      0.01323933	      0.11694347	      0.07252623	      0.18617753	      0.10563154	      0.01946526	      0.04292581	      0.02508459	      0.02513413	      0.01350030
      1.98950000	      0.05988349	      0.06650407	      0.15022667	      0.12235900	      0.04801163	      0.04936059	      0.02003595	      0.01852781	      0.01324152	      0.11697702	      0.07263442	      0.18609366	      0.10567967	      0.01937949	      0.04277102	      0.02499065	      0.02515639	      0.01350762
