FiberForce
version=1
nRows=98
nColumns=19
inDegrees=no

This analysis gathers basic information about muscles during a simulation (e.g., forces, tendon lengths, moment arms, etc).
Units are S.I. units (second, meters, Newtons, ...)
If the header above contains a line with 'inDegrees', this indicates whether rotational values are in degrees (yes) or radians (no).

endheader
time	hamstrings_r	bifemsh_r	glut_max_r	iliopsoas_r	rect_fem_r	vasti_r	gastroc_r	soleus_r	dorsiflexors_r	hamstrings_l	bifemsh_l	glut_max_l	iliopsoas_l	rect_fem_l	vasti_l	gastroc_l	soleus_l	dorsiflexors_l
      0.97100000	      2.27183169	      9.51217816	    178.83487297	    146.43308155	    113.29927895	     69.26172200	     23.62571501	     28.85175764	      0.48810793	    203.07483187	     16.68269803	    259.97188755	    114.18009079	      9.38908137	     34.04371623	     42.92368594	    200.08458402	      1.13175832
      0.98150000	     -2.12410512	      7.30456747	    182.11214476	    145.09719546	    123.88063095	     87.58502883	     30.14227225	     35.88257402	      0.42558980	    191.37149895	     16.02792633	    257.14687247	    115.57958472	     12.18172512	     37.97259803	     42.80606034	    188.23827421	      0.30828693
      0.99200000	     -4.46149997	      5.05139118	    186.66472598	    143.21130274	    132.23797953	    107.48273514	     35.67719546	     44.31374747	      0.43031111	    183.01900223	     15.52683186	    254.66758604	    116.65417945	     13.81575673	     39.96629853	     42.64231637	    180.75535986	     -0.04904156
      1.00250000	     -5.33933869	      2.76552777	    192.31419523	    140.82078098	    139.06305358	    131.27651778	     37.49851472	     50.06557996	      0.58799096	    177.17011395	     15.20141755	    252.29003708	    117.60467210	     14.53665142	     40.14657108	     44.71296341	    181.99973716	      0.19041608
      1.01300000	     -5.64090813	      0.54715934	    198.30657390	    138.22158832	    144.74003333	    160.10315049	     39.54372545	     59.20011037	      0.87454164	    170.98006509	     14.94478404	    249.40946482	    118.78482601	     15.21028218	     39.73900665	     41.12967987	    169.89794413	     -0.46320541
      1.02350000	     -5.20432326	     -1.41520391	    204.76234433	    135.34567015	    149.07278772	    193.70150669	     38.33764972	     67.44439897	      1.33011098	    164.97976170	     14.74825548	    246.25521165	    120.05214491	     15.73947686	     38.92445824	     35.74847654	    155.72429399	     -1.10660313
      1.03400000	     -3.87487943	     -2.91034262	    211.50294358	    132.25446607	    151.68197356	    229.89752238	     33.76783565	     74.05857843	      1.75986412	    159.83897153	     14.65573219	    242.96307887	    121.33904854	     15.91558759	     37.37714507	     31.36501854	    146.42282561	     -1.28574043
      1.04450000	     -1.79966216	     -3.87376942	    218.26924621	    129.05410241	    152.44449632	    265.58293531	     32.67728057	     91.47025169	      2.45439565	    155.59106081	     14.67189133	    239.60030018	    122.62007191	     15.76135806	     35.19445783	     26.98340259	    138.12036860	     -1.34323106
      1.05500000	      0.49947456	     -4.46293040	    224.93167238	    125.79962515	    151.82114439	    298.85249080	     20.48030330	     92.86530031	      2.37673881	    152.09586421	     14.75062658	    236.34917857	    123.81323379	     15.41649560	     32.88655125	     20.74937490	    125.21385558	     -1.61242011
      1.06550000	      3.64393819	     -4.67566767	    231.28039422	    122.59424987	    148.68346680	    325.56154447	     17.80526482	     99.62722235	      2.39944859	    149.03832768	     14.89435239	    233.13008691	    124.98004715	     14.96711022	     30.43684816	     15.42204415	    114.27546742	     -1.63944012
      1.07600000	      7.33026358	     -4.63597303	    237.20160270	    119.50651782	    143.44801301	    344.94509394	     17.03243676	    118.51269172	      2.88918728	    146.03562620	     15.12030157	    229.75274020	    126.22785631	     14.48012485	     27.68786755	     10.79348470	    104.35788194	     -1.55087541
      1.08650000	     11.00617695	     -4.48296039	    242.75536180	    116.52461575	    137.08554503	    358.83121804	      2.70204353	    105.80187248	      1.70577901	    143.08382587	     15.41627492	    226.27137929	    127.52633891	     13.98167228	     24.78532688	      6.08552967	     93.14609069	     -1.49430264
      1.09700000	     15.56925959	     -4.09405224	    247.98912838	    113.64846470	    128.57307411	    365.88926537	     -1.89559663	    105.36328513	      1.48132313	    140.36948123	     15.75481756	    222.86882639	    128.78544620	     13.47355610	     21.97493525	      2.54253434	     83.39967087	     -1.32038078
      1.10750000	     20.56174435	     -3.54905011	    252.79030151	    110.97505707	    118.82834723	    367.79072551	     -0.47125217	    116.75049215	      1.84274019	    137.78951522	     16.13819400	    219.49234186	    130.04016270	     12.96955702	     19.19233910	     -0.17386319	     74.59049229	     -1.10880461
      1.11800000	     25.22616571	     -2.96990443	    257.02217689	    108.63059917	    109.27551926	    366.98205476	     -5.24050578	    109.79084972	      1.18843741	    135.15685518	     16.56519388	    216.05447217	    131.33633181	     12.50740610	     16.41848085	     -2.44917603	     66.14374778	     -0.91076161
      1.12850000	     29.90473560	     -2.35193916	    260.81411906	    106.59602283	     99.93072195	    363.79995958	     -8.16038770	    100.41437700	      0.61468447	    132.45664270	     17.01856355	    212.59500825	    132.65341290	     12.11350161	     13.78907946	     -4.31251540	     58.21902286	     -0.72633022
      1.13900000	     34.96466663	     -1.70740146	    264.28226631	    104.85238656	     90.90139060	    358.63468563	     -7.39037491	     95.31257966	      0.42529680	    129.64525576	     17.47897724	    209.14139797	    133.97830557	     11.82084033	     11.42880465	     -5.50259507	     51.61532974	     -0.52401727
      1.14950000	     40.79977298	     -1.07157865	    267.43794989	    103.43273659	     82.57846318	    352.15862962	     -5.23936754	     90.98614289	      0.32346640	    126.75582226	     17.94185800	    205.69190877	    135.31197631	     11.61061779	      9.30713795	     -6.46047006	     45.76769249	     -0.34888487
      1.16000000	     48.33744624	     -0.46467010	    270.28825160	    102.35938061	     75.21341509	    344.84123927	     -3.16802807	     84.40532549	      0.14799045	    123.79368868	     18.39563214	    202.26458003	    136.64529696	     11.48870282	      7.46693406	     -7.46042084	     40.10149421	     -0.21481524
      1.17050000	     59.07979860	      0.12127988	    272.88358360	    101.60935601	     68.73841395	    336.70440268	     -0.35881838	     78.01795396	      0.04528295	    120.86977869	     18.83331621	    198.90932881	    137.95461788	     11.42583214	      5.89983583	     -8.03551040	     35.68309375	     -0.07245417
      1.18100000	     74.18235892	      0.69815052	    275.23929610	    101.16269221	     63.06731264	    327.68547185	      3.37509987	     73.21666239	      0.05439857	    118.09167756	     19.25017481	    195.67741448	    139.21678760	     11.39181602	      4.58661940	     -8.75813378	     31.43208674	      0.03156340
      1.19150000	     93.61975878	      1.28031334	    277.35504830	    100.99165752	     58.06134405	    317.64124470	      7.47809345	     69.41884632	      0.10898884	    115.42984740	     19.63538804	    192.58911678	    140.42332897	     11.40624014	      3.57086134	     -9.55874528	     27.28616292	      0.11170991
      1.20200000	    115.88719920	      1.87976734	    279.22779641	    101.05820269	     53.53489663	    306.41657590	     11.59580062	     66.26054956	      0.17748805	    112.83548747	     19.98097245	    189.64694930	    141.57333865	     11.48869165	      2.87122989	    -10.00886627	     24.01424467	      0.19793884
      1.21250000	    138.64480648	      2.50932933	    280.84106513	    101.32485930	     49.22986887	    293.76444064	     15.71860960	     64.07109895	      0.26767394	    110.44762909	     20.28795227	    186.91468549	    142.63879714	     11.59026809	      2.41774952	    -10.50687772	     20.88115513	      0.26543184
      1.22300000	    159.71326473	      3.17568716	    282.17315323	    101.75672222	     44.84447923	    279.44118187	     19.77388735	     63.03270256	      0.37813638	    108.42221437	     20.56185319	    184.46416319	    143.58961185	     11.64009203	      2.10102935	    -11.17378045	     17.61740742	      0.31612983
      1.23350000	    177.82336463	      3.87867222	    283.19987361	    102.32190479	     40.01567171	    263.19825509	     23.56252992	     62.99301405	      0.49461654	    106.57945729	     20.79285332	    182.27310770	    144.43682292	     11.70212274	      2.00828688	    -11.48768038	     15.02522444	      0.37565126
      1.24400000	    192.83335443	      4.61135427	    283.91135036	    102.98667643	     34.29984836	    244.77137847	     26.93389552	     63.81486640	      0.61043391	    104.72924807	     20.97027334	    180.31038864	    145.19419595	     11.85388904	      2.23611751	    -11.50699686	     12.92042798	      0.43452061
      1.25450000	    205.41125552	      5.35929739	    284.29743885	    103.72485841	     27.22952529	    223.88330118	     29.81852511	     65.50102924	      0.72694462	    102.94452484	     21.10619953	    178.58073388	    145.85987912	     12.04959481	      2.66202793	    -11.83761334	     10.30045070	      0.47693267
      1.26500000	    216.63971507	      6.10553743	    284.37282076	    104.50522264	     18.38055364	    200.21047911	     32.20070131	     68.03387373	      0.84545009	    101.32919408	     21.21909162	    177.08623962	    146.43325438	     12.21247281	      3.12091881	    -11.99751461	      8.09623555	      0.52661926
      1.27550000	    227.41800121	      6.82974408	    284.12128656	    105.32516902	      7.76486035	    173.55080793	     34.11050070	     71.38483613	      0.96638732	     99.55610839	     21.28103511	    175.80367770	    146.92415846	     12.51671273	      3.92333296	    -11.53814860	      6.80825734	      0.58363086
      1.28600000	    238.28178679	      7.51685670	    283.54394262	    106.17712364	     -3.89536532	    143.77082586	     35.60751735	     75.49977006	      1.08970738	     97.30819235	     21.25644045	    174.73094069	    147.33358705	     13.18513445	      5.42576863	    -10.75203288	      5.59677536	      0.63439482
      1.29650000	    249.39812032	      8.17343059	    282.73706285	    107.00049712	    -14.95535740	    111.04076989	     36.65993077	     80.30792610	      1.21391607	     94.71122765	     21.20220999	    173.67980164	    147.73777693	     14.02603046	      7.01712658	    -10.21132395	      4.06083730	      0.67999268
      1.30700000	    260.51073424	      8.91338721	    281.82876709	    107.73199881	    -23.35090459	     76.09707947	     35.76789262	     85.68613555	      1.33575649	     91.87736746	     21.19151391	    172.38946655	    148.24012814	     14.75384228	      7.97422917	    -10.03816077	      2.64960436	      0.72638357
      1.31750000	    270.58944481	     10.04998712	    280.74558758	    108.44231050	    -28.04530046	     40.64826597	     32.16470711	     91.63679762	      1.45750912	     88.10441159	     21.06183094	    171.23058996	    148.69001097	     16.14006012	     10.06133075	     -8.30410446	      2.86114453	      0.76831439
      1.32800000	    278.51188246	     11.91932817	    279.41435291	    109.18652806	    -30.01729227	      7.35380255	     26.70030061	     97.91256743	      1.56884802	     82.42627722	     20.56294016	    170.79984999	    148.85135058	     19.51032553	     15.72293537	     -5.10350499	      2.39987787	      0.80166629
      1.33850000	    284.49325044	     14.49409648	    278.16918277	    109.76834809	    -30.71123961	    -20.36937448	     19.61922959	    104.10375383	      1.65369920	     77.25750400	     20.24688502	    169.97438296	    149.17160861	     22.39300810	     18.81719584	     -3.82768303	      1.39730495	      0.83463735
      1.34900000	    289.22458788	     17.29677618	    277.43867290	    109.97452353	    -30.24455968	    -38.57060522	     11.77769195	    109.91166120	      1.70454374	     75.69960003	     20.84331136	    167.31187787	    150.21352993	     20.82965880	     12.31981407	     -6.36591621	      2.78090764	      0.84521911
      1.35950000	    292.01451984	     19.73533441	    277.04647472	    109.97854178	    -28.35188728	    -46.74003611	      4.51919569	    115.32936610	      1.73003120	     74.58428457	     21.59236289	    164.32848011	    151.36992154	     17.84185886	      4.91188783	     -9.90821215	      3.24266399	      0.85323581
      1.37000000	    291.95995363	     21.43497984	    276.62769124	    110.02253639	    -24.92686896	    -46.68131248	     -1.00373985	    119.98574546	      1.71627514	     70.24138988	     21.67123143	    162.52515391	    152.06172661	     18.02265427	      5.05765467	     -9.35040223	      3.54955961	      0.85794219
      1.38050000	    289.87731029	     22.35411237	    276.29883115	    110.02594946	    -20.37190282	    -40.37082047	     -4.32544340	    123.20472242	      1.63756413	     64.05427600	     21.42629787	    161.18341973	    152.57457451	     20.14678643	      8.54904766	     -5.68135034	      5.87067151	      0.83680602
      1.39100000	    286.68005472	     22.61086596	    276.30442686	    109.84984277	    -15.61927990	    -30.87308012	     -5.28047588	    124.80829624	      1.49999222	     57.40934636	     21.14862656	    159.85078265	    153.08392134	     22.77857229	     12.07164582	     -2.82250573	      7.06861878	      0.82408876
      1.40150000	    282.35929157	     22.36590983	    276.56529264	    109.56571772	    -11.08604953	    -19.94095179	     -3.73591301	    125.72666908	      1.36898302	     50.37294699	     20.82172991	    158.64060896	    153.54713697	     26.05596405	     15.77667342	      0.11821215	      8.34047388	      0.80916573
      1.41200000	    276.61740849	     21.74913291	    276.95507569	    109.25633608	     -6.91765992	     -8.39804243	      0.12610555	    126.96692029	      1.29304579	     43.06050060	     20.44452300	    157.59085270	    153.95076707	     30.07224108	     19.62186887	      4.01867257	     11.03464543	      0.77761434
      1.42250000	    269.87823705	     20.91897046	    277.41407848	    108.95600971	     -3.26187231	      3.09656926	      4.39128772	    126.07707347	      1.11821034	     35.79258055	     20.00694687	    156.91395646	    154.21592123	     34.93260931	     23.64070416	      8.05463532	     13.87972040	      0.74474123
      1.43300000	    262.64242188	     20.02021306	    277.83287118	    108.72302628	     -0.18065392	     13.66490917	      7.64275555	    121.22740683	      0.77963066	     29.02234072	     19.51168664	    156.82170319	    154.26417629	     40.62275191	     27.72142313	     12.30180868	     17.07082324	      0.70897387
      1.44350000	    254.42088869	     19.00387050	    278.27405077	    108.50554935	      2.69172455	     23.99794158	     12.62899542	    119.52950858	      0.71913479	     22.53150660	     18.93560629	    157.04927585	    154.19455937	     47.38933455	     32.01718984	     17.25457345	     21.24295830	      0.66447423
      1.45400000	    244.52621140	     17.77518265	    278.81621370	    108.25303275	      5.74505597	     34.90690971	     21.05386283	    126.90861473	      1.16066857	     15.98337630	     18.24780903	    157.25774121	    154.13310586	     55.53410635	     36.71527607	     22.87297259	     26.28852524	      0.61719721
      1.46450000	    234.89915642	     16.55696829	    279.38344347	    108.01420890	      8.45368121	     44.05318680	     24.40707546	    125.33732448	      0.95727217	      9.98396030	     17.44396329	    157.85484310	    153.92628306	     64.83714050	     41.71230742	     28.83556886	     32.00430083	      0.58066892
      1.47500000	    228.83270895	     15.70293503	    279.91780967	    107.81967510	      9.86774269	     48.54988674	     17.69545763	    101.10859082	     -0.37847306	      5.25923830	     16.51670902	    159.39410499	    153.36336682	     74.81116785	     46.98730059	     35.23673154	     38.86712001	      0.57425258
      1.48550000	    221.14915038	     14.80479958	    279.89600933	    107.98256276	     11.62930318	     53.00160230	     23.92805340	    108.44741361	      0.43851102	      1.39486692	     15.43214566	    161.45130999	    152.59752886	     85.36672752	     52.83222306	     42.17092112	     47.33267345	      0.64162048
      1.49600000	    205.22319548	     13.31491199	    278.64633050	    108.84470446	     15.79685710	     62.24666633	     39.56088013	    140.83104000	      2.24611410	     -2.09905278	     14.13950382	    163.65125497	    151.76662912	     96.59489138	     59.78226085	     49.86059382	     58.32719459	      0.86525804
      1.50650000	    189.72263746	     11.87304922	    276.79173181	    109.91833710	     19.60726705	     69.66539490	     25.62127580	    101.86568914	     -0.35546869	     -4.84681809	     12.64199007	    166.34077182	    150.73474446	    107.75699771	     67.61187655	     56.51987398	     70.65842468	      1.34315308
      1.51700000	    183.96933073	     11.06524658	    275.63379694	    110.42061673	     20.08321555	     70.37352482	     13.94780267	     68.34279742	     -1.55850693	     -6.45189560	     10.96994527	    169.86216854	    149.36124566	    117.74077979	     75.84254668	     62.82779263	     87.84154787	      2.16154318
      1.52750000	    180.97336404	     10.29908832	    275.02274740	    110.55890234	     19.74653554	     71.16343222	     35.51670764	    116.97001855	      1.62027288	     -7.18947091	      9.05767421	    174.34064688	    147.58193788	    126.44919310	     85.26163552	     69.41920985	    114.46286867	      3.44586020
      1.53800000	    173.33989682	      9.34355748	    273.26456616	    111.38761574	     20.74638188	     74.44211590	     36.30205185	    121.21429588	      1.47401941	     -7.62442241	      6.90532830	    179.25096008	    145.58980195	    133.84179813	     96.44317841	     77.06200449	    153.81780553	      5.20285316
      1.54850000	    164.23811392	      8.56829056	    270.01685324	    112.98019581	     21.86455112	     76.87711463	     12.32344858	     64.32307427	     -1.56079709	     -7.78814449	      4.61768843	    184.29052629	    143.50148713	    139.97721004	    110.69931074	     88.71163084	    202.14444465	      7.08358747
      1.55900000	    156.88681716	      7.93586968	    266.56906184	    114.49009889	     22.43635982	     79.19298435	     11.28468015	     58.02556376	     -1.00422874	     -7.27537620	      2.28187885	    190.03359025	    141.07208105	    145.03855814	    130.22452397	    108.96615419	    251.87224549	      8.81792631
      1.56950000	    151.13786397	      7.38908645	    263.25227441	    115.78164260	     22.61972697	     81.86024273	     21.53497352	     78.28762810	      0.45610123	     -6.33469153	      0.03855550	    196.29321548	    138.36228078	    148.95488704	    155.87149068	    135.23597565	    298.61587897	     10.53146375
      1.58000000	    147.27208809	      7.08531838	    259.72330363	    117.10398306	     22.18794048	     82.92622569	     16.32736437	     67.61153847	      0.02922061	     -5.07994203	     -1.82565824	    202.37485099	    135.66435814	    151.41204125	    186.07967689	    156.36474618	    332.34357281	     11.75107080
      1.59050000	    143.88208062	      6.98658405	    255.76240458	    118.59514685	     21.65561450	     82.51118237	      5.19470505	     42.55635908	     -0.78681167	     -3.22663015	     -3.14011982	    208.47759566	    132.89037633	    152.40102706	    218.58746860	    166.58746873	    351.23557703	     12.23400176
      1.60100000	    138.86184255	      6.97907570	    251.05541488	    120.42107424	     21.77828887	     81.59997634	      4.64259606	     37.92160358	     -0.42684937	     -1.11378703	     -3.99079871	    214.80218473	    129.93960240	    152.45700414	    251.76577565	    155.97210449	    340.78543128	     10.35114950
      1.61150000	    133.96235645	      7.09531188	    246.03012893	    122.31997703	     22.07397273	     79.57249227	      6.94897977	     40.01062666	      0.01705670	      1.65789945	     -4.36272783	    220.93333417	    126.99609699	    150.47988648	    281.06493021	    157.04458383	    344.71848771	     10.07288741
      1.62200000	    131.53872120	      7.40617949	    241.35087894	    123.96076541	     21.91184724	     75.44431392	      3.58956878	     31.78472033	     -0.04798332	      5.25423094	     -4.37147632	    226.81920756	    124.08424740	    146.16329611	    303.72494383	    152.50770446	    348.74723421	      9.78072740
      1.63250000	    129.68448166	      7.86419508	    236.65609729	    125.59496341	     21.97621116	     69.78423602	      0.92607076	     24.63493888	     -0.01925831	      9.02384650	     -4.23511435	    232.49463715	    121.18874709	    140.55699315	    320.87595030	    122.95358146	    306.40431793	      5.36562502
      1.64300000	    126.13393149	      8.38704125	    231.40361649	    127.51593016	     23.02217734	     63.66195827	      0.36786989	     21.64973818	      0.13182923	     13.06613217	     -3.93058568	    237.66858826	    118.46682445	    133.53831086	    332.01630196	    108.82279492	    292.09782207	      3.89502907
      1.65350000	    122.33588258	      8.98984819	    226.00617878	    129.48977934	     24.57302489	     56.98754381	      0.09581927	     19.70635983	      0.26629615	     17.37357650	     -3.48366569	    242.34652235	    115.93954157	    125.38957831	    337.83909988	    103.25821829	    291.62009298	      3.66161734
      1.66400000	    119.71898028	      9.68920741	    221.00088815	    131.26074202	     26.04270019	     49.70597679	     -0.30074979	     18.18583532	      0.36777452	     21.84098785	     -2.95149596	    246.64213662	    113.57615714	    116.60113733	    339.73631598	     85.91026383	    262.94361492	      1.15238476
      1.67450000	    117.43129670	     10.46050915	    216.21011782	    132.95031996	     27.51439572	     42.28190184	     -1.50080314	     15.69278291	      0.42522164	     26.37541050	     -2.35603285	    250.48111054	    111.45229332	    107.58409642	    338.51699242	     70.43014894	    235.11739318	     -1.01484401
      1.68500000	    114.72533095	     11.26039364	    211.47735482	    134.64527021	     29.15521681	     35.32628040	     -1.88363453	     14.84731850	      0.50127570	     30.78596312	     -1.73368562	    253.77733595	    109.65834921	     98.89203930	    335.04354505	     59.70210527	    216.58358700	     -2.25988583
      1.69550000	    112.07867191	     12.07989632	    206.96651724	    136.26697181	     30.73790156	     28.94048300	     -1.90348808	     14.93504701	      0.56809441	     35.25469214	     -1.09967973	    256.61484748	    108.18894219	     90.69285040	    329.78373106	     50.56612333	    200.28774852	     -3.22964781
      1.70600000	    109.93552616	     12.91259434	    202.85754676	    137.73584522	     32.01532901	     23.15681713	     -2.57571463	     14.18878676	      0.60636152	     40.28705161	     -0.45791145	    259.08262346	    107.02609323	     83.01554131	    322.96874762	     41.54356777	    182.45047276	     -4.22726230
      1.71650000	    108.01674487	     13.73284650	    199.09966989	    139.08300407	     33.03305463	     18.17134707	     -3.33514996	     13.38103462	      0.63723856	     46.85917518	      0.18937092	    261.21295444	    106.17208403	     75.91243153	    314.74612978	     34.26960881	    166.98154908	     -4.93437558
      1.72700000	    106.02827291	     14.51321374	    195.61384293	    140.34550513	     33.91127623	     14.12965519	     -3.60171547	     13.36484906	      0.66811186	     56.54738995	      0.84464293	    263.01713713	    105.62756525	     69.39860459	    305.15947541	     29.44894129	    155.05821033	     -5.26611751
      1.73750000	    104.13192682	     15.24547014	    192.44593323	    141.49990702	     34.59733820	     10.92346099	     -4.06451577	     13.02898904	      0.68953481	     71.05825264	      1.52048159	    264.53075266	    105.36340958	     63.33966713	    294.04195650	     26.76117426	    145.14343074	     -5.34690587
      1.74800000	    102.48453532	     15.92628047	    189.65817111	    142.51664165	     35.02290256	      8.43295733	     -4.56441938	     12.57881152	      0.70731535	     91.01792248	      2.23133063	    265.76804869	    105.35059359	     57.56799678	    281.12051891	     25.92096737	    136.41566845	     -5.23237639
      1.75850000	    100.97973436	     16.54283986	    187.24314549	    143.39811552	     35.27208459	      6.69083301	     -4.77255808	     12.49403154	      0.72277228	    115.16508699	      2.98507433	    266.72763192	    105.55949838	     51.91806051	    266.11494327	     26.74807754	    128.85315276	     -4.92079134
      1.76900000	     99.49683081	     17.09144460	    185.14784007	    144.16564726	     35.40643861	      5.59578738	     -5.23213227	     11.89605531	      0.73573769	    140.72746082	      3.78333119	    267.40221921	    105.95919899	     46.19625639	    248.72343091	     28.87991819	    122.18916474	     -4.44439199
      1.77950000	     97.97099003	     17.56604963	    183.36221341	    144.82109165	     35.48977425	      5.08636219	     -5.56714299	     11.32012187	      0.74858401	    164.72587066	      4.61932195	    267.79575679	    106.50986178	     40.13651848	    228.62387283	     31.77952390	    115.88290530	     -3.87077148
      1.79000000	     96.37778822	     17.96739649	    181.86911676	    145.36958833	     35.55873567	      5.05518221	     -5.67423501	     10.92847988	      0.76044680	    185.24983408	      5.47997737	    267.92109258	    107.17035591	     33.36477988	    205.44726279	     34.97736154	    109.82226020	     -3.24759685
      1.80050000	     94.65969606	     18.29797087	    180.62827761	    145.82620671	     35.65923692	      5.41090448	     -5.97365205	     10.07184214	      0.77448198	    201.85756715	      6.34039668	    267.77579535	    107.91397508	     25.47404789	    178.95937651	     37.95974734	    104.06336405	     -2.62078904
      1.81100000	     92.72924786	     18.55635580	    179.59829081	    146.20635380	     35.87155374	      6.12710150	     -6.18053704	      9.15308920	      0.79058829	    215.36495410	      7.17469693	    267.37314014	    108.71227507	     15.98772018	    149.06891108	     40.20887572	     98.84001952	     -2.02163762
      1.82150000	     90.52572008	     18.74237151	    178.74234392	    146.52356694	     36.27095911	      7.17710279	     -6.10569859	      8.45675566	      0.80619452	    227.05478678	      7.96752503	    266.72840381	    109.54241730	      4.62408102	    115.93349676	     41.19165533	     94.38355477	     -1.47496292
      1.83200000	     88.01779628	     18.86092975	    178.01658900	    146.79438097	     36.90635208	      8.49755876	     -6.21329739	      7.30110629	      0.82751190	    237.94930270	      8.77323741	    265.89955042	    110.36453997	     -8.06858958	     80.30706297	     38.89365870	     90.78922835	     -0.99629671
      1.84250000	     85.11689282	     18.91306092	    177.36244515	    147.04143084	     37.85974561	     10.07774433	     -6.27295576	      6.03162436	      0.85281144	    248.31468692	      9.85726867	    264.91105848	    111.16690766	    -19.97862527	     43.78961546	     33.03650964	     88.22279017	     -0.58415350
      1.85300000	     81.73079752	     18.89789632	    176.72901763	    147.28415430	     39.22734535	     11.92555419	     -6.07689338	      4.96481174	      0.87770085	    257.70542138	     11.64368127	    263.81497868	    111.92619939	    -28.26613333	      8.98638732	     23.97507142	     86.51886027	     -0.24312637
      1.86350000	     77.82129779	     18.81811077	    176.08409168	    147.53445758	     41.07248879	     14.01332000	     -5.79773691	      3.87667828	      0.90399322	    265.37636774	     14.27676986	    262.63967190	    112.63820652	    -32.05251091	    -20.75342032	     12.90273279	     85.67781237	      0.03966267
      1.87400000	     73.32110517	     18.67257613	    175.39840685	    147.80318131	     43.48195829	     16.35099433	     -5.38848493	      2.85225064	      0.92952935	    270.57358511	     17.31177957	    261.41599034	    113.29800008	    -32.60040909	    -41.25195221	      1.54957376	     85.45754283	      0.26590046
      1.88450000	     68.22983056	     18.46522258	    174.66138178	    148.09374468	     46.49625753	     18.89262145	     -4.71470721	      2.13904620	      0.94844388	    272.98822928	     20.07276558	    260.16817826	    113.90601957	    -31.04932946	    -51.08562668	     -8.22973274	     85.70677979	      0.44527913
      1.89500000	     62.54822202	     18.19979804	    173.86050506	    148.41048463	     50.14315667	     21.59833281	     -3.97013009	      1.50910896	      0.96294265	    272.59090885	     22.10327640	    258.89856912	    114.47378610	    -28.07449169	    -52.72917682	    -15.10073296	     86.30213123	      0.58574079
      1.90550000	     56.21998169	     17.87871425	    172.93966203	    148.77519598	     54.46342731	     24.43811321	     -2.98184416	      1.24721265	      0.96652579	    269.81756160	     23.31236117	    257.62835189	    115.00053915	    -23.77459589	    -47.90918928	    -18.68943372	     87.05370542	      0.69123392
      1.91600000	     49.14891386	     17.49976168	    171.82052023	    149.21818298	     59.51845733	     27.42634838	     -1.60628580	      1.55452933	      0.95482754	    265.09313637	     23.82684814	    256.34536126	    115.50319903	    -18.97127291	    -39.94759072	    -19.25586346	     88.00735361	      0.77475304
      1.92650000	     41.60694909	     17.08157732	    170.56852756	    149.71243566	     65.11680743	     30.36923520	     -0.27114581	      1.95821667	      0.93786385	    259.17042686	     23.85290049	    255.12600114	    115.94559305	    -14.40895793	    -31.23870609	    -17.53469933	     89.00502677	      0.83563691
      1.93700000	     33.89602079	     16.64353309	    169.22470450	    150.24111471	     70.98772399	     33.10254648	      0.89763459	      2.37943727	      0.91835665	    252.71457888	     23.57462392	    254.05508617	    116.29116752	    -10.39682473	    -22.90472235	    -14.18053293	     90.07952180	      0.88292427
      1.94750000	     26.38056922	     16.20793096	    167.83743052	    150.78489695	     76.78547502	     35.44652835	      2.66803035	      3.88688975	      0.87986749	    246.35149414	     23.13644476	    253.20138584	    116.51335476	     -6.89925892	    -14.74447132	     -9.87335642	     91.24797507	      0.92100712
      1.95800000	     19.42508637	     15.79836411	    166.42361689	    151.33713249	     82.13717415	     37.24743787	      3.93715620	      5.07228225	      0.85060491	    240.80918575	     22.64015485	    252.69877111	    116.55017507	     -3.99319135	     -6.94567300	     -5.27508736	     92.41226956	      0.94843444
      1.96850000	     14.63711675	     15.50597158	    165.85013974	    151.56273164	     85.77145157	     37.72584666	      4.50345157	      5.99836741	      0.82819544	    236.73880942	     22.14647676	    252.70375810	    116.32938253	     -1.74838069	      0.17042539	     -0.91322839	     93.43063261	      0.96104160
      1.97900000	     13.64724962	     15.43583210	    167.10519707	    151.08105042	     86.24824047	     36.12329905	      5.32012817	      8.07054505	      0.79315670	    234.72299233	     21.69948729	    253.35536146	    115.79095321	     -0.22090188	      6.23144332	      2.75521338	     94.03627352	      0.95057067
      1.98950000	     15.77380668	     15.62602373	    169.49820444	    150.15389261	     83.59946030	     32.39061499	      5.07183290	      9.56108186	      0.77059840	    234.42861013	     21.33977849	    254.42492402	    115.08183866	      0.67287586	     10.83841474	      5.34523495	     93.96599644	      0.91053277
