MomentArm_knee_angle_l
version=1
nRows=98
nColumns=19
inDegrees=no

This analysis gathers basic information about muscles during a simulation (e.g., forces, tendon lengths, moment arms, etc).
Units are S.I. units (second, meters, Newtons, ...)
If the header above contains a line with 'inDegrees', this indicates whether rotational values are in degrees (yes) or radians (no).

endheader
time	hamstrings_r	bifemsh_r	glut_max_r	iliopsoas_r	rect_fem_r	vasti_r	gastroc_r	soleus_r	dorsiflexors_r	hamstrings_l	bifemsh_l	glut_max_l	iliopsoas_l	rect_fem_l	vasti_l	gastroc_l	soleus_l	dorsiflexors_l
      0.97100000	      0.00000000	      0.00000000	      0.00000000	      0.00000000	      0.00000000	      0.00000000	      0.00000000	      0.00000000	      0.00000000	     -0.03764515	     -0.02812483	      0.00000000	      0.00000000	      0.04182693	      0.03679030	     -0.01980380	      0.00000000	     -0.00000000
      0.98150000	      0.00000000	      0.00000000	      0.00000000	      0.00000000	      0.00000000	      0.00000000	      0.00000000	      0.00000000	      0.00000000	     -0.03796449	     -0.02851781	      0.00000000	      0.00000000	      0.04190258	      0.03685507	     -0.01922252	      0.00000000	     -0.00000000
      0.99200000	      0.00000000	      0.00000000	      0.00000000	      0.00000000	      0.00000000	      0.00000000	      0.00000000	      0.00000000	      0.00000000	     -0.03832323	     -0.02896353	      0.00000000	      0.00000000	      0.04198789	      0.03692091	     -0.01855585	      0.00000000	     -0.00000000
      1.00250000	      0.00000000	      0.00000000	      0.00000000	      0.00000000	      0.00000000	      0.00000000	      0.00000000	      0.00000000	      0.00000000	     -0.03867482	     -0.02940550	      0.00000000	      0.00000000	      0.04206547	      0.03697276	     -0.01788182	     -0.00000000	     -0.00000000
      1.01300000	      0.00000000	      0.00000000	      0.00000000	      0.00000000	      0.00000000	      0.00000000	      0.00000000	      0.00000000	      0.00000000	     -0.03899846	     -0.02981649	      0.00000000	      0.00000000	      0.04212394	      0.03700366	     -0.01724577	     -0.00000000	     -0.00000000
      1.02350000	      0.00000000	      0.00000000	      0.00000000	      0.00000000	      0.00000000	      0.00000000	      0.00000000	      0.00000000	      0.00000000	     -0.03928776	     -0.03018682	      0.00000000	      0.00000000	      0.04215896	      0.03701282	     -0.01666796	      0.00000000	      0.00000000
      1.03400000	      0.00000000	      0.00000000	      0.00000000	      0.00000000	      0.00000000	      0.00000000	      0.00000000	      0.00000000	      0.00000000	     -0.03953618	     -0.03050651	      0.00000000	      0.00000000	      0.04217064	      0.03700328	     -0.01616643	     -0.00000000	      0.00000000
      1.04450000	      0.00000000	      0.00000000	      0.00000000	      0.00000000	      0.00000000	      0.00000000	      0.00000000	      0.00000000	      0.00000000	     -0.03973404	     -0.03076085	      0.00000000	      0.00000000	      0.04216296	      0.03698222	     -0.01576639	      0.00000000	      0.00000000
      1.05500000	      0.00000000	      0.00000000	      0.00000000	      0.00000000	      0.00000000	      0.00000000	      0.00000000	      0.00000000	      0.00000000	     -0.03988054	     -0.03094722	      0.00000000	      0.00000000	      0.04214338	      0.03695832	     -0.01547659	      0.00000000	     -0.00000000
      1.06550000	      0.00000000	      0.00000000	      0.00000000	      0.00000000	      0.00000000	      0.00000000	      0.00000000	      0.00000000	      0.00000000	     -0.03997833	     -0.03106800	      0.00000000	      0.00000000	      0.04211882	      0.03693869	     -0.01529587	      0.00000000	      0.00000000
      1.07600000	      0.00000000	      0.00000000	      0.00000000	      0.00000000	      0.00000000	      0.00000000	      0.00000000	      0.00000000	      0.00000000	     -0.04002825	     -0.03112341	      0.00000000	      0.00000000	      0.04209395	      0.03692854	     -0.01522397	     -0.00000000	      0.00000000
      1.08650000	      0.00000000	      0.00000000	      0.00000000	      0.00000000	      0.00000000	      0.00000000	      0.00000000	      0.00000000	      0.00000000	     -0.04002974	     -0.03111212	      0.00000000	      0.00000000	      0.04207079	      0.03693067	     -0.01526401	     -0.00000000	      0.00000000
      1.09700000	      0.00000000	      0.00000000	      0.00000000	      0.00000000	      0.00000000	      0.00000000	      0.00000000	      0.00000000	      0.00000000	     -0.03998605	     -0.03103883	      0.00000000	      0.00000000	      0.04204824	      0.03694374	     -0.01540762	     -0.00000000	      0.00000000
      1.10750000	      0.00000000	      0.00000000	      0.00000000	      0.00000000	      0.00000000	      0.00000000	      0.00000000	      0.00000000	      0.00000000	     -0.03990029	     -0.03090852	      0.00000000	      0.00000000	      0.04202282	      0.03696391	     -0.01564468	     -0.00000000	      0.00000000
      1.11800000	      0.00000000	      0.00000000	      0.00000000	      0.00000000	      0.00000000	      0.00000000	      0.00000000	      0.00000000	      0.00000000	     -0.03977388	     -0.03072413	      0.00000000	      0.00000000	      0.04198928	      0.03698606	     -0.01596859	     -0.00000000	      0.00000000
      1.12850000	      0.00000000	      0.00000000	      0.00000000	      0.00000000	      0.00000000	      0.00000000	      0.00000000	      0.00000000	      0.00000000	     -0.03960817	     -0.03048875	      0.00000000	      0.00000000	      0.04194153	      0.03700428	     -0.01637217	     -0.00000000	     -0.00000000
      1.13900000	      0.00000000	      0.00000000	      0.00000000	      0.00000000	      0.00000000	      0.00000000	      0.00000000	      0.00000000	      0.00000000	     -0.03940645	     -0.03020838	      0.00000000	      0.00000000	      0.04187404	      0.03701272	     -0.01684318	      0.00000000	      0.00000000
      1.14950000	      0.00000000	      0.00000000	      0.00000000	      0.00000000	      0.00000000	      0.00000000	      0.00000000	      0.00000000	      0.00000000	     -0.03917193	     -0.02988887	      0.00000000	      0.00000000	      0.04178283	      0.03700698	     -0.01736939	      0.00000000	      0.00000000
      1.16000000	      0.00000000	      0.00000000	      0.00000000	      0.00000000	      0.00000000	      0.00000000	      0.00000000	      0.00000000	      0.00000000	     -0.03890742	     -0.02953545	      0.00000000	      0.00000000	      0.04166585	      0.03698459	     -0.01794076	      0.00000000	      0.00000000
      1.17050000	      0.00000000	      0.00000000	      0.00000000	      0.00000000	      0.00000000	      0.00000000	      0.00000000	      0.00000000	      0.00000000	     -0.03861630	     -0.02915396	      0.00000000	      0.00000000	      0.04152351	      0.03694523	     -0.01854599	      0.00000000	      0.00000000
      1.18100000	      0.00000000	      0.00000000	      0.00000000	      0.00000000	      0.00000000	      0.00000000	      0.00000000	      0.00000000	      0.00000000	     -0.03830132	     -0.02874916	      0.00000000	      0.00000000	      0.04135835	      0.03689058	     -0.01917592	     -0.00000000	      0.00000000
      1.19150000	      0.00000000	      0.00000000	      0.00000000	      0.00000000	      0.00000000	      0.00000000	      0.00000000	      0.00000000	      0.00000000	     -0.03796605	     -0.02832658	      0.00000000	      0.00000000	      0.04117508	      0.03682408	     -0.01982144	      0.00000000	      0.00000000
      1.20200000	      0.00000000	      0.00000000	      0.00000000	      0.00000000	      0.00000000	      0.00000000	      0.00000000	      0.00000000	      0.00000000	     -0.03761500	     -0.02789265	      0.00000000	      0.00000000	      0.04098022	      0.03675067	     -0.02047195	     -0.00000000	      0.00000000
      1.21250000	      0.00000000	      0.00000000	      0.00000000	      0.00000000	      0.00000000	      0.00000000	      0.00000000	      0.00000000	      0.00000000	     -0.03725309	     -0.02745389	      0.00000000	      0.00000000	      0.04079790	      0.03669589	     -0.02111747	     -0.00000000	      0.00000000
      1.22300000	      0.00000000	      0.00000000	      0.00000000	      0.00000000	      0.00000000	      0.00000000	      0.00000000	      0.00000000	      0.00000000	     -0.03688388	     -0.02701470	      0.00000000	      0.00000000	      0.04068400	      0.03672558	     -0.02175219	     -0.00000000	     -0.00000000
      1.23350000	      0.00000000	      0.00000000	      0.00000000	      0.00000000	      0.00000000	      0.00000000	      0.00000000	      0.00000000	      0.00000000	     -0.03651145	     -0.02657980	      0.00000000	      0.00000000	      0.04063483	      0.03683616	     -0.02236997	      0.00000000	      0.00000000
      1.24400000	      0.00000000	      0.00000000	      0.00000000	      0.00000000	      0.00000000	      0.00000000	      0.00000000	      0.00000000	      0.00000000	     -0.03614266	     -0.02615697	      0.00000000	      0.00000000	      0.04063932	      0.03701443	     -0.02296042	     -0.00000000	      0.00000000
      1.25450000	      0.00000000	      0.00000000	      0.00000000	      0.00000000	      0.00000000	      0.00000000	      0.00000000	      0.00000000	      0.00000000	     -0.03578449	     -0.02575377	      0.00000000	      0.00000000	      0.04068413	      0.03724378	     -0.02351510	      0.00000000	      0.00000000
      1.26500000	      0.00000000	      0.00000000	      0.00000000	      0.00000000	      0.00000000	      0.00000000	      0.00000000	      0.00000000	      0.00000000	     -0.03543991	     -0.02537267	      0.00000000	      0.00000000	      0.04075721	      0.03750924	     -0.02403283	      0.00000000	      0.00000000
      1.27550000	      0.00000000	      0.00000000	      0.00000000	      0.00000000	      0.00000000	      0.00000000	      0.00000000	      0.00000000	      0.00000000	     -0.03511278	     -0.02501712	      0.00000000	      0.00000000	      0.04084743	      0.03779597	     -0.02450998	     -0.00000000	      0.00000000
      1.28600000	      0.00000000	      0.00000000	      0.00000000	      0.00000000	      0.00000000	      0.00000000	      0.00000000	      0.00000000	      0.00000000	     -0.03481692	     -0.02470206	      0.00000000	      0.00000000	      0.04093867	      0.03807902	     -0.02492912	     -0.00000000	      0.00000000
      1.29650000	      0.00000000	      0.00000000	      0.00000000	      0.00000000	      0.00000000	      0.00000000	      0.00000000	      0.00000000	      0.00000000	     -0.03456384	     -0.02443949	      0.00000000	      0.00000000	      0.04101594	      0.03833414	     -0.02527790	      0.00000000	      0.00000000
      1.30700000	      0.00000000	      0.00000000	      0.00000000	      0.00000000	      0.00000000	      0.00000000	      0.00000000	      0.00000000	      0.00000000	     -0.03434447	     -0.02421814	      0.00000000	      0.00000000	      0.04107845	      0.03856191	     -0.02557316	      0.00000000	      0.00000000
      1.31750000	      0.00000000	      0.00000000	      0.00000000	      0.00000000	      0.00000000	      0.00000000	      0.00000000	      0.00000000	      0.00000000	     -0.03415787	     -0.02403642	      0.00000000	      0.00000000	      0.04112271	      0.03875705	     -0.02581734	     -0.00000000	      0.00000000
      1.32800000	      0.00000000	      0.00000000	      0.00000000	      0.00000000	      0.00000000	      0.00000000	      0.00000000	      0.00000000	      0.00000000	     -0.03406674	     -0.02396438	      0.00000000	      0.00000000	      0.04110390	      0.03883637	     -0.02592540	     -0.00000000	      0.00000000
      1.33850000	      0.00000000	      0.00000000	      0.00000000	      0.00000000	      0.00000000	      0.00000000	      0.00000000	      0.00000000	      0.00000000	     -0.03410353	     -0.02403760	      0.00000000	      0.00000000	      0.04099923	      0.03875576	     -0.02585742	     -0.00000000	      0.00000000
      1.34900000	      0.00000000	      0.00000000	      0.00000000	      0.00000000	      0.00000000	      0.00000000	      0.00000000	      0.00000000	      0.00000000	     -0.03409637	     -0.02406239	      0.00000000	      0.00000000	      0.04092390	      0.03872873	     -0.02584798	     -0.00000000	      0.00000000
      1.35950000	      0.00000000	      0.00000000	      0.00000000	      0.00000000	      0.00000000	      0.00000000	      0.00000000	      0.00000000	      0.00000000	     -0.03389041	     -0.02386533	      0.00000000	      0.00000000	      0.04097995	      0.03894717	     -0.02610644	      0.00000000	      0.00000000
      1.37000000	      0.00000000	      0.00000000	      0.00000000	      0.00000000	      0.00000000	      0.00000000	      0.00000000	      0.00000000	      0.00000000	     -0.03359868	     -0.02357557	      0.00000000	      0.00000000	      0.04109606	      0.03928244	     -0.02647366	      0.00000000	      0.00000000
      1.38050000	      0.00000000	      0.00000000	      0.00000000	      0.00000000	      0.00000000	      0.00000000	      0.00000000	      0.00000000	      0.00000000	     -0.03336717	     -0.02335665	      0.00000000	      0.00000000	      0.04117095	      0.03954612	     -0.02674982	      0.00000000	      0.00000000
      1.39100000	      0.00000000	      0.00000000	      0.00000000	      0.00000000	      0.00000000	      0.00000000	      0.00000000	      0.00000000	      0.00000000	     -0.03322385	     -0.02323852	      0.00000000	      0.00000000	      0.04118164	      0.03969187	     -0.02690140	     -0.00000000	     -0.00000000
      1.40150000	      0.00000000	      0.00000000	      0.00000000	      0.00000000	      0.00000000	      0.00000000	      0.00000000	      0.00000000	      0.00000000	     -0.03316992	     -0.02322145	      0.00000000	      0.00000000	      0.04112641	      0.03971312	     -0.02693181	     -0.00000000	      0.00000000
      1.41200000	      0.00000000	      0.00000000	      0.00000000	      0.00000000	      0.00000000	      0.00000000	      0.00000000	      0.00000000	      0.00000000	     -0.03320701	     -0.02330652	      0.00000000	      0.00000000	      0.04100499	      0.03960768	     -0.02683801	      0.00000000	      0.00000000
      1.42250000	      0.00000000	      0.00000000	      0.00000000	      0.00000000	      0.00000000	      0.00000000	      0.00000000	      0.00000000	      0.00000000	     -0.03333780	     -0.02349620	      0.00000000	      0.00000000	      0.04081834	      0.03937705	     -0.02661458	      0.00000000	      0.00000000
      1.43300000	      0.00000000	      0.00000000	      0.00000000	      0.00000000	      0.00000000	      0.00000000	      0.00000000	      0.00000000	      0.00000000	     -0.03356294	     -0.02379053	      0.00000000	      0.00000000	      0.04057313	      0.03903215	     -0.02625807	     -0.00000000	     -0.00000000
      1.44350000	      0.00000000	      0.00000000	      0.00000000	      0.00000000	      0.00000000	      0.00000000	      0.00000000	      0.00000000	      0.00000000	     -0.03388268	     -0.02418979	      0.00000000	      0.00000000	      0.04028147	      0.03859188	     -0.02576230	      0.00000000	      0.00000000
      1.45400000	      0.00000000	      0.00000000	      0.00000000	      0.00000000	      0.00000000	      0.00000000	      0.00000000	      0.00000000	      0.00000000	     -0.03429989	     -0.02469911	      0.00000000	      0.00000000	      0.03996133	      0.03808179	     -0.02511245	     -0.00000000	      0.00000000
      1.46450000	      0.00000000	      0.00000000	      0.00000000	      0.00000000	      0.00000000	      0.00000000	      0.00000000	      0.00000000	      0.00000000	     -0.03481648	     -0.02532363	      0.00000000	      0.00000000	      0.03964939	      0.03754662	     -0.02429209	      0.00000000	      0.00000000
      1.47500000	      0.00000000	      0.00000000	      0.00000000	      0.00000000	      0.00000000	      0.00000000	      0.00000000	      0.00000000	      0.00000000	     -0.03542978	     -0.02606257	      0.00000000	      0.00000000	      0.03941599	      0.03706313	     -0.02328923	      0.00000000	      0.00000000
      1.48550000	      0.00000000	      0.00000000	      0.00000000	      0.00000000	      0.00000000	      0.00000000	      0.00000000	      0.00000000	      0.00000000	     -0.03613583	     -0.02691500	      0.00000000	      0.00000000	      0.03937226	      0.03674406	     -0.02208938	      0.00000000	      0.00000000
      1.49600000	      0.00000000	      0.00000000	      0.00000000	      0.00000000	      0.00000000	      0.00000000	      0.00000000	      0.00000000	      0.00000000	     -0.03692991	     -0.02788292	      0.00000000	      0.00000000	      0.03968246	      0.03674899	     -0.02067046	     -0.00000000	      0.00000000
      1.50650000	      0.00000000	      0.00000000	      0.00000000	      0.00000000	      0.00000000	      0.00000000	      0.00000000	      0.00000000	      0.00000000	     -0.03780391	     -0.02896661	      0.00000000	      0.00000000	      0.04020007	      0.03692132	     -0.01901044	     -0.00000000	     -0.00000000
      1.51700000	      0.00000000	      0.00000000	      0.00000000	      0.00000000	      0.00000000	      0.00000000	      0.00000000	      0.00000000	      0.00000000	     -0.03873524	     -0.03014985	      0.00000000	      0.00000000	      0.04065348	      0.03701282	     -0.01711090	      0.00000000	     -0.00000000
      1.52750000	      0.00000000	      0.00000000	      0.00000000	      0.00000000	      0.00000000	      0.00000000	      0.00000000	      0.00000000	      0.00000000	     -0.03969965	     -0.03141568	      0.00000000	      0.00000000	      0.04084495	      0.03686237	     -0.01497138	      0.00000000	      0.00000000
      1.53800000	      0.00000000	      0.00000000	      0.00000000	      0.00000000	      0.00000000	      0.00000000	      0.00000000	      0.00000000	      0.00000000	     -0.04067560	     -0.03275432	      0.00000000	      0.00000000	      0.04050429	      0.03623654	     -0.01258187	     -0.00000000	      0.00000000
      1.54850000	      0.00000000	      0.00000000	      0.00000000	      0.00000000	      0.00000000	      0.00000000	      0.00000000	      0.00000000	      0.00000000	     -0.04162796	     -0.03414181	      0.00000000	      0.00000000	      0.03981706	      0.03538428	     -0.00995715	      0.00000000	      0.00000000
      1.55900000	      0.00000000	      0.00000000	      0.00000000	      0.00000000	      0.00000000	      0.00000000	      0.00000000	      0.00000000	      0.00000000	     -0.04251790	     -0.03554796	      0.00000000	      0.00000000	      0.03885867	      0.03441720	     -0.00713068	      0.00000000	     -0.00000000
      1.56950000	      0.00000000	      0.00000000	      0.00000000	      0.00000000	      0.00000000	      0.00000000	      0.00000000	      0.00000000	      0.00000000	     -0.04331106	     -0.03694804	      0.00000000	      0.00000000	      0.03741125	      0.03311789	     -0.00412442	     -0.00000000	     -0.00000000
      1.58000000	      0.00000000	      0.00000000	      0.00000000	      0.00000000	      0.00000000	      0.00000000	      0.00000000	      0.00000000	      0.00000000	     -0.04397006	     -0.03831104	      0.00000000	      0.00000000	      0.03568765	      0.03162148	     -0.00098114	      0.00000000	      0.00000000
      1.59050000	      0.00000000	      0.00000000	      0.00000000	      0.00000000	      0.00000000	      0.00000000	      0.00000000	      0.00000000	      0.00000000	     -0.04445806	     -0.03959433	      0.00000000	      0.00000000	      0.03398386	      0.03017098	      0.00221874	     -0.00000000	      0.00000000
      1.60100000	      0.00000000	      0.00000000	      0.00000000	      0.00000000	      0.00000000	      0.00000000	      0.00000000	      0.00000000	      0.00000000	     -0.04475507	     -0.04077530	      0.00000000	      0.00000000	      0.03231564	      0.02878083	      0.00542486	     -0.00000000	     -0.00000000
      1.61150000	      0.00000000	      0.00000000	      0.00000000	      0.00000000	      0.00000000	      0.00000000	      0.00000000	      0.00000000	      0.00000000	     -0.04484807	     -0.04183440	      0.00000000	      0.00000000	      0.03061767	      0.02738413	      0.00713862	     -0.00000000	     -0.00000000
      1.62200000	      0.00000000	      0.00000000	      0.00000000	      0.00000000	      0.00000000	      0.00000000	      0.00000000	      0.00000000	      0.00000000	     -0.04473658	     -0.04273670	      0.00000000	      0.00000000	      0.02892780	      0.02600507	      0.00906656	     -0.00000000	      0.00000000
      1.63250000	      0.00000000	      0.00000000	      0.00000000	      0.00000000	      0.00000000	      0.00000000	      0.00000000	      0.00000000	      0.00000000	     -0.04443958	     -0.04347482	      0.00000000	      0.00000000	      0.02727853	      0.02466585	      0.01086155	      0.00000000	      0.00000000
      1.64300000	      0.00000000	      0.00000000	      0.00000000	      0.00000000	      0.00000000	      0.00000000	      0.00000000	      0.00000000	      0.00000000	     -0.04398663	     -0.04405183	      0.00000000	      0.00000000	      0.02569772	      0.02338546	      0.01250265	     -0.00000000	     -0.00000000
      1.65350000	      0.00000000	      0.00000000	      0.00000000	      0.00000000	      0.00000000	      0.00000000	      0.00000000	      0.00000000	      0.00000000	     -0.04342282	     -0.04447341	      0.00000000	      0.00000000	      0.02423131	      0.02219711	      0.01396380	     -0.00000000	     -0.00000000
      1.66400000	      0.00000000	      0.00000000	      0.00000000	      0.00000000	      0.00000000	      0.00000000	      0.00000000	      0.00000000	      0.00000000	     -0.04279939	     -0.04475818	      0.00000000	      0.00000000	      0.02291637	      0.02112798	      0.01522759	     -0.00000000	      0.00000000
      1.67450000	      0.00000000	      0.00000000	      0.00000000	      0.00000000	      0.00000000	      0.00000000	      0.00000000	      0.00000000	      0.00000000	     -0.04217133	     -0.04493091	      0.00000000	      0.00000000	      0.02178825	      0.02020432	      0.01628284	      0.00000000	     -0.00000000
      1.68500000	      0.00000000	      0.00000000	      0.00000000	      0.00000000	      0.00000000	      0.00000000	      0.00000000	      0.00000000	      0.00000000	     -0.04159106	     -0.04502032	      0.00000000	      0.00000000	      0.02086192	      0.01943474	      0.01712844	     -0.00000000	     -0.00000000
      1.69550000	      0.00000000	      0.00000000	      0.00000000	      0.00000000	      0.00000000	      0.00000000	      0.00000000	      0.00000000	      0.00000000	     -0.04110505	     -0.04505519	      0.00000000	      0.00000000	      0.02015305	      0.01883035	      0.01776640	      0.00000000	     -0.00000000
      1.70600000	      0.00000000	      0.00000000	      0.00000000	      0.00000000	      0.00000000	      0.00000000	      0.00000000	      0.00000000	      0.00000000	     -0.04075148	     -0.04506113	      0.00000000	      0.00000000	      0.01967825	      0.01840430	      0.01819845	      0.00000000	     -0.00000000
      1.71650000	      0.00000000	      0.00000000	      0.00000000	      0.00000000	      0.00000000	      0.00000000	      0.00000000	      0.00000000	      0.00000000	     -0.04055891	     -0.04505789	      0.00000000	      0.00000000	      0.01945333	      0.01816980	      0.01842480	     -0.00000000	     -0.00000000
      1.72700000	      0.00000000	      0.00000000	      0.00000000	      0.00000000	      0.00000000	      0.00000000	      0.00000000	      0.00000000	      0.00000000	     -0.04054188	     -0.04505700	      0.00000000	      0.00000000	      0.01948648	      0.01813432	      0.01844675	      0.00000000	      0.00000000
      1.73750000	      0.00000000	      0.00000000	      0.00000000	      0.00000000	      0.00000000	      0.00000000	      0.00000000	      0.00000000	      0.00000000	     -0.04070226	     -0.04506027	      0.00000000	      0.00000000	      0.01978031	      0.01830073	      0.01826287	      0.00000000	      0.00000000
      1.74800000	      0.00000000	      0.00000000	      0.00000000	      0.00000000	      0.00000000	      0.00000000	      0.00000000	      0.00000000	      0.00000000	     -0.04102914	     -0.04505929	      0.00000000	      0.00000000	      0.02033151	      0.01866684	      0.01786879	      0.00000000	      0.00000000
      1.75850000	      0.00000000	      0.00000000	      0.00000000	      0.00000000	      0.00000000	      0.00000000	      0.00000000	      0.00000000	      0.00000000	     -0.04150004	     -0.04503579	      0.00000000	      0.00000000	      0.02113304	      0.01922747	      0.01725651	     -0.00000000	     -0.00000000
      1.76900000	      0.00000000	      0.00000000	      0.00000000	      0.00000000	      0.00000000	      0.00000000	      0.00000000	      0.00000000	      0.00000000	     -0.04207988	     -0.04496291	      0.00000000	      0.00000000	      0.02217317	      0.01997420	      0.01641760	     -0.00000000	      0.00000000
      1.77950000	      0.00000000	      0.00000000	      0.00000000	      0.00000000	      0.00000000	      0.00000000	      0.00000000	      0.00000000	      0.00000000	     -0.04272367	     -0.04480723	      0.00000000	      0.00000000	      0.02344063	      0.02090035	      0.01534268	     -0.00000000	      0.00000000
      1.79000000	      0.00000000	      0.00000000	      0.00000000	      0.00000000	      0.00000000	      0.00000000	      0.00000000	      0.00000000	      0.00000000	     -0.04337739	     -0.04453183	      0.00000000	      0.00000000	      0.02492576	      0.02200272	      0.01402504	      0.00000000	     -0.00000000
      1.80050000	      0.00000000	      0.00000000	      0.00000000	      0.00000000	      0.00000000	      0.00000000	      0.00000000	      0.00000000	      0.00000000	     -0.04398174	     -0.04409931	      0.00000000	      0.00000000	      0.02660132	      0.02326571	      0.01246129	     -0.00000000	      0.00000000
      1.81100000	      0.00000000	      0.00000000	      0.00000000	      0.00000000	      0.00000000	      0.00000000	      0.00000000	      0.00000000	      0.00000000	     -0.04447444	     -0.04347667	      0.00000000	      0.00000000	      0.02842452	      0.02466215	      0.01065777	      0.00000000	      0.00000000
      1.82150000	      0.00000000	      0.00000000	      0.00000000	      0.00000000	      0.00000000	      0.00000000	      0.00000000	      0.00000000	      0.00000000	     -0.04479654	     -0.04263835	      0.00000000	      0.00000000	      0.03035322	      0.02616675	      0.00862983	      0.00000000	     -0.00000000
      1.83200000	      0.00000000	      0.00000000	      0.00000000	      0.00000000	      0.00000000	      0.00000000	      0.00000000	      0.00000000	      0.00000000	     -0.04489708	     -0.04157155	      0.00000000	      0.00000000	      0.03233825	      0.02774926	      0.00744401	      0.00000000	      0.00000000
      1.84250000	      0.00000000	      0.00000000	      0.00000000	      0.00000000	      0.00000000	      0.00000000	      0.00000000	      0.00000000	      0.00000000	     -0.04473969	     -0.04027784	      0.00000000	      0.00000000	      0.03433002	      0.02937871	      0.00373704	      0.00000000	     -0.00000000
      1.85300000	      0.00000000	      0.00000000	      0.00000000	      0.00000000	      0.00000000	      0.00000000	      0.00000000	      0.00000000	      0.00000000	     -0.04430766	     -0.03877675	      0.00000000	      0.00000000	      0.03635670	      0.03110012	     -0.00009681	      0.00000000	      0.00000000
      1.86350000	      0.00000000	      0.00000000	      0.00000000	      0.00000000	      0.00000000	      0.00000000	      0.00000000	      0.00000000	      0.00000000	     -0.04360744	     -0.03710447	      0.00000000	      0.00000000	      0.03844028	      0.03294827	     -0.00394756	      0.00000000	      0.00000000
      1.87400000	      0.00000000	      0.00000000	      0.00000000	      0.00000000	      0.00000000	      0.00000000	      0.00000000	      0.00000000	      0.00000000	     -0.04266941	     -0.03531250	      0.00000000	      0.00000000	      0.04021512	      0.03459561	     -0.00769929	      0.00000000	     -0.00000000
      1.88450000	      0.00000000	      0.00000000	      0.00000000	      0.00000000	      0.00000000	      0.00000000	      0.00000000	      0.00000000	      0.00000000	     -0.04154551	     -0.03346385	      0.00000000	      0.00000000	      0.04137158	      0.03580141	     -0.01124171	      0.00000000	      0.00000000
      1.89500000	      0.00000000	      0.00000000	      0.00000000	      0.00000000	      0.00000000	      0.00000000	      0.00000000	      0.00000000	      0.00000000	     -0.04030314	     -0.03162666	      0.00000000	      0.00000000	      0.04216443	      0.03680045	     -0.01448254	     -0.00000000	     -0.00000000
      1.90550000	      0.00000000	      0.00000000	      0.00000000	      0.00000000	      0.00000000	      0.00000000	      0.00000000	      0.00000000	      0.00000000	     -0.03901880	     -0.02987008	      0.00000000	      0.00000000	      0.04215932	      0.03700618	     -0.01735175	     -0.00000000	      0.00000000
      1.91600000	      0.00000000	      0.00000000	      0.00000000	      0.00000000	      0.00000000	      0.00000000	      0.00000000	      0.00000000	      0.00000000	     -0.03776689	     -0.02825444	      0.00000000	      0.00000000	      0.04182859	      0.03681211	     -0.01981111	     -0.00000000	      0.00000000
      1.92650000	      0.00000000	      0.00000000	      0.00000000	      0.00000000	      0.00000000	      0.00000000	      0.00000000	      0.00000000	      0.00000000	     -0.03661511	     -0.02683076	      0.00000000	      0.00000000	      0.04169855	      0.03676291	     -0.02184574	      0.00000000	     -0.00000000
      1.93700000	      0.00000000	      0.00000000	      0.00000000	      0.00000000	      0.00000000	      0.00000000	      0.00000000	      0.00000000	      0.00000000	     -0.03561301	     -0.02563063	      0.00000000	      0.00000000	      0.04206705	      0.03732458	     -0.02346963	     -0.00000000	     -0.00000000
      1.94750000	      0.00000000	      0.00000000	      0.00000000	      0.00000000	      0.00000000	      0.00000000	      0.00000000	      0.00000000	      0.00000000	     -0.03479438	     -0.02467195	      0.00000000	      0.00000000	      0.04257673	      0.03810741	     -0.02470914	     -0.00000000	     -0.00000000
      1.95800000	      0.00000000	      0.00000000	      0.00000000	      0.00000000	      0.00000000	      0.00000000	      0.00000000	      0.00000000	      0.00000000	     -0.03416873	     -0.02395018	      0.00000000	      0.00000000	      0.04303242	      0.03885213	     -0.02560933	     -0.00000000	      0.00000000
      1.96850000	      0.00000000	      0.00000000	      0.00000000	      0.00000000	      0.00000000	      0.00000000	      0.00000000	      0.00000000	      0.00000000	     -0.03373111	     -0.02344985	      0.00000000	      0.00000000	      0.04336498	      0.03943282	     -0.02621678	     -0.00000000	     -0.00000000
      1.97900000	      0.00000000	      0.00000000	      0.00000000	      0.00000000	      0.00000000	      0.00000000	      0.00000000	      0.00000000	      0.00000000	     -0.03345896	     -0.02314023	      0.00000000	      0.00000000	      0.04357217	      0.03981491	     -0.02658572	     -0.00000000	     -0.00000000
      1.98950000	      0.00000000	      0.00000000	      0.00000000	      0.00000000	      0.00000000	      0.00000000	      0.00000000	      0.00000000	      0.00000000	     -0.03332124	     -0.02298413	      0.00000000	      0.00000000	      0.04367640	      0.04001349	     -0.02676946	     -0.00000000	      0.00000000
