PennationAngularVelocity
version=1
nRows=98
nColumns=19
inDegrees=no

This analysis gathers basic information about muscles during a simulation (e.g., forces, tendon lengths, moment arms, etc).
Units are S.I. units (second, meters, Newtons, ...)
If the header above contains a line with 'inDegrees', this indicates whether rotational values are in degrees (yes) or radians (no).

endheader
time	hamstrings_r	bifemsh_r	glut_max_r	iliopsoas_r	rect_fem_r	vasti_r	gastroc_r	soleus_r	dorsiflexors_r	hamstrings_l	bifemsh_l	glut_max_l	iliopsoas_l	rect_fem_l	vasti_l	gastroc_l	soleus_l	dorsiflexors_l
      0.97100000	      0.66025296	      0.51722913	     -0.02395913	      0.00701420	     -0.49872711	     -0.81146939	      1.29302139	      1.48158104	     -1.32437095	      0.13336409	      0.18222197	      0.02943251	     -0.02716419	     -1.92175175	     -0.50806057	      0.23078531	      0.01948007	     -0.04996911
      0.98150000	      0.84940620	      0.75813337	     -0.06438904	      0.01894923	     -0.63518407	     -1.07775593	      1.61113930	      2.00562693	     -2.00262638	      0.18816292	      0.22994205	      0.04776928	     -0.04373936	     -2.43197158	     -0.61600636	      0.15877366	     -0.18790010	      0.48193153
      0.99200000	      0.94830698	      0.98987422	     -0.11729758	      0.03489425	     -0.69706554	     -1.23966086	      1.77935029	      2.51419931	     -2.86316829	      0.22076678	      0.25144753	      0.05962741	     -0.05399704	     -2.55286061	     -0.64351641	      0.11582504	     -0.28174039	      0.72212147
      1.00250000	      0.98300349	      1.23520848	     -0.17832449	      0.05401105	     -0.70966107	     -1.32977305	      1.67673154	      2.63005720	     -3.43420846	      0.23787714	      0.24742777	      0.06873368	     -0.06144213	     -2.43930858	     -0.60480322	      0.12673943	     -0.22187199	      0.56828824
      1.01300000	      0.99605859	      1.50793848	     -0.23612476	      0.07336204	     -0.68892786	     -1.36028007	      1.58713337	      2.87338852	     -4.26238837	      0.25722436	      0.23424731	      0.08076456	     -0.07112093	     -2.31663213	     -0.54826741	      0.00914853	     -0.40062046	      1.02503956
      1.02350000	      0.96713251	      1.81153590	     -0.29189349	      0.09372217	     -0.64113933	     -1.34359264	      1.33716277	      2.80793795	     -4.71285692	      0.27553770	      0.21434750	      0.09331955	     -0.08075722	     -2.17234617	     -0.48211545	     -0.11423753	     -0.59310733	      1.51430344
      1.03400000	      0.87461140	      2.13338249	     -0.34278604	      0.11458811	     -0.57065457	     -1.28596353	      0.98449289	      2.50398375	     -4.63432745	      0.28860769	      0.18312867	      0.10538397	     -0.08941656	     -1.98370657	     -0.39773761	     -0.18442010	     -0.67261234	      1.71132469
      1.04450000	      0.71986041	      2.46682353	     -0.38551211	      0.13510333	     -0.48645027	     -1.20118770	      0.81761885	      2.60400980	     -5.25099066	      0.29622893	      0.14257509	      0.11661537	     -0.09680537	     -1.77041595	     -0.30101934	     -0.24457778	     -0.72452248	      1.83488417
      1.05500000	      0.53886523	      2.83909227	     -0.41914664	      0.15495711	     -0.40122235	     -1.11056428	      0.24731556	      1.74789549	     -3.76656548	      0.29928538	      0.10100975	      0.12577169	     -0.10196592	     -1.56039876	     -0.20882550	     -0.34346603	     -0.85855584	      2.16033076
      1.06550000	      0.28441325	      3.18161643	     -0.44212952	      0.17335382	     -0.30341322	     -0.99639164	      0.07524570	      1.45060193	     -3.24529800	      0.29994921	      0.05891770	      0.13405176	     -0.10599004	     -1.36571903	     -0.12014017	     -0.41151645	     -0.93141923	      2.32289256
      1.07600000	     -0.01400073	      3.47868140	     -0.45463872	      0.18985295	     -0.20250621	     -0.87513468	      0.03265004	      1.53683206	     -3.56922386	      0.30097033	      0.01462218	      0.14337190	     -0.11040224	     -1.19185513	     -0.02962753	     -0.46624629	     -0.97148746	      2.39614721
      1.08650000	     -0.30187724	      3.76429518	     -0.45898539	      0.20478605	     -0.10851897	     -0.76490911	     -0.48579684	      0.58389888	     -1.38680198	      0.30238922	     -0.02900330	      0.15318934	     -0.11471067	     -1.03798097	      0.05884285	     -0.53426898	     -1.03376177	      2.51512920
      1.09700000	     -0.63680673	      3.90665459	     -0.45690117	      0.21831656	     -0.00759632	     -0.64751484	     -0.62530775	      0.41713039	     -0.99823111	      0.30277702	     -0.06804980	      0.16195186	     -0.11776686	     -0.90049721	      0.13922503	     -0.58080419	     -1.05115726	      2.51601241
      1.10750000	     -0.96222421	      3.88023116	     -0.44788113	      0.22952767	      0.09244291	     -0.53377294	     -0.54256529	      0.59797023	     -1.44613316	      0.30299717	     -0.10360349	      0.17040053	     -0.12018930	     -0.77782634	      0.21512928	     -0.61849750	     -1.04568108	      2.45705152
      1.11800000	     -1.20721996	      3.72922755	     -0.43134078	      0.23716262	      0.18166573	     -0.43459975	     -0.72716866	      0.20456141	     -0.49835061	      0.30461843	     -0.13614474	      0.17943537	     -0.12261954	     -0.67088379	      0.28862749	     -0.65937810	     -1.03889942	      2.39163578
      1.12850000	     -1.39011874	      3.40952920	     -0.40977253	      0.24153203	      0.26468413	     -0.34416522	     -0.85149382	     -0.11458463	      0.27927814	      0.30783876	     -0.16398974	      0.18870431	     -0.12479036	     -0.57955786	      0.35686835	     -0.70246579	     -1.03062456	      2.32016306
      1.13900000	     -1.52134525	      2.90051676	     -0.38504271	      0.24290110	      0.34381185	     -0.25993929	     -0.81899134	     -0.22250041	      0.54059098	      0.31311506	     -0.18589943	      0.19801003	     -0.12657403	     -0.50446958	      0.41715195	     -0.73383819	     -0.99640283	      2.19015176
      1.14950000	     -1.59484209	      2.23584506	     -0.35769244	      0.24091559	      0.41724298	     -0.18276973	     -0.71708234	     -0.28569547	      0.69106787	      0.32023325	     -0.20293314	      0.20743159	     -0.12803340	     -0.44176578	      0.47132102	     -0.76748047	     -0.96289547	      2.06485562
      1.16000000	     -1.61350268	      1.46748995	     -0.32829917	      0.23533113	      0.48363861	     -0.11252742	     -0.61203987	     -0.39958341	      0.96051765	      0.32922815	     -0.21501037	      0.21683869	     -0.12910123	     -0.39053914	      0.51844159	     -0.81287504	     -0.94893134	      1.98288728
      1.17050000	     -1.59410585	      0.63263121	     -0.29797972	      0.22645562	      0.54467720	     -0.04682118	     -0.46101452	     -0.48127904	      1.14710031	      0.33907534	     -0.22274588	      0.22579548	     -0.12955424	     -0.34704898	      0.55893795	     -0.84652150	     -0.91073195	      1.85285262
      1.18100000	     -1.54948748	     -0.22513509	     -0.26744275	      0.21455439	      0.60197880	      0.01654923	     -0.25340801	     -0.49886647	      1.17734340	      0.34869293	     -0.22677920	      0.23386527	     -0.12921618	     -0.30824417	      0.59332502	     -0.89390917	     -0.89593347	      1.77373033
      1.19150000	     -1.49022611	     -1.06164525	     -0.23729721	      0.20001561	      0.65774355	      0.07974761	     -0.02374826	     -0.48548069	      1.13401437	      0.35830239	     -0.22686027	      0.24091613	     -0.12811357	     -0.27554961	      0.61970064	     -0.95252044	     -0.90115831	      1.73361884
      1.20200000	     -1.42399058	     -1.83322031	     -0.20807627	      0.18336627	      0.71475475	      0.14467910	      0.20062994	     -0.45830025	      1.05954407	      0.36828658	     -0.22308266	      0.24696573	     -0.12635530	     -0.25007312	      0.63676861	     -0.99896175	     -0.88841193	      1.65873660
      1.21250000	     -1.35690767	     -2.50798011	     -0.18015752	      0.16515274	      0.77681803	      0.21360537	      0.41119464	     -0.40831722	      0.93474132	      0.37684105	     -0.21653640	      0.25138379	     -0.12372810	     -0.22722775	      0.64640567	     -1.05423992	     -0.89414793	      1.61845364
      1.22300000	     -1.29216589	     -3.06045325	     -0.15375370	      0.14588766	      0.84823337	      0.28862106	      0.59718591	     -0.33312392	      0.75599868	      0.38174212	     -0.20843343	      0.25347315	     -0.12004038	     -0.20171711	      0.65217520	     -1.12741603	     -0.92906943	      1.62675778
      1.23350000	     -1.23108942	     -3.47375094	     -0.12899667	      0.12606375	      0.93397009	      0.37175444	      0.74384548	     -0.24311799	      0.54793651	      0.38459358	     -0.19790192	      0.25351273	     -0.11558353	     -0.17931474	      0.65013440	     -1.18617981	     -0.94654220	      1.59911418
      1.24400000	     -1.17384449	     -3.74148695	     -0.10600146	      0.10619042	      1.04013998	      0.46509210	      0.84316672	     -0.14571925	      0.32686144	      0.38722235	     -0.18418541	      0.25183562	     -0.11062659	     -0.16551918	      0.63563128	     -1.23051652	     -0.95751473	      1.55793334
      1.25450000	     -1.11917056	     -3.86619475	     -0.08478708	      0.08667719	      1.17361974	      0.57070867	      0.89405227	     -0.04290167	      0.09600859	      0.38816972	     -0.16916868	      0.24837897	     -0.10523123	     -0.15567898	      0.61288428	     -1.30306365	     -1.02128225	      1.59546408
      1.26500000	     -1.06596450	     -3.86168064	     -0.06544341	      0.06798513	      1.34333930	      0.69093573	      0.89885265	      0.06259174	     -0.14010563	      0.38548602	     -0.15491419	      0.24311233	     -0.09946221	     -0.14389085	      0.58841769	     -1.37067437	     -1.07696848	      1.60777047
      1.27550000	     -1.01133680	     -3.74669645	     -0.04768994	      0.05014737	      1.55640409	      0.82706902	      0.86134182	      0.16689064	     -0.37462935	      0.38322005	     -0.13801172	      0.23629199	     -0.09348380	     -0.14326847	      0.54845725	     -1.39175605	     -1.09047142	      1.55045698
      1.28600000	     -0.95353515	     -3.54563398	     -0.03136792	      0.03326604	      1.82139212	      0.98017694	      0.78739581	      0.26594749	     -0.60014260	      0.38556427	     -0.11505840	      0.22793554	     -0.08734051	     -0.16690562	      0.47631760	     -1.38145062	     -1.11640014	      1.50727687
      1.29650000	     -0.89303827	     -3.28196243	     -0.01709047	      0.01821901	      2.15176441	      1.15007607	      0.68328960	      0.35531977	     -0.80780291	      0.39037334	     -0.09305083	      0.22021276	     -0.08185808	     -0.19587715	      0.39877635	     -1.38857356	     -1.18282784	      1.50953585
      1.30700000	     -0.83051406	     -2.97913349	     -0.00545315	      0.00582720	      2.56375802	      1.33535441	      0.59506305	      0.43076544	     -0.98831519	      0.39562331	     -0.07915972	      0.21601453	     -0.07799217	     -0.20929655	      0.34941580	     -1.43087408	     -1.25581900	      1.50470423
      1.31750000	     -0.76177410	     -2.65513213	      0.00481587	     -0.00514652	      3.05856208	      1.53222370	      0.36031015	      0.49387778	     -1.14494424	      0.41237821	     -0.05460504	      0.21075813	     -0.07397787	     -0.26175536	      0.24700459	     -1.30481673	     -1.21077349	      1.35609146
      1.32800000	     -0.68479705	     -2.32323874	      0.01461293	     -0.01558313	      3.63402572	      1.73682101	      0.12149896	      0.53820605	     -1.26168531	      0.45610860	      0.00478305	      0.19747776	     -0.06749375	     -0.42275051	     -0.02184829	     -0.98746649	     -1.23030899	      1.28660362
      1.33850000	     -0.60831659	     -1.99980726	      0.02126153	     -0.02258318	      4.31490960	      1.94071673	     -0.11316903	      0.55656077	     -1.31950572	      0.48339985	      0.03613980	      0.19017140	     -0.06341008	     -0.49216185	     -0.16345140	     -0.86051322	     -1.30644368	      1.26454504
      1.34900000	     -0.53914244	     -1.69511187	      0.02210613	     -0.02336823	      5.07180713	      2.10513079	     -0.33308696	      0.55002604	     -1.31818614	      0.43813780	     -0.03153333	      0.20577742	     -0.06692351	     -0.27162178	      0.14214024	     -1.18711539	     -1.17000363	      1.04538130
      1.35950000	     -0.47032929	     -1.41001892	      0.02010379	     -0.02115496	      5.80293208	      2.20458877	     -0.52015104	      0.52910469	     -1.28074614	      0.38499660	     -0.10484921	      0.22430894	     -0.07099775	     -0.03987174	      0.48543362	     -1.68665421	     -1.11784823	      0.92560845
      1.37000000	     -0.39570325	     -1.14411836	      0.01884772	     -0.01975046	      6.32101523	      2.21127291	     -0.65739755	      0.48948290	     -1.19545562	      0.39722774	     -0.09832112	      0.22734492	     -0.06996529	     -0.04449616	      0.47366720	     -1.69951271	     -1.08042038	      0.82533614
      1.38050000	     -0.32198145	     -0.90385107	      0.01711770	     -0.01786770	      6.42608177	      2.08131049	     -0.73661773	      0.42190319	     -1.03822364	      0.44211255	     -0.06028032	      0.22475337	     -0.06728355	     -0.15175786	      0.29934860	     -1.24584697	     -0.83376161	      0.59187513
      1.39100000	     -0.25435349	     -0.68911366	      0.01303167	     -0.01355808	      6.08984705	      1.83088737	     -0.74546259	      0.33368707	     -0.82603771	      0.48927621	     -0.02427440	      0.22247037	     -0.06482771	     -0.25541834	      0.12254752	     -0.85280402	     -0.69736081	      0.46616775
      1.40150000	     -0.19156443	     -0.49783076	      0.00783165	     -0.00812979	      5.28351972	      1.48282431	     -0.66289855	      0.25770323	     -0.64075747	      0.53834618	      0.01203925	      0.21900391	     -0.06216148	     -0.35667033	     -0.06092442	     -0.41523971	     -0.54945214	      0.34804031
      1.41200000	     -0.13141221	     -0.32505807	      0.00276805	     -0.00287016	      4.01348744	      1.06109802	     -0.48009683	      0.21365694	     -0.53305438	      0.58874926	      0.04908216	      0.21389631	     -0.05918485	     -0.45208038	     -0.24544693	      0.18332567	     -0.24513594	      0.14996812
      1.42250000	     -0.07617523	     -0.17363339	     -0.00167711	      0.00173881	      2.43818377	      0.60322310	     -0.27587424	      0.12665832	     -0.31679663	      0.63534506	      0.08804011	      0.20434456	     -0.05518138	     -0.53802123	     -0.42881611	      0.78406942	      0.07173542	     -0.04354650
      1.43300000	     -0.02754241	     -0.04645176	     -0.00475475	      0.00493319	      0.81885780	      0.16615090	     -0.11835755	     -0.03201016	      0.08011740	      0.67057696	      0.12869460	      0.18769732	     -0.04955453	     -0.60797518	     -0.60195096	      1.36005406	      0.41307543	     -0.25607731
      1.44350000	      0.01840894	      0.07194083	     -0.00732892	      0.00761381	     -0.78930710	     -0.25643295	      0.11473855	     -0.06003309	      0.15011279	      0.70724232	      0.17350246	      0.16798318	     -0.04346255	     -0.67189728	     -0.76877090	      1.94147956	      0.83321677	     -0.54435017
      1.45400000	      0.06602828	      0.19684935	     -0.01013617	      0.01054995	     -2.36819825	     -0.67711035	      0.48479585	      0.14618290	     -0.36570853	      0.76218054	      0.22549076	      0.15004054	     -0.03813175	     -0.73868857	     -0.93384441	      2.47269315	      1.29426124	     -0.92163953
      1.46450000	      0.10595002	      0.30515497	     -0.01246953	      0.01301032	     -3.46084902	     -0.98535239	      0.58477261	      0.04913627	     -0.12318587	      0.82005966	      0.28467227	      0.12795703	     -0.03201551	     -0.79674968	     -1.08797980	      2.87893723	      1.74670410	     -1.39369022
      1.47500000	      0.12367134	      0.36003592	     -0.01395242	      0.01459935	     -3.68653185	     -1.07861243	      0.25244263	     -0.57796228	      1.44379578	      0.85927057	      0.35149123	      0.09421537	     -0.02328211	     -0.83833422	     -1.22672398	      3.15920725	      2.20439875	     -2.01257854
      1.48550000	      0.14906745	      0.41430982	     -0.01028879	      0.01079570	     -3.93861730	     -1.15098006	      0.49138049	     -0.19856695	      0.49214274	      0.90032931	      0.42932088	      0.05586407	     -0.01369125	     -0.87672714	     -1.35815491	      3.32205178	      2.66161175	     -2.82073738
      1.49600000	      0.21586695	      0.53356756	      0.00269488	     -0.00283037	     -4.81995900	     -1.35812812	      1.02381307	      0.67583153	     -1.68350082	      0.96568693	      0.52353081	      0.01872085	     -0.00456931	     -0.92463113	     -1.49584085	      3.38887312	      3.11957627	     -3.87227414
      1.50650000	      0.27681339	      0.63182738	      0.01733165	     -0.01816212	     -5.14651222	     -1.44756094	      0.34842002	     -0.56546965	      1.41326363	      1.03538604	      0.63308322	     -0.02214465	      0.00540568	     -0.96588603	     -1.61970171	      3.25527895	      3.38035847	     -4.91253405
      1.51700000	      0.28329627	      0.63135139	      0.02264261	     -0.02362098	     -4.43368759	     -1.29592721	     -0.08908404	     -1.26508177	      3.10574181	      1.08120947	      0.75405056	     -0.07108771	      0.01744081	     -0.98169899	     -1.70283703	      3.03926105	      3.57039817	     -6.00243536
      1.52750000	      0.27656148	      0.62081146	      0.02248500	     -0.02334402	     -3.71790488	     -1.14696339	      0.66993926	      0.44494873	     -1.08395297	      1.10575612	      0.89653779	     -0.12868136	      0.03191946	     -0.97857805	     -1.75596977	      2.79206692	      3.70429339	     -7.10159019
      1.53800000	      0.29868091	      0.63510698	      0.03217085	     -0.03321370	     -3.39665209	     -1.05586877	      0.53503106	      0.33365995	     -0.82194175	      1.13145714	      1.06443384	     -0.18562973	      0.04686076	     -0.95432513	     -1.76603296	      2.50686305	      3.72775021	     -7.97832310
      1.54850000	      0.33041774	      0.61650742	      0.05181962	     -0.05302349	     -3.12192360	     -0.92680559	     -0.30284696	     -1.30925944	      3.19613829	      1.15209593	      1.25097094	     -0.23702683	      0.06127494	     -0.90765291	     -1.73147716	      2.13837863	      3.51205309	     -8.17486852
      1.55900000	      0.35238862	      0.57740614	      0.06871820	     -0.06940920	     -2.79226342	     -0.79324725	     -0.28117655	     -1.15836130	      2.75545953	      1.13048522	      1.46133030	     -0.29114610	      0.07755970	     -0.84181475	     -1.66953711	      1.77481687	      3.20952763	     -7.89107073
      1.56950000	      0.36533858	      0.53100695	      0.08126805	     -0.08078780	     -2.45758317	     -0.67329972	      0.09064579	     -0.23422773	      0.55005590	      1.07493616	      1.70397109	     -0.34393375	      0.09506041	     -0.75955140	     -1.58110756	      1.46808521	      2.94907580	     -7.47944961
      1.58000000	      0.36693430	      0.45051106	      0.09344407	     -0.09119770	     -2.10300461	     -0.53327134	     -0.10032762	     -0.54385191	      1.26949496	      0.98811320	      1.95974821	     -0.38511037	      0.11113309	     -0.66362935	     -1.46069349	      1.16688867	      2.63020993	     -6.75037413
      1.59050000	      0.36650871	      0.35030296	      0.10740788	     -0.10265200	     -1.79704526	     -0.39272380	     -0.45639728	     -1.25138298	      2.86064522	      0.84145329	      2.22070510	     -0.41883316	      0.12687503	     -0.56299760	     -1.32863899	      0.87263315	      2.25965871	     -5.78809647
      1.60100000	      0.37900545	      0.25652751	      0.12567641	     -0.11725086	     -1.59702350	     -0.27620189	     -0.42821131	     -1.12142783	      2.48641525	      0.66014510	      2.51932462	     -0.44854883	      0.14337144	     -0.47016431	     -1.21090293	      0.47512490	      1.60998881	     -4.08528049
      1.61150000	      0.39179926	      0.16107642	      0.14406731	     -0.13072800	     -1.42186338	     -0.16869876	     -0.30881368	     -0.79170362	      1.71374018	      0.40931100	      2.80059222	     -0.46908072	      0.15895045	     -0.37111297	     -1.08085794	      0.33133702	      1.39729327	     -3.50637692
      1.62200000	      0.38663565	      0.05045161	      0.15750237	     -0.13860207	     -1.20545938	     -0.05210288	     -0.41295934	     -0.96489362	      2.03978400	      0.07770753	      3.02250433	     -0.48136714	      0.17358007	     -0.26613160	     -0.94136437	      0.21247059	      1.21499339	     -3.00724639
      1.63250000	      0.37827674	     -0.05887889	      0.17036235	     -0.14508448	     -1.01086207	      0.06085149	     -0.49328931	     -1.08303618	      2.21988133	     -0.26389061	      3.22057612	     -0.48719294	      0.18754848	     -0.16826523	     -0.81591354	     -0.13621879	      0.52733519	     -1.29195504
      1.64300000	      0.38559920	     -0.14826588	      0.18758675	     -0.15421843	     -0.88650225	      0.15535826	     -0.49555076	     -1.02690310	      2.03684996	     -0.60931774	      3.33515235	     -0.48409465	      0.19940430	     -0.07307568	     -0.69447340	     -0.26620376	      0.31265736	     -0.76250376
      1.65350000	      0.39667596	     -0.22423998	      0.20517697	     -0.16235717	     -0.78282514	      0.24083557	     -0.49105787	     -0.95112967	      1.82574275	     -0.94095412	      3.33002558	     -0.47379356	      0.20908495	      0.01914842	     -0.57857264	     -0.29538367	      0.27142016	     -0.65913714
      1.66400000	      0.39877367	     -0.29146895	      0.21883619	     -0.16628901	     -0.66701283	      0.32400884	     -0.49642317	     -0.88746787	      1.65101342	     -1.23443068	      3.19834835	     -0.45881925	      0.21701367	      0.10697673	     -0.47236409	     -0.45539790	     -0.05972566	      0.14482294
      1.67450000	      0.39949031	     -0.34531474	      0.23092289	     -0.16823416	     -0.56069948	      0.40080677	     -0.54226983	     -0.90417957	      1.62875973	     -1.47089264	      2.91830673	     -0.43895207	      0.22244745	      0.19009692	     -0.37451991	     -0.58229095	     -0.34488697	      0.83865909
      1.68500000	      0.40600959	     -0.38083404	      0.24312292	     -0.16957437	     -0.47896081	      0.46475637	     -0.55401181	     -0.84068862	      1.46522828	     -1.63087459	      2.49699987	     -0.41394093	      0.22446735	      0.26639477	     -0.28522903	     -0.63627589	     -0.51939154	      1.27017844
      1.69550000	      0.41357094	     -0.40265833	      0.25401485	     -0.16941355	     -0.40840050	      0.51929589	     -0.55052528	     -0.74094692	      1.25260698	     -1.72419538	      1.94346295	     -0.38551208	      0.22319644	      0.33695041	     -0.20275422	     -0.65807197	     -0.67073907	      1.65217077
      1.70600000	      0.41722612	     -0.41470112	      0.26211826	     -0.16703844	     -0.33929457	      0.56746168	     -0.58178557	     -0.71230616	      1.16990745	     -1.76577624	      1.27529499	     -0.35514394	      0.21887748	      0.40349844	     -0.12487607	     -0.67170174	     -0.84586245	      2.10123754
      1.71650000	      0.41948948	     -0.41700534	      0.26812478	     -0.16322580	     -0.27748077	      0.60725897	     -0.62087934	     -0.69848092	      1.11420943	     -1.76562912	      0.52753292	     -0.32356715	      0.21151994	      0.46695620	     -0.04989578	     -0.65419358	     -1.00297840	      2.51441313
      1.72700000	      0.42321858	     -0.40984049	      0.27281778	     -0.15866776	     -0.22779018	      0.63639522	     -0.63651334	     -0.63976140	      0.99188697	     -1.73329898	     -0.25460003	     -0.29129718	      0.20115216	      0.52836034	      0.02395530	     -0.59803403	     -1.12506286	      2.84538132
      1.73750000	      0.42599760	     -0.39670848	      0.27570308	     -0.15324005	     -0.18481522	      0.65747945	     -0.66524172	     -0.61336858	      0.92568876	     -1.68191899	     -1.03015241	     -0.25915931	      0.18818079	      0.59063580	      0.09933723	     -0.51477619	     -1.22535652	      3.12226763
      1.74800000	      0.42519306	     -0.38007361	      0.27611641	     -0.14676943	     -0.14454233	      0.67226441	     -0.69904227	     -0.60088605	      0.88246319	     -1.62121687	     -1.76007792	     -0.22769274	      0.17301290	      0.65750440	      0.17919944	     -0.41291142	     -1.30715489	      3.34846199
      1.75850000	      0.42136277	     -0.36010587	      0.27409844	     -0.13948498	     -0.10990288	      0.67788909	     -0.71804561	     -0.56724574	      0.81127227	     -1.55664068	     -2.40403199	     -0.19728785	      0.15608797	      0.73311685	      0.26617695	     -0.29701042	     -1.36092386	      3.49465686
      1.76900000	      0.41541081	     -0.33787291	      0.27010873	     -0.13177230	     -0.08162240	      0.67470362	     -0.75509434	     -0.57727681	      0.80398207	     -1.49107037	     -2.92858478	     -0.16820553	      0.13786243	      0.82242383	      0.36294689	     -0.17568798	     -1.38045716	      3.54119489
      1.77950000	      0.40770172	     -0.31354835	      0.26415872	     -0.12373857	     -0.06017132	      0.66186844	     -0.78738374	     -0.58886403	      0.79754930	     -1.42594681	     -3.31023808	     -0.14078156	      0.11893029	      0.93173652	      0.47224258	     -0.06264996	     -1.36756727	      3.49174988
      1.79000000	      0.39821963	     -0.28793188	      0.25634200	     -0.11550321	     -0.04475791	      0.64010885	     -0.80685162	     -0.58939817	      0.77569394	     -1.36145959	     -3.54061472	     -0.11527593	      0.09988575	      1.06911087	      0.59725744	      0.03117320	     -1.32190234	      3.34764949
      1.80050000	      0.38767051	     -0.26158133	      0.24701739	     -0.10727254	     -0.03532358	      0.61010013	     -0.84193815	     -0.63086286	      0.80551865	     -1.29497828	     -3.62043208	     -0.09171612	      0.08113276	      1.24223126	      0.74021764	      0.09519826	     -1.24597124	      3.12035121
      1.81100000	      0.37743625	     -0.23425944	      0.23655913	     -0.09921558	     -0.03310211	      0.57093035	     -0.87336427	     -0.68024523	      0.83976286	     -1.22442993	     -3.56536470	     -0.07014926	      0.06307433	      1.45956431	      0.90275110	      0.12313450	     -1.14284440	      2.82420411
      1.82150000	      0.36867263	     -0.20589252	      0.22531375	     -0.09145789	     -0.03874164	      0.52210684	     -0.88534820	     -0.71444944	      0.85028106	     -1.14787048	     -3.39937667	     -0.05057089	      0.04602914	      1.72998010	      1.08558640	      0.11175655	     -1.01854648	      2.48087336
      1.83200000	      0.36211827	     -0.17697104	      0.21371165	     -0.08413234	     -0.05161572	      0.46480479	     -0.91289531	     -0.79242204	      0.90555567	     -1.06473116	     -3.15053895	     -0.03324306	      0.03051584	      2.06283257	      1.28740469	      0.13524360	     -0.88168383	      2.11635030
      1.84250000	      0.35954070	     -0.14732826	      0.20236313	     -0.07741865	     -0.07256123	      0.39883833	     -0.93864829	     -0.88555932	      0.96543678	     -0.97462079	     -2.84840858	     -0.01801662	      0.01662480	      2.46537741	      1.50514645	     -0.04355535	     -0.73737070	      1.74564833
      1.85300000	      0.36263311	     -0.11662894	      0.19177530	     -0.07143272	     -0.10229526	      0.32373064	     -0.94346872	     -0.96658960	      0.99853607	     -0.87822638	     -2.51742196	     -0.00496101	      0.00458836	      2.94651642	      1.73556020	     -0.25761954	     -0.59656307	      1.39499813
      1.86350000	      0.37203039	     -0.08501906	      0.18224514	     -0.06620379	     -0.13983416	      0.24060749	     -0.94009755	     -1.05671005	      1.02664475	     -0.77763234	     -2.18061976	      0.00612691	     -0.00566584	      3.51361185	      1.97435335	     -0.49166933	     -0.46207389	      1.06935265
      1.87400000	      0.38878871	     -0.05215942	      0.17402231	     -0.06174345	     -0.18491070	      0.14959458	     -0.92280625	     -1.14875811	      1.04025184	     -0.67478133	     -1.85262291	      0.01538866	     -0.01419886	      4.11853766	      2.18768358	     -0.73096276	     -0.34203014	      0.78506716
      1.88450000	      0.41262491	     -0.01841591	      0.16713966	     -0.05799197	     -0.23512003	      0.05318298	     -0.87623840	     -1.21764674	      1.01789015	     -0.57281933	     -1.54595910	      0.02302867	     -0.02116447	      4.67417278	      2.33922706	     -0.95676315	     -0.23858458	      0.54428576
      1.89500000	      0.44342413	      0.01596595	      0.16164994	     -0.05490550	     -0.28824075	     -0.04611953	     -0.81699337	     -1.28535026	      0.98213019	     -0.47358788	     -1.26620454	      0.02937749	     -0.02685483	      5.11426906	      2.41887424	     -1.14717941	     -0.15261115	      0.34669853
      1.90550000	      0.48267551	      0.05086645	      0.15813900	     -0.05262358	     -0.34308489	     -0.14597806	     -0.72599932	     -1.31944582	      0.91106231	     -0.38000557	     -1.01815421	      0.03455108	     -0.03137887	      5.27197032	      2.36945956	     -1.28151339	     -0.08556781	      0.19388973
      1.91600000	      0.53335610	      0.08672438	      0.15741658	     -0.05134482	     -0.39975784	     -0.24558726	     -0.58532057	     -1.29137975	      0.79896982	     -0.29305465	     -0.80181400	      0.03891547	     -0.03507961	      5.09800004	      2.20637764	     -1.33672655	     -0.03141235	      0.07108769
      1.92650000	      0.59035092	      0.12128646	      0.15849512	     -0.05067958	     -0.45047652	     -0.33664753	     -0.44104780	     -1.25042233	      0.68834466	     -0.21539957	     -0.61721536	      0.04198065	     -0.03753313	      4.63878631	      1.97093425	     -1.30306228	      0.00821909	     -0.01859595
      1.93700000	      0.64967578	      0.15263428	      0.16077327	     -0.05039588	     -0.49013814	     -0.41279039	     -0.31001542	     -1.20488896	      0.58553569	     -0.14827056	     -0.46167934	      0.04330195	     -0.03838196	      3.96406557	      1.69814244	     -1.17826573	      0.03867597	     -0.08755160
      1.94750000	      0.70631130	      0.17847233	      0.16356666	     -0.05025518	     -0.51425931	     -0.46794264	     -0.10770591	     -1.01399475	      0.43413385	     -0.09263294	     -0.33296911	      0.04260298	     -0.03743637	      3.10915450	      1.38386979	     -0.97771892	      0.06261197	     -0.14189690
      1.95800000	      0.75627972	      0.19669710	      0.16664190	     -0.05017636	     -0.52090512	     -0.49823426	      0.03727895	     -0.85487844	      0.32659652	     -0.04992163	     -0.22831539	      0.03908597	     -0.03406433	      2.19129667	      1.04492508	     -0.73284784	      0.07911544	     -0.17957922
      1.96850000	      0.75010852	      0.19659230	      0.15880611	     -0.04687416	     -0.48434068	     -0.48041800	      0.10070259	     -0.72399590	      0.24757914	     -0.02130900	     -0.14462835	      0.03186156	     -0.02757021	      1.35367034	      0.70897785	     -0.47991861	      0.08573437	     -0.19495816
      1.97900000	      0.63066828	      0.16766988	      0.12809608	     -0.03715662	     -0.38592002	     -0.39652092	      0.19034377	     -0.42827733	      0.13429730	     -0.00772332	     -0.07976482	      0.02034853	     -0.01751547	      0.72635682	      0.40826628	     -0.25672963	      0.07773416	     -0.17708327
      1.98950000	      0.42253873	      0.10961568	      0.08502868	     -0.02435216	     -0.24450178	     -0.25287460	      0.15830182	     -0.21157348	      0.06318102	     -0.00529771	     -0.03334072	      0.00731175	     -0.00627655	      0.34069520	      0.17443752	     -0.09599208	      0.05167500	     -0.11788704
