Moment_knee_angle_r
version=1
nRows=98
nColumns=19
inDegrees=no

This analysis gathers basic information about muscles during a simulation (e.g., forces, tendon lengths, moment arms, etc).
Units are S.I. units (second, meters, Newtons, ...)
If the header above contains a line with 'inDegrees', this indicates whether rotational values are in degrees (yes) or radians (no).

endheader
time	hamstrings_r	bifemsh_r	glut_max_r	iliopsoas_r	rect_fem_r	vasti_r	gastroc_r	soleus_r	dorsiflexors_r	hamstrings_l	bifemsh_l	glut_max_l	iliopsoas_l	rect_fem_l	vasti_l	gastroc_l	soleus_l	dorsiflexors_l
      0.97100000	    -64.15474644	     -8.78311028	      0.00000000	      0.00000000	     41.55093190	    143.48511826	    -21.08820534	     -0.00000000	      0.00000000	      0.00000000	      0.00000000	      0.00000000	      0.00000000	      0.00000000	      0.00000000	      0.00000000	      0.00000000	      0.00000000
      0.98150000	    -64.92174225	     -8.98082795	      0.00000000	      0.00000000	     41.16056250	    141.70169820	    -18.70321634	     -0.00000000	      0.00000000	      0.00000000	      0.00000000	      0.00000000	      0.00000000	      0.00000000	      0.00000000	      0.00000000	      0.00000000	      0.00000000
      0.99200000	    -65.84380205	     -9.22924380	      0.00000000	      0.00000000	     40.57956072	    139.32966620	    -15.58914882	     -0.00000000	     -0.00000000	      0.00000000	      0.00000000	      0.00000000	      0.00000000	      0.00000000	      0.00000000	      0.00000000	      0.00000000	      0.00000000
      1.00250000	    -66.82856628	     -9.51243385	      0.00000000	      0.00000000	     39.71568979	    136.14546316	    -11.87002434	      0.00000000	      0.00000000	      0.00000000	      0.00000000	      0.00000000	      0.00000000	      0.00000000	      0.00000000	      0.00000000	      0.00000000	      0.00000000
      1.01300000	    -67.79914418	     -9.81952536	      0.00000000	      0.00000000	     38.41492082	    131.63643205	     -7.61805298	      0.00000000	      0.00000000	      0.00000000	      0.00000000	      0.00000000	      0.00000000	      0.00000000	      0.00000000	      0.00000000	      0.00000000	      0.00000000
      1.02350000	    -68.67721616	    -10.13927290	      0.00000000	      0.00000000	     36.86073860	    126.36555157	     -2.90350200	     -0.00000000	     -0.00000000	      0.00000000	      0.00000000	      0.00000000	      0.00000000	      0.00000000	      0.00000000	      0.00000000	      0.00000000	      0.00000000
      1.03400000	    -69.38673226	    -10.45987164	      0.00000000	      0.00000000	     35.23670473	    120.95717347	      2.15341360	      0.00000000	     -0.00000000	      0.00000000	      0.00000000	      0.00000000	      0.00000000	      0.00000000	      0.00000000	      0.00000000	      0.00000000	      0.00000000
      1.04450000	    -69.85818432	    -10.76758260	      0.00000000	      0.00000000	     33.59699859	    115.60992850	      7.41321274	      0.00000000	     -0.00000000	      0.00000000	      0.00000000	      0.00000000	      0.00000000	      0.00000000	      0.00000000	      0.00000000	      0.00000000	      0.00000000
      1.05500000	    -70.04608368	    -11.05346269	      0.00000000	      0.00000000	     31.89743235	    110.14768577	     12.76120557	     -0.00000000	      0.00000000	      0.00000000	      0.00000000	      0.00000000	      0.00000000	      0.00000000	      0.00000000	      0.00000000	      0.00000000	      0.00000000
      1.06550000	    -69.92165028	    -11.30898022	      0.00000000	      0.00000000	     30.13739059	    104.54697092	     14.37566573	     -0.00000000	      0.00000000	      0.00000000	      0.00000000	      0.00000000	      0.00000000	      0.00000000	      0.00000000	      0.00000000	      0.00000000	      0.00000000
      1.07600000	    -69.48756261	    -11.52435000	      0.00000000	      0.00000000	     28.37756822	     98.98675939	     17.61677871	      0.00000000	     -0.00000000	      0.00000000	      0.00000000	      0.00000000	      0.00000000	      0.00000000	      0.00000000	      0.00000000	      0.00000000	      0.00000000
      1.08650000	    -68.76932212	    -11.69802497	      0.00000000	      0.00000000	     26.64186182	     93.53115709	     20.65740710	     -0.00000000	      0.00000000	      0.00000000	      0.00000000	      0.00000000	      0.00000000	      0.00000000	      0.00000000	      0.00000000	      0.00000000	      0.00000000
      1.09700000	    -67.81668805	    -11.82902794	      0.00000000	      0.00000000	     24.97251308	     88.29788171	     23.43495511	     -0.00000000	     -0.00000000	      0.00000000	      0.00000000	      0.00000000	      0.00000000	      0.00000000	      0.00000000	      0.00000000	      0.00000000	      0.00000000
      1.10750000	    -66.71922228	    -11.91818877	      0.00000000	      0.00000000	     23.44268629	     83.49786246	     25.88827666	     -0.00000000	      0.00000000	      0.00000000	      0.00000000	      0.00000000	      0.00000000	      0.00000000	      0.00000000	      0.00000000	      0.00000000	      0.00000000
      1.11800000	    -65.56264242	    -11.97193800	      0.00000000	      0.00000000	     22.08531453	     79.22318593	     27.99483148	     -0.00000000	      0.00000000	      0.00000000	      0.00000000	      0.00000000	      0.00000000	      0.00000000	      0.00000000	      0.00000000	      0.00000000	      0.00000000
      1.12850000	    -64.43018282	    -11.99806384	      0.00000000	      0.00000000	     20.90906505	     75.48497364	     29.74898088	      0.00000000	      0.00000000	      0.00000000	      0.00000000	      0.00000000	      0.00000000	      0.00000000	      0.00000000	      0.00000000	      0.00000000	      0.00000000
      1.13900000	    -63.40823771	    -12.00479488	      0.00000000	      0.00000000	     19.93650939	     72.34375713	     31.14948417	      0.00000000	      0.00000000	      0.00000000	      0.00000000	      0.00000000	      0.00000000	      0.00000000	      0.00000000	      0.00000000	      0.00000000	      0.00000000
      1.14950000	    -62.57511252	    -12.00049303	      0.00000000	      0.00000000	     19.19354175	     69.87812947	     32.19824157	     -0.00000000	     -0.00000000	      0.00000000	      0.00000000	      0.00000000	      0.00000000	      0.00000000	      0.00000000	      0.00000000	      0.00000000	      0.00000000
      1.16000000	    -61.98432015	    -11.99252361	      0.00000000	      0.00000000	     18.69508900	     68.13965914	     32.90740113	      0.00000000	     -0.00000000	      0.00000000	      0.00000000	      0.00000000	      0.00000000	      0.00000000	      0.00000000	      0.00000000	      0.00000000	      0.00000000
      1.17050000	    -61.67009703	    -11.98633024	      0.00000000	      0.00000000	     18.45148516	     67.16738893	     33.28860637	      0.00000000	     -0.00000000	      0.00000000	      0.00000000	      0.00000000	      0.00000000	      0.00000000	      0.00000000	      0.00000000	      0.00000000	      0.00000000
      1.18100000	    -61.64698736	    -11.98499429	      0.00000000	      0.00000000	     18.46679069	     66.97980781	     33.35225258	     -0.00000000	     -0.00000000	      0.00000000	      0.00000000	      0.00000000	      0.00000000	      0.00000000	      0.00000000	      0.00000000	      0.00000000	      0.00000000
      1.19150000	    -61.91201312	    -11.98907923	      0.00000000	      0.00000000	     18.73934393	     67.57542704	     33.10312906	     -0.00000000	      0.00000000	      0.00000000	      0.00000000	      0.00000000	      0.00000000	      0.00000000	      0.00000000	      0.00000000	      0.00000000	      0.00000000
      1.20200000	    -62.44306997	    -11.99662120	      0.00000000	      0.00000000	     19.25928280	     68.92494994	     32.54302012	     -0.00000000	      0.00000000	      0.00000000	      0.00000000	      0.00000000	      0.00000000	      0.00000000	      0.00000000	      0.00000000	      0.00000000	      0.00000000
      1.21250000	    -63.20356994	    -12.00344914	      0.00000000	      0.00000000	     20.01220356	     70.98332404	     31.66890263	      0.00000000	      0.00000000	      0.00000000	      0.00000000	      0.00000000	      0.00000000	      0.00000000	      0.00000000	      0.00000000	      0.00000000	      0.00000000
      1.22300000	    -64.14420032	    -12.00359175	      0.00000000	      0.00000000	     20.98071957	     73.69604905	     30.47466368	     -0.00000000	      0.00000000	      0.00000000	      0.00000000	      0.00000000	      0.00000000	      0.00000000	      0.00000000	      0.00000000	      0.00000000	      0.00000000
      1.23350000	    -65.20594662	    -11.98977668	      0.00000000	      0.00000000	     22.14770866	     77.01165167	     28.95119275	     -0.00000000	      0.00000000	      0.00000000	      0.00000000	      0.00000000	      0.00000000	      0.00000000	      0.00000000	      0.00000000	      0.00000000	      0.00000000
      1.24400000	    -66.32130822	    -11.95397229	      0.00000000	      0.00000000	     23.49796481	     80.88934323	     27.08952640	      0.00000000	      0.00000000	      0.00000000	      0.00000000	      0.00000000	      0.00000000	      0.00000000	      0.00000000	      0.00000000	      0.00000000	      0.00000000
      1.25450000	    -67.41742359	    -11.88794578	      0.00000000	      0.00000000	     25.02166752	     85.31268077	     24.88225094	     -0.00000000	      0.00000000	      0.00000000	      0.00000000	      0.00000000	      0.00000000	      0.00000000	      0.00000000	      0.00000000	      0.00000000	      0.00000000
      1.26500000	    -68.41789911	    -11.78390074	      0.00000000	      0.00000000	     26.70599068	     90.26553496	     22.32824319	      0.00000000	      0.00000000	      0.00000000	      0.00000000	      0.00000000	      0.00000000	      0.00000000	      0.00000000	      0.00000000	      0.00000000	      0.00000000
      1.27550000	    -69.24717021	    -11.63501103	      0.00000000	      0.00000000	     28.51113292	     95.65085414	     19.43375873	      0.00000000	      0.00000000	      0.00000000	      0.00000000	      0.00000000	      0.00000000	      0.00000000	      0.00000000	      0.00000000	      0.00000000	      0.00000000
      1.28600000	    -69.83363918	    -11.43616194	      0.00000000	      0.00000000	     30.40166002	    101.38529119	     16.21869722	      0.00000000	      0.00000000	      0.00000000	      0.00000000	      0.00000000	      0.00000000	      0.00000000	      0.00000000	      0.00000000	      0.00000000	      0.00000000
      1.29650000	    -70.11560454	    -11.18436529	      0.00000000	      0.00000000	     32.34092289	    107.38366731	     12.71637892	     -0.00000000	     -0.00000000	      0.00000000	      0.00000000	      0.00000000	      0.00000000	      0.00000000	      0.00000000	      0.00000000	      0.00000000	      0.00000000
      1.30700000	    -70.04605463	    -10.87954498	      0.00000000	      0.00000000	     34.28939009	    113.55110124	      9.61607240	     -0.00000000	      0.00000000	      0.00000000	      0.00000000	      0.00000000	      0.00000000	      0.00000000	      0.00000000	      0.00000000	      0.00000000	      0.00000000
      1.31750000	    -69.59834111	    -10.52464244	      0.00000000	      0.00000000	     36.22271460	    119.84758305	      3.53915710	     -0.00000000	      0.00000000	      0.00000000	      0.00000000	      0.00000000	      0.00000000	      0.00000000	      0.00000000	      0.00000000	      0.00000000	      0.00000000
      1.32800000	    -68.77220152	    -10.12664140	      0.00000000	      0.00000000	     38.20570259	    126.57600662	     -2.62707332	      0.00000000	      0.00000000	      0.00000000	      0.00000000	      0.00000000	      0.00000000	      0.00000000	      0.00000000	      0.00000000	      0.00000000	      0.00000000
      1.33850000	    -67.59689952	     -9.69594897	      0.00000000	      0.00000000	     40.19644691	    133.60949843	     -8.71979477	      0.00000000	      0.00000000	      0.00000000	      0.00000000	      0.00000000	      0.00000000	      0.00000000	      0.00000000	      0.00000000	      0.00000000	      0.00000000
      1.34900000	    -66.12791200	     -9.24536697	      0.00000000	      0.00000000	     41.69690147	    139.16550492	    -14.58065865	      0.00000000	      0.00000000	      0.00000000	      0.00000000	      0.00000000	      0.00000000	      0.00000000	      0.00000000	      0.00000000	      0.00000000	      0.00000000
      1.35950000	    -64.44490347	     -8.79001863	      0.00000000	      0.00000000	     42.72382089	    143.42296902	    -20.05809125	     -0.00000000	     -0.00000000	      0.00000000	      0.00000000	      0.00000000	      0.00000000	      0.00000000	      0.00000000	      0.00000000	      0.00000000	      0.00000000
      1.37000000	    -62.65472510	     -8.34819121	      0.00000000	      0.00000000	     43.41045565	    146.75419694	    -25.00045470	      0.00000000	      0.00000000	      0.00000000	      0.00000000	      0.00000000	      0.00000000	      0.00000000	      0.00000000	      0.00000000	      0.00000000	      0.00000000
      1.38050000	    -60.87872707	     -7.93875798	      0.00000000	      0.00000000	     43.41208881	    147.29316336	    -29.28656684	      0.00000000	     -0.00000000	      0.00000000	      0.00000000	      0.00000000	      0.00000000	      0.00000000	      0.00000000	      0.00000000	      0.00000000	      0.00000000
      1.39100000	    -59.23277659	     -7.57814622	      0.00000000	      0.00000000	     43.15419589	    146.51977142	    -32.84620494	     -0.00000000	      0.00000000	      0.00000000	      0.00000000	      0.00000000	      0.00000000	      0.00000000	      0.00000000	      0.00000000	      0.00000000	      0.00000000
      1.40150000	    -57.82361128	     -7.28086226	      0.00000000	      0.00000000	     42.93476555	    145.58919231	    -35.63803731	      0.00000000	      0.00000000	      0.00000000	      0.00000000	      0.00000000	      0.00000000	      0.00000000	      0.00000000	      0.00000000	      0.00000000	      0.00000000
      1.41200000	    -56.73768890	     -7.05790439	      0.00000000	      0.00000000	     42.99040992	    145.84408488	    -37.65000715	     -0.00000000	      0.00000000	      0.00000000	      0.00000000	      0.00000000	      0.00000000	      0.00000000	      0.00000000	      0.00000000	      0.00000000	      0.00000000
      1.42250000	    -56.03433071	     -6.91615339	      0.00000000	      0.00000000	     43.14554552	    146.60679643	    -38.89306957	     -0.00000000	      0.00000000	      0.00000000	      0.00000000	      0.00000000	      0.00000000	      0.00000000	      0.00000000	      0.00000000	      0.00000000	      0.00000000
      1.43300000	    -55.71161964	     -6.85197957	      0.00000000	      0.00000000	     43.24181241	    147.08911221	    -39.44803397	      0.00000000	     -0.00000000	      0.00000000	      0.00000000	      0.00000000	      0.00000000	      0.00000000	      0.00000000	      0.00000000	      0.00000000	      0.00000000
      1.44350000	    -55.74723257	     -6.85953237	      0.00000000	      0.00000000	     43.23161623	    147.02814705	    -39.38498077	      0.00000000	      0.00000000	      0.00000000	      0.00000000	      0.00000000	      0.00000000	      0.00000000	      0.00000000	      0.00000000	      0.00000000	      0.00000000
      1.45400000	    -56.13822562	     -6.93834820	      0.00000000	      0.00000000	     43.12113693	    146.45922238	    -38.69883550	     -0.00000000	      0.00000000	      0.00000000	      0.00000000	      0.00000000	      0.00000000	      0.00000000	      0.00000000	      0.00000000	      0.00000000	      0.00000000
      1.46450000	    -56.85243833	     -7.08338447	      0.00000000	      0.00000000	     42.97930328	    145.75396624	    -37.41133820	      0.00000000	      0.00000000	      0.00000000	      0.00000000	      0.00000000	      0.00000000	      0.00000000	      0.00000000	      0.00000000	      0.00000000	      0.00000000
      1.47500000	    -57.73930780	     -7.26616504	      0.00000000	      0.00000000	     42.93958651	    145.56713560	    -35.76248826	     -0.00000000	     -0.00000000	      0.00000000	      0.00000000	      0.00000000	      0.00000000	      0.00000000	      0.00000000	      0.00000000	      0.00000000	      0.00000000
      1.48550000	    -58.67444068	     -7.46243140	      0.00000000	      0.00000000	     43.06914734	    146.15146123	    -33.94911636	     -0.00000000	      0.00000000	      0.00000000	      0.00000000	      0.00000000	      0.00000000	      0.00000000	      0.00000000	      0.00000000	      0.00000000	      0.00000000
      1.49600000	    -59.72928494	     -7.68812925	      0.00000000	      0.00000000	     43.25129187	    146.83042302	    -31.76245711	     -0.00000000	      0.00000000	      0.00000000	      0.00000000	      0.00000000	      0.00000000	      0.00000000	      0.00000000	      0.00000000	      0.00000000	      0.00000000
      1.50650000	    -60.92850027	     -7.95115831	      0.00000000	      0.00000000	     43.42121386	    147.30411394	    -29.12302663	      0.00000000	      0.00000000	      0.00000000	      0.00000000	      0.00000000	      0.00000000	      0.00000000	      0.00000000	      0.00000000	      0.00000000	      0.00000000
      1.51700000	    -62.08063072	     -8.21215689	      0.00000000	      0.00000000	     43.46396882	    147.16895398	    -26.44873582	     -0.00000000	      0.00000000	      0.00000000	      0.00000000	      0.00000000	      0.00000000	      0.00000000	      0.00000000	      0.00000000	      0.00000000	      0.00000000
      1.52750000	    -63.07874776	     -8.44668582	      0.00000000	      0.00000000	     43.31790251	    146.26922539	    -23.92960248	      0.00000000	      0.00000000	      0.00000000	      0.00000000	      0.00000000	      0.00000000	      0.00000000	      0.00000000	      0.00000000	      0.00000000	      0.00000000
      1.53800000	    -63.97708430	     -8.66581715	      0.00000000	      0.00000000	     42.95963222	    144.54854978	    -21.44804280	      0.00000000	      0.00000000	      0.00000000	      0.00000000	      0.00000000	      0.00000000	      0.00000000	      0.00000000	      0.00000000	      0.00000000	      0.00000000
      1.54850000	    -64.78087927	     -8.86907201	      0.00000000	      0.00000000	     42.54511489	    142.71265880	    -19.11360428	     -0.00000000	     -0.00000000	      0.00000000	      0.00000000	      0.00000000	      0.00000000	      0.00000000	      0.00000000	      0.00000000	      0.00000000	      0.00000000
      1.55900000	    -65.46619220	     -9.04860126	      0.00000000	      0.00000000	     42.14942388	    141.07726328	    -17.02353375	     -0.00000000	     -0.00000000	      0.00000000	      0.00000000	      0.00000000	      0.00000000	      0.00000000	      0.00000000	      0.00000000	      0.00000000	      0.00000000
      1.56950000	    -66.04331947	     -9.20532434	      0.00000000	      0.00000000	     41.76245424	    139.57030986	    -15.12269387	      0.00000000	      0.00000000	      0.00000000	      0.00000000	      0.00000000	      0.00000000	      0.00000000	      0.00000000	      0.00000000	      0.00000000	      0.00000000
      1.58000000	    -66.51124233	     -9.33672794	      0.00000000	      0.00000000	     41.39410580	    138.20172105	    -13.47906062	      0.00000000	      0.00000000	      0.00000000	      0.00000000	      0.00000000	      0.00000000	      0.00000000	      0.00000000	      0.00000000	      0.00000000	      0.00000000
      1.59050000	    -66.86367670	     -9.43821782	      0.00000000	      0.00000000	     41.07223635	    137.05134529	    -12.21310308	      0.00000000	      0.00000000	      0.00000000	      0.00000000	      0.00000000	      0.00000000	      0.00000000	      0.00000000	      0.00000000	      0.00000000	      0.00000000
      1.60100000	    -67.11771357	     -9.51220225	      0.00000000	      0.00000000	     40.80974511	    136.14838553	    -11.29935325	     -0.00000000	      0.00000000	      0.00000000	      0.00000000	      0.00000000	      0.00000000	      0.00000000	      0.00000000	      0.00000000	      0.00000000	      0.00000000
      1.61150000	    -67.29068039	     -9.56205819	      0.00000000	      0.00000000	     40.61270871	    135.50440481	    -10.67923985	     -0.00000000	     -0.00000000	      0.00000000	      0.00000000	      0.00000000	      0.00000000	      0.00000000	      0.00000000	      0.00000000	      0.00000000	      0.00000000
      1.62200000	    -67.38413534	     -9.58709375	      0.00000000	      0.00000000	     40.49730818	    135.16921104	    -10.38190057	      0.00000000	     -0.00000000	      0.00000000	      0.00000000	      0.00000000	      0.00000000	      0.00000000	      0.00000000	      0.00000000	      0.00000000	      0.00000000
      1.63250000	    -67.39543097	     -9.58576305	      0.00000000	      0.00000000	     40.47755800	    135.18723491	    -10.44306000	     -0.00000000	      0.00000000	      0.00000000	      0.00000000	      0.00000000	      0.00000000	      0.00000000	      0.00000000	      0.00000000	      0.00000000	      0.00000000
      1.64300000	    -67.33468284	     -9.56117902	      0.00000000	      0.00000000	     40.54166826	    135.51602800	    -10.81285809	      0.00000000	      0.00000000	      0.00000000	      0.00000000	      0.00000000	      0.00000000	      0.00000000	      0.00000000	      0.00000000	      0.00000000	      0.00000000
      1.65350000	    -67.21097163	     -9.51673252	      0.00000000	      0.00000000	     40.67087273	    136.09110823	    -11.43999526	     -0.00000000	     -0.00000000	      0.00000000	      0.00000000	      0.00000000	      0.00000000	      0.00000000	      0.00000000	      0.00000000	      0.00000000	      0.00000000
      1.66400000	    -67.02568312	     -9.45383512	      0.00000000	      0.00000000	     40.85149187	    136.86562658	    -12.29847853	     -0.00000000	      0.00000000	      0.00000000	      0.00000000	      0.00000000	      0.00000000	      0.00000000	      0.00000000	      0.00000000	      0.00000000	      0.00000000
      1.67450000	    -66.77862463	     -9.37363461	      0.00000000	      0.00000000	     41.06961317	    137.79408397	    -13.36858963	      0.00000000	      0.00000000	      0.00000000	      0.00000000	      0.00000000	      0.00000000	      0.00000000	      0.00000000	      0.00000000	      0.00000000	      0.00000000
      1.68500000	    -66.47450170	     -9.27882732	      0.00000000	      0.00000000	     41.30719998	    138.81944151	    -14.60708506	     -0.00000000	     -0.00000000	      0.00000000	      0.00000000	      0.00000000	      0.00000000	      0.00000000	      0.00000000	      0.00000000	      0.00000000	      0.00000000
      1.69550000	    -66.11959877	     -9.17244172	      0.00000000	      0.00000000	     41.54910353	    139.89587498	    -15.96467245	      0.00000000	      0.00000000	      0.00000000	      0.00000000	      0.00000000	      0.00000000	      0.00000000	      0.00000000	      0.00000000	      0.00000000	      0.00000000
      1.70600000	    -65.71735541	     -9.05644604	      0.00000000	      0.00000000	     41.78758561	    141.00415553	    -17.41169123	     -0.00000000	     -0.00000000	      0.00000000	      0.00000000	      0.00000000	      0.00000000	      0.00000000	      0.00000000	      0.00000000	      0.00000000	      0.00000000
      1.71650000	    -65.27205496	     -8.93281543	      0.00000000	      0.00000000	     42.01864939	    142.13801989	    -18.92079421	      0.00000000	     -0.00000000	      0.00000000	      0.00000000	      0.00000000	      0.00000000	      0.00000000	      0.00000000	      0.00000000	      0.00000000	      0.00000000
      1.72700000	    -64.79037022	     -8.80390947	      0.00000000	      0.00000000	     42.24058804	    143.29808215	    -20.45916510	     -0.00000000	      0.00000000	      0.00000000	      0.00000000	      0.00000000	      0.00000000	      0.00000000	      0.00000000	      0.00000000	      0.00000000	      0.00000000
      1.73750000	    -64.28025061	     -8.67212960	      0.00000000	      0.00000000	     42.45413752	    144.49075074	    -21.99613273	      0.00000000	      0.00000000	      0.00000000	      0.00000000	      0.00000000	      0.00000000	      0.00000000	      0.00000000	      0.00000000	      0.00000000	      0.00000000
      1.74800000	    -63.74728479	     -8.53899420	      0.00000000	      0.00000000	     42.64470896	    145.65360882	    -23.51552377	      0.00000000	      0.00000000	      0.00000000	      0.00000000	      0.00000000	      0.00000000	      0.00000000	      0.00000000	      0.00000000	      0.00000000	      0.00000000
      1.75850000	    -63.19819979	     -8.40611010	      0.00000000	      0.00000000	     42.74360055	    146.48938121	    -24.99906325	      0.00000000	      0.00000000	      0.00000000	      0.00000000	      0.00000000	      0.00000000	      0.00000000	      0.00000000	      0.00000000	      0.00000000	      0.00000000
      1.76900000	    -62.64003403	     -8.27498506	      0.00000000	      0.00000000	     42.75645148	    147.01147486	    -26.43252445	     -0.00000000	      0.00000000	      0.00000000	      0.00000000	      0.00000000	      0.00000000	      0.00000000	      0.00000000	      0.00000000	      0.00000000	      0.00000000
      1.77950000	    -62.08060219	     -8.14716505	      0.00000000	      0.00000000	     42.69942122	    147.27577714	    -27.80275355	      0.00000000	      0.00000000	      0.00000000	      0.00000000	      0.00000000	      0.00000000	      0.00000000	      0.00000000	      0.00000000	      0.00000000	      0.00000000
      1.79000000	    -61.52816909	     -8.02417377	      0.00000000	      0.00000000	     42.58942424	    147.34006154	    -29.09647061	      0.00000000	      0.00000000	      0.00000000	      0.00000000	      0.00000000	      0.00000000	      0.00000000	      0.00000000	      0.00000000	      0.00000000	      0.00000000
      1.80050000	    -60.99059657	     -7.90734313	      0.00000000	      0.00000000	     42.44279201	    147.25957476	    -30.30425920	     -0.00000000	      0.00000000	      0.00000000	      0.00000000	      0.00000000	      0.00000000	      0.00000000	      0.00000000	      0.00000000	      0.00000000	      0.00000000
      1.81100000	    -60.47604140	     -7.79801514	      0.00000000	      0.00000000	     42.27439018	    147.08371753	    -31.41792327	     -0.00000000	      0.00000000	      0.00000000	      0.00000000	      0.00000000	      0.00000000	      0.00000000	      0.00000000	      0.00000000	      0.00000000	      0.00000000
      1.82150000	    -59.99361491	     -7.69770416	      0.00000000	      0.00000000	     42.09741273	    146.85503826	    -32.42631220	      0.00000000	      0.00000000	      0.00000000	      0.00000000	      0.00000000	      0.00000000	      0.00000000	      0.00000000	      0.00000000	      0.00000000	      0.00000000
      1.83200000	    -59.55207224	     -7.60782720	      0.00000000	      0.00000000	     41.92278782	    146.60816677	    -33.32075955	      0.00000000	      0.00000000	      0.00000000	      0.00000000	      0.00000000	      0.00000000	      0.00000000	      0.00000000	      0.00000000	      0.00000000	      0.00000000
      1.84250000	    -59.15949525	     -7.52966286	      0.00000000	      0.00000000	     41.75899529	    146.36948752	    -34.09480532	      0.00000000	     -0.00000000	      0.00000000	      0.00000000	      0.00000000	      0.00000000	      0.00000000	      0.00000000	      0.00000000	      0.00000000	      0.00000000
      1.85300000	    -58.82438299	     -7.46462225	      0.00000000	      0.00000000	     41.61257775	    146.15870792	    -34.73915400	     -0.00000000	      0.00000000	      0.00000000	      0.00000000	      0.00000000	      0.00000000	      0.00000000	      0.00000000	      0.00000000	      0.00000000	      0.00000000
      1.86350000	    -58.55467836	     -7.41404156	      0.00000000	      0.00000000	     41.48829469	    145.98954838	    -35.24522402	      0.00000000	      0.00000000	      0.00000000	      0.00000000	      0.00000000	      0.00000000	      0.00000000	      0.00000000	      0.00000000	      0.00000000	      0.00000000
      1.87400000	    -58.35750175	     -7.37914921	      0.00000000	      0.00000000	     41.38952009	    145.87109804	    -35.60516924	     -0.00000000	      0.00000000	      0.00000000	      0.00000000	      0.00000000	      0.00000000	      0.00000000	      0.00000000	      0.00000000	      0.00000000	      0.00000000
      1.88450000	    -58.23913458	     -7.36106843	      0.00000000	      0.00000000	     41.31884879	    145.80934988	    -35.81079953	      0.00000000	      0.00000000	      0.00000000	      0.00000000	      0.00000000	      0.00000000	      0.00000000	      0.00000000	      0.00000000	      0.00000000	      0.00000000
      1.89500000	    -58.20297173	     -7.36040091	      0.00000000	      0.00000000	     41.27786900	    145.80706671	    -35.85746656	      0.00000000	      0.00000000	      0.00000000	      0.00000000	      0.00000000	      0.00000000	      0.00000000	      0.00000000	      0.00000000	      0.00000000	      0.00000000
      1.90550000	    -58.25073842	     -7.37750221	      0.00000000	      0.00000000	     41.26783413	    145.86548183	    -35.74200066	      0.00000000	      0.00000000	      0.00000000	      0.00000000	      0.00000000	      0.00000000	      0.00000000	      0.00000000	      0.00000000	      0.00000000	      0.00000000
      1.91600000	    -58.38195654	     -7.41240541	      0.00000000	      0.00000000	     41.28933510	    145.98402049	    -35.46103352	      0.00000000	      0.00000000	      0.00000000	      0.00000000	      0.00000000	      0.00000000	      0.00000000	      0.00000000	      0.00000000	      0.00000000	      0.00000000
      1.92650000	    -58.59361324	     -7.46470839	      0.00000000	      0.00000000	     41.34196270	    146.15899268	    -35.01477201	      0.00000000	      0.00000000	      0.00000000	      0.00000000	      0.00000000	      0.00000000	      0.00000000	      0.00000000	      0.00000000	      0.00000000	      0.00000000
      1.93700000	    -58.87428687	     -7.53224918	      0.00000000	      0.00000000	     41.42159222	    146.37766909	    -34.41972297	     -0.00000000	      0.00000000	      0.00000000	      0.00000000	      0.00000000	      0.00000000	      0.00000000	      0.00000000	      0.00000000	      0.00000000	      0.00000000
      1.94750000	    -59.20962133	     -7.61224959	      0.00000000	      0.00000000	     41.52147645	    146.62107513	    -33.69598181	     -0.00000000	      0.00000000	      0.00000000	      0.00000000	      0.00000000	      0.00000000	      0.00000000	      0.00000000	      0.00000000	      0.00000000	      0.00000000
      1.95800000	    -59.57908822	     -7.70053580	      0.00000000	      0.00000000	     41.63094063	    146.86223313	    -32.87597622	      0.00000000	      0.00000000	      0.00000000	      0.00000000	      0.00000000	      0.00000000	      0.00000000	      0.00000000	      0.00000000	      0.00000000	      0.00000000
      1.96850000	    -59.95601138	     -7.79126980	      0.00000000	      0.00000000	     41.73681011	    147.07017330	    -32.01707055	      0.00000000	     -0.00000000	      0.00000000	      0.00000000	      0.00000000	      0.00000000	      0.00000000	      0.00000000	      0.00000000	      0.00000000	      0.00000000
      1.97900000	    -60.29323194	     -7.87310873	      0.00000000	      0.00000000	     41.82300167	    147.21390636	    -31.22691139	      0.00000000	      0.00000000	      0.00000000	      0.00000000	      0.00000000	      0.00000000	      0.00000000	      0.00000000	      0.00000000	      0.00000000	      0.00000000
      1.98950000	    -60.54354077	     -7.93428685	      0.00000000	      0.00000000	     41.87978889	    147.28888892	    -30.62537810	     -0.00000000	      0.00000000	      0.00000000	      0.00000000	      0.00000000	      0.00000000	      0.00000000	      0.00000000	      0.00000000	      0.00000000	      0.00000000
