NormFiberVelocity
version=1
nRows=98
nColumns=19
inDegrees=no

This analysis gathers basic information about muscles during a simulation (e.g., forces, tendon lengths, moment arms, etc).
Units are S.I. units (second, meters, Newtons, ...)
If the header above contains a line with 'inDegrees', this indicates whether rotational values are in degrees (yes) or radians (no).

endheader
time	hamstrings_r	bifemsh_r	glut_max_r	iliopsoas_r	rect_fem_r	vasti_r	gastroc_r	soleus_r	dorsiflexors_r	hamstrings_l	bifemsh_l	glut_max_l	iliopsoas_l	rect_fem_l	vasti_l	gastroc_l	soleus_l	dorsiflexors_l
      0.97100000	     -0.03642930	     -0.03576044	      0.00283208	     -0.00156643	      0.06454073	      0.03637218	      0.05007026	      0.02656399	     -0.00131697	     -0.03242685	     -0.01507404	     -0.00551911	      0.00436596	      0.03616478	      0.01706489	      0.01928380	      0.00107722	      0.00039920
      0.98150000	     -0.04515394	     -0.05075218	      0.00762972	     -0.00422681	      0.08581857	      0.05030074	      0.06684356	      0.03788246	     -0.00163583	     -0.04502587	     -0.01880567	     -0.00893341	      0.00704985	      0.04928369	      0.02113840	      0.01345311	     -0.01036716	     -0.00383355
      0.99200000	     -0.04825812	     -0.06344947	      0.01396916	     -0.00776451	      0.09917314	      0.06084633	      0.08022150	      0.05083339	     -0.00159850	     -0.05176912	     -0.02029229	     -0.01110904	      0.00873726	      0.05644028	      0.02262516	      0.00989112	     -0.01537447	     -0.00562405
      1.00250000	     -0.04779366	     -0.07501401	      0.02141501	     -0.01196917	      0.10674851	      0.06909349	      0.08258480	      0.05755102	     -0.00075686	     -0.05455545	     -0.01969772	     -0.01274894	      0.00998739	      0.05892908	      0.02178217	      0.01092016	     -0.01199801	     -0.00434915
      1.01300000	     -0.04625533	     -0.08582256	      0.02869158	     -0.01616262	      0.10970154	      0.07513418	      0.08508514	      0.06830966	      0.00075650	     -0.05761098	     -0.01840667	     -0.01490344	      0.01162155	      0.06104763	      0.02019293	      0.00079205	     -0.02140623	     -0.00766489
      1.02350000	     -0.04294906	     -0.09554034	      0.03600657	     -0.02049086	      0.10792127	      0.07903684	      0.07779267	      0.07312341	      0.00314701	     -0.06017416	     -0.01664068	     -0.01711708	      0.01327629	      0.06230581	      0.01811809	     -0.00985447	     -0.03107497	     -0.01089773
      1.03400000	     -0.03726812	     -0.10307887	      0.04306409	     -0.02481579	      0.10118040	      0.08056407	      0.06106161	      0.07081623	      0.00538427	     -0.06138541	     -0.01406586	     -0.01919841	      0.01480013	      0.06169130	      0.01520936	     -0.01574551	     -0.03436655	     -0.01172045
      1.04450000	     -0.02961660	     -0.10804509	      0.04946747	     -0.02892867	      0.09033686	      0.07999178	      0.05344628	      0.08004362	      0.00899659	     -0.06132686	     -0.01085634	     -0.02108332	      0.01614333	      0.05935859	      0.01167113	     -0.02059343	     -0.03604779	     -0.01191648
      1.05500000	     -0.02157193	     -0.11155210	      0.05506876	     -0.03274796	      0.07752670	      0.07839476	      0.01672316	      0.05791681	      0.00851409	     -0.06030020	     -0.00764181	     -0.02255116	      0.01714059	      0.05603293	      0.00817897	     -0.02836849	     -0.04144902	     -0.01319801
      1.06550000	     -0.01118243	     -0.11106352	      0.05959315	     -0.03609993	      0.06054464	      0.07427951	      0.00525668	      0.05045409	      0.00857361	     -0.05882805	     -0.00443853	     -0.02382450	      0.01796728	      0.05217015	      0.00473642	     -0.03315700	     -0.04346121	     -0.01322600
      1.07600000	      0.00054735	     -0.10719408	      0.06295259	     -0.03890137	      0.04135916	      0.06854481	      0.00229504	      0.05647061	      0.01107569	     -0.05747594	     -0.00109940	     -0.02524301	      0.01888003	      0.04812027	      0.00117156	     -0.03652981	     -0.04376091	     -0.01266320
      1.08650000	      0.01188062	     -0.10186455	      0.06534524	     -0.04123609	      0.02248666	      0.06262434	     -0.03370190	      0.02227119	      0.00476494	     -0.05624100	      0.00218155	     -0.02670331	      0.01979756	      0.04402617	     -0.00232539	     -0.04055358	     -0.04487940	     -0.01226993
      1.09700000	      0.02556685	     -0.09262548	      0.06690993	     -0.04315371	      0.00158275	      0.05511658	     -0.04182154	      0.01612796	      0.00355492	     -0.05485812	      0.00513176	     -0.02793387	      0.02051935	      0.03990253	     -0.00548015	     -0.04257717	     -0.04393626	     -0.01127784
      1.10750000	      0.04000647	     -0.08087663	      0.06746842	     -0.04449620	     -0.01918320	      0.04695779	     -0.03511758	      0.02358577	      0.00542199	     -0.05349677	      0.00784862	     -0.02906717	      0.02114717	      0.03582006	     -0.00840818	     -0.04370694	     -0.04209857	     -0.01010126
      1.11800000	      0.05266902	     -0.06880507	      0.06680910	     -0.04506279	     -0.03721759	      0.03929581	     -0.04538708	      0.00818813	      0.00193924	     -0.05242289	      0.01037981	     -0.03025520	      0.02179213	      0.03195626	     -0.01116837	     -0.04483880	     -0.04031255	     -0.00900400
      1.12850000	      0.06432462	     -0.05626481	      0.06520101	     -0.04496722	     -0.05311703	      0.03182077	     -0.05078416	     -0.00459091	     -0.00108934	     -0.05164344	      0.01260339	     -0.03143394	      0.02240679	      0.02843332	     -0.01363336	     -0.04588573	     -0.03857268	     -0.00798575
      1.13900000	      0.07533007	     -0.04344678	      0.06286504	     -0.04430789	     -0.06710413	      0.02445677	     -0.04660099	     -0.00885724	     -0.00207468	     -0.05120425	      0.01442185	     -0.03256833	      0.02296655	      0.02539907	     -0.01569514	     -0.04597565	     -0.03600553	     -0.00688354
      1.14950000	      0.08510115	     -0.03098492	      0.05983957	     -0.04306690	     -0.07869194	      0.01741883	     -0.03913153	     -0.01127321	     -0.00259366	     -0.05103826	      0.01590885	     -0.03366997	      0.02348060	      0.02275638	     -0.01742750	     -0.04607966	     -0.03365444	     -0.00593018
      1.16000000	      0.09322678	     -0.01923543	      0.05618579	     -0.04124816	     -0.08765189	      0.01081730	     -0.03222948	     -0.01557838	     -0.00349525	     -0.05112237	      0.01704718	     -0.03471640	      0.02393437	      0.02053002	     -0.01880445	     -0.04670004	     -0.03211020	     -0.00519522
      1.17050000	      0.10001519	     -0.00803575	      0.05207770	     -0.03894871	     -0.09441462	      0.00452198	     -0.02359315	     -0.01847220	     -0.00400716	     -0.05127519	      0.01787172	     -0.03563892	      0.02428300	      0.01857813	     -0.01985640	     -0.04647673	     -0.02987171	     -0.00442334
      1.18100000	      0.10570830	      0.00284233	      0.04764279	     -0.03624684	     -0.09940342	     -0.00159974	     -0.01272666	     -0.01881973	     -0.00392779	     -0.05132946	      0.01842011	     -0.03637400	      0.02448807	      0.01677116	     -0.02061831	     -0.04685172	     -0.02852240	     -0.00385485
      1.19150000	      0.11058248	      0.01366454	      0.04300614	     -0.03323139	     -0.10310582	     -0.00768705	     -0.00118414	     -0.01800399	     -0.00361042	     -0.05132339	      0.01865771	     -0.03690992	      0.02454811	      0.01521229	     -0.02104477	     -0.04756487	     -0.02785130	     -0.00341334
      1.20200000	      0.11489551	      0.02464343	      0.03829163	     -0.03000215	     -0.10602365	     -0.01385460	      0.01005018	     -0.01672052	     -0.00322246	     -0.05131265	      0.01857644	     -0.03725912	      0.02447788	      0.01398916	     -0.02111906	     -0.04745008	     -0.02666641	     -0.00294396
      1.21250000	      0.11895716	      0.03599561	      0.03360176	     -0.02665118	     -0.10869727	     -0.02024241	      0.02093056	     -0.01467586	     -0.00272355	     -0.05105249	      0.01825268	     -0.03733838	      0.02422980	      0.01286570	     -0.02093189	     -0.04756974	     -0.02607721	     -0.00257462
      1.22300000	      0.12297977	      0.04780949	      0.02901203	     -0.02325549	     -0.11158142	     -0.02695591	      0.03121849	     -0.01182162	     -0.00212195	     -0.05027981	      0.01777926	     -0.03706240	      0.02375829	      0.01154659	     -0.02061784	     -0.04822746	     -0.02631354	     -0.00229445
      1.23350000	      0.12708775	      0.06002804	      0.02458221	     -0.01988248	     -0.11505074	     -0.03406661	      0.04030903	     -0.00854311	     -0.00149340	     -0.04925360	      0.01707459	     -0.03649279	      0.02311305	      0.01036430	     -0.02006817	     -0.04800514	     -0.02601502	     -0.00197092
      1.24400000	      0.13133325	      0.07244709	      0.02036738	     -0.01659713	     -0.11941917	     -0.04161559	      0.04771226	     -0.00508669	     -0.00087312	     -0.04822636	      0.01606339	     -0.03569446	      0.02234276	      0.00965157	     -0.01916683	     -0.04707071	     -0.02553642	     -0.00165327
      1.25450000	      0.13560356	      0.08469405	      0.01640094	     -0.01344627	     -0.12485613	     -0.04959819	      0.05309885	     -0.00149279	     -0.00025396	     -0.04702519	      0.01490206	     -0.03467292	      0.02145653	      0.00915319	     -0.01806956	     -0.04705728	     -0.02640531	     -0.00142269
      1.26500000	      0.13975566	      0.09631336	      0.01272645	     -0.01048367	     -0.13147318	     -0.05798103	      0.05617834	      0.00217863	      0.00037097	     -0.04544479	      0.01377271	     -0.03343758	      0.02046511	      0.00852584	     -0.01697929	     -0.04663629	     -0.02694202	     -0.00115629
      1.27550000	      0.14332879	      0.10673532	      0.00931119	     -0.00769785	     -0.13890550	     -0.06658957	      0.05666643	      0.00583173	      0.00100387	     -0.04398796	      0.01237338	     -0.03203544	      0.01940094	      0.00855156	     -0.01550854	     -0.04459587	     -0.02637657	     -0.00085424
      1.28600000	      0.14586748	      0.11540249	      0.00614156	     -0.00509013	     -0.14669785	     -0.07519461	      0.05440961	      0.00936188	      0.00164442	     -0.04310581	      0.01039083	     -0.03047788	      0.01827309	      0.01004225	     -0.01322618	     -0.04174112	     -0.02610156	     -0.00058660
      1.29650000	      0.14717288	      0.12174941	      0.00335187	     -0.00278227	     -0.15451145	     -0.08345201	      0.04937813	      0.01264169	      0.00228463	     -0.04251094	      0.00845348	     -0.02905758	      0.01725638	      0.01189815	     -0.01090495	     -0.03963004	     -0.02669998	     -0.00034752
      1.30700000	      0.14708613	      0.12534627	      0.00107034	     -0.00088908	     -0.16183802	     -0.09095737	      0.04368853	      0.01553402	      0.00290737	     -0.04196446	      0.00722709	     -0.02814048	      0.01656000	      0.01284960	     -0.00943158	     -0.03857404	     -0.02730953	     -0.00010612
      1.31750000	      0.14453031	      0.12582790	     -0.00094528	      0.00078521	     -0.16708083	     -0.09722577	      0.02725250	      0.01809604	      0.00352468	     -0.04259403	      0.00500528	     -0.02711429	      0.01581608	      0.01626454	     -0.00659584	     -0.03329248	     -0.02535545	      0.00011048
      1.32800000	      0.13859504	      0.12292043	     -0.00286628	      0.00237943	     -0.16900919	     -0.10191539	      0.00932999	      0.02007658	      0.00408223	     -0.04579999	     -0.00043912	     -0.02510497	      0.01452285	      0.02674030	      0.00058092	     -0.02409818	     -0.02484745	      0.00028136
      1.33850000	      0.13065420	      0.11693042	     -0.00416494	      0.00345349	     -0.16800909	     -0.10459829	     -0.00869221	      0.02116190	      0.00449594	     -0.04707965	     -0.00331261	     -0.02390871	      0.01372487	      0.03194164	      0.00436500	     -0.02029648	     -0.02538816	      0.00044897
      1.34900000	      0.12224638	      0.10833525	     -0.00432359	      0.00358000	     -0.16254278	     -0.10366313	     -0.02522412	      0.02132360	      0.00472744	     -0.04142685	      0.00288881	     -0.02557997	      0.01457097	      0.01801636	     -0.00380148	     -0.02697707	     -0.02190106	      0.00050003
      1.35950000	      0.11199760	      0.09737987	     -0.00392608	      0.00324650	     -0.15089633	     -0.09895566	     -0.03834832	      0.02090661	      0.00482367	     -0.03548518	      0.00964668	     -0.02754049	      0.01555641	      0.00266470	     -0.01283097	     -0.03632168	     -0.02023564	      0.00053763
      1.37000000	      0.09836475	      0.08439090	     -0.00367572	      0.00303573	     -0.13233943	     -0.09056471	     -0.04673350	      0.01969485	      0.00471257	     -0.03574732	      0.00910241	     -0.02755503	      0.01543009	      0.00297784	     -0.01230320	     -0.03434149	     -0.01891603	      0.00055776
      1.38050000	      0.08299205	      0.07037871	     -0.00333404	      0.00275037	     -0.10870641	     -0.07821720	     -0.05019507	      0.01725497	      0.00426090	     -0.03877840	      0.00560646	     -0.02689462	      0.01493264	      0.01021047	     -0.00767233	     -0.02387901	     -0.01418587	      0.00044477
      1.39100000	      0.06752734	      0.05601877	     -0.00253545	      0.00208956	     -0.08445339	     -0.06377185	     -0.04860260	      0.01383353	      0.00350361	     -0.04172406	      0.00226324	     -0.02628845	      0.01447559	      0.01737819	     -0.00311820	     -0.01576129	     -0.01160395	      0.00037605
      1.40150000	      0.05204992	      0.04181051	     -0.00152261	      0.00125400	     -0.06154474	     -0.04851112	     -0.04147168	      0.01079659	      0.00278724	     -0.04452280	     -0.00112289	     -0.02556100	      0.01396210	      0.02468228	      0.00154858	     -0.00750221	     -0.00897008	      0.00029635
      1.41200000	      0.03631643	      0.02793244	     -0.00053796	      0.00044291	     -0.04063879	     -0.03311402	     -0.02906176	      0.00902735	      0.00236582	     -0.04710504	     -0.00456975	     -0.02466572	      0.01336865	      0.03199944	      0.00627152	      0.00329846	     -0.00395464	      0.00013171
      1.42250000	      0.02128251	      0.01512939	      0.00032593	     -0.00026833	     -0.02242398	     -0.01826319	     -0.01635154	      0.00538609	      0.00142752	     -0.04906190	     -0.00816432	     -0.02329238	      0.01253102	      0.03916474	      0.01108463	      0.01434657	      0.00115425	     -0.00003850
      1.43300000	      0.00773722	      0.00407245	      0.00092425	     -0.00076108	     -0.00717547	     -0.00496131	     -0.00693905	     -0.00136360	     -0.00036251	     -0.04989144	     -0.01185971	     -0.02116451	      0.01130847	      0.04573570	      0.01583951	      0.02583816	      0.00669389	     -0.00022234
      1.44350000	     -0.00517395	     -0.00630257	      0.00142523	     -0.00117408	      0.00691354	      0.00766966	      0.00672105	     -0.00255106	     -0.00067529	     -0.05063346	     -0.01585029	     -0.01875789	      0.00996146	      0.05246107	      0.02071626	      0.03911031	      0.01375101	     -0.00044979
      1.45400000	     -0.01847480	     -0.01711553	      0.00197237	     -0.00162570	      0.02174625	      0.02059811	      0.02887380	      0.00621977	      0.00165005	     -0.05241232	     -0.02036525	     -0.01660963	      0.00877310	      0.06013673	      0.02592616	      0.05399731	      0.02204695	     -0.00068979
      1.46450000	     -0.02937141	     -0.02615531	      0.00242837	     -0.00200299	      0.03472644	      0.03091721	      0.03598843	      0.00210233	      0.00056311	     -0.05403428	     -0.02533851	     -0.01405768	      0.00739033	      0.06795144	      0.03130732	      0.06954884	      0.03112965	     -0.00087265
      1.47500000	     -0.03386610	     -0.03028464	      0.00271972	     -0.00224521	      0.04122272	      0.03517794	      0.01592234	     -0.02449886	     -0.00645698	     -0.05415554	     -0.03072727	     -0.01028807	      0.00538844	      0.07521060	      0.03679692	      0.08593913	      0.04167298	     -0.00089905
      1.48550000	     -0.04025444	     -0.03411989	      0.00200740	     -0.00165853	      0.04932324	      0.03912401	      0.03150477	     -0.00825531	     -0.00210172	     -0.05421956	     -0.03671781	     -0.00607555	      0.00317422	      0.08304553	      0.04270271	      0.10329844	      0.05412541	     -0.00054524
      1.49600000	     -0.05721547	     -0.04282665	     -0.00052595	      0.00043467	      0.06900072	      0.04841440	      0.06886290	      0.02844321	      0.00740268	     -0.05547075	     -0.04360721	     -0.00203190	      0.00106027	      0.09286482	      0.04958471	      0.12202261	      0.06925437	      0.00061077
      1.50650000	     -0.07150696	     -0.04912108	     -0.00338007	      0.00279158	      0.08654357	      0.05454265	      0.02456511	     -0.02399875	     -0.00633873	     -0.05658734	     -0.05108623	      0.00240366	     -0.00125431	      0.10336041	      0.05695606	      0.13688788	      0.08299169	      0.00306732
      1.51700000	     -0.07110407	     -0.04744628	     -0.00440929	      0.00363676	      0.08745037	      0.05158402	     -0.00628005	     -0.05146924	     -0.01258355	     -0.05612352	     -0.05861155	      0.00773524	     -0.00404263	      0.11237740	      0.06386468	      0.14941836	      0.09773765	      0.00725885
      1.52750000	     -0.06750960	     -0.04515659	     -0.00437166	      0.00360059	      0.08427393	      0.04795157	      0.04800389	      0.01780938	      0.00421745	     -0.05449020	     -0.06670770	      0.01407765	     -0.00738161	      0.12014583	      0.07054510	      0.16040009	      0.11408964	      0.01381640
      1.53800000	     -0.07088476	     -0.04471944	     -0.00624332	      0.00513361	      0.08745183	      0.04619760	      0.04012372	      0.01367825	      0.00339277	     -0.05293513	     -0.07527158	      0.02048240	     -0.01079679	      0.12585264	      0.07625337	      0.16754596	      0.12996203	      0.02275391
      1.54850000	     -0.07605055	     -0.04204064	     -0.01002687	      0.00822276	      0.09089106	      0.04228014	     -0.02282996	     -0.05262962	     -0.01256978	     -0.05117139	     -0.08342380	      0.02645694	     -0.01404652	      0.12853255	      0.08047273	      0.16483467	      0.13894256	      0.03224623
      1.55900000	     -0.07849290	     -0.03821113	     -0.01323975	      0.01081557	      0.09133160	      0.03753615	     -0.02070756	     -0.04430372	     -0.00953668	     -0.04771794	     -0.09115581	      0.03297116	     -0.01766497	      0.12775132	      0.08353308	      0.15529018	      0.14326047	      0.04089368
      1.56950000	     -0.07866643	     -0.03418454	     -0.01557512	      0.01266256	      0.08955345	      0.03288828	      0.00664867	     -0.00876290	     -0.00179401	     -0.04324352	     -0.09855455	      0.03964023	     -0.02147745	      0.12306127	      0.08507576	      0.14364491	      0.14786255	      0.04933199
      1.58000000	     -0.07636746	     -0.02830837	     -0.01779921	      0.01439046	      0.08450856	      0.02674798	     -0.00737762	     -0.02014642	     -0.00402941	     -0.03802940	     -0.10414758	      0.04529958	     -0.02486957	      0.11415851	      0.08430612	      0.12555992	      0.14712250	      0.05512038
      1.59050000	     -0.07377591	     -0.02158780	     -0.02031615	      0.01632102	      0.07873815	      0.02010423	     -0.03295072	     -0.04488232	     -0.00828384	     -0.03115798	     -0.10754294	      0.05039446	     -0.02808240	      0.10211591	      0.08192353	      0.10143291	      0.13977496	      0.05702322
      1.60100000	     -0.07378970	     -0.01557960	     -0.02357980	      0.01880363	      0.07564882	      0.01435047	     -0.03003367	     -0.03853423	     -0.00632584	     -0.02369375	     -0.11026632	      0.05531986	     -0.03134268	      0.08926234	      0.07942756	      0.05822668	      0.10818096	      0.04673255
      1.61150000	     -0.07372284	     -0.00968473	     -0.02677773	      0.02117194	      0.07238391	      0.00885282	     -0.02120721	     -0.02637898	     -0.00394650	     -0.01436698	     -0.10989464	      0.05940368	     -0.03427232	      0.07319372	      0.07509040	      0.04263989	      0.09996117	      0.04479682
      1.62200000	     -0.07032549	     -0.00301793	     -0.02897066	      0.02268903	      0.06546387	      0.00274792	     -0.02777447	     -0.03124797	     -0.00425937	     -0.00270032	     -0.10579673	      0.06267355	     -0.03686743	      0.05404436	      0.06887541	      0.02801635	      0.09243783	      0.04273883
      1.63250000	     -0.06659930	      0.00352300	     -0.03098540	      0.02402015	      0.05803305	     -0.00320847	     -0.03227941	     -0.03387621	     -0.00407539	      0.00920506	     -0.10024891	      0.06527494	     -0.03919266	      0.03486510	      0.06250644	     -0.01801804	      0.04175138	      0.01965265
      1.64300000	     -0.06574928	      0.00891609	     -0.03370391	      0.02584035	      0.05343425	     -0.00815132	     -0.03150915	     -0.03103193	     -0.00325059	      0.02163610	     -0.09222211	      0.06677555	     -0.04095699	      0.01531352	      0.05539353	     -0.03455965	      0.02517361	      0.01193315
      1.65350000	     -0.06547948	      0.01360635	     -0.03637484	      0.02755452	      0.04930811	     -0.01252431	     -0.03034608	     -0.02782788	     -0.00251916	      0.03450209	     -0.08201567	      0.06728302	     -0.04217658	     -0.00402269	      0.04777055	     -0.03753055	      0.02218529	      0.01058074
      1.66400000	     -0.06372263	      0.01790736	     -0.03824421	      0.02860161	      0.04368151	     -0.01663863	     -0.02983938	     -0.02521672	     -0.00196699	      0.04738037	     -0.07059207	      0.06705295	     -0.04296601	     -0.02234042	      0.04014617	     -0.05617098	     -0.00490772	     -0.00234549
      1.67450000	     -0.06182661	      0.02154700	     -0.03975246	      0.02933463	      0.03796566	     -0.02025359	     -0.03166135	     -0.02496595	     -0.00165023	      0.05983734	     -0.05829395	      0.06597050	     -0.04320887	     -0.03914977	      0.03258985	     -0.06893322	     -0.02805907	     -0.01335725
      1.68500000	     -0.06086888	      0.02419003	     -0.04119731	      0.02998231	      0.03337417	     -0.02304105	     -0.03137505	     -0.02257181	     -0.00123792	      0.07104311	     -0.04575134	      0.06390981	     -0.04277028	     -0.05371284	      0.02528457	     -0.07186131	     -0.04140098	     -0.01954365
      1.69550000	     -0.06005491	      0.02607530	     -0.04234125	      0.03037785	      0.02917322	     -0.02519764	     -0.03025747	     -0.01940634	     -0.00087741	      0.08105544	     -0.03321435	      0.06106066	     -0.04172387	     -0.06608638	      0.01822351	     -0.07080621	     -0.05202383	     -0.02426781
      1.70600000	     -0.05868544	      0.02740679	     -0.04295832	      0.03037562	      0.02475475	     -0.02689489	     -0.03102173	     -0.01823841	     -0.00066970	      0.09009714	     -0.02073384	      0.05761360	     -0.04015913	     -0.07653832	      0.01132905	     -0.06883385	     -0.06338254	     -0.02909197
      1.71650000	     -0.05716959	      0.02814042	     -0.04319127	      0.03009689	      0.02060341	     -0.02806579	     -0.03206612	     -0.01749322	     -0.00050232	      0.09817441	     -0.00834193	      0.05366789	     -0.03811576	     -0.08522267	      0.00454930	     -0.06392180	     -0.07209864	     -0.03239483
      1.72700000	     -0.05589869	      0.02824228	     -0.04318678	      0.02965735	      0.01716047	     -0.02864691	     -0.03180908	     -0.01569118	     -0.00033623	      0.10528736	      0.00400908	      0.04930569	     -0.03563145	     -0.09234871	     -0.00218578	     -0.05591918	     -0.07717067	     -0.03376127
      1.73750000	     -0.05454112	      0.02790623	     -0.04288391	      0.02902558	      0.01409005	     -0.02880432	     -0.03215541	     -0.01475782	     -0.00022109	      0.11176070	      0.01654464	      0.04467704	     -0.03280337	     -0.09844162	     -0.00903210	     -0.04632638	     -0.07989669	     -0.03384511
      1.74800000	     -0.05278955	      0.02727672	     -0.04220217	      0.02815952	      0.01112551	     -0.02865101	     -0.03263669	     -0.01418694	     -0.00012593	      0.11791725	      0.02951175	      0.03989900	     -0.02971713	     -0.10406125	     -0.01616484	     -0.03601057	     -0.08079191	     -0.03294036
      1.75850000	     -0.05076098	      0.02634570	     -0.04117412	      0.02709399	      0.00852211	     -0.02810178	     -0.03236120	     -0.01315536	     -0.00004372	      0.12395676	      0.04301589	      0.03507110	     -0.02645419	     -0.10969427	     -0.02370954	     -0.02529615	     -0.07960241	     -0.03104444
      1.76900000	     -0.04859560	      0.02517550	     -0.03989083	      0.02589848	      0.00636457	     -0.02721267	     -0.03282342	     -0.01315620	      0.00002480	      0.12999187	      0.05702431	      0.03027519	     -0.02308971	     -0.11577216	     -0.03176188	     -0.01473158	     -0.07639030	     -0.02832820
      1.77950000	     -0.04635400	      0.02376858	     -0.03837140	      0.02459178	      0.00471131	     -0.02598834	     -0.03297201	     -0.01318229	      0.00009218	      0.13607634	      0.07131690	      0.02560811	     -0.01971472	     -0.12269623	     -0.04037486	     -0.00521280	     -0.07167174	     -0.02514230
      1.79000000	     -0.04404634	      0.02217888	     -0.03664451	      0.02319686	      0.00351520	     -0.02449222	     -0.03253059	     -0.01295982	      0.00015389	      0.14217367	      0.08551810	      0.02115377	     -0.01641370	     -0.13080356	     -0.04958020	      0.00259141	     -0.06575704	     -0.02173254
      1.80050000	     -0.04175819	      0.02044802	     -0.03477300	      0.02175609	      0.00278070	     -0.02277684	     -0.03266411	     -0.01361842	      0.00022658	      0.14790835	      0.09897557	      0.01695080	     -0.01323652	     -0.14003809	     -0.05925538	      0.00794821	     -0.05902508	     -0.01833473
      1.81100000	     -0.03963301	      0.01855877	     -0.03281610	      0.02030654	      0.00261099	     -0.02082923	     -0.03256888	     -0.01439413	      0.00030960	      0.15281447	      0.11094444	      0.01303753	     -0.01023171	     -0.15010409	     -0.06916738	      0.01035668	     -0.05177352	     -0.01510791
      1.82150000	     -0.03777404	      0.01650735	     -0.03082440	      0.01887784	      0.00306218	     -0.01864960	     -0.03172853	     -0.01480323	      0.00038939	      0.15628994	      0.12063388	      0.00943811	     -0.00743461	     -0.16041710	     -0.07896567	      0.00947503	     -0.04434291	     -0.01217753
      1.83200000	     -0.03623093	      0.01433742	     -0.02885558	      0.01750216	      0.00409052	     -0.01629126	     -0.03143579	     -0.01605209	      0.00049864	      0.15776629	      0.12728627	      0.00622221	     -0.00491408	     -0.17017606	     -0.08815089	      0.01125830	     -0.03708178	     -0.00962032
      1.84250000	     -0.03514808	      0.01204237	     -0.02698733	      0.01622223	      0.00577132	     -0.01375075	     -0.03103724	     -0.01749098	      0.00062799	      0.15662080	      0.13038241	      0.00337820	     -0.00267221	     -0.17826536	     -0.09616996	     -0.00363749	     -0.03012391	     -0.00742553
      1.85300000	     -0.03464551	      0.00960248	     -0.02527899	      0.01506821	      0.00817822	     -0.01100931	     -0.02995810	     -0.01856881	      0.00075422	      0.15235919	      0.12956740	      0.00093095	     -0.00073691	     -0.18378691	     -0.10259614	     -0.02130707	     -0.02380030	     -0.00561369
      1.86350000	     -0.03473146	      0.00703896	     -0.02375998	      0.01405193	      0.01125962	     -0.00809571	     -0.02868424	     -0.01969553	      0.00088688	      0.14481908	      0.12497980	     -0.00114967	      0.00091001	     -0.18590810	     -0.10709671	     -0.03968970	     -0.01809366	     -0.00411552
      1.87400000	     -0.03544697	      0.00433483	     -0.02245264	      0.01318108	      0.01503362	     -0.00499652	     -0.02708367	     -0.02071785	      0.00101455	      0.13400169	      0.11693184	     -0.00288538	      0.00228233	     -0.18188912	     -0.10811971	     -0.05674186	     -0.01320593	     -0.00291992
      1.88450000	     -0.03670390	      0.00153349	     -0.02135143	      0.01244745	      0.01935764	     -0.00176957	     -0.02478289	     -0.02119855	      0.00110641	      0.12040170	      0.10617953	     -0.00431209	      0.00340676	     -0.17028645	     -0.10489070	     -0.07043707	     -0.00911908	     -0.00197459
      1.89500000	     -0.03843010	     -0.00132958	     -0.02045423	      0.01184546	      0.02410854	      0.00153433	     -0.02232971	     -0.02156099	      0.00117437	      0.10452902	      0.09349207	     -0.00549084	      0.00433095	     -0.15278839	     -0.09829313	     -0.07919223	     -0.00579372	     -0.00123683
      1.90550000	     -0.04068495	     -0.00422813	     -0.01982622	      0.01140876	      0.02925199	      0.00487403	     -0.01923674	     -0.02128853	      0.00118434	      0.08735836	      0.07986625	     -0.00644347	      0.00507225	     -0.12951056	     -0.08752322	     -0.08231685	     -0.00323518	     -0.00068463
      1.91600000	     -0.04362420	     -0.00718143	     -0.01955756	      0.01118436	      0.03487055	      0.00826042	     -0.01511171	     -0.02004204	      0.00111391	      0.06960668	      0.06608178	     -0.00723889	      0.00568542	     -0.10428978	     -0.07463369	     -0.07964610	     -0.00118528	     -0.00024976
      1.92650000	     -0.04672517	     -0.00998586	     -0.01951424	      0.01109104	      0.04034926	      0.01144879	     -0.01116094	     -0.01868662	      0.00101631	      0.05245569	      0.05290489	     -0.00778713	      0.00610065	     -0.08065576	     -0.06168379	     -0.07215757	      0.00031002	      0.00006528
      1.93700000	     -0.04961818	     -0.01247245	     -0.01961537	      0.01108011	      0.04522365	      0.01423954	     -0.00773127	     -0.01735848	      0.00090606	      0.03676530	      0.04079161	     -0.00800849	      0.00625750	     -0.06002816	     -0.04972076	     -0.06103336	      0.00146004	      0.00030796
      1.94750000	     -0.05191063	     -0.01445171	     -0.01977314	      0.01110037	      0.04900143	      0.01641654	     -0.00266352	     -0.01412544	      0.00069677	      0.02324611	      0.03009083	     -0.00785576	      0.00612184	     -0.04216648	     -0.03835963	     -0.04787289	      0.00236787	      0.00050137
      1.95800000	     -0.05336565	     -0.01576486	     -0.01995749	      0.01113434	      0.05133498	      0.01780750	      0.00092122	     -0.01158736	      0.00053775	      0.01261685	      0.02096758	     -0.00718683	      0.00558639	     -0.02740440	     -0.02775992	     -0.03435021	      0.00299944	      0.00063846
      1.96850000	     -0.05077529	     -0.01558732	     -0.01884363	      0.01044873	      0.04935710	      0.01750218	      0.00249471	     -0.00957846	      0.00041579	      0.00540419	      0.01342509	     -0.00584402	      0.00453260	     -0.01605244	     -0.01827496	     -0.02182446	      0.00325988	      0.00069820
      1.97900000	     -0.04111918	     -0.01316243	     -0.01507629	      0.00831519	      0.04050078	      0.01469694	      0.00474281	     -0.00556829	      0.00022841	      0.00196138	      0.00745209	     -0.00372553	      0.00288482	     -0.00835263	     -0.01032545	     -0.01146569	      0.00296425	      0.00063876
      1.98950000	     -0.02678612	     -0.00854004	     -0.00994782	      0.00546528	      0.02621781	      0.00949427	      0.00397327	     -0.00272544	      0.00010813	      0.00134617	      0.00312488	     -0.00133741	      0.00103473	     -0.00385788	     -0.00436915	     -0.00425142	      0.00197511	      0.00042768
