FiberVelocity
version=1
nRows=98
nColumns=19
inDegrees=no

This analysis gathers basic information about muscles during a simulation (e.g., forces, tendon lengths, moment arms, etc).
Units are S.I. units (second, meters, Newtons, ...)
If the header above contains a line with 'inDegrees', this indicates whether rotational values are in degrees (yes) or radians (no).

endheader
time	hamstrings_r	bifemsh_r	glut_max_r	iliopsoas_r	rect_fem_r	vasti_r	gastroc_r	soleus_r	dorsiflexors_r	hamstrings_l	bifemsh_l	glut_max_l	iliopsoas_l	rect_fem_l	vasti_l	gastroc_l	soleus_l	dorsiflexors_l
      0.97100000	     -0.07845212	     -0.07150613	      0.00893274	     -0.00366913	      0.08894147	      0.07377126	      0.06083940	      0.02272664	     -0.00171300	     -0.07042094	     -0.03022669	     -0.01748584	      0.01025655	      0.05045767	      0.03517556	      0.02286893	      0.00090060	      0.00050822
      0.98150000	     -0.09724104	     -0.10148341	      0.02406509	     -0.00990066	      0.11826377	      0.10202163	      0.08122030	      0.03241008	     -0.00212774	     -0.09778206	     -0.03770943	     -0.02830313	      0.01656155	      0.06876139	      0.04357222	      0.01595423	     -0.00866744	     -0.00488049
      0.99200000	     -0.10392603	     -0.12687275	      0.04406048	     -0.01818717	      0.13666726	      0.12341054	      0.09747558	      0.04349016	     -0.00207918	     -0.11242628	     -0.04069042	     -0.03519602	      0.02052563	      0.07874637	      0.04663685	      0.01173002	     -0.01285378	     -0.00715998
      1.00250000	     -0.10292579	     -0.14999707	      0.06754561	     -0.02803597	      0.14710663	      0.14013771	      0.10034717	      0.04923738	     -0.00098445	     -0.11847731	     -0.03949818	     -0.04039163	      0.02346244	      0.08221879	      0.04489921	      0.01295037	     -0.01003090	     -0.00553690
      1.01300000	     -0.09961292	     -0.17160971	      0.09049683	     -0.03785847	      0.15117611	      0.15238964	      0.10338529	      0.05844186	      0.00098399	     -0.12511297	     -0.03690935	     -0.04721759	      0.02730141	      0.08517462	      0.04162334	      0.00093931	     -0.01789662	     -0.00975817
      1.02350000	     -0.09249274	     -0.19104125	      0.11356922	     -0.04799672	      0.14872277	      0.16030514	      0.09452435	      0.06256023	      0.00409334	     -0.13067938	     -0.03336815	     -0.05423089	      0.03118875	      0.08693005	      0.03734651	     -0.01168655	     -0.02598014	     -0.01387389
      1.03400000	     -0.08025858	     -0.20611521	      0.13582952	     -0.05812721	      0.13943341	      0.16340272	      0.07419477	      0.06058634	      0.00700337	     -0.13330983	     -0.02820509	     -0.06082503	      0.03476857	      0.08607268	      0.03135078	     -0.01867282	     -0.02873205	     -0.01492130
      1.04450000	     -0.06378068	     -0.21604560	      0.15602659	     -0.06776100	      0.12449027	      0.16224200	      0.06494153	      0.06848077	      0.01170194	     -0.13318269	     -0.02176931	     -0.06679688	      0.03792402	      0.08281804	      0.02405750	     -0.02442203	     -0.03013765	     -0.01517086
      1.05500000	     -0.04645612	     -0.22305818	      0.17369377	     -0.07670711	      0.10683702	      0.15900286	      0.02031998	      0.04955033	      0.01107434	     -0.13095311	     -0.01532348	     -0.07144734	      0.04026678	      0.07817804	      0.01685916	     -0.03364259	     -0.03465333	     -0.01680238
      1.06550000	     -0.02408186	     -0.22208122	      0.18796427	     -0.08455859	      0.08343459	      0.15065617	      0.00638728	      0.04316565	      0.01115176	     -0.12775605	     -0.00890022	     -0.07548156	      0.04220884	      0.07278862	      0.00976311	     -0.03932135	     -0.03633561	     -0.01683801
      1.07600000	      0.00117873	     -0.21434393	      0.19856034	     -0.09112053	      0.05699570	      0.13902486	      0.00278866	      0.04831304	      0.01440625	     -0.12481969	     -0.00220454	     -0.07997574	      0.04435309	      0.06713816	      0.00241491	     -0.04332121	     -0.03658618	     -0.01612152
      1.08650000	      0.02558544	     -0.20368708	      0.20610706	     -0.09658926	      0.03098814	      0.12701678	     -0.04095052	      0.01905396	      0.00619780	     -0.12213780	      0.00437448	     -0.08460230	      0.04650855	      0.06142601	     -0.00479329	     -0.04809306	     -0.03752128	     -0.01562085
      1.09700000	      0.05505937	     -0.18521275	      0.21104229	     -0.10108098	      0.00218113	      0.11178928	     -0.05081654	      0.01379816	      0.00462391	     -0.11913461	      0.01029028	     -0.08850101	      0.04820418	      0.05567264	     -0.01129613	     -0.05049287	     -0.03673278	     -0.01435781
      1.10750000	      0.08615572	     -0.16171990	      0.21280383	     -0.10422557	     -0.02643575	      0.09524136	     -0.04267068	      0.02017864	      0.00705242	     -0.11617820	      0.01573818	     -0.09209156	      0.04967907	      0.04997672	     -0.01733163	     -0.05183267	     -0.03519639	     -0.01285991
      1.11800000	      0.11342510	     -0.13758176	      0.21072426	     -0.10555272	     -0.05128834	      0.07970106	     -0.05514895	      0.00700530	      0.00252238	     -0.11384605	      0.02081375	     -0.09585553	      0.05119422	      0.04458588	     -0.02302116	     -0.05317496	     -0.03370318	     -0.01146299
      1.12850000	      0.13852596	     -0.11250640	      0.20565215	     -0.10532885	     -0.07319885	      0.06453994	     -0.06170684	     -0.00392772	     -0.00141691	     -0.11215333	      0.02527251	     -0.09959006	      0.05263819	      0.03967061	     -0.02810220	     -0.05441652	     -0.03224858	     -0.01016665
      1.13900000	      0.16222670	     -0.08687563	      0.19828421	     -0.10378447	     -0.09247401	      0.04960403	     -0.05662395	     -0.00757775	     -0.00269855	     -0.11119956	      0.02891891	     -0.10318405	      0.05395318	      0.03543718	     -0.03235212	     -0.05452316	     -0.03010232	     -0.00876343
      1.14950000	      0.18326913	     -0.06195705	      0.18874149	     -0.10087766	     -0.10844279	      0.03532945	     -0.04754796	     -0.00964472	     -0.00337360	     -0.11083907	      0.03190067	     -0.10667432	      0.05516078	      0.03175007	     -0.03592300	     -0.05464651	     -0.02813669	     -0.00754971
      1.16000000	      0.20076806	     -0.03846292	      0.17721701	     -0.09661754	     -0.12079020	      0.02194002	     -0.03916141	     -0.01332798	     -0.00454631	     -0.11102173	      0.03418328	     -0.10998966	      0.05622677	      0.02864381	     -0.03876128	     -0.05538223	     -0.02684564	     -0.00661403
      1.17050000	      0.21538720	     -0.01606819	      0.16425957	     -0.09123141	     -0.13010971	      0.00917163	     -0.02866758	     -0.01580376	     -0.00521215	     -0.11135361	      0.03583666	     -0.11291241	      0.05704579	      0.02592050	     -0.04092966	     -0.05511741	     -0.02497415	     -0.00563136
      1.18100000	      0.22764757	      0.00568350	      0.15027133	     -0.08490270	     -0.13698460	     -0.00324464	     -0.01546392	     -0.01610109	     -0.00510891	     -0.11147148	      0.03693629	     -0.11524130	      0.05752753	      0.02339938	     -0.04250017	     -0.05556211	     -0.02384607	     -0.00490761
      1.19150000	      0.23814432	      0.02732345	      0.13564676	     -0.07783946	     -0.14208676	     -0.01559114	     -0.00143883	     -0.01540319	     -0.00469610	     -0.11145829	      0.03741272	     -0.11693923	      0.05766859	      0.02122443	     -0.04337922	     -0.05640784	     -0.02328500	     -0.00434553
      1.20200000	      0.24743264	      0.04927670	      0.12077659	     -0.07027547	     -0.14610773	     -0.02810037	      0.01221177	     -0.01430513	     -0.00419148	     -0.11143497	      0.03724978	     -0.11804559	      0.05750359	      0.01951789	     -0.04353235	     -0.05627172	     -0.02229437	     -0.00374795
      1.21250000	      0.25617958	      0.07197637	      0.10598415	     -0.06242632	     -0.14979215	     -0.04105632	      0.02543231	     -0.01255583	     -0.00354255	     -0.11086997	      0.03660057	     -0.11829670	      0.05692081	      0.01795043	     -0.04314654	     -0.05641362	     -0.02180177	     -0.00327775
      1.22300000	      0.26484246	      0.09559926	      0.09150756	     -0.05447245	     -0.15376672	     -0.05467287	      0.03793298	     -0.01011391	     -0.00276004	     -0.10919196	      0.03565125	     -0.11742231	      0.05581312	      0.01610999	     -0.04249920	     -0.05719362	     -0.02199936	     -0.00292106
      1.23350000	      0.27368917	      0.12003131	      0.07753537	     -0.04657168	     -0.15854767	     -0.06909504	      0.04897871	     -0.00730900	     -0.00194248	     -0.10696336	      0.03423824	     -0.11561765	      0.05429734	      0.01446043	     -0.04136617	     -0.05692997	     -0.02174978	     -0.00250918
      1.24400000	      0.28283205	      0.14486428	      0.06424128	     -0.03887625	     -0.16456766	     -0.08440612	      0.05797423	     -0.00435188	     -0.00113568	     -0.10473252	      0.03221057	     -0.11308838	      0.05248775	      0.01346603	     -0.03950825	     -0.05582182	     -0.02134965	     -0.00210478
      1.25450000	      0.29202834	      0.16935316	      0.05173063	     -0.03149585	     -0.17206015	     -0.10059671	      0.06451938	     -0.00127715	     -0.00033033	     -0.10212395	      0.02988185	     -0.10985189	      0.05040582	      0.01277067	     -0.03724646	     -0.05580589	     -0.02207608	     -0.00181122
      1.26500000	      0.30097009	      0.19258698	      0.04014081	     -0.02455640	     -0.18117889	     -0.11759905	      0.06826121	      0.00186391	      0.00048253	     -0.09869183	      0.02761726	     -0.10593804	      0.04807677	      0.01189539	     -0.03499911	     -0.05530663	     -0.02252479	     -0.00147208
      1.27550000	      0.30866498	      0.21342660	      0.02936865	     -0.01803104	     -0.19142113	     -0.13505918	      0.06885427	      0.00498930	      0.00130574	     -0.09552804	      0.02481130	     -0.10149575	      0.04557680	      0.01193127	     -0.03196748	     -0.05288686	     -0.02205206	     -0.00108753
      1.28600000	      0.31413217	      0.23075736	      0.01937124	     -0.01192287	     -0.20215951	     -0.15251221	      0.06611205	      0.00800950	      0.00213891	     -0.09361228	      0.02083585	     -0.09656104	      0.04292727	      0.01401110	     -0.02726290	     -0.04950137	     -0.02182213	     -0.00074680
      1.29650000	      0.31694339	      0.24344858	      0.01057223	     -0.00651705	     -0.21292718	     -0.16926014	      0.05999839	      0.01081551	      0.00297163	     -0.09232042	      0.01695105	     -0.09206118	      0.04053881	      0.01660048	     -0.02247818	     -0.04699782	     -0.02232244	     -0.00044243
      1.30700000	      0.31675657	      0.25064083	      0.00337600	     -0.00208253	     -0.22302369	     -0.18448276	      0.05308507	      0.01329002	      0.00378164	     -0.09113363	      0.01449187	     -0.08915560	      0.03890287	      0.01792797	     -0.01944115	     -0.04574549	     -0.02283205	     -0.00013510
      1.31750000	      0.31125251	      0.25160389	     -0.00298152	      0.00183922	     -0.23024864	     -0.19719653	      0.03311399	      0.01548194	      0.00458458	     -0.09250086	      0.01003667	     -0.08590438	      0.03715524	      0.02269254	     -0.01359588	     -0.03948202	     -0.02119835	      0.00014066
      1.32800000	      0.29847064	      0.24579014	     -0.00904062	      0.00557346	     -0.23290604	     -0.20670819	      0.01133668	      0.01717638	      0.00530978	     -0.09946321	     -0.00088053	     -0.07953839	      0.03411717	      0.03730849	      0.00119745	     -0.02857836	     -0.02077364	      0.00035820
      1.33850000	      0.28136969	      0.23381260	     -0.01313676	      0.00808927	     -0.23152784	     -0.21214972	     -0.01056173	      0.01810492	      0.00584790	     -0.10224222	     -0.00664250	     -0.07574835	      0.03224256	      0.04456549	      0.00899749	     -0.02406988	     -0.02122569	      0.00057158
      1.34900000	      0.26326307	      0.21662580	     -0.01363715	      0.00838561	     -0.22399489	     -0.21025301	     -0.03064933	      0.01824326	      0.00614902	     -0.08996611	      0.00579269	     -0.08104330	      0.03423021	      0.02513671	     -0.00783592	     -0.03199248	     -0.01831032	      0.00063658
      1.35950000	      0.24119185	      0.19471955	     -0.01238335	      0.00760443	     -0.20794530	     -0.20070516	     -0.04659629	      0.01788651	      0.00627419	     -0.07706266	      0.01934367	     -0.08725469	      0.03654522	      0.00371783	     -0.02644825	     -0.04307439	     -0.01691794	      0.00068446
      1.37000000	      0.21183289	      0.16874697	     -0.01159368	      0.00711074	     -0.18237264	     -0.18368635	     -0.05678496	      0.01684979	      0.00612969	     -0.07763195	      0.01825229	     -0.08730074	      0.03624846	      0.00415474	     -0.02536036	     -0.04072605	     -0.01581469	      0.00071008
      1.38050000	      0.17872709	      0.14072838	     -0.01051598	      0.00644232	     -0.14980475	     -0.15864274	     -0.06099105	      0.01476237	      0.00554218	     -0.08421451	      0.01124217	     -0.08520842	      0.03507985	      0.01424580	     -0.01581484	     -0.02831845	     -0.01186005	      0.00056623
      1.39100000	      0.14542315	      0.11201442	     -0.00799714	      0.00489447	     -0.11638245	     -0.12934419	     -0.05905607	      0.01183518	      0.00455717	     -0.09061157	      0.00453829	     -0.08328794	      0.03400616	      0.02424633	     -0.00642750	     -0.01869154	     -0.00970145	      0.00047875
      1.40150000	      0.11209184	      0.08360377	     -0.00480250	      0.00293731	     -0.08481280	     -0.09839186	     -0.05039143	      0.00923695	      0.00362538	     -0.09668954	     -0.00225163	     -0.08098319	      0.03279984	      0.03443711	      0.00319207	     -0.00889698	     -0.00749941	      0.00037728
      1.41200000	      0.07820905	      0.05585336	     -0.00169678	      0.00103744	     -0.05600299	     -0.06716296	     -0.03531238	      0.00772329	      0.00307725	     -0.10229736	     -0.00916333	     -0.07814675	      0.03140571	      0.04464613	      0.01292738	      0.00391169	     -0.00330626	      0.00016768
      1.42250000	      0.04583285	      0.03025254	      0.00102801	     -0.00062853	     -0.03090175	     -0.03704201	     -0.01986844	      0.00460803	      0.00185679	     -0.10654705	     -0.01637122	     -0.07379568	      0.02943794	      0.05464326	      0.02284856	      0.01701380	      0.00096501	     -0.00004901
      1.43300000	      0.01666244	      0.00814322	      0.00291519	     -0.00178272	     -0.00988829	     -0.01006270	     -0.00843150	     -0.00116662	     -0.00047152	     -0.10834854	     -0.02378127	     -0.06705409	      0.02656593	      0.06381118	      0.03264970	      0.03064184	      0.00559641	     -0.00028306
      1.44350000	     -0.01114232	     -0.01260253	      0.00449537	     -0.00275009	      0.00952732	      0.01555586	      0.00816662	     -0.00218254	     -0.00087836	     -0.10995998	     -0.03178324	     -0.05942936	      0.02340153	      0.07319451	      0.04270208	      0.04638147	      0.01149649	     -0.00057263
      1.45400000	     -0.03978632	     -0.03422401	      0.00622110	     -0.00380795	      0.02996779	      0.04177778	      0.03508399	      0.00532128	      0.00214624	     -0.11382311	     -0.04083672	     -0.05262319	      0.02060981	      0.08390371	      0.05344114	      0.06403616	      0.01843229	     -0.00087817
      1.46450000	     -0.06325264	     -0.05229983	      0.00765937	     -0.00469171	      0.04785537	      0.06270731	      0.04372884	      0.00179864	      0.00073245	     -0.11734548	     -0.05080918	     -0.04453800	      0.01736141	      0.09480693	      0.06453324	      0.08247895	      0.02602585	     -0.00111097
      1.47500000	     -0.07293216	     -0.06055678	      0.00857834	     -0.00525907	      0.05680769	      0.07134907	      0.01934692	     -0.02095983	     -0.00839865	     -0.11760883	     -0.06161481	     -0.03259502	      0.01265855	      0.10493502	      0.07584884	      0.10191641	      0.03484057	     -0.00114458
      1.48550000	     -0.08668974	     -0.06822571	      0.00633160	     -0.00388486	      0.06797074	      0.07935262	      0.03828083	     -0.00706277	     -0.00273372	     -0.11774787	     -0.07362712	     -0.01924875	      0.00745689	      0.11586644	      0.08802235	      0.12250306	      0.04525138	     -0.00069415
      1.49600000	     -0.12321609	     -0.08563562	     -0.00165892	      0.00101815	      0.09508763	      0.09819570	      0.08367397	      0.02433439	      0.00962872	     -0.12046505	     -0.08744187	     -0.00643752	      0.00249080	      0.12956647	      0.10220811	      0.14470832	      0.05789990	      0.00077757
      1.50650000	     -0.15399344	     -0.09822190	     -0.01066118	      0.00653884	      0.11926287	      0.11062522	      0.02984858	     -0.02053196	     -0.00824484	     -0.12288994	     -0.10243892	      0.00761535	     -0.00294664	      0.14421008	      0.11740254	      0.16233725	      0.06938495	      0.00390501
      1.51700000	     -0.15312581	     -0.09487299	     -0.01390746	      0.00851856	      0.12051249	      0.10462442	     -0.00763077	     -0.04403415	     -0.01636753	     -0.12188267	     -0.11752880	      0.02450704	     -0.00949697	      0.15679073	      0.13164315	      0.17719732	      0.08171327	      0.00924123
      1.52750000	     -0.14538494	     -0.09029455	     -0.01378878	      0.00843384	      0.11613515	      0.09725697	      0.05832858	      0.01523669	      0.00548568	     -0.11833560	     -0.13376333	      0.04460127	     -0.01734093	      0.16762937	      0.14541338	      0.19022071	      0.09538430	      0.01758965
      1.53800000	     -0.15265350	     -0.08942043	     -0.01969221	      0.01202469	      0.12051452	      0.09369951	      0.04875355	      0.01170234	      0.00441301	     -0.11495849	     -0.15093576	      0.06489300	     -0.02536389	      0.17559160	      0.15717975	      0.19869510	      0.10865437	      0.02896799
      1.54850000	     -0.16377826	     -0.08406393	     -0.03162599	      0.01926055	      0.12525399	      0.08575399	     -0.02774024	     -0.04502691	     -0.01634961	     -0.11112820	     -0.16728271	      0.08382176	     -0.03299817	      0.17933065	      0.16587705	      0.19547974	      0.11616251	      0.04105266
      1.55900000	     -0.16903797	     -0.07640650	     -0.04175983	      0.02533382	      0.12586110	      0.07613206	     -0.02516135	     -0.03790374	     -0.01240444	     -0.10362838	     -0.18278706	      0.10446032	     -0.04149867	      0.17824066	      0.17218529	      0.18416080	      0.11977249	      0.05206173
      1.56950000	     -0.16941169	     -0.06835498	     -0.04912586	      0.02966012	      0.12341068	      0.06670511	      0.00807867	     -0.00749704	     -0.00233348	     -0.09391136	     -0.19762313	      0.12558948	     -0.05045496	      0.17169703	      0.17536518	      0.17035051	      0.12362004	      0.06280453
      1.58000000	     -0.16446074	     -0.05660506	     -0.05614095	      0.03370746	      0.11645848	      0.05425114	     -0.00896440	     -0.01723613	     -0.00524109	     -0.08258791	     -0.20883837	      0.14351964	     -0.05842376	      0.15927576	      0.17377875	      0.14890326	      0.12300133	      0.07017373
      1.59050000	     -0.15887974	     -0.04316670	     -0.06407969	      0.03822951	      0.10850648	      0.04077607	     -0.04003778	     -0.03839876	     -0.01077486	     -0.06766535	     -0.21564680	      0.15966140	     -0.06597137	      0.14247373	      0.16886755	      0.12029070	      0.11685843	      0.07259624
      1.60100000	     -0.15890943	     -0.03115276	     -0.07437364	      0.04404465	      0.10424917	      0.02910610	     -0.03649333	     -0.03296770	     -0.00822808	     -0.05145539	     -0.22110774	      0.17526622	     -0.07363042	      0.12454023	      0.16372266	      0.06905184	      0.09044437	      0.05949519
      1.61150000	     -0.15876544	     -0.01936547	     -0.08446030	      0.04959204	      0.09974990	      0.01795559	     -0.02576847	     -0.02256835	     -0.00513324	     -0.03120058	     -0.22036245	      0.18820470	     -0.08051276	      0.10212103	      0.15478253	      0.05056724	      0.08357224	      0.05703081
      1.62200000	     -0.15144910	     -0.00603461	     -0.09137709	      0.05314560	      0.09021362	      0.00557341	     -0.03374821	     -0.02673399	     -0.00554020	     -0.00586425	     -0.21214527	      0.19856440	     -0.08660920	      0.07540355	      0.14197169	      0.03322499	      0.07728237	      0.05441078
      1.63250000	     -0.14342458	      0.00704454	     -0.09773182	      0.05626354	      0.07997345	     -0.00650752	     -0.03922208	     -0.02898255	     -0.00530089	      0.01999049	     -0.20102069	      0.20680624	     -0.09207166	      0.04864434	      0.12884344	     -0.02136785	      0.03490612	      0.02501978
      1.64300000	     -0.14159402	      0.01782850	     -0.10630636	      0.06052707	      0.07363599	     -0.01653278	     -0.03828615	     -0.02654916	     -0.00422807	      0.04698682	     -0.18492523	      0.21156052	     -0.09621641	      0.02136567	      0.11418173	     -0.04098477	      0.02104632	      0.01519209
      1.65350000	     -0.14101301	      0.02720709	     -0.11473080	      0.06454225	      0.06794989	     -0.02540222	     -0.03687292	     -0.02380795	     -0.00327670	      0.07492770	     -0.16445911	      0.21316829	     -0.09908150	     -0.00561251	      0.09846860	     -0.04450800	      0.01854794	      0.01347034
      1.66400000	     -0.13722954	      0.03580732	     -0.12062703	      0.06699492	      0.06019606	     -0.03374703	     -0.03625724	     -0.02157399	     -0.00255849	      0.10289529	     -0.14155233	      0.21243938	     -0.10093602	     -0.03116971	      0.08275260	     -0.06661395	     -0.00410309	     -0.00298605
      1.67450000	     -0.13314638	      0.04308511	     -0.12538423	      0.06871190	      0.05231924	     -0.04107901	     -0.03847109	     -0.02135944	     -0.00214647	      0.12994791	     -0.11689194	      0.20900993	     -0.10150654	     -0.05462238	      0.06717690	     -0.08174887	     -0.02345870	     -0.01700511
      1.68500000	     -0.13108386	      0.04837009	     -0.12994147	      0.07022900	      0.04599185	     -0.04673262	     -0.03812321	     -0.01931115	     -0.00161017	      0.15428332	     -0.09174130	      0.20248116	     -0.10047622	     -0.07494100	      0.05211866	     -0.08522133	     -0.03461316	     -0.02488101
      1.69550000	     -0.12933094	      0.05213984	     -0.13354960	      0.07115550	      0.04020266	     -0.05110669	     -0.03676527	     -0.01660296	     -0.00114126	      0.17602698	     -0.06660194	      0.19345440	     -0.09801797	     -0.09220476	      0.03756381	     -0.08397008	     -0.04349437	     -0.03089534
      1.70600000	     -0.12638173	      0.05480227	     -0.13549593	      0.07115026	      0.03411371	     -0.05454911	     -0.03769390	     -0.01560375	     -0.00087108	      0.19566271	     -0.04157582	      0.18253330	     -0.09434208	     -0.10678748	      0.02335237	     -0.08163103	     -0.05299078	     -0.03703698
      1.71650000	     -0.12311727	      0.05626922	     -0.13623069	      0.07049739	      0.02839289	     -0.05692397	     -0.03896291	     -0.01496620	     -0.00065338	      0.21320400	     -0.01672737	      0.17003238	     -0.08954179	     -0.11890401	      0.00937740	     -0.07580575	     -0.06027785	     -0.04124185
      1.72700000	     -0.12038033	      0.05647290	     -0.13621650	      0.06946783	      0.02364828	     -0.05810262	     -0.03865059	     -0.01342448	     -0.00043734	      0.22865110	      0.00803908	      0.15621190	     -0.08370563	     -0.12884639	     -0.00450551	     -0.06631533	     -0.06451831	     -0.04298146
      1.73750000	     -0.11745676	      0.05580094	     -0.13526123	      0.06798801	      0.01941703	     -0.05842188	     -0.03907141	     -0.01262595	     -0.00028758	      0.24270916	      0.03317558	      0.14154727	     -0.07706189	     -0.13734730	     -0.01861772	     -0.05493910	     -0.06679739	     -0.04308820
      1.74800000	     -0.11368466	      0.05454218	     -0.13311092	      0.06595939	      0.01533170	     -0.05811093	     -0.03965621	     -0.01213754	     -0.00016380	      0.25607925	      0.05917742	      0.12640932	     -0.06981167	     -0.14518791	     -0.03332031	     -0.04270543	     -0.06754583	     -0.04193636
      1.75850000	     -0.10931604	      0.05268052	     -0.12986834	      0.06346354	      0.01174404	     -0.05699696	     -0.03932146	     -0.01125498	     -0.00005686	      0.26919516	      0.08625614	      0.11111342	     -0.06214634	     -0.15304718	     -0.04887205	     -0.02999905	     -0.06655136	     -0.03952267
      1.76900000	     -0.10465280	      0.05034062	     -0.12582067	      0.06066326	      0.00877080	     -0.05519364	     -0.03988310	     -0.01125570	      0.00003226	      0.28230153	      0.11434604	      0.09591885	     -0.05424250	     -0.16152715	     -0.06547022	     -0.01747039	     -0.06386588	     -0.03606462
      1.77950000	     -0.09982542	      0.04752735	     -0.12102820	      0.05760250	      0.00649251	     -0.05271041	     -0.04006364	     -0.01127802	      0.00011990	      0.29551510	      0.14300576	      0.08113247	     -0.04631395	     -0.17118773	     -0.08322399	     -0.00618193	     -0.05992094	     -0.03200865
      1.79000000	     -0.09485578	      0.04434861	     -0.11558136	      0.05433512	      0.00484418	     -0.04967593	     -0.03952728	     -0.01108768	      0.00020016	      0.30875657	      0.17148224	      0.06702006	     -0.03855916	     -0.18249919	     -0.10219881	      0.00307319	     -0.05497598	     -0.02766769
      1.80050000	     -0.08992814	      0.04088759	     -0.10967841	      0.05096033	      0.00383199	     -0.04619673	     -0.03968952	     -0.01165115	      0.00029471	      0.32121051	      0.19846736	      0.05370408	     -0.03109531	     -0.19538337	     -0.12214208	      0.00942590	     -0.04934774	     -0.02334193
      1.81100000	     -0.08535147	      0.03710989	     -0.10350607	      0.04756498	      0.00359811	     -0.04224654	     -0.03957381	     -0.01231480	      0.00040270	      0.33186505	      0.22246754	      0.04130593	     -0.02403641	     -0.20942761	     -0.14257353	      0.01228213	     -0.04328510	     -0.01923388
      1.82150000	     -0.08134809	      0.03300789	     -0.09722400	      0.04421847	      0.00421989	     -0.03782574	     -0.03855272	     -0.01266480	      0.00050648	      0.33941269	      0.24189694	      0.02990215	     -0.01746543	     -0.22381648	     -0.16277056	      0.01123657	     -0.03707276	     -0.01550320
      1.83200000	     -0.07802493	      0.02866893	     -0.09101413	      0.04099615	      0.00563701	     -0.03304248	     -0.03819701	     -0.01373326	      0.00064859	      0.34261887	      0.25523642	      0.01971341	     -0.01154419	     -0.23743233	     -0.18170391	      0.01335137	     -0.03100211	     -0.01224763
      1.84250000	     -0.07569297	      0.02407978	     -0.08512141	      0.03799810	      0.00795327	     -0.02788974	     -0.03771274	     -0.01496429	      0.00081683	      0.34013121	      0.26144486	      0.01070294	     -0.00627757	     -0.24871866	     -0.19823348	     -0.00431376	     -0.02518500	     -0.00945343
      1.85300000	     -0.07461065	      0.01920100	     -0.07973309	      0.03529498	      0.01127013	     -0.02232944	     -0.03640150	     -0.01588642	      0.00098102	      0.33087633	      0.25981057	      0.00294945	     -0.00173115	     -0.25642240	     -0.21147965	     -0.02526836	     -0.01989817	     -0.00714679
      1.86350000	     -0.07479577	      0.01407501	     -0.07494196	      0.03291451	      0.01551651	     -0.01641999	     -0.03485366	     -0.01685038	      0.00115357	      0.31450159	      0.25061146	     -0.00364243	      0.00213779	     -0.25938192	     -0.22075658	     -0.04706857	     -0.01512715	     -0.00523947
      1.87400000	     -0.07633665	      0.00866788	     -0.07081842	      0.03087467	      0.02071734	     -0.01013410	     -0.03290884	     -0.01772501	      0.00131963	      0.29100960	      0.23447357	     -0.00914156	      0.00536166	     -0.25377458	     -0.22286528	     -0.06729096	     -0.01104078	     -0.00371735
      1.88450000	     -0.07904350	      0.00306635	     -0.06734508	      0.02915625	      0.02667613	     -0.00358911	     -0.03011320	     -0.01813627	      0.00143912	      0.26147470	      0.21291287	     -0.01366170	      0.00800318	     -0.23758634	     -0.21620939	     -0.08353231	     -0.00762398	     -0.00251385
      1.89500000	     -0.08276095	     -0.00265861	     -0.06451520	      0.02774619	      0.03322320	      0.00311199	     -0.02713240	     -0.01844636	      0.00152751	      0.22700422	      0.18747177	     -0.01739628	      0.01017431	     -0.21317278	     -0.20260992	     -0.09391517	     -0.00484383	     -0.00157460
      1.90550000	     -0.08761686	     -0.00845452	     -0.06253438	      0.02672328	      0.04031121	      0.00988568	     -0.02337419	     -0.01821326	      0.00154049	      0.18971494	      0.16014906	     -0.02041441	      0.01191576	     -0.18069518	     -0.18041009	     -0.09762070	     -0.00270476	     -0.00087160
      1.91600000	     -0.09394667	     -0.01435989	     -0.06168698	      0.02619766	      0.04805396	      0.01675405	     -0.01836195	     -0.01714683	      0.00144887	      0.15116386	      0.13250822	     -0.02293449	      0.01335622	     -0.14550676	     -0.15384113	     -0.09445343	     -0.00099095	     -0.00031797
      1.92650000	     -0.10062474	     -0.01996759	     -0.06155036	      0.02597906	      0.05560400	      0.02322081	     -0.01356144	     -0.01598721	      0.00132193	      0.11391729	      0.10608572	     -0.02467144	      0.01433169	     -0.11253219	     -0.12714772	     -0.08557267	      0.00025919	      0.00008310
      1.93700000	     -0.10685497	     -0.02493975	     -0.06186934	      0.02595347	      0.06232123	      0.02888111	     -0.00939412	     -0.01485093	      0.00117852	      0.07984268	      0.08179598	     -0.02537275	      0.01470016	     -0.08375225	     -0.10248854	     -0.07238032	      0.00122066	      0.00039207
      1.94750000	     -0.11179186	     -0.02889746	     -0.06236696	      0.02600093	      0.06752727	      0.03329656	     -0.00323640	     -0.01208492	      0.00090629	      0.05048325	      0.06033861	     -0.02488888	      0.01438146	     -0.05883135	     -0.07907005	     -0.05677312	      0.00197965	      0.00063829
      1.95800000	     -0.11492533	     -0.03152322	     -0.06294842	      0.02608050	      0.07074306	      0.03611776	      0.00111936	     -0.00991349	      0.00069946	      0.02739983	      0.04204452	     -0.02276956	      0.01312358	     -0.03823505	     -0.05722105	     -0.04073639	      0.00250768	      0.00081283
      1.96850000	     -0.10934686	     -0.03116822	     -0.05943515	      0.02447457	      0.06801741	      0.03549850	      0.00303127	     -0.00819479	      0.00054082	      0.01173620	      0.02692021	     -0.01851521	      0.01064802	     -0.02239662	     -0.03766986	     -0.02588193	      0.00272541	      0.00088887
      1.97900000	     -0.08855199	     -0.02631943	     -0.04755250	      0.01947707	      0.05581281	      0.02980881	      0.00576289	     -0.00476391	      0.00029710	      0.00425949	      0.01494304	     -0.01180335	      0.00677705	     -0.01165372	     -0.02128368	     -0.01359732	      0.00247825	      0.00081320
      1.98950000	     -0.05768511	     -0.01707656	     -0.03137666	      0.01280158	      0.03612991	      0.01925660	      0.00482784	     -0.00233173	      0.00014065	      0.00292346	      0.00626605	     -0.00423723	      0.00243080	     -0.00538258	     -0.00900606	     -0.00504182	      0.00165128	      0.00054448
