Moment_knee_angle_l
version=1
nRows=98
nColumns=19
inDegrees=no

This analysis gathers basic information about muscles during a simulation (e.g., forces, tendon lengths, moment arms, etc).
Units are S.I. units (second, meters, Newtons, ...)
If the header above contains a line with 'inDegrees', this indicates whether rotational values are in degrees (yes) or radians (no).

endheader
time	hamstrings_r	bifemsh_r	glut_max_r	iliopsoas_r	rect_fem_r	vasti_r	gastroc_r	soleus_r	dorsiflexors_r	hamstrings_l	bifemsh_l	glut_max_l	iliopsoas_l	rect_fem_l	vasti_l	gastroc_l	soleus_l	dorsiflexors_l
      0.97100000	      0.00000000	      0.00000000	      0.00000000	      0.00000000	      0.00000000	      0.00000000	      0.00000000	      0.00000000	      0.00000000	    -57.05013140	     -7.31023598	      0.00000000	      0.00000000	     41.54601784	    141.72389880	    -35.26274403	      0.00000000	     -0.00000000
      0.98150000	      0.00000000	      0.00000000	      0.00000000	      0.00000000	      0.00000000	      0.00000000	      0.00000000	      0.00000000	      0.00000000	    -57.53408100	     -7.41237978	      0.00000000	      0.00000000	     41.62115949	    141.97337882	    -34.22771377	      0.00000000	     -0.00000000
      0.99200000	      0.00000000	      0.00000000	      0.00000000	      0.00000000	      0.00000000	      0.00000000	      0.00000000	      0.00000000	      0.00000000	    -58.07774367	     -7.52823064	      0.00000000	      0.00000000	     41.70588759	    142.22701309	    -33.04062747	      0.00000000	     -0.00000000
      1.00250000	      0.00000000	      0.00000000	      0.00000000	      0.00000000	      0.00000000	      0.00000000	      0.00000000	      0.00000000	      0.00000000	    -58.61057735	     -7.64310847	      0.00000000	      0.00000000	     41.78295077	    142.42674062	    -31.84044943	     -0.00000000	     -0.00000000
      1.01300000	      0.00000000	      0.00000000	      0.00000000	      0.00000000	      0.00000000	      0.00000000	      0.00000000	      0.00000000	      0.00000000	    -59.10104229	     -7.74993515	      0.00000000	      0.00000000	     41.84102791	    142.54579324	    -30.70788940	     -0.00000000	     -0.00000000
      1.02350000	      0.00000000	      0.00000000	      0.00000000	      0.00000000	      0.00000000	      0.00000000	      0.00000000	      0.00000000	      0.00000000	    -59.53946072	     -7.84619066	      0.00000000	      0.00000000	     41.87580854	    142.58107762	    -29.67903910	      0.00000000	      0.00000000
      1.03400000	      0.00000000	      0.00000000	      0.00000000	      0.00000000	      0.00000000	      0.00000000	      0.00000000	      0.00000000	      0.00000000	    -59.91594059	     -7.92928482	      0.00000000	      0.00000000	     41.88741263	    142.54431613	    -28.78601338	     -0.00000000	      0.00000000
      1.04450000	      0.00000000	      0.00000000	      0.00000000	      0.00000000	      0.00000000	      0.00000000	      0.00000000	      0.00000000	      0.00000000	    -60.21578349	     -7.99539273	      0.00000000	      0.00000000	     41.87978705	    142.46321339	    -28.07370781	      0.00000000	      0.00000000
      1.05500000	      0.00000000	      0.00000000	      0.00000000	      0.00000000	      0.00000000	      0.00000000	      0.00000000	      0.00000000	      0.00000000	    -60.43780977	     -8.04383326	      0.00000000	      0.00000000	     41.86033421	    142.37113660	    -27.55767827	      0.00000000	     -0.00000000
      1.06550000	      0.00000000	      0.00000000	      0.00000000	      0.00000000	      0.00000000	      0.00000000	      0.00000000	      0.00000000	      0.00000000	    -60.58599617	     -8.07522656	      0.00000000	      0.00000000	     41.83593877	    142.29552016	    -27.23590211	      0.00000000	      0.00000000
      1.07600000	      0.00000000	      0.00000000	      0.00000000	      0.00000000	      0.00000000	      0.00000000	      0.00000000	      0.00000000	      0.00000000	    -60.66165254	     -8.08962930	      0.00000000	      0.00000000	     41.81124375	    142.25642471	    -27.10787349	     -0.00000000	      0.00000000
      1.08650000	      0.00000000	      0.00000000	      0.00000000	      0.00000000	      0.00000000	      0.00000000	      0.00000000	      0.00000000	      0.00000000	    -60.66391466	     -8.08669540	      0.00000000	      0.00000000	     41.78823404	    142.26461815	    -27.17917165	     -0.00000000	      0.00000000
      1.09700000	      0.00000000	      0.00000000	      0.00000000	      0.00000000	      0.00000000	      0.00000000	      0.00000000	      0.00000000	      0.00000000	    -60.59770589	     -8.06764569	      0.00000000	      0.00000000	     41.76583940	    142.31497191	    -27.43487951	     -0.00000000	      0.00000000
      1.10750000	      0.00000000	      0.00000000	      0.00000000	      0.00000000	      0.00000000	      0.00000000	      0.00000000	      0.00000000	      0.00000000	    -60.46773017	     -8.03377561	      0.00000000	      0.00000000	     41.74059068	    142.39265707	    -27.85698358	     -0.00000000	      0.00000000
      1.11800000	      0.00000000	      0.00000000	      0.00000000	      0.00000000	      0.00000000	      0.00000000	      0.00000000	      0.00000000	      0.00000000	    -60.27616555	     -7.98584903	      0.00000000	      0.00000000	     41.70727532	    142.47799701	    -28.43373815	     -0.00000000	      0.00000000
      1.12850000	      0.00000000	      0.00000000	      0.00000000	      0.00000000	      0.00000000	      0.00000000	      0.00000000	      0.00000000	      0.00000000	    -60.02503017	     -7.92466941	      0.00000000	      0.00000000	     41.65984162	    142.54818245	    -29.15235936	     -0.00000000	     -0.00000000
      1.13900000	      0.00000000	      0.00000000	      0.00000000	      0.00000000	      0.00000000	      0.00000000	      0.00000000	      0.00000000	      0.00000000	    -59.71933488	     -7.85179533	      0.00000000	      0.00000000	     41.59281108	    142.58068891	    -29.99104018	      0.00000000	      0.00000000
      1.14950000	      0.00000000	      0.00000000	      0.00000000	      0.00000000	      0.00000000	      0.00000000	      0.00000000	      0.00000000	      0.00000000	    -59.36392850	     -7.76874736	      0.00000000	      0.00000000	     41.50221135	    142.55857169	    -30.92802322	      0.00000000	      0.00000000
      1.16000000	      0.00000000	      0.00000000	      0.00000000	      0.00000000	      0.00000000	      0.00000000	      0.00000000	      0.00000000	      0.00000000	    -58.96307213	     -7.67688663	      0.00000000	      0.00000000	     41.38601095	    142.47230643	    -31.94539842	      0.00000000	      0.00000000
      1.17050000	      0.00000000	      0.00000000	      0.00000000	      0.00000000	      0.00000000	      0.00000000	      0.00000000	      0.00000000	      0.00000000	    -58.52188589	     -7.57772807	      0.00000000	      0.00000000	     41.24463609	    142.32072088	    -33.02307577	      0.00000000	      0.00000000
      1.18100000	      0.00000000	      0.00000000	      0.00000000	      0.00000000	      0.00000000	      0.00000000	      0.00000000	      0.00000000	      0.00000000	    -58.04454587	     -7.47251133	      0.00000000	      0.00000000	     41.08057839	    142.11017415	    -34.14472835	     -0.00000000	      0.00000000
      1.19150000	      0.00000000	      0.00000000	      0.00000000	      0.00000000	      0.00000000	      0.00000000	      0.00000000	      0.00000000	      0.00000000	    -57.53645129	     -7.36267582	      0.00000000	      0.00000000	     40.89853714	    141.85402637	    -35.29414671	      0.00000000	      0.00000000
      1.20200000	      0.00000000	      0.00000000	      0.00000000	      0.00000000	      0.00000000	      0.00000000	      0.00000000	      0.00000000	      0.00000000	    -57.00444617	     -7.24988864	      0.00000000	      0.00000000	     40.70499317	    141.57119871	    -36.45245430	     -0.00000000	      0.00000000
      1.21250000	      0.00000000	      0.00000000	      0.00000000	      0.00000000	      0.00000000	      0.00000000	      0.00000000	      0.00000000	      0.00000000	    -56.45597533	     -7.13584339	      0.00000000	      0.00000000	     40.52389248	    141.36020024	    -37.60185785	     -0.00000000	      0.00000000
      1.22300000	      0.00000000	      0.00000000	      0.00000000	      0.00000000	      0.00000000	      0.00000000	      0.00000000	      0.00000000	      0.00000000	    -55.89645068	     -7.02168974	      0.00000000	      0.00000000	     40.41076012	    141.47457329	    -38.73204917	     -0.00000000	     -0.00000000
      1.23350000	      0.00000000	      0.00000000	      0.00000000	      0.00000000	      0.00000000	      0.00000000	      0.00000000	      0.00000000	      0.00000000	    -55.33204062	     -6.90864977	      0.00000000	      0.00000000	     40.36192028	    141.90055843	    -39.83207152	      0.00000000	      0.00000000
      1.24400000	      0.00000000	      0.00000000	      0.00000000	      0.00000000	      0.00000000	      0.00000000	      0.00000000	      0.00000000	      0.00000000	    -54.77315023	     -6.79874816	      0.00000000	      0.00000000	     40.36637795	    142.58729438	    -40.88343007	     -0.00000000	      0.00000000
      1.25450000	      0.00000000	      0.00000000	      0.00000000	      0.00000000	      0.00000000	      0.00000000	      0.00000000	      0.00000000	      0.00000000	    -54.23035872	     -6.69394673	      0.00000000	      0.00000000	     40.41089258	    143.47078573	    -41.87109436	      0.00000000	      0.00000000
      1.26500000	      0.00000000	      0.00000000	      0.00000000	      0.00000000	      0.00000000	      0.00000000	      0.00000000	      0.00000000	      0.00000000	    -53.70815419	     -6.59489023	      0.00000000	      0.00000000	     40.48347737	    144.49339689	    -42.79297190	      0.00000000	      0.00000000
      1.27550000	      0.00000000	      0.00000000	      0.00000000	      0.00000000	      0.00000000	      0.00000000	      0.00000000	      0.00000000	      0.00000000	    -53.21240424	     -6.50247742	      0.00000000	      0.00000000	     40.57308882	    145.59792091	    -43.64258790	     -0.00000000	      0.00000000
      1.28600000	      0.00000000	      0.00000000	      0.00000000	      0.00000000	      0.00000000	      0.00000000	      0.00000000	      0.00000000	      0.00000000	    -52.76403766	     -6.42058557	      0.00000000	      0.00000000	     40.66372233	    146.68828787	    -44.38889872	     -0.00000000	      0.00000000
      1.29650000	      0.00000000	      0.00000000	      0.00000000	      0.00000000	      0.00000000	      0.00000000	      0.00000000	      0.00000000	      0.00000000	    -52.38050684	     -6.35233864	      0.00000000	      0.00000000	     40.74047419	    147.67108604	    -45.00994913	      0.00000000	      0.00000000
      1.30700000	      0.00000000	      0.00000000	      0.00000000	      0.00000000	      0.00000000	      0.00000000	      0.00000000	      0.00000000	      0.00000000	    -52.04805417	     -6.29480362	      0.00000000	      0.00000000	     40.80256476	    148.54847383	    -45.53567733	      0.00000000	      0.00000000
      1.31750000	      0.00000000	      0.00000000	      0.00000000	      0.00000000	      0.00000000	      0.00000000	      0.00000000	      0.00000000	      0.00000000	    -51.76526728	     -6.24757148	      0.00000000	      0.00000000	     40.84652116	    149.30021676	    -45.97048176	     -0.00000000	      0.00000000
      1.32800000	      0.00000000	      0.00000000	      0.00000000	      0.00000000	      0.00000000	      0.00000000	      0.00000000	      0.00000000	      0.00000000	    -51.62716570	     -6.22884706	      0.00000000	      0.00000000	     40.82783778	    149.60575136	    -46.16289082	     -0.00000000	      0.00000000
      1.33850000	      0.00000000	      0.00000000	      0.00000000	      0.00000000	      0.00000000	      0.00000000	      0.00000000	      0.00000000	      0.00000000	    -51.68291557	     -6.24787845	      0.00000000	      0.00000000	     40.72387627	    149.29524282	    -46.04184198	     -0.00000000	      0.00000000
      1.34900000	      0.00000000	      0.00000000	      0.00000000	      0.00000000	      0.00000000	      0.00000000	      0.00000000	      0.00000000	      0.00000000	    -51.67205827	     -6.25432113	      0.00000000	      0.00000000	     40.64904562	    149.19111135	    -46.02502323	     -0.00000000	      0.00000000
      1.35950000	      0.00000000	      0.00000000	      0.00000000	      0.00000000	      0.00000000	      0.00000000	      0.00000000	      0.00000000	      0.00000000	    -51.35993514	     -6.20310241	      0.00000000	      0.00000000	     40.70471940	    150.03257991	    -46.48524145	      0.00000000	      0.00000000
      1.37000000	      0.00000000	      0.00000000	      0.00000000	      0.00000000	      0.00000000	      0.00000000	      0.00000000	      0.00000000	      0.00000000	    -50.91783419	     -6.12778761	      0.00000000	      0.00000000	     40.82005372	    151.32413260	    -47.13912397	      0.00000000	      0.00000000
      1.38050000	      0.00000000	      0.00000000	      0.00000000	      0.00000000	      0.00000000	      0.00000000	      0.00000000	      0.00000000	      0.00000000	    -50.56698074	     -6.07088446	      0.00000000	      0.00000000	     40.89443482	    152.33986573	    -47.63085594	      0.00000000	      0.00000000
      1.39100000	      0.00000000	      0.00000000	      0.00000000	      0.00000000	      0.00000000	      0.00000000	      0.00000000	      0.00000000	      0.00000000	    -50.34977584	     -6.04017986	      0.00000000	      0.00000000	     40.90506193	    152.90132759	    -47.90075983	     -0.00000000	     -0.00000000
      1.40150000	      0.00000000	      0.00000000	      0.00000000	      0.00000000	      0.00000000	      0.00000000	      0.00000000	      0.00000000	      0.00000000	    -50.26804986	     -6.03574435	      0.00000000	      0.00000000	     40.85020109	    152.98318141	    -47.95490211	     -0.00000000	      0.00000000
      1.41200000	      0.00000000	      0.00000000	      0.00000000	      0.00000000	      0.00000000	      0.00000000	      0.00000000	      0.00000000	      0.00000000	    -50.32425799	     -6.05785472	      0.00000000	      0.00000000	     40.72958881	    152.57701341	    -47.78787431	      0.00000000	      0.00000000
      1.42250000	      0.00000000	      0.00000000	      0.00000000	      0.00000000	      0.00000000	      0.00000000	      0.00000000	      0.00000000	      0.00000000	    -50.52246532	     -6.10715645	      0.00000000	      0.00000000	     40.54419328	    151.68858032	    -47.39003703	      0.00000000	      0.00000000
      1.43300000	      0.00000000	      0.00000000	      0.00000000	      0.00000000	      0.00000000	      0.00000000	      0.00000000	      0.00000000	      0.00000000	    -50.86366039	     -6.18366032	      0.00000000	      0.00000000	     40.30063894	    150.35996986	    -46.75523866	     -0.00000000	     -0.00000000
      1.44350000	      0.00000000	      0.00000000	      0.00000000	      0.00000000	      0.00000000	      0.00000000	      0.00000000	      0.00000000	      0.00000000	    -51.34822698	     -6.28743519	      0.00000000	      0.00000000	     40.01093035	    148.66392342	    -45.87246773	      0.00000000	      0.00000000
      1.45400000	      0.00000000	      0.00000000	      0.00000000	      0.00000000	      0.00000000	      0.00000000	      0.00000000	      0.00000000	      0.00000000	    -51.98049228	     -6.41981976	      0.00000000	      0.00000000	     39.69294581	    146.69895228	    -44.71534342	     -0.00000000	      0.00000000
      1.46450000	      0.00000000	      0.00000000	      0.00000000	      0.00000000	      0.00000000	      0.00000000	      0.00000000	      0.00000000	      0.00000000	    -52.76337081	     -6.58214552	      0.00000000	      0.00000000	     39.38309374	    144.63737797	    -43.25459873	      0.00000000	      0.00000000
      1.47500000	      0.00000000	      0.00000000	      0.00000000	      0.00000000	      0.00000000	      0.00000000	      0.00000000	      0.00000000	      0.00000000	    -53.69280402	     -6.77421173	      0.00000000	      0.00000000	     39.15126718	    142.77488350	    -41.46891275	      0.00000000	      0.00000000
      1.48550000	      0.00000000	      0.00000000	      0.00000000	      0.00000000	      0.00000000	      0.00000000	      0.00000000	      0.00000000	      0.00000000	    -54.76280320	     -6.99577541	      0.00000000	      0.00000000	     39.10783333	    141.54575018	    -39.33244307	      0.00000000	      0.00000000
      1.49600000	      0.00000000	      0.00000000	      0.00000000	      0.00000000	      0.00000000	      0.00000000	      0.00000000	      0.00000000	      0.00000000	    -55.96621606	     -7.24735733	      0.00000000	      0.00000000	     39.41595055	    141.56476318	    -36.80592322	     -0.00000000	      0.00000000
      1.50650000	      0.00000000	      0.00000000	      0.00000000	      0.00000000	      0.00000000	      0.00000000	      0.00000000	      0.00000000	      0.00000000	    -57.29073574	     -7.52903112	      0.00000000	      0.00000000	     39.93008021	    142.22860945	    -33.85008064	     -0.00000000	     -0.00000000
      1.51700000	      0.00000000	      0.00000000	      0.00000000	      0.00000000	      0.00000000	      0.00000000	      0.00000000	      0.00000000	      0.00000000	    -58.70212836	     -7.83658133	      0.00000000	      0.00000000	     40.38044079	    142.58108114	    -30.46774350	      0.00000000	     -0.00000000
      1.52750000	      0.00000000	      0.00000000	      0.00000000	      0.00000000	      0.00000000	      0.00000000	      0.00000000	      0.00000000	      0.00000000	    -60.16367066	     -8.16559615	      0.00000000	      0.00000000	     40.57062583	    142.00151974	    -26.65810331	      0.00000000	      0.00000000
      1.53800000	      0.00000000	      0.00000000	      0.00000000	      0.00000000	      0.00000000	      0.00000000	      0.00000000	      0.00000000	      0.00000000	    -61.64269152	     -8.51353819	      0.00000000	      0.00000000	     40.23225578	    139.59066460	    -22.40334192	     -0.00000000	      0.00000000
      1.54850000	      0.00000000	      0.00000000	      0.00000000	      0.00000000	      0.00000000	      0.00000000	      0.00000000	      0.00000000	      0.00000000	    -63.08597432	     -8.87417625	      0.00000000	      0.00000000	     39.54964594	    136.30761307	    -17.72974893	      0.00000000	      0.00000000
      1.55900000	      0.00000000	      0.00000000	      0.00000000	      0.00000000	      0.00000000	      0.00000000	      0.00000000	      0.00000000	      0.00000000	    -64.43464907	     -9.23966302	      0.00000000	      0.00000000	     38.59769174	    132.58221038	    -12.69692205	      0.00000000	     -0.00000000
      1.56950000	      0.00000000	      0.00000000	      0.00000000	      0.00000000	      0.00000000	      0.00000000	      0.00000000	      0.00000000	      0.00000000	    -65.63666292	     -9.60357337	      0.00000000	      0.00000000	     37.15998569	    127.57699778	     -7.34395662	     -0.00000000	     -0.00000000
      1.58000000	      0.00000000	      0.00000000	      0.00000000	      0.00000000	      0.00000000	      0.00000000	      0.00000000	      0.00000000	      0.00000000	    -66.63534697	     -9.95784552	      0.00000000	      0.00000000	     35.44797023	    121.81252048	     -1.74702582	      0.00000000	      0.00000000
      1.59050000	      0.00000000	      0.00000000	      0.00000000	      0.00000000	      0.00000000	      0.00000000	      0.00000000	      0.00000000	      0.00000000	    -67.37490625	    -10.29140183	      0.00000000	      0.00000000	     33.75562328	    116.22487716	      3.95070163	     -0.00000000	      0.00000000
      1.60100000	      0.00000000	      0.00000000	      0.00000000	      0.00000000	      0.00000000	      0.00000000	      0.00000000	      0.00000000	      0.00000000	    -67.82502010	    -10.59835940	      0.00000000	      0.00000000	     32.09860193	    110.86975010	      9.65953448	     -0.00000000	     -0.00000000
      1.61150000	      0.00000000	      0.00000000	      0.00000000	      0.00000000	      0.00000000	      0.00000000	      0.00000000	      0.00000000	      0.00000000	    -67.96594742	    -10.87364102	      0.00000000	      0.00000000	     30.41203946	    105.48937370	     12.71105141	     -0.00000000	     -0.00000000
      1.62200000	      0.00000000	      0.00000000	      0.00000000	      0.00000000	      0.00000000	      0.00000000	      0.00000000	      0.00000000	      0.00000000	    -67.79699002	    -11.10816898	      0.00000000	      0.00000000	     28.73351769	    100.17693550	     16.14396425	     -0.00000000	      0.00000000
      1.63250000	      0.00000000	      0.00000000	      0.00000000	      0.00000000	      0.00000000	      0.00000000	      0.00000000	      0.00000000	      0.00000000	    -67.34689104	    -11.30002239	      0.00000000	      0.00000000	     27.09531925	     95.01797008	     19.34012042	      0.00000000	      0.00000000
      1.64300000	      0.00000000	      0.00000000	      0.00000000	      0.00000000	      0.00000000	      0.00000000	      0.00000000	      0.00000000	      0.00000000	    -66.66046997	    -11.44999887	      0.00000000	      0.00000000	     25.52513108	     90.08565955	     22.26227468	     -0.00000000	     -0.00000000
      1.65350000	      0.00000000	      0.00000000	      0.00000000	      0.00000000	      0.00000000	      0.00000000	      0.00000000	      0.00000000	      0.00000000	    -65.80602905	    -11.55957709	      0.00000000	      0.00000000	     24.06856423	     85.50788648	     24.86400193	     -0.00000000	     -0.00000000
      1.66400000	      0.00000000	      0.00000000	      0.00000000	      0.00000000	      0.00000000	      0.00000000	      0.00000000	      0.00000000	      0.00000000	    -64.86123556	    -11.63359468	      0.00000000	      0.00000000	     22.76245727	     81.38937982	     27.11431677	     -0.00000000	      0.00000000
      1.67450000	      0.00000000	      0.00000000	      0.00000000	      0.00000000	      0.00000000	      0.00000000	      0.00000000	      0.00000000	      0.00000000	    -63.90942592	    -11.67849024	      0.00000000	      0.00000000	     21.64191922	     77.83124270	     28.99330737	      0.00000000	     -0.00000000
      1.68500000	      0.00000000	      0.00000000	      0.00000000	      0.00000000	      0.00000000	      0.00000000	      0.00000000	      0.00000000	      0.00000000	    -63.03004761	    -11.70173034	      0.00000000	      0.00000000	     20.72181240	     74.86664831	     30.49897246	     -0.00000000	     -0.00000000
      1.69550000	      0.00000000	      0.00000000	      0.00000000	      0.00000000	      0.00000000	      0.00000000	      0.00000000	      0.00000000	      0.00000000	    -62.29351404	    -11.71079409	      0.00000000	      0.00000000	     20.01770179	     72.53842328	     31.63493343	      0.00000000	     -0.00000000
      1.70600000	      0.00000000	      0.00000000	      0.00000000	      0.00000000	      0.00000000	      0.00000000	      0.00000000	      0.00000000	      0.00000000	    -61.75768321	    -11.71233807	      0.00000000	      0.00000000	     19.54608518	     70.89720228	     32.40424656	      0.00000000	     -0.00000000
      1.71650000	      0.00000000	      0.00000000	      0.00000000	      0.00000000	      0.00000000	      0.00000000	      0.00000000	      0.00000000	      0.00000000	    -61.46585259	    -11.71149461	      0.00000000	      0.00000000	     19.32267334	     69.99383609	     32.80728312	     -0.00000000	     -0.00000000
      1.72700000	      0.00000000	      0.00000000	      0.00000000	      0.00000000	      0.00000000	      0.00000000	      0.00000000	      0.00000000	      0.00000000	    -61.44004827	    -11.71126311	      0.00000000	      0.00000000	     19.35560678	     69.85716834	     32.84636322	      0.00000000	      0.00000000
      1.73750000	      0.00000000	      0.00000000	      0.00000000	      0.00000000	      0.00000000	      0.00000000	      0.00000000	      0.00000000	      0.00000000	    -61.68310332	    -11.71211293	      0.00000000	      0.00000000	     19.64746476	     70.49820481	     32.51895113	      0.00000000	      0.00000000
      1.74800000	      0.00000000	      0.00000000	      0.00000000	      0.00000000	      0.00000000	      0.00000000	      0.00000000	      0.00000000	      0.00000000	    -62.17846968	    -11.71185818	      0.00000000	      0.00000000	     20.19496010	     71.90855699	     31.81725310	      0.00000000	      0.00000000
      1.75850000	      0.00000000	      0.00000000	      0.00000000	      0.00000000	      0.00000000	      0.00000000	      0.00000000	      0.00000000	      0.00000000	    -62.89211192	    -11.70575047	      0.00000000	      0.00000000	     20.99110947	     74.06820025	     30.72702407	     -0.00000000	     -0.00000000
      1.76900000	      0.00000000	      0.00000000	      0.00000000	      0.00000000	      0.00000000	      0.00000000	      0.00000000	      0.00000000	      0.00000000	    -63.77084155	    -11.68680709	      0.00000000	      0.00000000	     22.02424882	     76.94478352	     29.23326169	     -0.00000000	      0.00000000
      1.77950000	      0.00000000	      0.00000000	      0.00000000	      0.00000000	      0.00000000	      0.00000000	      0.00000000	      0.00000000	      0.00000000	    -64.74649131	    -11.64634385	      0.00000000	      0.00000000	     23.28320092	     80.51250010	     27.31924356	     -0.00000000	      0.00000000
      1.79000000	      0.00000000	      0.00000000	      0.00000000	      0.00000000	      0.00000000	      0.00000000	      0.00000000	      0.00000000	      0.00000000	    -65.73717602	    -11.57475974	      0.00000000	      0.00000000	     24.75835673	     84.75904139	     24.97304698	      0.00000000	     -0.00000000
      1.80050000	      0.00000000	      0.00000000	      0.00000000	      0.00000000	      0.00000000	      0.00000000	      0.00000000	      0.00000000	      0.00000000	    -66.65305564	    -11.46233981	      0.00000000	      0.00000000	     26.42266438	     89.62434974	     22.18863410	     -0.00000000	      0.00000000
      1.81100000	      0.00000000	      0.00000000	      0.00000000	      0.00000000	      0.00000000	      0.00000000	      0.00000000	      0.00000000	      0.00000000	    -67.39973365	    -11.30050237	      0.00000000	      0.00000000	     28.23361824	     95.00373788	     18.97727074	      0.00000000	      0.00000000
      1.82150000	      0.00000000	      0.00000000	      0.00000000	      0.00000000	      0.00000000	      0.00000000	      0.00000000	      0.00000000	      0.00000000	    -67.88785956	    -11.08260572	      0.00000000	      0.00000000	     30.14936406	    100.79976831	     15.36631222	      0.00000000	     -0.00000000
      1.83200000	      0.00000000	      0.00000000	      0.00000000	      0.00000000	      0.00000000	      0.00000000	      0.00000000	      0.00000000	      0.00000000	    -68.04022134	    -10.80532150	      0.00000000	      0.00000000	     32.12106347	    106.89593410	     13.25483891	      0.00000000	      0.00000000
      1.84250000	      0.00000000	      0.00000000	      0.00000000	      0.00000000	      0.00000000	      0.00000000	      0.00000000	      0.00000000	      0.00000000	    -67.80170161	    -10.46905815	      0.00000000	      0.00000000	     34.09945436	    113.17291132	      6.65418728	      0.00000000	     -0.00000000
      1.85300000	      0.00000000	      0.00000000	      0.00000000	      0.00000000	      0.00000000	      0.00000000	      0.00000000	      0.00000000	      0.00000000	    -67.14697648	    -10.07889547	      0.00000000	      0.00000000	     36.11252452	    119.80412135	     -0.17237637	      0.00000000	      0.00000000
      1.86350000	      0.00000000	      0.00000000	      0.00000000	      0.00000000	      0.00000000	      0.00000000	      0.00000000	      0.00000000	      0.00000000	    -66.08581644	     -9.64423417	      0.00000000	      0.00000000	     38.18210507	    126.92360047	     -7.02903686	      0.00000000	      0.00000000
      1.87400000	      0.00000000	      0.00000000	      0.00000000	      0.00000000	      0.00000000	      0.00000000	      0.00000000	      0.00000000	      0.00000000	    -64.66425704	     -9.17846265	      0.00000000	      0.00000000	     39.94502618	    133.26946131	    -13.70938244	      0.00000000	     -0.00000000
      1.88450000	      0.00000000	      0.00000000	      0.00000000	      0.00000000	      0.00000000	      0.00000000	      0.00000000	      0.00000000	      0.00000000	    -62.96101732	     -8.69795894	      0.00000000	      0.00000000	     41.09371741	    137.91445474	    -20.01703550	      0.00000000	      0.00000000
      1.89500000	      0.00000000	      0.00000000	      0.00000000	      0.00000000	      0.00000000	      0.00000000	      0.00000000	      0.00000000	      0.00000000	    -61.07824461	     -8.22043490	      0.00000000	      0.00000000	     41.88124236	    141.76297464	    -25.78768372	     -0.00000000	     -0.00000000
      1.90550000	      0.00000000	      0.00000000	      0.00000000	      0.00000000	      0.00000000	      0.00000000	      0.00000000	      0.00000000	      0.00000000	    -59.13186642	     -7.76386294	      0.00000000	      0.00000000	     41.87616722	    142.55551245	    -30.89660876	     -0.00000000	      0.00000000
      1.91600000	      0.00000000	      0.00000000	      0.00000000	      0.00000000	      0.00000000	      0.00000000	      0.00000000	      0.00000000	      0.00000000	    -57.23463047	     -7.34392395	      0.00000000	      0.00000000	     41.54766433	    141.80789509	    -35.27574667	     -0.00000000	      0.00000000
      1.92650000	      0.00000000	      0.00000000	      0.00000000	      0.00000000	      0.00000000	      0.00000000	      0.00000000	      0.00000000	      0.00000000	    -55.48914707	     -6.97387946	      0.00000000	      0.00000000	     41.41849425	    141.61838175	    -38.89861736	      0.00000000	     -0.00000000
      1.93700000	      0.00000000	      0.00000000	      0.00000000	      0.00000000	      0.00000000	      0.00000000	      0.00000000	      0.00000000	      0.00000000	    -53.97049314	     -6.66194198	      0.00000000	      0.00000000	     41.78451588	    143.78204692	    -41.79013558	     -0.00000000	     -0.00000000
      1.94750000	      0.00000000	      0.00000000	      0.00000000	      0.00000000	      0.00000000	      0.00000000	      0.00000000	      0.00000000	      0.00000000	    -52.72987029	     -6.41275938	      0.00000000	      0.00000000	     42.29077499	    146.79766973	    -43.99721576	     -0.00000000	     -0.00000000
      1.95800000	      0.00000000	      0.00000000	      0.00000000	      0.00000000	      0.00000000	      0.00000000	      0.00000000	      0.00000000	      0.00000000	    -51.78172801	     -6.22515620	      0.00000000	      0.00000000	     42.74340222	    149.66646785	    -45.60009849	     -0.00000000	      0.00000000
      1.96850000	      0.00000000	      0.00000000	      0.00000000	      0.00000000	      0.00000000	      0.00000000	      0.00000000	      0.00000000	      0.00000000	    -51.11852024	     -6.09510908	      0.00000000	      0.00000000	     43.07373671	    151.90342652	    -46.68172130	     -0.00000000	     -0.00000000
      1.97900000	      0.00000000	      0.00000000	      0.00000000	      0.00000000	      0.00000000	      0.00000000	      0.00000000	      0.00000000	      0.00000000	    -50.70608427	     -6.01463230	      0.00000000	      0.00000000	     43.27953310	    153.37531092	    -47.33864736	     -0.00000000	     -0.00000000
      1.98950000	      0.00000000	      0.00000000	      0.00000000	      0.00000000	      0.00000000	      0.00000000	      0.00000000	      0.00000000	      0.00000000	    -50.49738066	     -5.97405922	      0.00000000	      0.00000000	     43.38306323	    154.14028854	    -47.66582770	     -0.00000000	      0.00000000
