FiberPassivePower
version=1
nRows=98
nColumns=19
inDegrees=no

This analysis gathers basic information about muscles during a simulation (e.g., forces, tendon lengths, moment arms, etc).
Units are S.I. units (second, meters, Newtons, ...)
If the header above contains a line with 'inDegrees', this indicates whether rotational values are in degrees (yes) or radians (no).

endheader
time	hamstrings_r	bifemsh_r	glut_max_r	iliopsoas_r	rect_fem_r	vasti_r	gastroc_r	soleus_r	dorsiflexors_r	hamstrings_l	bifemsh_l	glut_max_l	iliopsoas_l	rect_fem_l	vasti_l	gastroc_l	soleus_l	dorsiflexors_l
      0.97100000	      0.24103409	      0.07534762	     -0.35355056	      0.17125427	     -0.80814714	     -0.58904011	     -0.08341916	     -0.08249807	      0.00000616	      5.29301272	      0.04426777	      2.61367130	     -0.19628589	     -0.02043574	     -0.18222153	     -0.10893519	     -0.01486017	     -0.00004864
      0.98150000	      0.28164195	      0.10099373	     -0.95846472	      0.46051403	     -1.18117479	     -0.86651811	     -0.12340892	     -0.12354160	      0.00000628	      7.01076566	      0.05403130	      4.19366332	     -0.31918643	     -0.03069520	     -0.23248276	     -0.07787335	      0.14244680	      0.00046400
      0.99200000	      0.28110625	      0.11704323	     -1.77765510	      0.83993646	     -1.53259112	     -1.13349846	     -0.16780792	     -0.17720732	      0.00000465	      7.59684320	      0.05684028	      5.15168378	     -0.39947096	     -0.03944830	     -0.25737248	     -0.05804603	      0.20719760	      0.00065880
      1.00250000	      0.25944337	      0.12615739	     -2.78444045	      1.27942110	     -1.87470892	     -1.40863607	     -0.19761850	     -0.21765233	      0.00000168	      7.50638522	      0.05376841	      5.82806918	     -0.46187356	     -0.04636752	     -0.25628093	     -0.06509807	      0.15914506	      0.00049579
      1.01300000	      0.23409860	      0.12948071	     -3.84589136	      1.69852664	     -2.20303855	     -1.69121071	     -0.23204801	     -0.28268299	     -0.00000164	      7.40633457	      0.04902356	      6.70072396	     -0.54458020	     -0.05401577	     -0.24520904	     -0.00476176	      0.27808445	      0.00084274
      1.02350000	      0.20320247	      0.12731820	     -5.01983832	      2.10616799	     -2.47850682	     -1.97491129	     -0.24119626	     -0.33594789	     -0.00001026	      7.20209899	      0.04332718	      7.54885026	     -0.63167506	     -0.06189083	     -0.22641105	      0.05886608	      0.39023258	      0.00112832
      1.03400000	      0.16579262	      0.11960039	     -6.29928300	      2.48167389	     -2.64293244	     -2.24045420	     -0.20965698	     -0.35944793	     -0.00003020	      6.82388814	      0.03589980	      8.28352410	     -0.71637100	     -0.06853777	     -0.19485170	      0.09236703	      0.41346232	      0.00112218
      1.04450000	      0.12510560	      0.10788651	     -7.65434471	      2.80028003	     -2.65343813	     -2.47415684	     -0.19976521	     -0.45152308	     -0.00008673	      6.32736015	      0.02726478	      8.87840039	     -0.79632560	     -0.07327472	     -0.15252625	      0.11789981	      0.41470042	      0.00104834
      1.05500000	      0.08754605	      0.09489538	     -9.07940201	      3.05365034	     -2.52338323	     -2.69039393	     -0.06605935	     -0.36086495	     -0.00012767	      5.77780129	      0.01896332	      9.24979666	     -0.86291103	     -0.07624669	     -0.10846288	      0.15705514	      0.45358053	      0.00105235
      1.06550000	      0.04420707	      0.07986768	    -10.53352347	      3.22849361	     -2.14472372	     -2.81614792	     -0.02191111	     -0.33596016	     -0.00016681	      5.24282922	      0.01092841	      9.50283146	     -0.92412868	     -0.07759220	     -0.06341011	      0.17585667	      0.44987312	      0.00094052
      1.07600000	     -0.00214596	      0.06501610	    -11.98561488	      3.32424384	     -1.55872115	     -2.84967494	     -0.00966451	     -0.40626405	     -0.00028322	      4.77232371	      0.00269716	      9.77550877	     -0.99314771	     -0.07757698	     -0.01575311	      0.18465382	      0.42807174	      0.00079673
      1.08650000	     -0.04703362	      0.05210875	    -13.44664268	      3.35644725	     -0.88110713	     -2.83243317	      0.13886665	     -0.16909509	     -0.00014500	      4.35716908	     -0.00535592	     10.02215670	     -1.06629435	     -0.07632484	      0.03124012	      0.19423083	      0.41423304	      0.00067598
      1.09700000	     -0.10419946	      0.04012290	    -14.91617757	      3.33705694	     -0.06294622	     -2.68799527	      0.16226180	     -0.12491150	     -0.00011500	      3.97145811	     -0.01265922	     10.14413934	     -1.13270288	     -0.07383227	      0.07319869	      0.19229920	      0.38245352	      0.00053914
      1.10750000	     -0.17162924	      0.02998823	    -16.31505624	      3.26230752	      0.75460707	     -2.44353457	      0.12916696	     -0.18813138	     -0.00019149	      3.62503133	     -0.01952521	     10.19919758	     -1.19738984	     -0.07023146	      0.11116408	      0.18567902	      0.34622072	      0.00041725
      1.11800000	     -0.24267215	      0.02215185	    -17.52248372	      3.12864690	      1.41430867	     -2.15965603	      0.15742670	     -0.06675990	     -0.00007297	      3.32959083	     -0.02612917	     10.24310623	     -1.26662104	     -0.06595122	      0.14553658	      0.17877090	      0.31387389	      0.00032025
      1.12850000	     -0.32378901	      0.01600049	    -18.52069852	      2.95555307	      1.91016896	     -1.82921999	      0.16378870	      0.03748386	      0.00004115	      3.07775388	     -0.03220316	     10.25352176	     -1.33789291	     -0.06139296	      0.17441924	      0.17130461	      0.28492682	      0.00024373
      1.13900000	     -0.42057958	      0.01113926	    -19.29317094	      2.75809699	      2.24231423	     -1.45669091	      0.13951247	      0.07162348	      0.00007624	      2.86523068	     -0.03749996	     10.22123165	     -1.40973621	     -0.05707650	      0.19646159	      0.16043423	      0.25294196	      0.00017989
      1.14950000	     -0.53397450	      0.00733096	    -19.77668081	      2.54180565	      2.40514729	     -1.06517290	      0.10971780	      0.08997392	      0.00009176	      2.68229123	     -0.04218532	     10.15301953	     -1.48262171	     -0.05298490	      0.21281333	      0.15020166	      0.22561786	      0.00013291
      1.16000000	     -0.66426670	      0.00430366	    -19.91580980	      2.31241603	      2.41955561	     -0.67332013	      0.08549034	      0.12213899	      0.00011731	      2.52323698	     -0.04617566	     10.04529442	     -1.55551648	     -0.04934001	      0.22346207	      0.14194509	      0.20586546	      0.00009967
      1.17050000	     -0.81569099	      0.00174312	    -19.70506064	      2.07920326	      2.33093055	     -0.28418926	      0.05987916	      0.14153775	      0.00012544	      2.37614290	     -0.04951011	      9.88335222	     -1.62515813	     -0.04594006	      0.22917478	      0.13155555	      0.18358662	      0.00007261
      1.18100000	     -0.99281437	     -0.00061291	    -19.14402102	      1.84810204	      2.17859314	      0.10072170	      0.03137739	      0.14062314	      0.00011366	      2.23279524	     -0.05223447	      9.65786692	     -1.68822644	     -0.04254850	      0.23076084	      0.12337473	      0.16845524	      0.00005419
      1.19150000	     -1.20171238	     -0.00300277	    -18.25101662	      1.62392117	      1.99479274	      0.48116897	      0.00288742	      0.13124653	      0.00009645	      2.09534505	     -0.05418315	      9.37575199	     -1.74357779	     -0.03949485	      0.22814566	      0.11624555	      0.15822137	      0.00004090
      1.20200000	     -1.45028877	     -0.00565411	    -17.06589524	      1.41050594	      1.80268063	      0.85556882	     -0.02468092	      0.11907430	      0.00007963	      1.96596262	     -0.05525068	      9.04961243	     -1.79116962	     -0.03708961	      0.22163406	      0.10742803	      0.14588193	      0.00002996
      1.21250000	     -1.75010229	     -0.00882752	    -15.63813209	      1.21028676	      1.61784888	      1.22352323	     -0.05268261	      0.10232007	      0.00006256	      1.83559104	     -0.05558225	      8.66887555	     -1.82628090	     -0.03477549	      0.21262332	      0.09963208	      0.13754019	      0.00002220
      1.22300000	     -2.11590817	     -0.01281522	    -14.02072107	      1.02430783	      1.44796024	      1.58161779	     -0.08187721	      0.08095476	      0.00004574	      1.69738954	     -0.05540152	      8.22613209	     -1.84371234	     -0.03176044	      0.20274527	      0.09321162	      0.13380188	      0.00001663
      1.23350000	     -2.56616455	     -0.01795751	    -12.26919536	      0.85291778	      1.29559311	      1.92336831	     -0.11179258	      0.05770356	      0.00003063	      1.56278506	     -0.05440309	      7.74719084	     -1.84541435	     -0.02895631	      0.19111647	      0.08540283	      0.12749397	      0.00001191
      1.24400000	     -3.12411210	     -0.02464909	    -10.44415823	      0.69625258	      1.16019080	      2.23982161	     -0.14160285	      0.03404144	      0.00001731	      1.43984009	     -0.05227426	      7.25381455	     -1.83381005	     -0.02735063	      0.17693614	      0.07701220	      0.12068653	      0.00000832
      1.25450000	     -3.81538393	     -0.03332122	     -8.59816048	      0.55379237	      1.03883251	      2.51944697	     -0.17011364	      0.00994576	      0.00000495	      1.32268514	     -0.04945971	      6.75236946	     -1.80849746	     -0.02628730	      0.16191907	      0.07070584	      0.12029084	      0.00000593
      1.26500000	     -4.67006148	     -0.04442727	     -6.78963350	      0.42549450	      0.92821494	      2.75037039	     -0.19527800	     -0.01452170	     -0.00000725	      1.20614771	     -0.04655187	      6.24867877	     -1.76935551	     -0.02479457	      0.14791921	      0.06418452	      0.11812162	      0.00000398
      1.27550000	     -5.70974183	     -0.05835737	     -5.03376977	      0.30896915	      0.82295130	      2.91683125	     -0.21402259	     -0.03908341	     -0.00002001	      1.10368341	     -0.04252450	      5.75388806	     -1.71838583	     -0.02516773	      0.13158423	      0.05619538	      0.11129170	      0.00000246
      1.28600000	     -6.94721150	     -0.07536072	     -3.35115579	      0.20271079	      0.72013016	      3.00666234	     -0.22273268	     -0.06339029	     -0.00003403	      1.02379853	     -0.03623203	      5.27067206	     -1.65587322	     -0.02994113	      0.10961052	      0.04825350	      0.10603551	      0.00000146
      1.29650000	     -8.39319711	     -0.09537176	     -1.83934475	      0.11027258	      0.61965197	      3.01085591	     -0.21773535	     -0.08688303	     -0.00004989	      0.95646684	     -0.02982896	      4.84722107	     -1.59772236	     -0.03603003	      0.08861082	      0.04213183	      0.10438675	      0.00000077
      1.30700000	    -10.04510417	     -0.11787780	     -0.58889064	      0.03515977	      0.52207537	      2.92810680	     -0.19782023	     -0.10881114	     -0.00006788	      0.89494225	     -0.02575479	      4.53447959	     -1.56493430	     -0.03959653	      0.07537078	      0.03771028	      0.10260630	      0.00000022
      1.31750000	    -11.79634527	     -0.14167662	      0.52011505	     -0.03105024	      0.42658199	      2.76402770	     -0.12974454	     -0.12966115	     -0.00008891	      0.86100960	     -0.01798073	      4.22486132	     -1.52429124	     -0.05111882	      0.05198966	      0.03000948	      0.09159955	     -0.00000023
      1.32800000	    -13.44260063	     -0.16465040	      1.57345418	     -0.09427725	      0.33634956	      2.53600806	     -0.04557436	     -0.14759412	     -0.00011211	      0.87522640	      0.00158246	      3.78950533	     -1.42566912	     -0.08655112	     -0.00455399	      0.02033605	      0.08652299	     -0.00000062
      1.33850000	    -14.92417713	     -0.18450371	      2.27646716	     -0.13733575	      0.25690168	      2.26215631	      0.04247460	     -0.15993945	     -0.00013487	      0.84718788	      0.01189944	      3.50408182	     -1.37037102	     -0.10790008	     -0.03440883	      0.01628198	      0.08510168	     -0.00000109
      1.34900000	    -16.27768245	     -0.19882926	      2.35088565	     -0.14299551	      0.18832093	      1.94101323	      0.12033529	     -0.16580682	     -0.00015478	      0.70378929	     -0.01036578	      3.63899329	     -1.47977745	     -0.06311929	      0.03002301	      0.02047207	      0.07081311	     -0.00000134
      1.35950000	    -17.19004067	     -0.20478010	      2.12416627	     -0.13021888	      0.13112600	      1.60601947	      0.17486081	     -0.16720160	     -0.00017168	      0.57399405	     -0.03491439	      3.79285425	     -1.60909816	     -0.00945504	      0.09983049	      0.02542451	      0.06340388	     -0.00000160
      1.37000000	    -17.15042549	     -0.19987134	      1.97966655	     -0.12223316	      0.08605033	      1.28184334	      0.20051200	     -0.16182988	     -0.00018127	      0.55250257	     -0.03335905	      3.66939776	     -1.62638133	     -0.01059065	      0.09362979	      0.02182728	      0.05748515	     -0.00000183
      1.38050000	    -16.14617190	     -0.18426727	      1.78801969	     -0.11114023	      0.05345379	      0.97744699	      0.20080856	     -0.14530860	     -0.00017549	      0.57104352	     -0.02073917	      3.46490720	     -1.60312573	     -0.03664135	      0.05741437	      0.01399683	      0.04202139	     -0.00000159
      1.39100000	    -14.38709697	     -0.15910102	      1.35488797	     -0.08469151	      0.03213425	      0.71604084	      0.18089215	     -0.11891928	     -0.00015258	      0.58299251	     -0.00841387	      3.27904420	     -1.58195854	     -0.06355488	      0.02312280	      0.00873244	      0.03370882	     -0.00000143
      1.40150000	    -11.91938653	     -0.12641958	      0.81166364	     -0.05093011	      0.01875258	      0.49968035	      0.14438376	     -0.09431712	     -0.00012667	      0.58790509	      0.00417745	      3.08929390	     -1.55232456	     -0.09290698	     -0.01146828	      0.00401213	      0.02563233	     -0.00000118
      1.41200000	     -8.77189278	     -0.08829940	      0.28641535	     -0.01800684	      0.01038318	      0.32000985	      0.09597357	     -0.07989250	     -0.00011123	      0.58557518	      0.01694001	      2.89129746	     -1.51113509	     -0.12519509	     -0.04675073	     -0.00175258	      0.01118649	     -0.00000054
      1.42250000	     -5.32145531	     -0.04914715	     -0.17350991	      0.01091029	      0.00508503	      0.16950019	      0.05221830	     -0.04814239	     -0.00006885	      0.57220586	      0.03002270	      2.65157341	     -1.43886517	     -0.16082046	     -0.08384441	     -0.00782570	     -0.00325781	      0.00000016
      1.43300000	     -1.96852205	     -0.01338981	     -0.49241404	      0.03092529	      0.00153337	      0.04520999	      0.02177893	      0.01222130	      0.00001761	      0.54469672	      0.04306367	      2.34482986	     -1.31738482	     -0.19888197	     -0.12253816	     -0.01493966	     -0.01900742	      0.00000090
      1.44350000	      1.31839942	      0.02069298	     -0.76039702	      0.04765013	     -0.00147661	     -0.07004077	     -0.02106580	      0.02277692	      0.00003248	      0.51678924	      0.05655585	      2.02829594	     -1.17547208	     -0.24362351	     -0.16519615	     -0.02474195	     -0.03966225	      0.00000174
      1.45400000	      4.64111923	      0.05536537	     -1.05446113	      0.06586611	     -0.00492184	     -0.19238475	     -0.09291851	     -0.05564118	     -0.00007976	      0.49900670	      0.07102162	      1.75774528	     -1.04702136	     -0.30096529	     -0.21481280	     -0.03860007	     -0.06537578	      0.00000245
      1.46450000	      7.16476782	      0.08227078	     -1.30170876	      0.08097106	     -0.00877273	     -0.30096012	     -0.12203437	     -0.01897002	     -0.00002782	      0.47837954	      0.08584297	      1.45997465	     -0.89070247	     -0.37011640	     -0.27175156	     -0.05781419	     -0.09614459	      0.00000272
      1.47500000	      7.94767920	      0.09184434	     -1.46245353	      0.09052439	     -0.01192865	     -0.36081800	     -0.05616611	      0.21789727	      0.00030749	      0.44500891	      0.10046032	      1.05261253	     -0.65450262	     -0.44995360	     -0.33733115	     -0.08513852	     -0.13601587	      0.00000235
      1.48550000	      9.04240817	      0.09934144	     -1.08268950	      0.06670030	     -0.01647467	     -0.42469928	     -0.11411321	      0.07127414	      0.00009259	      0.41328173	      0.11500612	      0.61545417	     -0.38754954	     -0.55057388	     -0.41684074	     -0.12455103	     -0.18978127	      0.00000119
      1.49600000	     12.12816866	      0.11872986	      0.28396924	     -0.01746549	     -0.02734719	     -0.56148412	     -0.26966628	     -0.25021164	     -0.00034262	      0.39152073	      0.12976669	      0.20481477	     -0.12978402	     -0.68947289	     -0.51998923	     -0.18255141	     -0.26595798	     -0.00000131
      1.50650000	     14.00552156	      0.12823640	      1.82047476	     -0.11240043	     -0.04222766	     -0.68414132	     -0.10396249	      0.21385320	      0.00030334	      0.36879126	      0.14307108	     -0.24232637	      0.15352325	     -0.87014758	     -0.64805524	     -0.25787087	     -0.35612539	     -0.00000955
      1.51700000	     12.76152117	      0.11629413	      2.36317396	     -0.14703671	     -0.05256017	     -0.70029998	      0.02657266	      0.43002470	      0.00050711	      0.33720329	      0.15295522	     -0.78458545	      0.49324894	     -1.08514496	     -0.79579220	     -0.35653770	     -0.47666513	     -0.00004282
      1.52750000	     11.14894676	      0.10425707	      2.33075507	     -0.14621691	     -0.06089152	     -0.69961511	     -0.20869698	     -0.14519322	     -0.00015865	      0.30198524	      0.16053503	     -1.44690113	      0.89448746	     -1.34343796	     -0.97070639	     -0.48751119	     -0.64522529	     -0.00016243
      1.53800000	     10.77295588	      0.09735487	      3.30840054	     -0.20953918	     -0.07497850	     -0.72136185	     -0.18828574	     -0.11560036	     -0.00014111	      0.27094665	      0.16513621	     -2.15013784	      1.29400007	     -1.64215670	     -1.16725518	     -0.64931399	     -0.86821395	     -0.00050395
      1.54850000	     10.57247369	      0.08643396	      5.26183239	     -0.33837566	     -0.09216392	     -0.70332298	      0.10807833	      0.43183807	      0.00048156	      0.24216353	      0.16489151	     -2.85791365	      1.65839782	     -1.96541297	     -1.37736745	     -0.81040763	     -1.11322436	     -0.00124167
      1.55900000	      9.93442930	      0.07451542	      6.85036342	     -0.45034694	     -0.10888577	     -0.66052820	      0.09425202	      0.33772608	      0.00029383	      0.20932934	      0.16046134	     -3.69255197	      2.04611896	     -2.29022412	     -1.60380382	     -0.95118084	     -1.38124126	     -0.00249088
      1.56950000	      9.04961307	      0.06353411	      7.91986283	     -0.53491043	     -0.12444335	     -0.60805188	     -0.03005649	      0.06469289	      0.00004994	      0.17675771	      0.15271452	     -4.64040330	      2.42946456	     -2.57605787	     -1.83501142	     -1.07631413	     -1.72314456	     -0.00444860
      1.58000000	      7.99443436	      0.05045942	      8.87080861	     -0.61806186	     -0.13530462	     -0.51557290	      0.03349496	      0.14663171	      0.00010709	      0.14575877	      0.14050004	     -5.58472831	      2.73528387	     -2.76555729	     -2.04061368	     -1.12368785	     -2.07114346	     -0.00694649
      1.59050000	      7.05127449	      0.03722119	      9.89609405	     -0.71425505	     -0.14325752	     -0.40025456	      0.14507011	      0.31198420	      0.00018829	      0.11296548	      0.12522361	     -6.58504011	      2.99130069	     -2.82452719	     -2.21692427	     -1.05348026	     -2.36355046	     -0.00954958
      1.60100000	      6.44875542	      0.02620357	     11.18703693	     -0.84074308	     -0.15480518	     -0.29254694	      0.12601168	      0.25231497	      0.00011551	      0.08216254	      0.10998709	     -7.70839623	      3.22062559	     -2.77534993	     -2.39222325	     -0.67137748	     -2.14226712	     -0.00975372
      1.61150000	      5.88781136	      0.01601427	     12.32372491	     -0.97014851	     -0.16547085	     -0.18338219	      0.08593059	      0.16559845	      0.00006103	      0.04826880	      0.09330739	     -8.87536052	      3.38435747	     -2.51395584	     -2.50408422	     -0.54258673	     -2.24098447	     -0.01097028
      1.62200000	      5.14260133	      0.00494746	     12.89165858	     -1.06800969	     -0.16558777	     -0.05738154	      0.10875373	      0.18879790	      0.00005610	      0.00894442	      0.07636926	    -10.08398905	      3.48705919	     -2.00590632	     -2.52286616	     -0.37469793	     -2.35005974	     -0.01218522
      1.63250000	      4.48054802	     -0.00577810	     13.29985355	     -1.16337298	     -0.16038025	      0.06697003	      0.12085702	      0.19548461	      0.00004372	     -0.03065451	      0.06163304	    -11.35036004	      3.53989437	     -1.36594393	     -2.49286553	      0.24253268	     -1.15395286	     -0.00616868
      1.64300000	      4.08046280	     -0.01474773	     13.91471360	     -1.29018508	     -0.15978215	      0.16880321	      0.11260538	      0.17123887	      0.00002816	     -0.07389229	      0.04850772	    -12.57937086	      3.52361779	     -0.61857560	     -2.38360924	      0.44770335	     -0.72106460	     -0.00389859
      1.65350000	      3.74936347	     -0.02284963	     14.39550831	     -1.42145445	     -0.15848943	      0.25569008	      0.10358538	      0.14736658	      0.00001771	     -0.12334516	      0.03724239	    -13.74713848	      3.44999511	      0.16359433	     -2.19601975	      0.46534245	     -0.65634213	     -0.00358236
      1.66400000	      3.37025986	     -0.03071539	     14.46884332	     -1.52699723	     -0.14979709	      0.33291540	      0.09744184	      0.12873973	      0.00001139	     -0.18088685	      0.02802499	    -14.86061599	      3.33746696	      0.89400843	     -1.95205202	      0.65609780	      0.14685673	      0.00080409
      1.67450000	      3.02736631	     -0.03794944	     14.34871041	     -1.62247541	     -0.13771873	      0.39500553	      0.09872566	      0.12304439	      0.00000788	     -0.24861675	      0.02056231	    -15.84620238	      3.18504390	      1.50886480	     -1.65965561	      0.74211064	      0.82182920	      0.00447282
      1.68500000	      2.76376293	     -0.04392747	     14.16178382	     -1.71937701	     -0.12710994	      0.43602713	      0.09323423	      0.10753739	      0.00000490	     -0.32658120	      0.01461424	    -16.60558258	      2.99206559	      1.95596806	     -1.33578444	      0.70570443	      1.16077273	      0.00623417
      1.69550000	      2.53061490	     -0.04896150	     13.83935710	     -1.80737642	     -0.11594732	      0.46104765	      0.08578708	      0.08976289	      0.00000296	     -0.41792692	      0.00981526	    -17.10970594	      2.77257716	      2.23676464	     -0.98963606	      0.63360867	      1.37687351	      0.00724995
      1.70600000	      2.29770490	     -0.05331977	     13.33621140	     -1.87542122	     -0.10205036	      0.47444108	      0.08389895	      0.08214531	      0.00000197	     -0.52699669	      0.00580152	    -17.34332876	      2.53880429	      2.37432855	     -0.62683920	      0.56190109	      1.56149876	      0.00799183
      1.71650000	      2.08330002	     -0.05679454	     12.72911590	     -1.92790078	     -0.08757255	      0.47626612	      0.08253903	      0.07679459	      0.00000132	     -0.65764002	      0.00226535	    -17.27802693	      2.29740393	      2.39463484	     -0.25425098	      0.47775187	      1.63210222	      0.00802947
      1.72700000	      1.89884085	     -0.05915736	     12.08097218	     -1.97009717	     -0.07481096	      0.46694715	      0.07783054	      0.06725587	      0.00000080	     -0.81399199	     -0.00108381	    -16.89122030	      2.05323505	      2.32740054	      0.12234210	      0.38573264	      1.59111563	      0.00743113
      1.73750000	      1.72951388	     -0.06064685	     11.38847865	     -1.99820097	     -0.06272770	      0.45065354	      0.07476544	      0.06189767	      0.00000049	     -1.00365460	     -0.00456851	    -16.19798927	      1.81299430	      2.20684782	      0.50197860	      0.29831233	      1.49276866	      0.00652908
      1.74800000	      1.56539856	     -0.06145801	     10.64567491	     -2.00717926	     -0.05037247	      0.43012271	      0.07197905	      0.05826103	      0.00000027	     -1.23716353	     -0.00853995	    -15.22238206	      1.58093229	      2.05962555	      0.88422372	      0.21930173	      1.36413562	      0.00550449
      1.75850000	      1.41073008	     -0.06147293	      9.87591908	     -1.99717317	     -0.03909401	      0.40490581	      0.06765650	      0.05296861	      0.00000009	     -1.52780231	     -0.01337822	    -13.99868981	      1.35990529	      1.90289597	      1.26463069	      0.14775570	      1.21423919	      0.00444985
      1.76900000	      1.26886913	     -0.06074449	      9.11046301	     -1.97149833	     -0.02948694	      0.37660644	      0.06498733	      0.05197141	     -0.00000005	     -1.89256945	     -0.01952719	    -12.56959671	      1.15156942	      1.74664128	      1.63564715	      0.08373013	      1.05510029	      0.00345882
      1.77950000	      1.14010685	     -0.05920022	      8.35832996	     -1.93030154	     -0.02198823	      0.34589312	      0.06172516	      0.05107829	     -0.00000020	     -2.35343152	     -0.02750379	    -10.99566848	      0.95787505	      1.59590547	      1.98608336	      0.02923138	      0.90047162	      0.00260542
      1.79000000	      1.02324439	     -0.05690823	      7.62801007	     -1.87439266	     -0.01649539	      0.31404721	      0.05754849	      0.04926471	     -0.00000034	     -2.93789589	     -0.03790276	     -9.34233321	      0.78007784	      1.45180096	      2.30307802	     -0.01450860	      0.75623689	      0.00191071
      1.80050000	      0.91880764	     -0.05393171	      6.93231066	     -1.80656880	     -0.01310284	      0.28196129	      0.05457183	      0.05077259	     -0.00000052	     -3.67278428	     -0.05129937	     -7.65967659	      0.61778912	      1.31027083	      2.56731115	     -0.04483790	      0.62618897	      0.00137245
      1.81100000	      0.82814559	     -0.05019568	      6.27995257	     -1.72976495	     -0.01234662	      0.24956614	      0.05131438	      0.05256032	     -0.00000076	     -4.58311956	     -0.06817820	     -5.99856037	      0.47074806	      1.16754688	      2.75914089	     -0.05918094	      0.51106116	      0.00096979
      1.82150000	      0.75136934	     -0.04566655	      5.67588422	     -1.64671350	     -0.01453402	      0.21690076	      0.04713801	      0.05289884	     -0.00000103	     -5.68331714	     -0.08876659	     -4.40147747	      0.33838904	      1.02131615	      2.86176796	     -0.05490450	      0.41107538	      0.00067781
      1.83200000	      0.68743624	     -0.04045781	      5.12478390	     -1.56074067	     -0.01950637	      0.18452091	      0.04403558	      0.05606515	     -0.00000144	     -6.96897187	     -0.11275992	     -2.92911625	      0.22198902	      0.87234324	      2.86430273	     -0.06318436	      0.32586736	      0.00047087
      1.84250000	      0.63713488	     -0.03456219	      4.63363567	     -1.47645118	     -0.02770061	      0.15222083	      0.04095821	      0.05957243	     -0.00000201	     -8.39777600	     -0.13918363	     -1.59945568	      0.12015898	      0.72355020	      2.76692630	      0.02052995	      0.25326132	      0.00032496
      1.85300000	      0.60053175	     -0.02794503	      4.20508083	     -1.39764816	     -0.03961600	      0.11958446	      0.03725011	      0.06155081	     -0.00000270	     -9.87509217	     -0.16605305	     -0.44189516	      0.03306797	      0.58128154	      2.58479832	      0.11824142	      0.19309433	      0.00022362
      1.86350000	      0.57574954	     -0.02070446	      3.83673524	     -1.32655783	     -0.05524760	      0.08665487	      0.03363836	      0.06342290	     -0.00000359	    -11.25768968	     -0.19075603	      0.54562950	     -0.04084091	      0.45136405	      2.34048800	      0.21118835	      0.14277889	      0.00015197
      1.87400000	      0.56159533	     -0.01284391	      3.52552064	     -1.26502281	     -0.07505843	      0.05294431	      0.03000039	      0.06469127	     -0.00000464	    -12.34794688	     -0.21003319	      1.36601647	     -0.10263393	      0.33486989	      2.03602399	      0.28232161	      0.10207210	      0.00010172
      1.88450000	      0.55496216	     -0.00456078	      3.26478718	     -1.21328126	     -0.09886921	      0.01865314	      0.02599971	      0.06409427	     -0.00000572	    -12.95241435	     -0.22109715	      2.03257860	     -0.15373583	      0.23655270	      1.69967803	      0.32041004	      0.06944741	      0.00006593
      1.89500000	      0.55336510	      0.00395487	      3.04933902	     -1.17169736	     -0.12671655	     -0.01617035	      0.02227606	      0.06307513	     -0.00000683	    -12.89100976	     -0.22184369	      2.57290898	     -0.19637325	      0.16054582	      1.37530601	      0.32365279	      0.04369012	      0.00004013
      1.90550000	      0.55635858	      0.01253205	      2.88444514	     -1.14447638	     -0.15924626	     -0.05162184	      0.01833361	      0.06022538	     -0.00000768	    -12.10221787	     -0.21202244	      2.99761436	     -0.23131544	      0.10422244	      1.06722661	      0.29905788	      0.02425116	      0.00002183
      1.91600000	      0.56448199	      0.02113078	      2.77824113	     -1.13739262	     -0.19798783	     -0.08837593	      0.01386101	      0.05488956	     -0.00000794	    -10.60423144	     -0.19267663	      3.33997469	     -0.26099360	      0.06576786	      0.80473019	      0.25647458	      0.00885921	      0.00000790
      1.92650000	      0.56961169	      0.02906019	      2.70713606	     -1.14320307	     -0.24066760	     -0.12436127	      0.00993844	      0.04963612	     -0.00000786	     -8.60228505	     -0.16642555	      3.56044501	     -0.28208933	      0.04110237	      0.59839699	      0.20700146	     -0.00231598	     -0.00000206
      1.93700000	      0.56742009	      0.03577663	      2.65730461	     -1.15749362	     -0.28522033	     -0.15775082	      0.00673713	      0.04480298	     -0.00000750	     -6.36235010	     -0.13619172	      3.62687659	     -0.29154417	      0.02557546	      0.44150614	      0.15782118	     -0.01092026	     -0.00000975
      1.94750000	      0.55466595	      0.04074090	      2.61533805	     -1.17527996	     -0.32857501	     -0.18618153	      0.00229231	      0.03553849	     -0.00000609	     -4.17014399	     -0.10506845	      3.52372148	     -0.28740117	      0.01559239	      0.31718543	      0.11352638	     -0.01775642	     -0.00001600
      1.95800000	      0.53116409	      0.04358501	      2.57671657	     -1.19485275	     -0.36732195	     -0.20728026	     -0.00079197	      0.02856859	     -0.00000488	     -2.31225726	     -0.07560806	      3.19441398	     -0.26415954	      0.00913769	      0.21738189	      0.07621331	     -0.02257381	     -0.00002060
      1.96850000	      0.47056436	      0.04222352	      2.37559672	     -1.13617221	     -0.37705557	     -0.20928249	     -0.00215261	      0.02320593	     -0.00000389	     -1.00085223	     -0.04946565	      2.57705283	     -0.21567303	      0.00500308	      0.13774107	      0.04625173	     -0.02463813	     -0.00002280
      1.97900000	      0.35762173	      0.03499266	      1.86140200	     -0.91461568	     -0.32793463	     -0.18008200	     -0.00412772	      0.01332497	     -0.00000218	     -0.36474142	     -0.02781827	      1.63330352	     -0.13789844	      0.00250391	      0.07598779	      0.02364422	     -0.02249845	     -0.00002112
      1.98950000	      0.22225458	      0.02238317	      1.20961790	     -0.60618588	     -0.22162269	     -0.11848663	     -0.00349549	      0.00647988	     -0.00000104	     -0.25078161	     -0.01174098	      0.58455443	     -0.04957983	      0.00113422	      0.03176666	      0.00865749	     -0.01504174	     -0.00001428
