ActiveFiberForceAlongTendon
version=1
nRows=98
nColumns=19
inDegrees=no

This analysis gathers basic information about muscles during a simulation (e.g., forces, tendon lengths, moment arms, etc).
Units are S.I. units (second, meters, Newtons, ...)
If the header above contains a line with 'inDegrees', this indicates whether rotational values are in degrees (yes) or radians (no).

endheader
time	hamstrings_r	bifemsh_r	glut_max_r	iliopsoas_r	rect_fem_r	vasti_r	gastroc_r	soleus_r	dorsiflexors_r	hamstrings_l	bifemsh_l	glut_max_l	iliopsoas_l	rect_fem_l	vasti_l	gastroc_l	soleus_l	dorsiflexors_l
      0.97100000	      9.34074853	      9.39378620	    128.34407280	     97.45664464	     87.51606288	     28.31039059	     -4.31739592	     -6.83778677	     -0.07177092	    134.61320528	     14.78859834	    106.79888678	     90.75895195	      1.35708775	     12.92123401	    -29.64337351	   -154.78018893	      0.53031504
      0.98150000	      7.90656846	      8.12422977	    129.93118430	     96.83203165	     92.85911346	     34.47270220	     -4.83372719	     -7.55855520	     -0.05897353	    130.24537085	     14.37904203	    106.24166370	     91.46665388	      1.49563876	     13.49871675	    -31.41107537	   -149.96869006	      0.52280907
      0.99200000	      6.79684720	      6.71752542	    132.07772346	     96.00633166	     97.32541755	     44.28331305	     -5.49361611	     -8.65300590	     -0.04036077	    128.05204601	     14.00593760	    106.15099079	     92.00594797	      1.65206283	     14.11183678	    -32.40791019	   -145.91781753	      0.51089333
      1.00250000	      6.01722120	      5.24129493	    134.65593058	     95.02784077	    101.16403572	     59.11668071	     -6.22642309	    -10.17348422	     -0.01598030	    127.21279714	     13.69496720	    106.28198111	     92.47964022	      1.81669219	     14.70760120	    -33.96591721	   -145.42589073	      0.50470397
      1.01300000	      5.45186919	      3.80515604	    137.26478433	     94.05576698	    104.51058680	     80.01496985	     -7.10104819	    -12.58580498	      0.01291786	    126.06177197	     13.41274904	    106.34770820	     93.06636415	      1.99897244	     15.29648343	    -33.95626557	   -139.48513280	      0.49038253
      1.02350000	      5.05097827	      2.56217611	    139.93258377	     93.04466250	    107.21793081	    106.80525135	     -8.09314313	    -16.64390321	      0.04881312	    124.87122196	     13.16151120	    106.48371019	     93.69256793	      2.19895501	     15.86480496	    -32.47200896	   -131.92763271	      0.47017200
      1.03400000	      4.78254985	      1.64562770	    142.52866253	     92.01750570	    109.01696647	    137.78193177	     -9.03522607	    -22.35275267	      0.08512356	    123.95869966	     12.96527460	    106.73337371	     94.32294242	      2.41078790	     16.36767644	    -30.37262879	   -125.58558942	      0.44906561
      1.04450000	      4.62135310	      1.08550385	    144.88011221	     91.01366117	    109.73388916	    169.96950706	    -10.28764313	    -31.75030395	      0.12594903	    123.29887866	     12.83608616	    107.10419386	     94.94339594	      2.62887699	     16.75912627	    -27.94665493	   -119.36189429	      0.42816656
      1.05500000	      4.53220052	      0.78559797	    146.87318551	     90.03998166	    109.51591590	    200.83751620	    -10.67805399	    -41.77725204	      0.16487518	    122.80021517	     12.76158315	    107.64112213	     95.51147113	      2.85070187	     17.03199154	    -24.78783534	   -110.99068778	      0.40410506
      1.06550000	      4.53622078	      0.62646611	    148.35705328	     89.12741961	    107.85211365	    227.60560364	    -11.76097956	    -50.13517675	      0.19168520	    122.29875634	     12.74487448	    108.26138209	     96.05733580	      3.07367311	     17.16999913	    -21.51490847	   -102.76247601	      0.37935359
      1.07600000	      4.63342643	      0.52572398	    149.23695390	     88.28581954	    104.97817247	    248.86086414	    -11.97319839	    -62.58273911	      0.22485348	    121.61385871	     12.79479519	    108.85881760	     96.63385841	      3.29654442	     17.15241316	    -18.44364905	    -94.65213109	      0.35520527
      1.08650000	      4.80637414	      0.44998503	    149.50744442	     87.48486460	    101.45925974	    265.19306329	    -10.32885517	    -66.92426575	      0.24395914	    120.77481076	     12.90941118	    109.46257388	     97.22376642	      3.51830127	     16.97923187	    -15.53476694	    -85.89295404	      0.33063404
      1.09700000	      5.10327782	      0.39458649	    149.16611348	     86.70579019	     96.86057615	    276.36462948	     -8.82949971	    -69.19796551	      0.25158827	    119.90766664	     13.07676060	    110.14358259	     97.77993360	      3.73879655	     16.67847501	    -13.06501847	    -77.48213969	      0.30675350
      1.10750000	      5.54686747	      0.35386048	    148.15478738	     85.98628610	     91.73133839	    283.25553534	     -8.11984430	    -75.21364778	      0.26520392	    118.97865069	     13.29450602	    110.84851066	     98.31884425	      3.95869790	     16.26962312	    -11.07653410	    -69.50755401	      0.28407517
      1.11800000	      6.15093210	      0.32229638	    146.44313538	     85.38028986	     86.87285853	    287.31625663	     -7.14336770	    -76.20549152	      0.27227928	    117.91084783	     13.55942170	    111.52368178	     98.86198035	      4.18081002	     15.77399333	     -9.50324228	    -61.91788017	      0.26246714
      1.12850000	      7.00976188	      0.29839387	    144.15161635	     84.86687995	     82.28182222	    289.10628260	     -6.33724932	    -74.10080688	      0.27086739	    116.71679286	     13.86164252	    112.18214729	     99.39693872	      4.40743144	     15.22216388	     -8.28618958	    -54.83540595	      0.24191372
      1.13900000	      8.35260452	      0.28117479	    141.40467203	     84.43207598	     77.96989499	    289.06934915	     -5.85841010	    -71.79775052	      0.26615335	    115.39029605	     14.18830290	    112.82600730	     99.91522187	      4.64178221	     14.64690252	     -7.37562764	    -48.51128299	      0.22262100
      1.14950000	     10.69716101	      0.26980354	    138.29419903	     84.09397922	     74.08216074	    287.69729893	     -5.57273098	    -69.33165642	      0.26032936	    113.96192383	     14.53187385	    113.44236143	    100.41549380	      4.88412490	     14.06807770	     -6.67835712	    -42.93199086	      0.20479723
      1.16000000	     15.01313749	      0.26384854	    134.92475664	     83.86738542	     70.68118709	    285.35939093	     -5.36961758	    -65.86146227	      0.25233904	    112.44415523	     14.88268784	    114.02922572	    100.89128051	      5.13506803	     13.50267780	     -6.10726322	    -37.88588130	      0.18789419
      1.17050000	     22.62028887	      0.26349557	    131.42620686	     83.74500776	     67.67849815	    282.17835463	     -5.26636104	    -61.95775327	      0.24253223	    110.90081266	     15.23280424	    114.59890186	    101.32903692	      5.39329492	     12.96102371	     -5.64444375	    -33.55981972	      0.17211130
      1.18100000	     34.56628089	      0.26911141	    127.90542420	     83.72319653	     65.00276955	    278.19621904	     -5.27280495	    -58.26070438	      0.23227937	    109.39018212	     15.57616529	    115.16174663	    101.71611254	      5.65470146	     12.44761323	     -5.23464426	    -29.76830698	      0.15735947
      1.19150000	     50.80674369	      0.28127711	    124.45705521	     83.79484990	     62.57402129	    273.38323186	     -5.37297243	    -54.88950630	      0.22240227	    107.89738384	     15.90458188	    115.71197787	    102.04802595	      5.91827643	     11.96764351	     -4.85888465	    -26.36884712	      0.14308639
      1.20200000	     69.90249467	      0.30070766	    121.15852265	     83.94778540	     60.29363141	    267.67820051	     -5.55674478	    -51.84468800	      0.21315106	    106.39549969	     16.21123208	    116.23776115	    102.32460714	      6.18558082	     11.52400224	     -4.52794958	    -23.44895170	      0.12942573
      1.21250000	     89.56679613	      0.32842626	    118.06848604	     84.16984866	     58.01661729	    260.95183240	     -5.83067174	    -49.26029039	      0.20487048	    104.94939373	     16.49357181	    116.76088460	    102.53252954	      6.45438248	     11.11498673	     -4.22274885	    -20.89824707	      0.11634251
      1.22300000	    107.63414277	      0.36576960	    115.22421062	     84.44976829	     55.55048493	    253.05116959	     -6.20423351	    -47.25481185	      0.19797777	    103.62940136	     16.75236684	    117.30541377	    102.65897514	      6.71383152	     10.73507972	     -3.93308226	    -18.60364381	      0.10340674
      1.23350000	    122.78096690	      0.41454472	    112.65005441	     84.77705681	     52.63385356	    243.79233836	     -6.68775955	    -45.86331754	      0.19277936	    102.33728244	     16.98259386	    117.84910844	    102.71325117	      6.96221261	     10.38639324	     -3.67394123	    -16.61134077	      0.09057512
      1.24400000	    134.75155656	      0.47719549	    110.35874351	     85.13952967	     48.92115206	    232.95215320	     -7.30053762	    -45.07602905	      0.18938459	    100.96933474	     17.17826336	    118.37209165	    102.70609685	      7.20928725	     10.07364715	     -3.44458151	    -14.92034552	      0.07815032
      1.25450000	    144.10390309	      0.55712966	    108.35264119	     85.52811992	     44.02042365	    220.26084969	     -8.08636469	    -44.90908990	      0.18789540	     99.55068832	     17.34333981	    118.87704970	    102.64051500	      7.45877248	      9.79391640	     -3.22408196	    -13.39704624	      0.06578038
      1.26500000	    151.80281602	      0.65920473	    106.63002537	     85.93042634	     37.57687743	    205.38477447	     -9.12877357	    -45.37252730	      0.18836322	     98.12329414	     17.48628327	    119.36734903	    102.52058508	      7.70286736	      9.54013514	     -3.02148511	    -12.05736530	      0.05313969
      1.27550000	    158.73318913	      0.79048279	    105.16912518	     86.34803499	     29.56658580	    188.00413271	    -10.55518632	    -46.48465468	      0.19083163	     96.52443198	     17.59590109	    119.83532203	    102.35593837	      7.95848540	      9.32169831	     -2.84988670	    -10.95661983	      0.04077014
      1.28600000	    165.43222524	      0.96211880	    103.95270198	     86.77925742	     20.62327597	    167.83050251	    -12.48267606	    -48.24941240	      0.19526135	     94.59333170	     17.65489785	    120.28663250	    102.15146571	      8.27942510	      9.15626914	     -2.70293183	    -10.02699657	      0.02883286
      1.29650000	    172.00551607	      1.20434118	    102.99701791	     87.19489477	     12.25790210	    144.78734709	    -14.90547326	    -50.66902748	      0.20158497	     92.37669678	     17.68636655	    120.63224348	    101.95013962	      8.68800552	      9.03029802	     -2.56617622	     -9.20536718	      0.01707201
      1.30700000	    178.13574986	      1.63537090	    102.30741941	     87.56403280	      6.29853728	    119.29106122	    -15.84912466	    -53.70989741	      0.20962328	     89.91748336	     17.72573712	    120.75636071	    101.80328296	      9.15475119	      8.91401861	     -2.43205779	     -8.47895003	      0.00523388
      1.31750000	    183.04695000	      2.55175834	    101.80028313	     87.92318441	      3.35946350	     92.59806913	    -17.68428070	    -57.35711708	      0.21921654	     86.88156323	     17.70424348	    120.87067422	    101.62949195	      9.77308147	      8.85607154	     -2.34020938	     -7.91854207	     -0.00604939
      1.32800000	    185.91134317	      4.28081530	    101.42412696	     88.30053899	      2.25511698	     66.91290208	    -18.32524941	    -61.52710160	      0.23012148	     82.77659790	     17.49988099	    121.27953381	    101.31577832	     10.91038860	      8.96663411	     -2.30073353	     -7.43064351	     -0.01624219
      1.33850000	    186.60261241	      6.80695694	    101.29487633	     88.59714723	      1.71694728	     45.00305205	    -17.55377761	    -66.03133030	      0.24188679	     78.60430075	     17.34803033	    121.39404612	    101.10478522	     12.54303410	      9.09942749	     -2.25079527	     -6.95977488	     -0.02637317
      1.34900000	    185.40675614	      9.69090912	    101.49333910	     88.70501593	      1.35937626	     29.18083654	    -15.65492803	    -70.64509999	      0.25396661	     75.82221517	     17.60439218	    120.51485263	    101.26066151	     13.59182376	      8.93610925	     -2.13419844	     -6.62902543	     -0.03552186
      1.35950000	    182.18838433	     12.38148990	    101.82141733	     88.71062281	      1.11311461	     19.63271931	    -13.25639763	    -75.21508003	      0.26594771	     73.31433885	     17.96584296	    119.47317608	    101.43182036	     13.62758789	      8.60300514	     -1.97752212	     -6.33750954	     -0.04312300
      1.37000000	    176.91355299	     14.51008753	    102.09318739	     88.73587076	      0.94489672	     14.68784473	    -10.98658710	    -79.53078482	      0.27743375	     69.51157091	     18.05242163	    119.02359468	    101.33268953	     13.73308235	      8.42774764	     -1.87646263	     -6.06574784	     -0.05015453
      1.38050000	    170.43816318	     15.97986667	    102.37428381	     88.74024492	      0.83010943	     12.34703502	     -9.19728290	    -83.22348326	      0.28769677	     64.77151335	     17.98340721	    118.76395168	    101.13675970	     14.35220913	      8.38834799	     -1.84236621	     -5.90544526	     -0.05573307
      1.39100000	    163.62941481	     16.86165467	    102.74103796	     88.65329836	      0.74656954	     11.19620613	     -7.97636518	    -86.03243560	      0.29606739	     59.59127788	     17.88106362	    118.45908538	    100.93976129	     15.43562667	      8.40930766	     -1.82285363	     -5.77007872	     -0.05980127
      1.40150000	    156.85715058	     17.27879869	    103.11053083	     88.51080617	      0.68507394	     10.60435540	     -7.26832185	    -88.11734015	      0.30252783	     54.01642563	     17.73958781	    118.17146146	    100.72080881	     17.07502507	      8.49541625	     -1.82520329	     -5.66466590	     -0.06309388
      1.41200000	    150.28987207	     17.34427949	    103.41763063	     88.35466293	      0.64331649	     10.34198184	     -6.96872024	    -89.91581646	      0.30786948	     48.13625642	     17.55894778	    117.92275405	    100.47626674	     19.38129605	      8.64806055	     -1.86781943	     -5.64844346	     -0.06504147
      1.42250000	    144.35313009	     17.17094386	    103.64171550	     88.20241374	      0.62138540	     10.32072038	     -6.89938948	    -90.78192388	      0.31148815	     42.13504896	     17.33416329	    117.82302516	    100.17103256	     22.48507935	      8.87294172	     -1.94555407	     -5.70071909	     -0.06543827
      1.43300000	    139.33857223	     16.86124375	    103.75770129	     88.08386044	      0.61942730	     10.47957126	     -6.91686217	    -89.74617601	      0.31130277	     36.29058746	     17.06553271	    117.97836137	     99.77734507	     26.45934232	      9.17212851	     -2.06331116	     -5.83081004	     -0.06424904
      1.44350000	    134.97003544	     16.42112916	    103.81961372	     87.97287251	      0.64095788	     10.83119429	     -7.14033005	    -88.86709405	      0.30941147	     30.69096652	     16.74099454	    118.25307852	     99.35984319	     31.39986133	      9.55664490	     -2.23510613	     -6.07121788	     -0.06112399
      1.45400000	    130.88328707	     15.81740857	    103.86354771	     87.84379043	      0.69156111	     11.42151803	     -7.75763813	    -91.10189717	      0.31202609	     25.34343624	     16.34320230	    118.48151479	     98.98574873	     37.44299295	     10.04486962	     -2.47493585	     -6.45265613	     -0.05535585
      1.46450000	    127.99951505	     15.14951165	    103.85538604	     87.72136273	      0.76940097	     12.20304091	     -8.46242946	    -91.61584323	      0.31495701	     20.47578616	     15.86528021	    118.87699839	     98.57492151	     44.53476390	     10.65249299	     -2.79450692	     -7.00410931	     -0.04631696
      1.47500000	    127.58164143	     14.58877420	    103.78391956	     87.62119378	      0.85888614	     13.03713749	     -8.61751033	    -83.31871807	      0.30333690	     16.37447073	     15.29840846	    119.71724086	     98.03471688	     52.34716045	     11.40030397	     -3.21702896	     -7.80301670	     -0.03306442
      1.48550000	    126.50175700	     13.97558218	    103.46548042	     87.70254296	      0.96594290	     14.02201761	     -9.31594330	    -82.25030101	      0.29389213	     13.05215207	     14.62023833	    120.78605551	     97.46593098	     60.57714949	     12.33072602	     -3.77766999	     -8.99802335	     -0.01432800
      1.49600000	    121.68970107	     13.05590274	    102.77927764	     88.13904207	      1.12936541	     15.48140971	    -11.59646804	    -92.82430104	      0.30894259	     10.40318984	     13.79844864	    121.90001726	     96.94269641	     69.02665841	     13.52509073	     -4.53800993	    -10.95253420	      0.01172507
      1.50650000	    118.04988849	     12.07188611	    102.16761589	     88.68326667	      1.34793108	     17.44327772	    -12.75488534	    -83.72230694	      0.30423550	      8.40122614	     12.82171403	    123.23493333	     96.39478717	     77.20848837	     15.10278244	     -5.55287577	    -14.40614552	      0.04663322
      1.51700000	    119.66950643	     11.28951147	    102.12823028	     88.93983583	      1.57183476	     19.73714658	    -11.86210488	    -68.26427027	      0.27255503	      6.99878002	     11.69211756	    124.95687759	     95.75958215	     84.43170415	     17.27746199	     -6.93661992	    -21.06801422	      0.09089369
      1.52750000	    122.09633601	     10.51261231	    102.37570976	     89.01278543	      1.79587915	     22.56989630	    -14.32061517	    -77.88870242	      0.27374704	      6.04986451	     10.37502328	    127.11804591	     95.02048045	     90.51179949	     20.56924716	     -8.99760545	    -34.38164546	      0.14736208
      1.53800000	    121.54049355	      9.64989312	    102.16896827	     89.43429622	      2.05992895	     26.29418082	    -17.41141935	    -83.15139109	      0.28863596	      5.38227541	      8.86772426	    129.45051978	     94.29018741	     95.51013920	     25.98195072	    -13.20295910	    -58.29208738	      0.21759274
      1.54850000	    119.98248245	      8.84444319	    101.61990771	     90.24139435	      2.36963596	     30.78201617	    -15.40931890	    -65.50911707	      0.26512020	      4.88919192	      7.22663082	    131.79867360	     93.62071047	     99.62473724	     35.05100293	    -24.39040409	    -93.30061103	      0.30149725
      1.55900000	    119.08430145	      8.11279757	    101.39528993	     91.00741225	      2.71796062	     35.77421968	    -13.85815345	    -56.90595036	      0.23707430	      4.52894303	      5.53330165	    134.42192228	     92.87444921	    103.08938359	     49.56439425	    -46.05470953	   -132.72425928	      0.39419523
      1.56950000	    118.64688121	      7.44809260	    101.52554135	     91.66381640	      3.10690945	     41.05520760	    -14.57623443	    -58.05592488	      0.22857292	      4.25801684	      3.92150030	    137.19961404	     92.08705328	    105.92667690	     70.64010118	    -74.24815106	   -170.54318375	      0.49735647
      1.58000000	    118.77357765	      6.91399816	    101.78191848	     92.33452459	      3.52529261	     46.00922386	    -14.25089136	    -54.35441641	      0.22152634	      4.05132004	      2.57932412	    139.76988895	     91.39932054	    107.93986996	     97.55734898	    -99.81612139	   -200.26541513	      0.60680621
      1.59050000	    118.71093066	      6.52220352	    102.05207583	     93.08742286	      3.97995892	     50.06416034	    -12.23307581	    -44.89677242	      0.20083480	      3.91321778	      1.63456624	    142.19190461	     90.73783618	    109.00705367	    127.88046151	   -117.05959285	   -220.19027159	      0.71754443
      1.60100000	    117.41760161	      6.24299922	    102.22577555	     94.00376105	      4.53378543	     53.11683503	    -10.90212118	    -38.66641070	      0.17826981	      3.82898653	      1.07208489	    144.51050994	     90.03320577	    109.29687027	    159.09848638	   -120.96274302	   -225.50197097	      0.80244370
      1.61150000	    115.91891529	      6.07754367	    102.53659448	     94.95057315	      5.27000635	     55.04857212	    -10.28499624	    -35.32573854	      0.16288153	      3.81106516	      0.78519126	    146.47746609	     89.36818817	    108.32521078	    188.24746123	   -126.59796460	   -231.98141071	      0.88108315
      1.62200000	    115.47739064	      6.04765838	    103.21198192	     95.76044630	      6.25863524	     55.58540295	     -9.36890916	    -30.99365410	      0.14799708	      3.87493431	      0.63824120	    148.02000933	     88.73122330	    105.97834112	    212.77362259	   -126.82410831	   -237.74397442	      0.96453433
      1.63250000	    115.09179827	      6.15245722	    103.97896741	     96.55613319	      7.55696347	     54.70843273	     -8.45876314	    -26.62786081	      0.13057505	      4.00767967	      0.54376041	    149.10406380	     88.09500252	    102.84411687	    232.42422791	   -114.04976634	   -223.11738432	      0.97726965
      1.64300000	    113.62922470	      6.36642194	    104.58245917	     97.48058336	      9.24289701	     52.76048601	     -7.80312924	    -23.27245229	      0.11404014	      4.22010120	      0.47577702	    149.55919634	     87.52535360	     98.96945788	    247.10917386	   -106.43063751	   -217.68127639	      0.98530700
      1.65350000	    111.91034779	      6.68302274	    105.24448840	     98.41302206	     11.31507021	     49.96597847	     -7.28114358	    -20.58572109	      0.09898590	      4.52808293	      0.42581324	    149.37502868	     87.01337616	     94.58594549	    257.28332844	   -102.45303083	   -218.05992246	      1.00503672
      1.66400000	    110.69974420	      7.10306072	    106.15821220	     99.22243176	     13.60448516	     46.49212241	     -6.84795647	    -18.46565728	      0.08572426	      4.94991756	      0.38859701	    148.60459405	     86.52855348	     90.00733929	    263.86906702	    -92.60361357	   -205.23688006	      0.98221758
      1.67450000	    109.56607504	      7.61778194	    107.15773528	     99.96640192	     15.92951298	     42.58336150	     -6.42050978	    -16.56275724	      0.07305611	      5.51673458	      0.36146075	    147.23339692	     86.10278454	     85.47463296	    267.57753205	    -82.67871495	   -191.97239668	      0.94067114
      1.68500000	    108.14217741	      8.20462886	    108.13450134	    100.68494450	     18.21737041	     38.54866779	     -6.07120220	    -15.05223340	      0.06104680	      6.27990154	      0.34230464	    145.27338268	     85.77719526	     81.26389264	    269.09314244	    -73.98754687	   -182.74917061	      0.89698062
      1.69550000	    106.68521279	      8.84493474	    109.14644539	    101.33567831	     20.39179774	     34.60776339	     -5.78382976	    -13.93046697	      0.05069733	      7.38388653	      0.33016489	    142.83903642	     85.54419963	     77.40902027	    268.87072479	    -65.42548755	   -174.44433626	      0.84940101
      1.70600000	    105.42285956	      9.52368689	    110.24435289	    101.87706635	     22.33629607	     30.90252325	     -5.49454661	    -12.97059956	      0.04147534	      9.22131778	      0.32475541	    140.05590649	     85.39451648	     73.86052012	    267.19441341	    -56.61701730	   -165.29181644	      0.79507866
      1.71650000	    104.21112843	     10.22001357	    111.36384416	    102.32451309	     24.00179868	     27.55311046	     -5.21467977	    -12.13067098	      0.03269255	     12.68099038	      0.32619861	    137.03109905	     85.33299274	     70.59055670	    264.25018232	    -48.43521368	   -157.05881429	      0.73906281
      1.72700000	    102.89695964	     10.91077810	    112.44660993	    102.69682727	     25.41551242	     24.63621314	     -4.96999029	    -11.46041422	      0.02459905	     19.22658286	      0.33490706	    133.86543708	     85.36558260	     67.56797010	    260.13634576	    -41.48903675	   -150.17282262	      0.68471279
      1.73750000	    101.55117407	     11.57935916	    113.50498911	    102.98321925	     26.58931843	     22.16347325	     -4.73417141	    -10.88907066	      0.01734079	     30.38778134	      0.35175883	    130.66961160	     85.48346453	     64.70464076	    254.81510156	    -35.97399458	   -143.80665065	      0.63241476
      1.74800000	    100.23932397	     12.21575858	    114.56033444	    103.17115260	     27.50873728	     20.10202186	     -4.50607340	    -10.37339332	      0.01036471	     46.72158935	      0.37802738	    127.53230092	     85.67900551	     61.91298942	    248.16205206	    -31.91049629	   -137.45021208	      0.58247751
      1.75850000	     98.89844271	     12.80856699	    115.59950035	    103.26583073	     28.20347795	     18.41674955	     -4.30104411	     -9.94436936	      0.00391475	     67.05164174	      0.41544544	    124.52582807	     85.94428487	     59.11138479	    240.00982702	    -29.23598235	   -130.95968282	      0.53565817
      1.76900000	     97.46137005	     13.35131558	    116.59454996	    103.28253127	     28.71386058	     17.05326895	     -4.09801081	     -9.53769899	     -0.00224132	     88.75576420	      0.46631816	    121.70350621	     86.27056056	     56.19208344	    230.14717817	    -27.79250974	   -124.15258126	      0.49241225
      1.77950000	     95.89193588	     13.83827497	    117.54499433	    103.22711299	     29.08713201	     15.95793166	     -3.90719378	     -9.15671133	     -0.00839913	    108.95505692	      0.53387555	    119.11158698	     86.64376254	     52.97857056	    218.31221698	    -27.37737225	   -116.84625014	      0.45283284
      1.79000000	     94.17774559	     14.26750918	    118.44973994	    103.10748490	     29.36500613	     15.07838123	     -3.73388034	     -8.81326317	     -0.01441767	    125.73816158	      0.62268716	    116.77963634	     87.04869608	     49.18321223	    204.18309534	    -27.77953526	   -109.13972585	      0.41699529
      1.80050000	     92.29637895	     14.63930323	    119.29810324	    102.93678577	     29.58830579	     14.36989460	     -3.56443103	     -8.47024054	     -0.02044283	    138.64794775	      0.73937725	    114.71859944	     87.47690103	     44.41595043	    187.45469440	    -28.77013871	   -101.30002731	      0.38498996
      1.81100000	     90.21443865	     14.95322613	    120.08216430	    102.72778359	     29.81121271	     13.80008228	     -3.40455353	     -8.12810966	     -0.02679465	    148.44610098	      0.89386114	    112.93152778	     87.91822945	     38.18124339	    167.87857242	    -30.04177354	    -93.69044279	      0.35683733
      1.82150000	     87.91226795	     15.20941007	    120.79746859	    102.49185382	     30.09186163	     13.34545773	     -3.26165237	     -7.80661020	     -0.03328090	    156.39307974	      1.10721604	    111.41450382	     88.36461765	     30.12910724	    145.36313854	    -31.21972324	    -86.67160410	      0.33257473
      1.83200000	     85.38224215	     15.41042894	    121.43712345	    102.24102607	     30.48250796	     12.98720333	     -3.12268450	     -7.47468646	     -0.04001450	    163.51179050	      1.45973876	    110.16976068	     88.79855920	     20.67120989	    120.27219287	    -28.55676562	    -80.47818557	      0.31206377
      1.84250000	     82.58941614	     15.55771494	    121.98679518	    101.98957143	     31.04404746	     12.71372603	     -2.99125470	     -7.13447561	     -0.04726390	    170.13827823	      2.20955290	    109.17604909	     89.21646399	     11.62806407	     93.71574388	    -28.01311763	    -75.29581283	      0.29520103
      1.85300000	     79.48880173	     15.65162447	    122.43708596	    101.74857652	     31.85069838	     12.51896029	     -2.87366438	     -6.80300406	     -0.05487148	    175.92626841	      3.76174943	    108.42077477	     89.60815836	      5.48385060	     67.79415467	    -25.45231980	    -71.12243611	      0.28169710
      1.86350000	     76.05345578	     15.69382725	    122.78712240	    101.52433248	     32.96965854	     12.39836058	     -2.76628528	     -6.47467588	     -0.06273854	    180.20201964	      6.26448750	    107.87596858	     89.97279870	      2.83607181	     45.29370545	    -21.32107114	    -67.93735494	      0.27125832
      1.87400000	     72.23806680	     15.68431793	    123.03654752	    101.32152809	     34.47712539	     12.35118446	     -2.67002550	     -6.15186317	     -0.07080360	    182.32721960	      9.32323525	    107.51806083	     90.30871174	      1.96012222	     28.79846099	    -16.56672424	    -65.62267810	      0.26352027
      1.88450000	     68.02249660	     15.62485435	    123.19268916	    101.14053350	     36.43654053	     12.37662423	     -2.58849336	     -5.84508050	     -0.07886666	    182.05747329	     12.29087300	    107.32000118	     90.61666196	      1.53940876	     18.87472875	    -12.24268397	    -64.04115337	      0.25804920
      1.89500000	     63.39142348	     15.51733194	    123.26013042	    100.98174782	     38.89638819	     12.47457089	     -2.51858591	     -5.55094496	     -0.08670085	    179.52121423	     14.70239447	    107.25153488	     90.90280673	      1.27463980	     13.78505733	     -9.04263519	    -63.07180153	      0.25447767
      1.90550000	     58.31367998	     15.36281930	    123.21947114	    100.85416757	     41.90081037	     12.64682015	     -2.46340538	     -5.27670780	     -0.09417807	    175.23911878	     16.41374611	    107.29430070	     91.16688570	      1.10775307	     11.38538234	     -7.04767633	    -62.56211259	      0.25237926
      1.91600000	     52.74930759	     15.16025340	    123.04047088	    100.76927468	     45.49109329	     12.89817274	     -2.42840597	     -5.03642356	     -0.10090167	    169.80551176	     17.49665406	    107.41985700	     91.41754745	      0.99802268	     10.14498498	     -5.92516877	    -62.43548477	      0.25146146
      1.92650000	     46.80827767	     14.91702935	    122.76574021	    100.70814000	     49.60270501	     13.22690870	     -2.40653319	     -4.82005612	     -0.10674853	    163.95478932	     18.10257654	    107.64347629	     91.63634757	      0.92051875	      9.38614553	     -5.29276371	    -62.58495459	      0.25144205
      1.93700000	     40.66891805	     14.64259943	    122.42087026	    100.65926668	     54.06899464	     13.62767545	     -2.39395958	     -4.62333255	     -0.11177009	    158.27997563	     18.38072645	    107.97233640	     91.80475910	      0.86309511	      8.86639306	     -4.92508340	    -62.94592183	      0.25208307
      1.94750000	     34.55948302	     14.34801572	    122.03359622	    100.61046071	     58.65688115	     14.09335841	     -2.40524071	     -4.47650118	     -0.11579959	    153.25257985	     18.44986168	    108.40379467	     91.90940138	      0.82317056	      8.52319639	     -4.71909808	    -63.48755204	      0.25326878
      1.95800000	     28.74900034	     14.04675992	    121.61347741	    100.55748650	     63.08034322	     14.61109279	     -2.42487056	     -4.36078084	     -0.11870130	    149.26076545	     18.39749985	    108.95646782	     91.91896663	      0.79775682	      8.31656684	     -4.61922682	    -64.14632038	      0.25483633
      1.96850000	     23.80782468	     13.78228915	    121.60223836	    100.33140386	     66.68536375	     15.12980450	     -2.43995036	     -4.25922187	     -0.12099362	    146.55875682	     18.28016370	    109.64655712	     91.79703833	      0.78418636	      8.21718431	     -4.59206461	    -64.85004140	      0.25661945
      1.97900000	     20.35823198	     13.61324889	    122.47841878	     99.76996028	     68.61704538	     15.55140695	     -2.46683958	     -4.21557297	     -0.12245074	    145.26844122	     18.13863247	    110.46609616	     91.51358881	      0.77821654	      8.19557806	     -4.60872395	    -65.46516015	      0.25831935
      1.98950000	     18.41438416	     13.57523784	    123.85903620	     99.05095277	     68.65913028	     15.77875750	     -2.47957754	     -4.19984452	     -0.12316489	    145.01571701	     18.00566854	    111.24556713	     91.14478770	      0.77628188	      8.22236365	     -4.64331373	    -65.83995991	      0.25958137
