Moment_hip_flexion_l
version=1
nRows=98
nColumns=19
inDegrees=no

This analysis gathers basic information about muscles during a simulation (e.g., forces, tendon lengths, moment arms, etc).
Units are S.I. units (second, meters, Newtons, ...)
If the header above contains a line with 'inDegrees', this indicates whether rotational values are in degrees (yes) or radians (no).

endheader
time	hamstrings_r	bifemsh_r	glut_max_r	iliopsoas_r	rect_fem_r	vasti_r	gastroc_r	soleus_r	dorsiflexors_r	hamstrings_l	bifemsh_l	glut_max_l	iliopsoas_l	rect_fem_l	vasti_l	gastroc_l	soleus_l	dorsiflexors_l
      0.97100000	      0.00000000	      0.00000000	      0.00000000	      0.00000000	      0.00000000	      0.00000000	      0.00000000	      0.00000000	      0.00000000	   -117.69417704	      0.00000000	    -70.14698119	     29.39639930	     49.84648948	      0.00000000	      0.00000000	      0.00000000	     -0.00000000
      0.98150000	      0.00000000	      0.00000000	      0.00000000	      0.00000000	      0.00000000	      0.00000000	      0.00000000	      0.00000000	      0.00000000	   -117.87415691	     -0.00000000	    -70.34247126	     29.40041033	     49.68222529	      0.00000000	      0.00000000	      0.00000000	     -0.00000000
      0.99200000	      0.00000000	      0.00000000	      0.00000000	      0.00000000	      0.00000000	      0.00000000	      0.00000000	      0.00000000	      0.00000000	   -118.11170375	      0.00000000	    -70.61310787	     29.40468210	     49.45914058	      0.00000000	     -0.00000000	      0.00000000	     -0.00000000
      1.00250000	      0.00000000	      0.00000000	      0.00000000	      0.00000000	      0.00000000	      0.00000000	      0.00000000	      0.00000000	      0.00000000	   -118.37601538	      0.00000000	    -70.92795597	     29.40778558	     49.20122733	      0.00000000	     -0.00000000	     -0.00000000	     -0.00000000
      1.01300000	      0.00000000	      0.00000000	      0.00000000	      0.00000000	      0.00000000	      0.00000000	      0.00000000	      0.00000000	      0.00000000	   -118.66457751	      0.00000000	    -71.28948857	     29.40888224	     48.90613884	      0.00000000	     -0.00000000	     -0.00000000	     -0.00000000
      1.02350000	      0.00000000	      0.00000000	      0.00000000	      0.00000000	      0.00000000	      0.00000000	      0.00000000	      0.00000000	      0.00000000	   -118.97865486	     -0.00000000	    -71.70481917	     29.40689815	     48.56647378	      0.00000000	      0.00000000	      0.00000000	      0.00000000
      1.03400000	      0.00000000	      0.00000000	      0.00000000	      0.00000000	      0.00000000	      0.00000000	      0.00000000	      0.00000000	      0.00000000	   -119.31050690	     -0.00000000	    -72.16942191	     29.40058156	     48.18335332	     -0.00000000	      0.00000000	     -0.00000000	      0.00000000
      1.04450000	      0.00000000	      0.00000000	      0.00000000	      0.00000000	      0.00000000	      0.00000000	      0.00000000	      0.00000000	      0.00000000	   -119.65175299	     -0.00000000	    -72.67806633	     29.38871808	     47.75873319	     -0.00000000	      0.00000000	      0.00000000	      0.00000000
      1.05500000	      0.00000000	      0.00000000	      0.00000000	      0.00000000	      0.00000000	      0.00000000	      0.00000000	      0.00000000	      0.00000000	   -119.99170542	      0.00000000	    -73.22033659	     29.37038383	     47.29852129	      0.00000000	     -0.00000000	      0.00000000	     -0.00000000
      1.06550000	      0.00000000	      0.00000000	      0.00000000	      0.00000000	      0.00000000	      0.00000000	      0.00000000	      0.00000000	      0.00000000	   -120.32109934	     -0.00000000	    -73.78616901	     29.34499889	     46.80882422	      0.00000000	     -0.00000000	      0.00000000	      0.00000000
      1.07600000	      0.00000000	      0.00000000	      0.00000000	      0.00000000	      0.00000000	      0.00000000	      0.00000000	      0.00000000	      0.00000000	   -120.63601824	      0.00000000	    -74.37383145	     29.31186469	     46.28925926	      0.00000000	     -0.00000000	     -0.00000000	      0.00000000
      1.08650000	      0.00000000	      0.00000000	      0.00000000	      0.00000000	      0.00000000	      0.00000000	      0.00000000	      0.00000000	      0.00000000	   -120.93402845	     -0.00000000	    -74.98505043	     29.27006026	     45.73640575	      0.00000000	      0.00000000	     -0.00000000	      0.00000000
      1.09700000	      0.00000000	      0.00000000	      0.00000000	      0.00000000	      0.00000000	      0.00000000	      0.00000000	      0.00000000	      0.00000000	   -121.20954758	     -0.00000000	    -75.61535437	     29.21906632	     45.15206496	     -0.00000000	     -0.00000000	     -0.00000000	      0.00000000
      1.10750000	      0.00000000	      0.00000000	      0.00000000	      0.00000000	      0.00000000	      0.00000000	      0.00000000	      0.00000000	      0.00000000	   -121.45682214	      0.00000000	    -76.25874331	     29.15868929	     44.53984778	     -0.00000000	     -0.00000000	     -0.00000000	      0.00000000
      1.11800000	      0.00000000	      0.00000000	      0.00000000	      0.00000000	      0.00000000	      0.00000000	      0.00000000	      0.00000000	      0.00000000	   -121.67230165	     -0.00000000	    -76.91386896	     29.08847203	     43.89935174	     -0.00000000	     -0.00000000	     -0.00000000	      0.00000000
      1.12850000	      0.00000000	      0.00000000	      0.00000000	      0.00000000	      0.00000000	      0.00000000	      0.00000000	      0.00000000	      0.00000000	   -121.85244940	      0.00000000	    -77.57987039	     29.00791810	     43.22968966	     -0.00000000	      0.00000000	     -0.00000000	     -0.00000000
      1.13900000	      0.00000000	      0.00000000	      0.00000000	      0.00000000	      0.00000000	      0.00000000	      0.00000000	      0.00000000	      0.00000000	   -121.99326920	     -0.00000000	    -78.25454105	     28.91671408	     42.53120618	     -0.00000000	     -0.00000000	      0.00000000	      0.00000000
      1.14950000	      0.00000000	      0.00000000	      0.00000000	      0.00000000	      0.00000000	      0.00000000	      0.00000000	      0.00000000	      0.00000000	   -122.09079516	     -0.00000000	    -78.93558684	     28.81462544	     41.80446822	      0.00000000	     -0.00000000	      0.00000000	      0.00000000
      1.16000000	      0.00000000	      0.00000000	      0.00000000	      0.00000000	      0.00000000	      0.00000000	      0.00000000	      0.00000000	      0.00000000	   -122.14114865	      0.00000000	    -79.62077479	     28.70147678	     41.05014320	     -0.00000000	      0.00000000	      0.00000000	      0.00000000
      1.17050000	      0.00000000	      0.00000000	      0.00000000	      0.00000000	      0.00000000	      0.00000000	      0.00000000	      0.00000000	      0.00000000	   -122.14058309	      0.00000000	    -80.30697275	     28.57732793	     40.27005446	     -0.00000000	      0.00000000	      0.00000000	      0.00000000
      1.18100000	      0.00000000	      0.00000000	      0.00000000	      0.00000000	      0.00000000	      0.00000000	      0.00000000	      0.00000000	      0.00000000	   -122.08592099	      0.00000000	    -80.98989405	     28.44260063	     39.46780779	      0.00000000	      0.00000000	     -0.00000000	      0.00000000
      1.19150000	      0.00000000	      0.00000000	      0.00000000	      0.00000000	      0.00000000	      0.00000000	      0.00000000	      0.00000000	      0.00000000	   -121.97499379	      0.00000000	    -81.66482573	     28.29802129	     38.64800460	      0.00000000	      0.00000000	      0.00000000	      0.00000000
      1.20200000	      0.00000000	      0.00000000	      0.00000000	      0.00000000	      0.00000000	      0.00000000	      0.00000000	      0.00000000	      0.00000000	   -121.80667150	     -0.00000000	    -82.32760700	     28.14443781	     37.81504680	      0.00000000	     -0.00000000	     -0.00000000	      0.00000000
      1.21250000	      0.00000000	      0.00000000	      0.00000000	      0.00000000	      0.00000000	      0.00000000	      0.00000000	      0.00000000	      0.00000000	   -121.58104694	      0.00000000	    -82.97398294	     27.98295592	     36.97397626	      0.00000000	     -0.00000000	     -0.00000000	      0.00000000
      1.22300000	      0.00000000	      0.00000000	      0.00000000	      0.00000000	      0.00000000	      0.00000000	      0.00000000	      0.00000000	      0.00000000	   -121.30038719	      0.00000000	    -83.59840124	     27.81530263	     36.13229713	     -0.00000000	      0.00000000	     -0.00000000	     -0.00000000
      1.23350000	      0.00000000	      0.00000000	      0.00000000	      0.00000000	      0.00000000	      0.00000000	      0.00000000	      0.00000000	      0.00000000	   -120.96891195	     -0.00000000	    -84.19579995	     27.64344462	     35.29762938	     -0.00000000	      0.00000000	      0.00000000	      0.00000000
      1.24400000	      0.00000000	      0.00000000	      0.00000000	      0.00000000	      0.00000000	      0.00000000	      0.00000000	      0.00000000	      0.00000000	   -120.59158290	      0.00000000	    -84.76302378	     27.46912303	     34.47532782	      0.00000000	      0.00000000	     -0.00000000	      0.00000000
      1.25450000	      0.00000000	      0.00000000	      0.00000000	      0.00000000	      0.00000000	      0.00000000	      0.00000000	      0.00000000	      0.00000000	   -120.17418688	     -0.00000000	    -85.29780791	     27.29403460	     33.67004738	      0.00000000	      0.00000000	      0.00000000	      0.00000000
      1.26500000	      0.00000000	      0.00000000	      0.00000000	      0.00000000	      0.00000000	      0.00000000	      0.00000000	      0.00000000	      0.00000000	   -119.72367750	      0.00000000	    -85.79836515	     27.11991103	     32.88691259	      0.00000000	      0.00000000	      0.00000000	      0.00000000
      1.27550000	      0.00000000	      0.00000000	      0.00000000	      0.00000000	      0.00000000	      0.00000000	      0.00000000	      0.00000000	      0.00000000	   -119.24748232	      0.00000000	    -86.26362325	     26.94839825	     32.13036502	      0.00000000	      0.00000000	     -0.00000000	      0.00000000
      1.28600000	      0.00000000	      0.00000000	      0.00000000	      0.00000000	      0.00000000	      0.00000000	      0.00000000	      0.00000000	      0.00000000	   -118.75225439	      0.00000000	    -86.69327758	     26.78097517	     31.40249241	     -0.00000000	     -0.00000000	     -0.00000000	      0.00000000
      1.29650000	      0.00000000	      0.00000000	      0.00000000	      0.00000000	      0.00000000	      0.00000000	      0.00000000	      0.00000000	      0.00000000	   -118.24311148	      0.00000000	    -87.08858421	     26.61854779	     30.70311178	     -0.00000000	      0.00000000	      0.00000000	      0.00000000
      1.30700000	      0.00000000	      0.00000000	      0.00000000	      0.00000000	      0.00000000	      0.00000000	      0.00000000	      0.00000000	      0.00000000	   -117.71868187	      0.00000000	    -87.45608354	     26.45963661	     30.02480652	      0.00000000	      0.00000000	      0.00000000	      0.00000000
      1.31750000	      0.00000000	      0.00000000	      0.00000000	      0.00000000	      0.00000000	      0.00000000	      0.00000000	      0.00000000	      0.00000000	   -117.17651491	      0.00000000	    -87.80076448	     26.30297769	     29.36057023	     -0.00000000	     -0.00000000	     -0.00000000	      0.00000000
      1.32800000	      0.00000000	      0.00000000	      0.00000000	      0.00000000	      0.00000000	      0.00000000	      0.00000000	      0.00000000	      0.00000000	   -116.62610075	      0.00000000	    -88.11610002	     26.15254412	     28.71653099	     -0.00000000	      0.00000000	     -0.00000000	      0.00000000
      1.33850000	      0.00000000	      0.00000000	      0.00000000	      0.00000000	      0.00000000	      0.00000000	      0.00000000	      0.00000000	      0.00000000	   -116.07564438	     -0.00000000	    -88.39950874	     26.01094873	     28.09700599	      0.00000000	      0.00000000	     -0.00000000	      0.00000000
      1.34900000	      0.00000000	      0.00000000	      0.00000000	      0.00000000	      0.00000000	      0.00000000	      0.00000000	      0.00000000	      0.00000000	   -115.49870178	     -0.00000000	    -88.67659918	     25.86604803	     27.47601939	      0.00000000	     -0.00000000	     -0.00000000	      0.00000000
      1.35950000	      0.00000000	      0.00000000	      0.00000000	      0.00000000	      0.00000000	      0.00000000	      0.00000000	      0.00000000	      0.00000000	   -114.86626374	     -0.00000000	    -88.96763442	     25.70620462	     26.82975970	      0.00000000	      0.00000000	      0.00000000	      0.00000000
      1.37000000	      0.00000000	      0.00000000	      0.00000000	      0.00000000	      0.00000000	      0.00000000	      0.00000000	      0.00000000	      0.00000000	   -114.19129765	     -0.00000000	    -89.25738400	     25.53830507	     26.17060406	     -0.00000000	      0.00000000	      0.00000000	      0.00000000
      1.38050000	      0.00000000	      0.00000000	      0.00000000	      0.00000000	      0.00000000	      0.00000000	      0.00000000	      0.00000000	      0.00000000	   -113.49066904	     -0.00000000	    -89.53051904	     25.37091326	     25.51078478	      0.00000000	      0.00000000	      0.00000000	      0.00000000
      1.39100000	      0.00000000	      0.00000000	      0.00000000	      0.00000000	      0.00000000	      0.00000000	      0.00000000	      0.00000000	      0.00000000	   -112.76570256	      0.00000000	    -89.78581754	     25.20525293	     24.85008889	     -0.00000000	     -0.00000000	     -0.00000000	     -0.00000000
      1.40150000	      0.00000000	      0.00000000	      0.00000000	      0.00000000	      0.00000000	      0.00000000	      0.00000000	      0.00000000	      0.00000000	   -112.01779671	     -0.00000000	    -90.02356668	     25.04172618	     24.18920596	      0.00000000	     -0.00000000	     -0.00000000	      0.00000000
      1.41200000	      0.00000000	      0.00000000	      0.00000000	      0.00000000	      0.00000000	      0.00000000	      0.00000000	      0.00000000	      0.00000000	   -111.25167620	     -0.00000000	    -90.24320098	     24.88141611	     23.53148421	      0.00000000	      0.00000000	      0.00000000	      0.00000000
      1.42250000	      0.00000000	      0.00000000	      0.00000000	      0.00000000	      0.00000000	      0.00000000	      0.00000000	      0.00000000	      0.00000000	   -110.47726327	      0.00000000	    -90.44316787	     24.72640900	     22.88401101	      0.00000000	      0.00000000	      0.00000000	      0.00000000
      1.43300000	      0.00000000	      0.00000000	      0.00000000	      0.00000000	      0.00000000	      0.00000000	      0.00000000	      0.00000000	      0.00000000	   -109.71807320	      0.00000000	    -90.61954972	     24.58125679	     22.26390160	      0.00000000	     -0.00000000	     -0.00000000	     -0.00000000
      1.44350000	      0.00000000	      0.00000000	      0.00000000	      0.00000000	      0.00000000	      0.00000000	      0.00000000	      0.00000000	      0.00000000	   -108.99759762	      0.00000000	    -90.76996846	     24.45013227	     21.68658301	      0.00000000	      0.00000000	      0.00000000	      0.00000000
      1.45400000	      0.00000000	      0.00000000	      0.00000000	      0.00000000	      0.00000000	      0.00000000	      0.00000000	      0.00000000	      0.00000000	   -108.31872998	      0.00000000	    -90.89716707	     24.33308283	     21.15074121	      0.00000000	      0.00000000	     -0.00000000	      0.00000000
      1.46450000	      0.00000000	      0.00000000	      0.00000000	      0.00000000	      0.00000000	      0.00000000	      0.00000000	      0.00000000	      0.00000000	   -107.68454009	      0.00000000	    -91.00348515	     24.23022071	     20.65606862	      0.00000000	      0.00000000	      0.00000000	      0.00000000
      1.47500000	      0.00000000	      0.00000000	      0.00000000	      0.00000000	      0.00000000	      0.00000000	      0.00000000	      0.00000000	      0.00000000	   -107.13239163	      0.00000000	    -91.08490170	     24.14791145	     20.22852611	      0.00000000	      0.00000000	      0.00000000	      0.00000000
      1.48550000	      0.00000000	      0.00000000	      0.00000000	      0.00000000	      0.00000000	      0.00000000	      0.00000000	      0.00000000	      0.00000000	   -106.70350475	      0.00000000	    -91.13749800	     24.09291401	     19.89690760	      0.00000000	      0.00000000	      0.00000000	      0.00000000
      1.49600000	      0.00000000	      0.00000000	      0.00000000	      0.00000000	      0.00000000	      0.00000000	      0.00000000	      0.00000000	      0.00000000	   -106.40433067	     -0.00000000	    -91.16318310	     24.06549309	     19.66645835	      0.00000000	      0.00000000	     -0.00000000	      0.00000000
      1.50650000	      0.00000000	      0.00000000	      0.00000000	      0.00000000	      0.00000000	      0.00000000	      0.00000000	      0.00000000	      0.00000000	   -106.24345309	     -0.00000000	    -91.16237403	     24.06636271	     19.54557653	     -0.00000000	     -0.00000000	     -0.00000000	     -0.00000000
      1.51700000	      0.00000000	      0.00000000	      0.00000000	      0.00000000	      0.00000000	      0.00000000	      0.00000000	      0.00000000	      0.00000000	   -106.25199896	     -0.00000000	    -91.13080568	     24.09999647	     19.55559435	     -0.00000000	      0.00000000	      0.00000000	     -0.00000000
      1.52750000	      0.00000000	      0.00000000	      0.00000000	      0.00000000	      0.00000000	      0.00000000	      0.00000000	      0.00000000	      0.00000000	   -106.47160878	     -0.00000000	    -91.06046436	     24.17296376	     19.72367348	     -0.00000000	      0.00000000	      0.00000000	      0.00000000
      1.53800000	      0.00000000	      0.00000000	      0.00000000	      0.00000000	      0.00000000	      0.00000000	      0.00000000	      0.00000000	      0.00000000	   -106.92458253	      0.00000000	    -90.94342500	     24.28893213	     20.06347565	     -0.00000000	      0.00000000	     -0.00000000	      0.00000000
      1.54850000	      0.00000000	      0.00000000	      0.00000000	      0.00000000	      0.00000000	      0.00000000	      0.00000000	      0.00000000	      0.00000000	   -107.59416246	      0.00000000	    -90.77605287	     24.44466946	     20.56204075	     -0.00000000	      0.00000000	      0.00000000	      0.00000000
      1.55900000	      0.00000000	      0.00000000	      0.00000000	      0.00000000	      0.00000000	      0.00000000	      0.00000000	      0.00000000	      0.00000000	   -108.47266645	      0.00000000	    -90.55043453	     24.63916382	     21.21606436	      0.00000000	      0.00000000	      0.00000000	     -0.00000000
      1.56950000	      0.00000000	      0.00000000	      0.00000000	      0.00000000	      0.00000000	      0.00000000	      0.00000000	      0.00000000	      0.00000000	   -109.56251353	     -0.00000000	    -90.25253582	     24.87438344	     22.03387376	     -0.00000000	     -0.00000000	     -0.00000000	     -0.00000000
      1.58000000	      0.00000000	      0.00000000	      0.00000000	      0.00000000	      0.00000000	      0.00000000	      0.00000000	      0.00000000	      0.00000000	   -110.82254492	     -0.00000000	    -89.87518678	     25.14490556	     22.99682663	      0.00000000	      0.00000000	      0.00000000	      0.00000000
      1.59050000	      0.00000000	      0.00000000	      0.00000000	      0.00000000	      0.00000000	      0.00000000	      0.00000000	      0.00000000	      0.00000000	   -112.19657281	      0.00000000	    -89.41508542	     25.44281771	     24.08282960	     -0.00000000	      0.00000000	     -0.00000000	      0.00000000
      1.60100000	      0.00000000	      0.00000000	      0.00000000	      0.00000000	      0.00000000	      0.00000000	      0.00000000	      0.00000000	      0.00000000	   -113.64402290	      0.00000000	    -88.86379925	     25.76418910	     25.28607625	      0.00000000	      0.00000000	     -0.00000000	     -0.00000000
      1.61150000	      0.00000000	      0.00000000	      0.00000000	      0.00000000	      0.00000000	      0.00000000	      0.00000000	      0.00000000	      0.00000000	   -115.11458824	     -0.00000000	    -88.21562326	     26.10354178	     26.59486908	      0.00000000	      0.00000000	     -0.00000000	     -0.00000000
      1.62200000	      0.00000000	      0.00000000	      0.00000000	      0.00000000	      0.00000000	      0.00000000	      0.00000000	      0.00000000	      0.00000000	   -116.54656560	      0.00000000	    -87.47164177	     26.45272965	     27.98976830	     -0.00000000	      0.00000000	     -0.00000000	      0.00000000
      1.63250000	      0.00000000	      0.00000000	      0.00000000	      0.00000000	      0.00000000	      0.00000000	      0.00000000	      0.00000000	      0.00000000	   -117.88838332	      0.00000000	    -86.63195496	     26.80543223	     29.45621519	     -0.00000000	      0.00000000	      0.00000000	      0.00000000
      1.64300000	      0.00000000	      0.00000000	      0.00000000	      0.00000000	      0.00000000	      0.00000000	      0.00000000	      0.00000000	      0.00000000	   -119.08960937	      0.00000000	    -85.70222459	     27.15416309	     30.97268574	      0.00000000	      0.00000000	     -0.00000000	     -0.00000000
      1.65350000	      0.00000000	      0.00000000	      0.00000000	      0.00000000	      0.00000000	      0.00000000	      0.00000000	      0.00000000	      0.00000000	   -120.10725068	     -0.00000000	    -84.69405452	     27.49092696	     32.51447804	     -0.00000000	      0.00000000	     -0.00000000	     -0.00000000
      1.66400000	      0.00000000	      0.00000000	      0.00000000	      0.00000000	      0.00000000	      0.00000000	      0.00000000	      0.00000000	      0.00000000	   -120.91572999	      0.00000000	    -83.61860563	     27.80967785	     34.06218359	      0.00000000	      0.00000000	     -0.00000000	      0.00000000
      1.67450000	      0.00000000	      0.00000000	      0.00000000	      0.00000000	      0.00000000	      0.00000000	      0.00000000	      0.00000000	      0.00000000	   -121.50280186	      0.00000000	    -82.48862178	     28.10531903	     35.59780277	      0.00000000	      0.00000000	      0.00000000	     -0.00000000
      1.68500000	      0.00000000	      0.00000000	      0.00000000	      0.00000000	      0.00000000	      0.00000000	      0.00000000	      0.00000000	      0.00000000	   -121.86790225	     -0.00000000	    -81.32251808	     28.37280106	     37.09882201	     -0.00000000	     -0.00000000	     -0.00000000	     -0.00000000
      1.69550000	      0.00000000	      0.00000000	      0.00000000	      0.00000000	      0.00000000	      0.00000000	      0.00000000	      0.00000000	      0.00000000	   -122.02430105	      0.00000000	    -80.14130504	     28.60831451	     38.54382330	     -0.00000000	      0.00000000	      0.00000000	     -0.00000000
      1.70600000	      0.00000000	      0.00000000	      0.00000000	      0.00000000	      0.00000000	      0.00000000	      0.00000000	      0.00000000	      0.00000000	   -121.99692798	     -0.00000000	    -78.96443128	     28.81007547	     39.91736222	      0.00000000	      0.00000000	      0.00000000	     -0.00000000
      1.71650000	      0.00000000	      0.00000000	      0.00000000	      0.00000000	      0.00000000	      0.00000000	      0.00000000	      0.00000000	      0.00000000	   -121.81795526	     -0.00000000	    -77.81087712	     28.97778785	     41.20741507	      0.00000000	      0.00000000	     -0.00000000	     -0.00000000
      1.72700000	      0.00000000	      0.00000000	      0.00000000	      0.00000000	      0.00000000	      0.00000000	      0.00000000	      0.00000000	      0.00000000	   -121.52350458	      0.00000000	    -76.69901511	     29.11247930	     42.40441619	      0.00000000	      0.00000000	      0.00000000	      0.00000000
      1.73750000	      0.00000000	      0.00000000	      0.00000000	      0.00000000	      0.00000000	      0.00000000	      0.00000000	      0.00000000	      0.00000000	   -121.15078702	     -0.00000000	    -75.64617158	     29.21636677	     43.50138305	     -0.00000000	      0.00000000	      0.00000000	      0.00000000
      1.74800000	      0.00000000	      0.00000000	      0.00000000	      0.00000000	      0.00000000	      0.00000000	      0.00000000	      0.00000000	      0.00000000	   -120.73479038	      0.00000000	    -74.66640158	     29.29279048	     44.49543449	      0.00000000	      0.00000000	      0.00000000	      0.00000000
      1.75850000	      0.00000000	      0.00000000	      0.00000000	      0.00000000	      0.00000000	      0.00000000	      0.00000000	      0.00000000	      0.00000000	   -120.30676779	      0.00000000	    -73.77189443	     29.34571786	     45.38566606	      0.00000000	      0.00000000	     -0.00000000	     -0.00000000
      1.76900000	      0.00000000	      0.00000000	      0.00000000	      0.00000000	      0.00000000	      0.00000000	      0.00000000	      0.00000000	      0.00000000	   -119.89215364	     -0.00000000	    -72.97141905	     29.37952806	     46.17382302	      0.00000000	      0.00000000	     -0.00000000	      0.00000000
      1.77950000	      0.00000000	      0.00000000	      0.00000000	      0.00000000	      0.00000000	      0.00000000	      0.00000000	      0.00000000	      0.00000000	   -119.51053803	      0.00000000	    -72.27153266	     29.39861452	     46.86282970	      0.00000000	     -0.00000000	     -0.00000000	      0.00000000
      1.79000000	      0.00000000	      0.00000000	      0.00000000	      0.00000000	      0.00000000	      0.00000000	      0.00000000	      0.00000000	      0.00000000	   -119.17415532	      0.00000000	    -71.67445309	     29.40716050	     47.45809722	     -0.00000000	      0.00000000	      0.00000000	     -0.00000000
      1.80050000	      0.00000000	      0.00000000	      0.00000000	      0.00000000	      0.00000000	      0.00000000	      0.00000000	      0.00000000	      0.00000000	   -118.88964287	      0.00000000	    -71.18039787	     29.40882864	     47.96521205	      0.00000000	     -0.00000000	     -0.00000000	      0.00000000
      1.81100000	      0.00000000	      0.00000000	      0.00000000	      0.00000000	      0.00000000	      0.00000000	      0.00000000	      0.00000000	      0.00000000	   -118.65799586	      0.00000000	    -70.78656525	     29.40663974	     48.39009805	      0.00000000	      0.00000000	      0.00000000	      0.00000000
      1.82150000	      0.00000000	      0.00000000	      0.00000000	      0.00000000	      0.00000000	      0.00000000	      0.00000000	      0.00000000	      0.00000000	   -118.47680762	      0.00000000	    -70.48883210	     29.40290496	     48.73801402	      0.00000000	      0.00000000	      0.00000000	     -0.00000000
      1.83200000	      0.00000000	      0.00000000	      0.00000000	      0.00000000	      0.00000000	      0.00000000	      0.00000000	      0.00000000	      0.00000000	   -118.34013245	      0.00000000	    -70.28013599	     29.39921575	     49.01473566	     -0.00000000	      0.00000000	      0.00000000	      0.00000000
      1.84250000	      0.00000000	      0.00000000	      0.00000000	      0.00000000	      0.00000000	      0.00000000	      0.00000000	      0.00000000	      0.00000000	   -118.24061148	      0.00000000	    -70.15189732	     29.39650970	     49.22591934	     -0.00000000	     -0.00000000	      0.00000000	     -0.00000000
      1.85300000	      0.00000000	      0.00000000	      0.00000000	      0.00000000	      0.00000000	      0.00000000	      0.00000000	      0.00000000	      0.00000000	   -118.17092215	      0.00000000	    -70.09473068	     29.39519548	     49.37672349	     -0.00000000	      0.00000000	      0.00000000	      0.00000000
      1.86350000	      0.00000000	      0.00000000	      0.00000000	      0.00000000	      0.00000000	      0.00000000	      0.00000000	      0.00000000	      0.00000000	   -118.12444391	      0.00000000	    -70.09841342	     29.39528215	     49.47217405	      0.00000000	      0.00000000	      0.00000000	      0.00000000
      1.87400000	      0.00000000	      0.00000000	      0.00000000	      0.00000000	      0.00000000	      0.00000000	      0.00000000	      0.00000000	      0.00000000	   -118.09688283	     -0.00000000	    -70.15361644	     29.39654819	     49.51728025	      0.00000000	      0.00000000	      0.00000000	     -0.00000000
      1.88450000	      0.00000000	      0.00000000	      0.00000000	      0.00000000	      0.00000000	      0.00000000	      0.00000000	      0.00000000	      0.00000000	   -118.08555005	     -0.00000000	    -70.25098548	     29.39863001	     49.52319621	      0.00000000	      0.00000000	      0.00000000	      0.00000000
      1.89500000	      0.00000000	      0.00000000	      0.00000000	      0.00000000	      0.00000000	      0.00000000	      0.00000000	      0.00000000	      0.00000000	   -118.09032405	     -0.00000000	    -70.38296962	     29.40114412	     49.50175018	     -0.00000000	     -0.00000000	     -0.00000000	     -0.00000000
      1.90550000	      0.00000000	      0.00000000	      0.00000000	      0.00000000	      0.00000000	      0.00000000	      0.00000000	      0.00000000	      0.00000000	   -118.11230111	      0.00000000	    -70.54271789	     29.40371396	     49.46390338	      0.00000000	      0.00000000	     -0.00000000	      0.00000000
      1.91600000	      0.00000000	      0.00000000	      0.00000000	      0.00000000	      0.00000000	      0.00000000	      0.00000000	      0.00000000	      0.00000000	   -118.15343052	      0.00000000	    -70.72482949	     29.40601275	     49.41741560	     -0.00000000	     -0.00000000	     -0.00000000	      0.00000000
      1.92650000	      0.00000000	      0.00000000	      0.00000000	      0.00000000	      0.00000000	      0.00000000	      0.00000000	      0.00000000	      0.00000000	   -118.21512466	      0.00000000	    -70.92410775	     29.40775974	     49.36399353	      0.00000000	     -0.00000000	      0.00000000	     -0.00000000
      1.93700000	      0.00000000	      0.00000000	      0.00000000	      0.00000000	      0.00000000	      0.00000000	      0.00000000	      0.00000000	      0.00000000	   -118.29482289	     -0.00000000	    -71.13226269	     29.40872882	     49.29959061	     -0.00000000	     -0.00000000	     -0.00000000	     -0.00000000
      1.94750000	      0.00000000	      0.00000000	      0.00000000	      0.00000000	      0.00000000	      0.00000000	      0.00000000	      0.00000000	      0.00000000	   -118.38813179	      0.00000000	    -71.34037925	     29.40882538	     49.22105048	      0.00000000	     -0.00000000	     -0.00000000	     -0.00000000
      1.95800000	      0.00000000	      0.00000000	      0.00000000	      0.00000000	      0.00000000	      0.00000000	      0.00000000	      0.00000000	      0.00000000	   -118.48680466	     -0.00000000	    -71.53687535	     29.40811744	     49.13302193	      0.00000000	     -0.00000000	     -0.00000000	      0.00000000
      1.96850000	      0.00000000	      0.00000000	      0.00000000	      0.00000000	      0.00000000	      0.00000000	      0.00000000	      0.00000000	      0.00000000	   -118.57921015	      0.00000000	    -71.70676358	     29.40688072	     49.04635577	      0.00000000	     -0.00000000	     -0.00000000	     -0.00000000
      1.97900000	      0.00000000	      0.00000000	      0.00000000	      0.00000000	      0.00000000	      0.00000000	      0.00000000	      0.00000000	      0.00000000	   -118.65002418	      0.00000000	    -71.83123594	     29.40560737	     48.97765733	      0.00000000	      0.00000000	     -0.00000000	     -0.00000000
      1.98950000	      0.00000000	      0.00000000	      0.00000000	      0.00000000	      0.00000000	      0.00000000	      0.00000000	      0.00000000	      0.00000000	   -118.68687254	      0.00000000	    -71.89587129	     29.40482373	     48.94143486	      0.00000000	     -0.00000000	     -0.00000000	      0.00000000
