FiberActivePower
version=1
nRows=98
nColumns=19
inDegrees=no

This analysis gathers basic information about muscles during a simulation (e.g., forces, tendon lengths, moment arms, etc).
Units are S.I. units (second, meters, Newtons, ...)
If the header above contains a line with 'inDegrees', this indicates whether rotational values are in degrees (yes) or radians (no).

endheader
time	hamstrings_r	bifemsh_r	glut_max_r	iliopsoas_r	rect_fem_r	vasti_r	gastroc_r	soleus_r	dorsiflexors_r	hamstrings_l	bifemsh_l	glut_max_l	iliopsoas_l	rect_fem_l	vasti_l	gastroc_l	soleus_l	dorsiflexors_l
      0.97100000	     -0.06280407	      0.60483139	     -1.24393471	      0.36602839	     -9.26885752	     -4.52048427	     -1.35395508	     -0.57320543	      0.00082997	      9.00770709	      0.45999501	      1.93215477	     -0.97480772	     -0.45331547	     -1.01528523	     -0.87268371	     -0.16533671	     -0.00052654
      0.98150000	     -0.48819215	      0.64029870	     -3.42408085	      0.97604361	    -13.46941509	     -8.06904927	     -2.32475541	     -1.03941536	      0.00089927	     11.70193446	      0.55037271	      3.08439718	     -1.59499088	     -0.80693716	     -1.42206767	     -0.60506454	      1.48909642	      0.00104059
      0.99200000	     -0.74477223	      0.52384068	     -6.44688298	      1.76467217	    -16.54001159	    -12.13100421	     -3.30984734	     -1.75000449	      0.00089005	     12.97930306	      0.57495299	      3.81160248	     -1.99492975	     -1.04849236	     -1.60652989	     -0.44214931	      2.11619227	     -0.00100994
      1.00250000	     -0.80899900	      0.28866368	    -10.20553928	      2.66862556	    -18.58238827	    -16.98815404	     -3.56525138	     -2.24744572	      0.00057717	     13.48425404	      0.54665993	      4.36233615	     -2.29741906	     -1.14881836	     -1.54626840	     -0.51395144	      1.66647579	      0.00055853
      1.01300000	     -0.79600595	     -0.03558285	    -14.10022469	      3.53433090	    -19.67819669	    -22.70685008	     -3.85619141	     -3.17708169	     -0.00085890	     13.98548861	      0.50257866	      5.07578895	     -2.69841312	     -1.24151429	     -1.40886128	     -0.03387157	      2.76251409	     -0.00536277
      1.02350000	     -0.68456456	     -0.39768053	    -18.23486203	      4.38998059	    -19.69201159	    -29.07643561	     -3.38264518	     -3.88338924	     -0.00543435	     14.35735329	      0.44879482	      5.80578948	     -3.11260153	     -1.30634269	     -1.22728152	      0.35891025	      3.65550564	     -0.01648121
      1.03400000	     -0.47678493	     -0.71946628	    -22.42906089	      5.20590960	    -18.50660214	    -35.32542548	     -2.29573981	     -4.12749027	     -0.01229477	     14.48421821	      0.37746643	      6.49471182	     -3.50241416	     -1.30135954	     -0.97695101	      0.49330620	      3.79356618	     -0.02030710
      1.04450000	     -0.23988927	     -0.94479736	    -26.40146250	      5.94455447	    -16.32441807	    -40.61454921	     -1.92234736	     -5.81242983	     -0.02863446	     14.39467649	      0.29213216	      7.12615245	     -3.85392016	     -1.23205008	     -0.69416438	      0.54108977	      3.74792225	     -0.02142631
      1.05500000	     -0.06434239	     -1.09038849	    -29.98982778	      6.59607572	    -13.69673511	    -44.82800702	     -0.35010009	     -4.24064112	     -0.02619315	     14.13962582	      0.20706766	      7.63672431	     -4.12264952	     -1.12898466	     -0.44597687	      0.54100749	      3.88549674	     -0.02814484
      1.06550000	      0.04354572	     -1.11824567	    -32.93892588	      7.13790342	    -10.26062031	    -46.23170603	     -0.09181619	     -3.96451380	     -0.02659127	     13.79771914	      0.12163457	      8.09419148	     -4.35113428	     -1.01184303	     -0.23374821	      0.43055892	      3.70239613	     -0.02854543
      1.07600000	     -0.00649446	     -1.05870878	    -35.11321718	      7.56525372	     -6.61719939	    -45.10626889	     -0.03783323	     -5.31944446	     -0.04133914	     13.45579813	      0.03063612	      8.59913633	     -4.60544735	     -0.89459198	     -0.05111063	      0.28293296	      3.38998412	     -0.02579919
      1.08650000	     -0.23456423	     -0.96522986	    -36.58695148	      7.89857886	     -3.36691851	    -42.74515167	     -0.02821655	     -1.84684979	     -0.01042708	     13.11877457	     -0.06208224	      9.12092276	     -4.86477060	     -0.78251348	      0.08756310	      0.09844093	      3.08072785	     -0.02401825
      1.09700000	     -0.75303411	     -0.79839356	    -37.42001657	      8.15064140	     -0.21748835	    -38.21450349	     -0.25858946	     -1.32890812	     -0.00673451	     12.75140595	     -0.14946232	      9.57997651	     -5.07529420	     -0.67627612	      0.17503312	     -0.06391936	      2.68104793	     -0.01949692
      1.10750000	     -1.59988272	     -0.60394027	    -37.47968832	      8.30413139	      2.38670915	    -32.58535296	     -0.14927561	     -2.16773503	     -0.01280429	     12.38310596	     -0.23446058	     10.01419454	     -5.26288484	     -0.57794440	      0.22147048	     -0.19469081	      2.27909501	     -0.01467638
      1.11800000	     -2.61860831	     -0.43075652	    -36.63832512	      8.33760874	      4.19025127	    -27.08920329	     -0.44643510	     -0.70235777	     -0.00292473	     12.05748331	     -0.31865469	     10.46691041	     -5.45703947	     -0.49170250	      0.23243592	     -0.30900574	      1.91538105	     -0.01076029
      1.12850000	     -3.81879312	     -0.28060870	    -35.11628531	      8.27208352	      5.40464461	    -21.65040693	     -0.66734045	      0.35691559	      0.00082980	     11.77769958	     -0.39789874	     10.91882870	     -5.64474198	     -0.41915706	      0.21308427	     -0.40597670	      1.59255376	     -0.00762807
      1.13900000	     -5.25162275	     -0.15947084	    -33.10982927	      8.12395247	      6.16370144	    -16.33303352	     -0.55798466	      0.65063154	      0.00107144	     11.55126511	     -0.46797301	     11.35882513	     -5.81881898	     -0.36182073	      0.17328452	     -0.46045311	      1.30079905	     -0.00477208
      1.14950000	     -6.94336455	     -0.07372281	    -30.69995623	      7.89224650	      6.54989196	    -11.37639630	     -0.35883904	      0.78756165	      0.00099948	     11.36720602	     -0.53017196	     11.78902529	     -5.98129297	     -0.31565300	      0.12152702	     -0.50324379	      1.06213368	     -0.00276689
      1.16000000	     -9.04034866	     -0.02217623	    -27.98386555	      7.57729543	      6.66548787	     -6.89250186	     -0.20955479	      1.00281327	      0.00055550	     11.22055270	     -0.58264740	     12.20171857	     -6.12760772	     -0.27974024	      0.06596588	     -0.55511983	      0.87068480	     -0.00152047
      1.17050000	    -11.90934147	      0.00020562	    -25.11868074	      7.19076157	      6.61260429	     -2.80393841	     -0.07016561	      1.09143931	      0.00011058	     11.08314354	     -0.62541302	     12.57597884	     -6.24457190	     -0.25022328	      0.01230352	     -0.57445206	      0.70756839	     -0.00048063
      1.18100000	    -15.89461900	     -0.00335502	    -22.21655365	      6.74088404	      6.46065771	      0.96250051	      0.02081487	      1.03824489	      0.00016426	     10.93105884	     -0.65879554	     12.89225218	     -6.32057211	     -0.22401296	     -0.03582871	     -0.60999515	      0.58107644	      0.00010071
      1.19150000	    -21.09330172	     -0.03197981	    -19.37129794	      6.23721502	      6.25495546	      4.47121903	      0.00787225	      0.93802542	      0.00041537	     10.77026880	     -0.68043019	     13.14547160	     -6.35443690	     -0.20259614	     -0.07324449	     -0.65543377	      0.47713685	      0.00044454
      1.20200000	    -27.22398671	     -0.08697461	    -16.65828513	      5.69140647	      6.01918160	      7.75485054	     -0.11692438	      0.82879123	      0.00066431	     10.60785601	     -0.68903607	     13.33737292	     -6.34980507	     -0.18714545	     -0.09664266	     -0.67064413	      0.38950048	      0.00071190
      1.21250000	    -33.76786622	     -0.17178490	    -14.12657038	      5.11505143	      5.75639922	     10.83736385	     -0.34707795	      0.70214562	      0.00088569	     10.40973455	     -0.68696832	     13.44251455	     -6.29283452	     -0.17327480	     -0.10830578	     -0.69236305	      0.31770595	      0.00084782
      1.22300000	    -40.18294579	     -0.29077813	    -11.80025499	      4.51863015	      5.44762803	     13.69623252	     -0.66820517	      0.55655220	      0.00099793	     10.14144469	     -0.67765430	     13.43407691	     -6.17047156	     -0.15576130	     -0.11345320	     -0.73228056	      0.25376981	      0.00090680
      1.23350000	    -46.10216474	     -0.44760460	     -9.68881242	      3.91238477	      5.04879836	     16.26232547	     -1.04226970	      0.40271241	      0.00093015	      9.83731153	     -0.65750770	     13.32679792	     -5.99712027	     -0.14026146	     -0.10804133	     -0.73939613	      0.19930139	      0.00093066
      1.24400000	    -51.41534050	     -0.64337143	     -7.79466973	      3.30748291	      4.48445507	     18.42037970	     -1.41986897	      0.24367325	      0.00067595	      9.52871776	     -0.62319012	     13.13719521	     -5.78710596	     -0.13227419	     -0.08859106	     -0.71935369	      0.15516003	      0.00090625
      1.25450000	    -56.17052384	     -0.87429271	     -6.10872379	      2.71310997	      3.64628376	     20.00247581	     -1.75375905	      0.07370888	      0.00023518	      9.19041610	     -0.58123265	     12.86506197	     -5.54368879	     -0.12759408	     -0.06276795	     -0.73131438	      0.10710278	      0.00085790
      1.26500000	    -60.53201238	     -1.13141973	     -4.62532305	      2.14077745	      2.40195335	     20.79419215	     -2.00278077	     -0.11228753	     -0.00040071	      8.79421542	     -0.53946125	     12.51149008	     -5.27068208	     -0.12047760	     -0.03868984	     -0.72772659	      0.06424442	      0.00077124
      1.27550000	    -64.48623210	     -1.39929169	     -3.31048753	      1.59015269	      0.66340707	     20.52279936	     -2.13463108	     -0.31707671	     -0.00124185	      8.40671609	     -0.48548569	     12.08943723	     -4.97794785	     -0.12417257	     -0.00616517	     -0.66641187	      0.03884436	      0.00063225
      1.28600000	    -67.90476369	     -1.65920930	     -2.14144281	      1.06322475	     -1.50761529	     18.92014452	     -2.13135337	     -0.54132478	     -0.00229676	      8.08544365	     -0.40666393	     11.60152923	     -4.66875490	     -0.15479710	      0.03831166	     -0.58049390	      0.01609807	      0.00047231
      1.29650000	    -70.65188874	     -1.89443833	     -1.14981632	      0.58705471	     -3.80405400	     15.78392021	     -1.98180165	     -0.78168798	     -0.00355743	      7.78731355	     -0.32957078	     11.14194634	     -4.39139122	     -0.19680881	      0.06912141	     -0.52204176	     -0.01373897	      0.00030008
      1.30700000	    -72.47338317	     -2.11618095	     -0.36256236	      0.18919527	     -5.72988035	     11.11049274	     -1.70092099	     -1.02995952	     -0.00498347	      7.47817531	     -0.28134991	     10.83500727	     -4.20203177	     -0.22490994	      0.07965742	     -0.49691086	     -0.04211041	      0.00009791
      1.31750000	    -72.42529942	     -2.38693923	      0.31693363	     -0.16839947	     -6.88397424	      5.25166933	     -0.93535710	     -1.28905467	     -0.00659316	      7.28872427	     -0.19341001	     10.48459634	     -4.00032216	     -0.31514012	      0.08480302	     -0.35787229	     -0.03094802	     -0.00010784
      1.32800000	    -69.68501993	     -2.76500298	      0.95262393	     -0.51426990	     -7.32755821	     -1.01591686	     -0.25711853	     -1.53418933	     -0.00821814	      7.32315543	      0.01652385	      9.79564024	     -3.65271726	     -0.64134976	     -0.01427338	     -0.16618586	     -0.03666880	     -0.00028654
      1.33850000	    -65.12360012	     -3.20439864	      1.37777389	     -0.75061016	     -7.36740860	     -6.58351344	      0.16473841	     -1.72485033	     -0.00953580	      7.05179071	      0.12259051	      9.37119788	     -3.43930351	     -0.89005526	     -0.13489876	     -0.10841386	     -0.05544292	     -0.00047598
      1.34900000	    -59.86447107	     -3.54809871	      1.43258731	     -0.77920830	     -6.96294772	    -10.05059890	      0.24064310	     -1.83933969	     -0.01032650	      6.10660941	     -0.11037299	      9.92051393	     -3.66206382	     -0.46046973	      0.06651405	     -0.22413354	     -0.01989381	     -0.00053671
      1.35950000	    -53.24148110	     -3.63807541	      1.30659608	     -0.70610574	     -6.02676783	    -10.98698611	      0.03571696	     -1.89563818	     -0.01068286	      5.17366954	     -0.38276111	     10.54557585	     -3.92274892	     -0.05687795	      0.03008037	     -0.45221470	     -0.00854467	     -0.00058240
      1.37000000	    -44.69629663	     -3.41721663	      1.22746569	     -0.66010834	     -4.63202917	     -9.85656339	     -0.25750933	     -1.85990464	     -0.01033896	      4.90047332	     -0.36219058	     10.51916916	     -3.88562141	     -0.06428871	      0.03463417	     -0.40263223	     -0.00134997	     -0.00060738
      1.38050000	    -35.66275727	     -2.96159072	      1.11753273	     -0.59768231	     -3.10526162	     -7.38198439	     -0.46462188	     -1.67348500	     -0.00890019	      4.82325597	     -0.22013891	     10.26927811	     -3.74916686	     -0.25036583	      0.07778748	     -0.17488386	      0.02760507	     -0.00047224
      1.39100000	    -27.30281975	     -2.37364198	      0.85475630	     -0.45296512	     -1.84994438	     -4.70929453	     -0.49273628	     -1.35820921	     -0.00668314	      4.61895836	     -0.08756479	     10.03459774	     -3.62383775	     -0.48874193	      0.05446766	     -0.06148942	      0.03486700	     -0.00039310
      1.40150000	    -19.73078649	     -1.74345476	      0.51654135	     -0.27089882	     -0.95899145	     -2.46170764	     -0.33264175	     -1.06701410	     -0.00483642	      4.28263178	      0.04270539	      9.75792944	     -3.48399747	     -0.80438501	     -0.03889195	     -0.00296040	      0.03691631	     -0.00030410
      1.41200000	    -12.86209284	     -1.12646274	      0.18351635	     -0.09533983	     -0.39779281	     -0.88404727	     -0.09152049	     -0.90070932	     -0.00386779	      3.81940050	      0.17039981	      9.42391491	     -3.32379847	     -1.21741397	     -0.20690858	     -0.01396723	      0.02529693	     -0.00012985
      1.42250000	     -7.04783278	     -0.58370484	     -0.11167526	      0.05757135	     -0.10588260	     -0.05479702	      0.03502974	     -0.53282455	     -0.00200743	      3.24138819	      0.29751543	      8.92799851	     -3.10093396	     -1.74801136	     -0.45631164	     -0.12921427	     -0.01013619	      0.00003634
      1.43300000	     -2.40774221	     -0.14963917	     -0.31752243	      0.16289760	     -0.00331972	      0.09229582	      0.04266100	      0.12920530	      0.00035000	      2.59983140	      0.42094905	      8.17070613	     -2.78078715	     -2.39330367	     -0.78255801	     -0.36201034	     -0.07652788	      0.00019978
      1.44350000	      1.51644023	      0.21880396	     -0.49054642	      0.25075039	     -0.02416832	     -0.30326781	     -0.08207043	      0.23810075	      0.00059918	      1.96077468	      0.54527909	      7.30504210	     -2.43291578	     -3.22501563	     -1.20200433	     -0.77555047	     -0.20455726	      0.00037875
      1.45400000	      5.08767843	      0.55297258	     -0.68008245	      0.34635586	     -0.16724481	     -1.26594838	     -0.64573493	     -0.61967545	     -0.00241131	      1.32027093	      0.67415897	      6.51765934	     -2.12963299	     -4.35855253	     -1.74729340	     -1.42609731	     -0.41918190	      0.00053955
      1.46450000	      7.69322379	      0.78365578	     -0.83819321	      0.42580026	     -0.39578132	     -2.46149670	     -0.94525866	     -0.20646646	     -0.00067333	      0.69319310	      0.80047045	      5.57056388	     -1.78167465	     -5.77689378	     -2.42007882	     -2.32051312	     -0.73679448	      0.00064238
      1.47500000	      8.74158464	      0.85907479	     -0.93877526	      0.47650713	     -0.54863500	     -3.10317110	     -0.28618654	      1.90132181	     -0.00348616	      0.17352392	      0.91721361	      4.14284109	     -1.28685503	     -7.40035778	     -3.22660125	     -3.50606280	     -1.21813665	      0.00065493
      1.48550000	     10.12895337	      0.91072648	     -0.68950118	      0.35279634	     -0.77397767	     -3.78111674	     -0.80187245	      0.69466551	      0.00110618	     -0.24903913	      1.02121832	      2.49228141	     -0.75035408	     -9.34056508	     -4.23357590	     -5.04151586	     -1.95208773	      0.00044419
      1.49600000	     13.15863114	      1.02150090	      0.17828384	     -0.09335445	     -1.47473857	     -5.55087112	     -3.04054957	     -3.17682578	     -0.02128459	     -0.64438323	      1.10661793	      0.84869409	     -0.24823654	    -11.82598588	     -5.59024284	     -7.03269157	     -3.11118102	     -0.00067148
      1.50650000	     15.21052026	      1.03795699	      1.13045058	     -0.60633843	     -2.29619129	     -7.02260818	     -0.66079622	      1.87764945	     -0.00323412	     -0.96441646	      1.15196067	     -1.02441747	      0.29063803	    -14.66949751	     -7.28975105	     -8.91740999	     -4.54650591	     -0.00523548
      1.51700000	     15.40893206	      0.93349889	      1.47019166	     -0.79358751	     -2.36771817	     -6.66248947	      0.07985983	      2.57939258	     -0.02601601	     -1.12357754	      1.13632925	     -3.37823426	      0.92522968	    -17.37551729	     -9.18835989	    -10.77637857	     -6.70115459	     -0.01993251
      1.52750000	     15.16185562	      0.82569446	      1.46147201	     -0.78621972	     -2.23237534	     -6.22152453	     -1.86294230	     -1.63704267	     -0.00872964	     -1.15275558	      1.05104962	     -6.32891384	      1.66472022	    -19.85316030	    -11.42747637	    -12.71746031	    -10.27273505	     -0.06044905
      1.53800000	     15.68798680	      0.73815007	      2.07278163	     -1.12986213	     -2.42526166	     -6.25382803	     -1.58156818	     -1.30289002	     -0.00636376	     -1.14743875	      0.87712475	     -9.48199560	      2.39872320	    -21.85933891	    -13.99165925	    -14.66252841	    -15.84476262	     -0.15021225
      1.54850000	     16.32615921	      0.63385019	      3.27771908	     -1.83768530	     -2.64645843	     -5.88919644	      0.23377704	      2.46443106	     -0.02599999	     -1.10764601	      0.60756791	    -12.58964211	      3.07688845	    -23.13679171	    -16.98510718	    -16.53091914	    -22.36838232	     -0.28955844
      1.55900000	     16.58540051	      0.53183665	      4.28151493	     -2.45012515	     -2.71497909	     -5.36859698	      0.18968579	      1.86165991	     -0.01275072	     -0.96326483	      0.25663658	    -16.15841831	      3.80818466	    -23.56154407	    -20.81894308	    -19.11611333	    -28.78612452	     -0.45658564
      1.56950000	     16.55490810	      0.44154671	      5.01263244	     -2.89918691	     -2.66707246	     -4.85244460	     -0.14391746	      0.52223267	      0.00101436	     -0.77165720	     -0.14509506	    -20.01196020	      4.55159947	    -22.99905391	    -25.49942116	    -21.96120300	    -35.19176209	     -0.65697506
      1.58000000	     16.22604230	      0.35060546	      5.71030413	     -3.32921611	     -2.44866922	     -3.98326944	      0.11287004	      1.01872954	      0.00004606	     -0.56530058	     -0.52176752	    -23.46003669	      5.19073768	    -21.35071139	    -30.29608040	    -22.15953338	    -38.80755659	     -0.81767002
      1.59050000	     15.80867291	      0.26436656	      6.49308113	     -3.81957921	     -2.20651689	     -2.96422746	      0.06291433	      1.32212704	     -0.00866608	     -0.33129655	     -0.80238039	    -26.70078572	      5.77565884	    -18.88861566	    -34.69540617	    -18.98544377	    -38.68128884	     -0.87859296
      1.60100000	     15.61770052	      0.19121391	      7.48486883	     -4.46316054	     -2.11556328	     -2.08251000	      0.04341210	      0.99787293	     -0.00362766	     -0.13947289	     -0.99238359	    -29.93916983	      6.34688136	    -16.21168116	    -38.82753951	    -10.09878269	    -28.67985569	     -0.60608993
      1.61150000	     15.38078132	      0.12138977	      8.45605444	     -5.09594862	     -2.03640561	     -1.24538877	      0.09313399	      0.73737551	      0.00002653	      0.00345863	     -1.05468877	    -32.70533094	      6.84044875	    -12.85320528	    -40.99985710	     -7.39872449	    -26.56791110	     -0.56349462
      1.62200000	     14.77881912	      0.03974596	      9.16228192	     -5.51995985	     -1.81115926	     -0.36310089	      0.01238781	      0.66093444	     -0.00032194	      0.02186772	     -1.00375728	    -34.95423109	      7.25977771	     -9.01532555	    -40.59747642	     -4.69236841	    -24.60195351	     -0.51999183
      1.63250000	     14.11939386	     -0.04962152	      9.82897835	     -5.90304474	     -1.59713311	      0.38715221	     -0.08453460	      0.51849885	     -0.00014580	     -0.14973662	     -0.91297866	    -36.73098135	      7.61815423	     -5.47135788	    -38.84989452	      2.38472083	     -9.54143277	     -0.12807810
      1.64300000	     13.77934816	     -0.13478067	     10.68496277	     -6.42798108	     -1.53547864	      0.88370576	     -0.09852106	      0.40354338	      0.00052922	     -0.54004371	     -0.77537217	    -37.70191996	      7.87483526	     -2.23455999	    -35.52658627	      4.01237371	     -5.42652078	     -0.05527504
      1.65350000	     13.50158717	     -0.22173795	     11.53436187	     -6.93610779	     -1.51124493	      1.19192032	     -0.10005224	      0.32180143	      0.00085486	     -1.17841700	     -0.61016295	    -37.91345618	      8.03746821	      0.54015652	    -31.07052240	      4.13047448	     -4.75261122	     -0.04574086
      1.66400000	     13.05872049	     -0.31622920	     12.18983749	     -7.26680523	     -1.41787096	      1.34451368	     -0.10834619	      0.26360128	      0.00092956	     -2.06644801	     -0.44581612	    -37.53588665	      8.12645876	      2.74041522	    -26.16201155	      5.06672399	      0.93202355	      0.00263699
      1.67450000	     12.60818573	     -0.41274278	     12.76062947	     -7.51279398	     -1.30181352	      1.34189310	     -0.15646319	      0.21214471	      0.00090485	     -3.17881269	     -0.29596357	    -36.50683719	      8.12809317	      4.36763512	    -21.08086726	      5.01547449	      4.69371947	     -0.02173035
      1.68500000	     12.27487606	     -0.50073877	     13.31789403	     -7.73662522	     -1.21379246	      1.21486263	     -0.16504443	      0.17918146	      0.00080224	     -4.42317947	     -0.17366480	    -34.77954657	      8.02599073	      5.45510025	    -16.12623485	      4.38218861	      6.33586998	     -0.06246242
      1.69550000	     11.96462492	     -0.58088236	     13.80093879	     -7.88876764	     -1.11979800	      1.01800477	     -0.15576933	      0.15820312	      0.00064538	     -5.78784999	     -0.08305607	    -32.53356636	      7.83188376	      6.12554799	    -11.39829863	      3.61243270	      7.33451550	     -0.10703101
      1.70600000	     11.59613731	     -0.65431966	     14.15016111	     -7.92452058	     -0.99011117	      0.78874259	     -0.18098768	      0.13925292	      0.00052621	     -7.35567692	     -0.02483956	    -29.94787862	      7.55825951	      6.49069206	     -6.91524695	      2.82934299	      8.10669468	     -0.16455684
      1.71650000	     11.21542715	     -0.71594206	     14.39436869	     -7.87708793	     -0.85033128	      0.55811913	     -0.21248619	      0.12346866	      0.00041504	     -9.33292342	      0.00090232	    -27.13663254	      7.20943476	      6.63165785	     -2.69724836	      2.12008161	      8.43318719	     -0.21153222
      1.72700000	     10.86487768	     -0.76044597	     14.56486118	     -7.77939990	     -0.72713250	      0.35402284	     -0.21703896	      0.11216031	      0.00029139	    -12.11563102	     -0.00570634	    -24.19518716	      6.78838702	      6.61435887	      1.25255658	      1.56718369	      8.41297822	     -0.23377656
      1.73750000	     10.50148474	     -0.79006470	     14.64199474	     -7.62209618	     -0.60904996	      0.18751558	     -0.23357181	      0.10260567	      0.00019780	    -16.24283407	     -0.04587435	    -21.24561771	      6.30650888	      6.49268474	      4.97241084	      1.17192242	      8.20243322	     -0.23691764
      1.74800000	     10.08552084	     -0.80719600	     14.59989939	     -7.39313110	     -0.48658814	      0.05992433	     -0.25298660	      0.09441482	      0.00011559	    -22.07063805	     -0.12350444	    -18.37317700	      5.77376887	      6.29855138	      8.48279961	      0.88766445	      7.85017435	     -0.22493131
      1.75850000	      9.62797459	     -0.81001248	     14.44103783	     -7.10337900	     -0.37514277	     -0.02354864	     -0.25532046	      0.08765145	      0.00004101	    -29.47408185	     -0.24410277	    -15.63832863	      5.20023136	      6.04301674	     11.74095338	      0.65466128	      7.36111319	     -0.19893266
      1.76900000	      9.14375317	     -0.79964939	     14.18496147	     -6.77405913	     -0.28105594	     -0.06775455	     -0.27366096	      0.08192696	     -0.00002368	    -37.83500868	     -0.41308175	    -13.07931632	      4.59592199	      5.71530853	     14.64833057	      0.42081324	      6.74861810	     -0.16374413
      1.77950000	      8.63988829	     -0.77566751	     13.83366868	     -6.41175505	     -0.20842933	     -0.07778886	     -0.28476518	      0.07659024	     -0.00008956	    -46.32555096	     -0.63308586	    -10.73126187	      3.97501705	      5.27497388	     17.04090795	      0.16722739	      6.04334149	     -0.12650359
      1.79000000	      8.11874562	     -0.73992074	     13.39266930	     -6.02428112	     -0.15575767	     -0.06292631	     -0.28183556	      0.07190680	     -0.00015188	    -54.25920771	     -0.90181603	     -8.61375558	      3.35232141	      4.63724434	     18.69338719	     -0.09298339	      5.28134935	     -0.09176420
      1.80050000	      7.59376308	     -0.69422831	     12.87871144	     -5.62478221	     -0.12354317	     -0.03199518	     -0.29166320	      0.06657593	     -0.00022773	    -61.16598839	     -1.20706244	     -6.72097543	      2.73782972	      3.66693438	     19.29115999	     -0.31296684	      4.50910316	     -0.06254673
      1.81100000	      7.08643219	     -0.63842868	     12.30956113	     -5.22453729	     -0.11672336	      0.00928268	     -0.29590180	      0.06015814	     -0.00031762	    -66.88898091	     -1.52795898	     -5.04553604	      2.14230461	      2.18072311	     18.49413946	     -0.43466967	      3.76723862	     -0.03985373
      1.82150000	      6.61272493	     -0.57297958	     11.70216187	     -4.83233451	     -0.13852528	      0.05457847	     -0.28252929	      0.05420428	     -0.00040730	    -71.38195908	     -1.83855333	     -3.57427459	      1.57481621	      0.01362940	     16.00879185	     -0.40794844	      3.08798352	     -0.02354446
      1.83200000	      6.18014654	     -0.50026488	     11.07724019	     -4.45726353	     -0.18853496	      0.09625948	     -0.28136498	      0.04420282	     -0.00053527	    -74.55694834	     -2.12648975	     -2.31267037	      1.05208004	     -2.78808727	     11.72780446	     -0.45609924	      2.48879063	     -0.01267314
      1.84250000	      5.80561537	     -0.42086012	     10.46370651	     -4.11084393	     -0.27340818	      0.12884483	     -0.27752856	      0.03068655	     -0.00069459	    -76.06179845	     -2.43794862	     -1.23587158	      0.57769919	     -5.69260703	      5.91364155	      0.12198148	      1.96862972	     -0.00584722
      1.85300000	      5.49745640	     -0.33491353	      9.88606910	     -3.80074290	     -0.40248132	      0.14670648	     -0.25845817	      0.01732228	     -0.00085834	    -75.39353131	     -2.85909844	     -0.33621421	      0.16069313	     -7.82935130	     -0.68436026	      0.48756921	      1.52847287	     -0.00196120
      1.86350000	      5.24495410	     -0.24416057	      9.35935225	     -3.52946641	     -0.58205418	      0.14344373	     -0.23571072	      0.00190059	     -0.00103923	    -72.20359976	     -3.38716609	      0.41101704	     -0.19995601	     -8.76520594	     -6.92194214	      0.39612478	      1.15328218	      0.00005584
      1.87400000	      5.03549204	     -0.14900773	      8.89591779	     -3.29835207	     -0.82577214	      0.11275838	     -0.20732917	     -0.01413509	     -0.00122199	    -66.39156363	     -3.84912153	      1.02373290	     -0.50483182	     -8.60802489	    -11.22965172	     -0.17804930	      0.84144564	      0.00088672
      1.88450000	      4.83816268	     -0.05206002	      8.49779726	     -3.10457667	     -1.14147088	      0.04915457	     -0.16797464	     -0.02529995	     -0.00135920	    -58.42710216	     -4.05265294	      1.52176061	     -0.75787499	     -7.61344936	    -12.74487027	     -1.00785860	      0.58397951	      0.00105343
      1.89500000	      4.62318545	      0.04443127	      8.16730585	     -2.94612794	     -1.53919940	     -0.05104341	     -0.12999521	     -0.03523756	     -0.00146408	    -48.98827664	     -3.92189670	      1.93096192	     -0.96831810	     -6.14526330	    -12.05876033	     -1.74184076	      0.37434236	      0.00088218
      1.90550000	      4.36945963	      0.13862389	      7.93022923	     -2.83128468	     -2.03624037	     -0.18996541	     -0.08803179	     -0.03750958	     -0.00148124	    -39.08620553	     -3.52143025	      2.26171583	     -1.13900358	     -4.40017726	     -9.71052771	     -2.12353346	      0.21120838	      0.00058065
      1.91600000	      4.05289482	      0.23016388	      7.82084759	     -2.77177479	     -2.66210996	     -0.37112654	     -0.04335554	     -0.02823432	     -0.00137547	    -29.46827040	     -2.96457661	      2.53917449	     -1.28169224	     -2.82621628	     -6.95031282	     -2.07525692	      0.07835150	      0.00023845
      1.92650000	      3.61707673	      0.31201782	      7.79141783	     -2.74618553	     -3.38008717	     -0.58083692	     -0.01361557	     -0.01832970	     -0.00123193	    -20.92170672	     -2.36402653	      2.73388154	     -1.37960743	     -1.66257399	     -4.57032733	     -1.70749248	     -0.02075321	     -0.00006738
      1.93700000	      3.05453833	      0.37930893	      7.81251684	     -2.74178477	     -4.13882206	     -0.79828742	      0.00169536	     -0.00946613	     -0.00107481	    -13.81505971	     -1.79211764	      2.81920057	     -1.41795470	     -0.89633287	     -2.78897780	     -1.18421262	     -0.09903617	     -0.00033641
      1.94750000	      2.39446701	      0.42762711	      7.85217187	     -2.74526721	     -4.85653877	     -0.99406603	      0.00634249	      0.01143427	     -0.00079133	     -8.26648095	     -1.29095246	      2.77817842	     -1.38823127	     -0.42148507	     -1.48303147	     -0.67406768	     -0.16288270	     -0.00057187
      1.95800000	      1.70127031	      0.45443037	      7.89938742	     -2.75209517	     -5.44331304	     -1.13801377	     -0.00361511	      0.02171541	     -0.00059008	     -4.28587324	     -0.87628639	      2.55942636	     -1.26539560	     -0.16181755	     -0.61482058	     -0.29110132	     -0.20916613	     -0.00075032
      1.96850000	      1.12995835	      0.44107000	      7.48173190	     -2.57325995	     -5.45689642	     -1.12992850	     -0.01149858	      0.02594941	     -0.00044402	     -1.77756251	     -0.54672207	      2.10181147	     -1.02300501	     -0.04416090	     -0.13132116	     -0.06988785	     -0.22999856	     -0.00083144
      1.97900000	      0.85086939	      0.37126964	      6.08486822	     -2.02799994	     -4.48582174	     -0.89671074	     -0.02653160	      0.02512241	     -0.00023347	     -0.63505996	     -0.29643807	      1.35713740	     -0.64682215	     -0.00507824	      0.05664024	      0.01381930	     -0.21054718	     -0.00075189
      1.98950000	      0.68765924	      0.24445551	      4.10866882	     -1.31602158	     -2.79881856	     -0.50524653	     -0.02099049	      0.01581400	     -0.00010734	     -0.43456044	     -0.12197522	      0.49350262	     -0.23016167	      0.00248759	      0.06584479	      0.01829220	     -0.14012273	     -0.00048149
