PennationAngle
version=1
nRows=98
nColumns=19
inDegrees=no

This analysis gathers basic information about muscles during a simulation (e.g., forces, tendon lengths, moment arms, etc).
Units are S.I. units (second, meters, Newtons, ...)
If the header above contains a line with 'inDegrees', this indicates whether rotational values are in degrees (yes) or radians (no).

endheader
time	hamstrings_r	bifemsh_r	glut_max_r	iliopsoas_r	rect_fem_r	vasti_r	gastroc_r	soleus_r	dorsiflexors_r	hamstrings_l	bifemsh_l	glut_max_l	iliopsoas_l	rect_fem_l	vasti_l	gastroc_l	soleus_l	dorsiflexors_l
      0.97100000	      0.44202630	      0.42747493	      0.38468457	      0.22924805	      0.28639184	      0.52926182	      0.47365871	      0.91771563	      1.47254003	      0.21350582	      0.39190182	      0.30694677	      0.26974831	      0.71656659	      0.60557072	      0.32613201	      0.56278638	      0.98521121
      0.98150000	      0.45000954	      0.43418047	      0.38422733	      0.22938226	      0.28037392	      0.51924846	      0.45826503	      0.89938958	      1.48987557	      0.21520441	      0.39408102	      0.30735475	      0.26937327	      0.69344067	      0.59961503	      0.32390744	      0.56337998	      0.98673379
      0.99200000	      0.45954218	      0.44335960	      0.38328834	      0.22966009	      0.27331868	      0.50700105	      0.44031283	      0.87556355	      1.51532799	      0.21737584	      0.39663870	      0.30792516	      0.26885386	      0.66690672	      0.59291802	      0.32266605	      0.56628533	      0.99418305
      1.00250000	      0.46969550	      0.45501658	      0.38173457	      0.23012649	      0.26590604	      0.49346299	      0.42192225	      0.84812557	      1.54885271	      0.21978466	      0.39926954	      0.30859710	      0.26824930	      0.64065505	      0.58633789	      0.32125668	      0.56869125	      1.00034757
      1.01300000	      0.48011956	      0.46939649	      0.37955674	      0.23079456	      0.25853105	      0.47928440	      0.40496675	      0.81971055	      1.55312220	      0.22238226	      0.40180480	      0.30937998	      0.26755469	      0.61568109	      0.58027371	      0.32050056	      0.57187563	      1.00849963
      1.02350000	      0.49046470	      0.48679272	      0.37678230	      0.23167086	      0.25153106	      0.46505832	      0.38920808	      0.78896933	      1.50452629	      0.22518262	      0.40416604	      0.31029469	      0.26675620	      0.59208252	      0.57485590	      0.32107268	      0.57713138	      1.02193336
      1.03400000	      0.50020481	      0.50750330	      0.37344403	      0.23276453	      0.24514804	      0.45121466	      0.37727440	      0.76165958	      1.45632941	      0.22814967	      0.40626562	      0.31133789	      0.26586228	      0.57022308	      0.57021524	      0.32270062	      0.58390916	      1.03920926
      1.04450000	      0.50860729	      0.53162740	      0.36961272	      0.23407589	      0.23959581	      0.43814906	      0.36774087	      0.73463915	      1.40406573	      0.23122421	      0.40797810	      0.31250501	      0.26488277	      0.55051130	      0.56654810	      0.32490881	      0.59115398	      1.05760105
      1.05500000	      0.51524348	      0.55945620	      0.36537994	      0.23559947	      0.23493270	      0.42600462	      0.36171809	      0.71080594	      1.35433830	      0.23435435	      0.40925735	      0.31377920	      0.26383746	      0.53303097	      0.56387543	      0.32799048	      0.59945065	      1.07854717
      1.06550000	      0.51965500	      0.59113990	      0.36084817	      0.23732485	      0.23121801	      0.41491593	      0.35600400	      0.69568534	      1.32112629	      0.23750071	      0.41009770	      0.31514305	      0.26274552	      0.51768841	      0.56215000	      0.33200005	      0.60894254	      1.10232820
      1.07600000	      0.52105788	      0.62609788	      0.35613215	      0.23923315	      0.22857130	      0.40510424	      0.35493325	      0.67882958	      1.28268747	      0.24065491	      0.41048627	      0.31659826	      0.26161003	      0.50427737	      0.56136019	      0.33658437	      0.61889176	      1.12700765
      1.08650000	      0.51941599	      0.66417979	      0.35132926	      0.24130630	      0.22693780	      0.39649451	      0.35721918	      0.66753813	      1.25616287	      0.24382268	      0.41040696	      0.31815574	      0.26042735	      0.49258905	      0.56152098	      0.34184755	      0.62944104	      1.15285442
      1.09700000	      0.51453554	      0.70463217	      0.34651564	      0.24352888	      0.22632013	      0.38907106	      0.36365826	      0.66346080	      1.24644201	      0.24700116	      0.40989395	      0.31981121	      0.25920575	      0.48242281	      0.56256617	      0.34772110	      0.64042907	      1.17937569
      1.10750000	      0.50607566	      0.74561575	      0.34175860	      0.24588289	      0.22677519	      0.38288330	      0.36951796	      0.65750870	      1.23212217	      0.25018031	      0.40899001	      0.32155562	      0.25795645	      0.47362698	      0.56442933	      0.35401406	      0.65143633	      1.20548478
      1.11800000	      0.49462268	      0.78569692	      0.33713690	      0.24833622	      0.22822163	      0.37780878	      0.37611647	      0.65314313	      1.22152539	      0.25336922	      0.40772852	      0.32339186	      0.25668162	      0.46603330	      0.56707612	      0.36072239	      0.66238659	      1.23095748
      1.12850000	      0.48093933	      0.82333440	      0.33271792	      0.25085190	      0.23056887	      0.37372668	      0.38453399	      0.65286303	      1.22084284	      0.25658282	      0.40614747	      0.32532455	      0.25538238	      0.45948390	      0.57047210	      0.36787061	      0.67325161	      1.25569645
      1.13900000	      0.46560868	      0.85662790	      0.32854258	      0.25339798	      0.23376695	      0.37056005	      0.39342741	      0.65477562	      1.22549709	      0.25984114	      0.40430584	      0.32735474	      0.25406240	      0.45380508	      0.57454181	      0.37542939	      0.68393174	      1.27945853
      1.14950000	      0.44919469	      0.88369772	      0.32464120	      0.25594106	      0.23776888	      0.36824306	      0.40149247	      0.65738973	      1.23183442	      0.26316462	      0.40226044	      0.32948319	      0.25272544	      0.44884722	      0.57921137	      0.38328913	      0.69417882	      1.30170949
      1.16000000	      0.43231063	      0.90322059	      0.32103827	      0.25844454	      0.24250403	      0.36669737	      0.40849138	      0.66097749	      1.24048588	      0.26657276	      0.40006172	      0.33171079	      0.25137505	      0.44448735	      0.58441466	      0.39159340	      0.70423152	      1.32299287
      1.17050000	      0.41544365	      0.91428092	      0.31775009	      0.26087151	      0.24790658	      0.36586415	      0.41417877	      0.66565960	      1.25169335	      0.27008141	      0.39776042	      0.33403523	      0.25001647	      0.44061893	      0.59007541	      0.40031048	      0.71400687	      1.34315133
      1.18100000	      0.39892249	      0.91642578	      0.31478146	      0.26318950	      0.25392912	      0.36570595	      0.41796870	      0.67085144	      1.26400741	      0.27369235	      0.39539689	      0.33644935	      0.24865720	      0.43718353	      0.59613134	      0.40942251	      0.72344661	      1.36209898
      1.19150000	      0.38295525	      0.90962739	      0.31213240	      0.26536789	      0.26054267	      0.36621112	      0.41942448	      0.67603007	      1.27616692	      0.27740390	      0.39301193	      0.33894281	      0.24730562	      0.43412439	      0.60250711	      0.41912541	      0.73289705	      1.38054487
      1.20200000	      0.36765206	      0.89436005	      0.30979497	      0.26738244	      0.26774599	      0.36738665	      0.41848846	      0.68100180	      1.28772092	      0.28121831	      0.39064647	      0.34150518	      0.24596907	      0.43137096	      0.60911212	      0.42937602	      0.74229657	      1.39836164
      1.21250000	      0.35305397	      0.87146934	      0.30775822	      0.26921311	      0.27557012	      0.36926340	      0.41525911	      0.68557345	      1.29823856	      0.28513301	      0.38833691	      0.34412339	      0.24465520	      0.42886326	      0.61585263	      0.44013614	      0.75162224	      1.41550803
      1.22300000	      0.33914866	      0.84212136	      0.30600636	      0.27084698	      0.28409185	      0.37189367	      0.40993872	      0.68948651	      1.30715787	      0.28911864	      0.38610436	      0.34677595	      0.24337456	      0.42661010	      0.62267422	      0.45158376	      0.76118429	      1.43253371
      1.23350000	      0.32590548	      0.80768837	      0.30452362	      0.27227479	      0.29343298	      0.37535286	      0.40285691	      0.69251770	      1.31401330	      0.29314239	      0.38396832	      0.34943916	      0.24213704	      0.42461625	      0.62952110	      0.46375732	      0.77106366	      1.44952844
      1.24400000	      0.31328222	      0.76968283	      0.30329125	      0.27349416	      0.30377669	      0.37973622	      0.39448435	      0.69456685	      1.31862071	      0.29719478	      0.38195993	      0.35209377	      0.24094903	      0.42281299	      0.63628223	      0.47643612	      0.78103100	      1.46605687
      1.25450000	      0.30124579	      0.72961945	      0.30229137	      0.27450603	      0.31537118	      0.38516273	      0.38532047	      0.69555867	      1.32084285	      0.30126828	      0.38010504	      0.35472147	      0.23981542	      0.42112620	      0.64284000	      0.48970775	      0.79137415	      1.48255048
      1.26500000	      0.28977423	      0.68894516	      0.30150412	      0.27531732	      0.32854999	      0.39177247	      0.37587051	      0.69545828	      1.32061818	      0.30533280	      0.37840395	      0.35730334	      0.23874049	      0.41955324	      0.64914956	      0.50378475	      0.80244576	      1.49946268
      1.27550000	      0.27886570	      0.64891195	      0.30091150	      0.27593671	      0.34373290	      0.39972809	      0.36659313	      0.69424842	      1.31790616	      0.30936491	      0.37686106	      0.35982145	      0.23772741	      0.41806556	      0.65514334	      0.51832091	      0.81383005	      1.51605318
      1.28600000	      0.26854753	      0.61056517	      0.30049773	      0.27637365	      0.36141547	      0.40920041	      0.35790966	      0.69197187	      1.31278233	      0.31339745	      0.37552832	      0.36225982	      0.23677802	      0.41645530	      0.66054859	      0.53289815	      0.82539362	      1.53207944
      1.29650000	      0.25885098	      0.57467331	      0.30024563	      0.27664170	      0.38221062	      0.42037080	      0.35016369	      0.68869737	      1.30536539	      0.31747044	      0.37444174	      0.36461014	      0.23589099	      0.41454100	      0.66512512	      0.54739327	      0.83742263	      1.54787475
      1.30700000	      0.24980006	      0.54177984	      0.30012933	      0.27676584	      0.40688986	      0.43340604	      0.34746381	      0.68455983	      1.29591557	      0.32159514	      0.37354233	      0.36689763	      0.23505297	      0.41240651	      0.66903682	      0.56221369	      0.85027268	      1.56377167
      1.31750000	      0.24143225	      0.51218534	      0.30012636	      0.27676901	      0.43633966	      0.44845328	      0.34244110	      0.67969325	      1.28469150	      0.32581755	      0.37281514	      0.36914327	      0.23425354	      0.41001410	      0.67228614	      0.57683219	      0.86333520	      1.56268150
      1.32800000	      0.23383312	      0.48605006	      0.30022930	      0.27665912	      0.47140006	      0.46561132	      0.33991140	      0.67425407	      1.27201097	      0.33035740	      0.37252961	      0.37129257	      0.23350910	      0.40649115	      0.67358406	      0.58888720	      0.87595041	      1.54902197
      1.33850000	      0.22704950	      0.46336698	      0.30042224	      0.27645378	      0.51302395	      0.48492614	      0.33987539	      0.66848285	      1.25840465	      0.33534131	      0.37281984	      0.37331052	      0.23282787	      0.40145533	      0.67226491	      0.59825120	      0.88941406	      1.53546789
      1.34900000	      0.22103096	      0.44398722	      0.30065470	      0.27620746	      0.56227264	      0.50621835	      0.34223724	      0.66265485	      1.24451188	      0.34023785	      0.37291845	      0.37537162	      0.23214914	      0.39723796	      0.67181965	      0.60861334	      0.90255233	      1.52324166
      1.35950000	      0.21572646	      0.42770100	      0.30087642	      0.27597361	      0.61945577	      0.52890775	      0.34675530	      0.65698046	      1.23084410	      0.34451320	      0.37213955	      0.37764181	      0.23142077	      0.39578412	      0.67537786	      0.62384194	      0.91433548	      1.51310048
      1.37000000	      0.21117619	      0.41431072	      0.30108017	      0.27575966	      0.68342179	      0.55220614	      0.35298477	      0.65160847	      1.21778198	      0.34856687	      0.37101499	      0.38002382	      0.23067734	      0.39552025	      0.68068861	      0.64224141	      0.92610499	      1.50373360
      1.38050000	      0.20741315	      0.40358363	      0.30127063	      0.27556046	      0.75071398	      0.57485342	      0.36035789	      0.64680119	      1.20599636	      0.35296787	      0.37018145	      0.38239720	      0.22995695	      0.39449792	      0.68476551	      0.65781986	      0.93620537	      1.49629148
      1.39100000	      0.20439245	      0.39524056	      0.30143095	      0.27539340	      0.81682996	      0.59549225	      0.36820896	      0.64282422	      1.19618040	      0.35785504	      0.36973734	      0.38474572	      0.22926330	      0.39236049	      0.68698918	      0.66871491	      0.94406999	      1.49087172
      1.40150000	      0.20205465	      0.38902947	      0.30154043	      0.27527961	      0.87694985	      0.61295958	      0.37569177	      0.63975008	      1.18855353	      0.36324978	      0.36967351	      0.38706465	      0.22859639	      0.38914049	      0.68731181	      0.67557022	      0.95081097	      1.48648389
      1.41200000	      0.20036105	      0.38472264	      0.30159600	      0.27522196	      0.92615570	      0.62637780	      0.38176732	      0.63728704	      1.18241887	      0.36916546	      0.36999251	      0.38933941	      0.22795890	      0.38489103	      0.68570708	      0.67682986	      0.95501739	      1.48386501
      1.42250000	      0.19927767	      0.38212850	      0.30160065	      0.27521714	      0.96014382	      0.63511118	      0.38569803	      0.63541828	      1.17775060	      0.37560081	      0.37071119	      0.39154096	      0.22735711	      0.37967935	      0.68216022	      0.67173488	      0.95594074	      1.48330232
      1.43300000	      0.19873752	      0.38098903	      0.30156580	      0.27525329	      0.97723514	      0.63912773	      0.38775169	      0.63491059	      1.17648033	      0.38246512	      0.37184690	      0.39360489	      0.22680602	      0.37365093	      0.67673971	      0.66045852	      0.95343002	      1.48484259
      1.44350000	      0.19868973	      0.38112203	      0.30150255	      0.27531896	      0.97738768	      0.63865282	      0.38791493	      0.63562556	      1.17826898	      0.38968716	      0.37342823	      0.39547169	      0.22631811	      0.36693282	      0.66954143	      0.64314108	      0.94697693	      1.48895056
      1.45400000	      0.19913173	      0.38252760	      0.30141087	      0.27541429	      0.96069735	      0.63373157	      0.38479322	      0.63525930	      1.17735292	      0.39738557	      0.37551601	      0.39714023	      0.22589025	      0.35952807	      0.66059958	      0.61986212	      0.93578835	      1.49658797
      1.46450000	      0.20005057	      0.38520053	      0.30129147	      0.27553872	      0.92935885	      0.62482629	      0.37870660	      0.63364458	      1.17330905	      0.40570442	      0.37818867	      0.39860835	      0.22552004	      0.35145163	      0.64996979	      0.59166150	      0.91983665	      1.50862835
      1.47500000	      0.20127286	      0.38873666	      0.30115143	      0.27568504	      0.89124195	      0.61383425	      0.37420322	      0.63634882	      1.18007661	      0.41453552	      0.38152047	      0.39978443	      0.22522760	      0.34285685	      0.63780738	      0.55984585	      0.89908526	      1.52637321
      1.48550000	      0.20267332	      0.39275591	      0.30101639	      0.27582653	      0.85180302	      0.60224245	      0.37122822	      0.64199435	      1.19412485	      0.42375516	      0.38560822	      0.40057095	      0.22503404	      0.33385762	      0.62423514	      0.52573330	      0.87355078	      1.55154821
      1.49600000	      0.20455946	      0.39768579	      0.30096960	      0.27587565	      0.80606612	      0.58913337	      0.36265512	      0.63842719	      1.18526122	      0.43353332	      0.39059432	      0.40096331	      0.22493808	      0.32440920	      0.60926104	      0.49039391	      0.84315369	      1.55508860
      1.50650000	      0.20718677	      0.40388783	      0.30107927	      0.27576060	      0.75265162	      0.57415469	      0.35441133	      0.63599279	      1.17918701	      0.44405095	      0.39665670	      0.40095087	      0.22494112	      0.31446448	      0.59287196	      0.45531155	      0.80878547	      1.50880142
      1.51700000	      0.21016918	      0.41058395	      0.30129897	      0.27553089	      0.70183072	      0.55962984	      0.35443207	      0.64833973	      1.20977794	      0.45518874	      0.40392694	      0.40046964	      0.22505889	      0.30421789	      0.57539476	      0.42229829	      0.77238586	      1.45175673
      1.52750000	      0.21308968	      0.41711863	      0.30153400	      0.27528629	      0.65944164	      0.54689980	      0.35162063	      0.65315831	      1.22156237	      0.46667897	      0.41256779	      0.39942634	      0.22531626	      0.29391349	      0.55721339	      0.39159982	      0.73400652	      1.38267555
      1.53800000	      0.21608677	      0.42372217	      0.30180771	      0.27500291	      0.62228410	      0.53532230	      0.34387475	      0.64610788	      1.20428936	      0.47841746	      0.42284495	      0.39777016	      0.22573070	      0.28374080	      0.53866973	      0.36378203	      0.69495744	      1.30337754
      1.54850000	      0.21939517	      0.43032948	      0.30224621	      0.27455222	      0.58798965	      0.52487804	      0.34300032	      0.65188779	      1.21846400	      0.49042656	      0.43498436	      0.39554952	      0.22629798	      0.27394890	      0.52027993	      0.33927761	      0.65661633	      1.21759956
      1.55900000	      0.22298841	      0.43659698	      0.30288464	      0.27390317	      0.55693126	      0.51587141	      0.34693773	      0.66671427	      1.25420463	      0.50245701	      0.44919800	      0.39278120	      0.22702446	      0.26474809	      0.50240404	      0.31884287	      0.62148871	      1.13340285
      1.56950000	      0.22676465	      0.44243600	      0.30367341	      0.27311279	      0.52935857	      0.50816491	      0.34762708	      0.67336983	      1.26993626	      0.51404821	      0.46578902	      0.38943925	      0.22793129	      0.25632656	      0.48530873	      0.30179962	      0.58904702	      1.05226120
      1.58000000	      0.23061924	      0.44762259	      0.30459031	      0.27220966	      0.50540560	      0.50181060	      0.34719344	      0.67636531	      1.27694973	      0.52492704	      0.48502690	      0.38560137	      0.22901518	      0.24884501	      0.46931483	      0.28800167	      0.55977877	      0.97749415
      1.59050000	      0.23446208	      0.45182601	      0.30564182	      0.27119412	      0.48502276	      0.49696823	      0.35032453	      0.68622337	      1.29972534	      0.53458000	      0.50695456	      0.38137779	      0.23026393	      0.24240828	      0.45467703	      0.27724774	      0.53394414	      0.91119169
      1.60100000	      0.23836501	      0.45500646	      0.30686187	      0.27004206	      0.46727769	      0.49347389	      0.35531563	      0.69945072	      1.32951263	      0.54248550	      0.53180535	      0.37681862	      0.23168261	      0.23699019	      0.44135439	      0.27010675	      0.51346579	      0.85895361
      1.61150000	      0.24242320	      0.45720791	      0.30828164	      0.26873573	      0.45140129	      0.49113612	      0.35899601	      0.70906726	      1.35058315	      0.54819726	      0.55980084	      0.37199142	      0.23327127	      0.23255990	      0.42929771	      0.26366464	      0.49841680	      0.82096802
      1.62200000	      0.24652531	      0.45833171	      0.30986860	      0.26731761	      0.43758099	      0.48996736	      0.36266579	      0.71802309	      1.36974358	      0.55078570	      0.59039499	      0.36699682	      0.23501718	      0.22921876	      0.41869124	      0.26051454	      0.48401481	      0.78506626
      1.63250000	      0.25053068	      0.45827167	      0.31158709	      0.26582991	      0.42600700	      0.49002940	      0.36755208	      0.72906272	      1.39272813	      0.54980485	      0.62320572	      0.36190469	      0.23691441	      0.22694372	      0.40947507	      0.26011244	      0.47488834	      0.76259003
      1.64300000	      0.25452841	      0.45716868	      0.31346273	      0.26426047	      0.41609364	      0.49117722	      0.37273500	      0.74012107	      1.41502972	      0.54522775	      0.65773172	      0.35679765	      0.23894809	      0.22567685	      0.40154534	      0.26252486	      0.47108923	      0.75330345
      1.65350000	      0.25864145	      0.45520453	      0.31552773	      0.26259491	      0.40732135	      0.49326089	      0.37794575	      0.75058265	      1.43544667	      0.53705708	      0.69281922	      0.35176399	      0.24109422	      0.22539867	      0.39487165	      0.26533332	      0.46770236	      0.74506097
      1.66400000	      0.26282428	      0.45248898	      0.31775673	      0.26086646	      0.39970405	      0.49622811	      0.38307631	      0.76012490	      1.45348170	      0.52560174	      0.72722359	      0.34686394	      0.24333291	      0.22606353	      0.38936085	      0.26924644	      0.46651965	      0.74219095
      1.67450000	      0.26701101	      0.44913049	      0.32011792	      0.25910963	      0.39327945	      0.50004312	      0.38852935	      0.76953769	      1.47071566	      0.51133337	      0.75946009	      0.34214593	      0.24564280	      0.22762898	      0.38492295	      0.27475808	      0.46874850	      0.74760320
      1.68500000	      0.27123556	      0.44530289	      0.32260694	      0.25733535	      0.38783949	      0.50459866	      0.39433046	      0.77880068	      1.48713114	      0.49498463	      0.78801427	      0.33766424	      0.24799221	      0.23003123	      0.38146574	      0.28121020	      0.47335787	      0.75884383
      1.69550000	      0.27554084	      0.44118069	      0.32521892	      0.25555386	      0.38318288	      0.50977017	      0.40010582	      0.78705670	      1.50130450	      0.47731874	      0.81143304	      0.33346507	      0.25034509	      0.23320310	      0.37890921	      0.28800939	      0.47958052	      0.77411704
      1.70600000	      0.27990584	      0.43688079	      0.32793119	      0.25378563	      0.37926011	      0.51548228	      0.40602441	      0.79463332	      1.51393087	      0.45895682	      0.82842376	      0.32957518	      0.25266870	      0.23709330	      0.37719191	      0.29500804	      0.48753904	      0.79380513
      1.71650000	      0.28429768	      0.43250607	      0.33071606	      0.25205105	      0.37603192	      0.52165760	      0.41235127	      0.80206720	      1.52596485	      0.44038353	      0.83793423	      0.32601124	      0.25493088	      0.24166573	      0.37627665	      0.30200352	      0.49727636	      0.81810760
      1.72700000	      0.28872099	      0.42815732	      0.33355740	      0.25036038	      0.37338918	      0.52819674	      0.41897074	      0.80912368	      1.53706321	      0.42199177	      0.83938242	      0.32278275	      0.25710004	      0.24689195	      0.37614004	      0.30860834	      0.50847495	      0.84631007
      1.73750000	      0.29318195	      0.42392011	      0.33643891	      0.24872207	      0.37122503	      0.53499374	      0.42577032	      0.81563020	      1.54701681	      0.40405042	      0.83261091	      0.31989349	      0.25914596	      0.25276425	      0.37678504	      0.31446796	      0.52082796	      0.87767512
      1.74800000	      0.29765396	      0.41983841	      0.33933842	      0.24714605	      0.36949988	      0.54198284	      0.43296118	      0.82205595	      1.55658400	      0.38670361	      0.81790851	      0.31733805	      0.26104414	      0.25931134	      0.37824184	      0.31935411	      0.53414448	      0.91170486
      1.75850000	      0.30210039	      0.41595038	      0.34222879	      0.24564278	      0.36816938	      0.54907852	      0.44038937	      0.82815850	      1.56542896	      0.37001810	      0.79595125	      0.31510820	      0.26277308	      0.26660236	      0.38057314	      0.32308941	      0.54817956	      0.94771126
      1.76900000	      0.30649523	      0.41228397	      0.34508766	      0.24421832	      0.36716970	      0.55618794	      0.44811235	      0.83413810	      1.56772383	      0.35401750	      0.76784259	      0.31319040	      0.26431742	      0.27475456	      0.38386580	      0.32557163	      0.56260298	      0.98474076
      1.77950000	      0.31081792	      0.40886247	      0.34789419	      0.24287669	      0.36643121	      0.56321327	      0.45622743	      0.84028197	      1.55928502	      0.33870392	      0.73495342	      0.31157006	      0.26566572	      0.28394307	      0.38823884	      0.32680836	      0.57705604	      1.02174098
      1.79000000	      0.31505067	      0.40570394	      0.35062843	      0.24162053	      0.36588509	      0.57005595	      0.46459686	      0.84645566	      1.55104182	      0.32407000	      0.69885746	      0.31022725	      0.26681460	      0.29441921	      0.39383793	      0.32695438	      0.59120687	      1.05773499
      1.80050000	      0.31917670	      0.40281836	      0.35327209	      0.24045110	      0.36547054	      0.57662691	      0.47323302	      0.85281551	      1.54279663	      0.31012039	      0.66113000	      0.30914246	      0.26776433	      0.30651945	      0.40084416	      0.32625874	      0.60470991	      1.09175001
      1.81100000	      0.32319289	      0.40021416	      0.35581183	      0.23936720	      0.36511797	      0.58283594	      0.48226478	      0.85973027	      1.53411411	      0.29688964	      0.62330076	      0.30829422	      0.26852083	      0.32066064	      0.40945100	      0.32508168	      0.61727684	      1.12302067
      1.82150000	      0.32710807	      0.39790266	      0.35823707	      0.23836652	      0.36474768	      0.58858241	      0.49149744	      0.86703471	      1.52525910	      0.28442865	      0.58664665	      0.30766241	      0.26909240	      0.33735621	      0.41987338	      0.32381111	      0.62863503	      1.15089230
      1.83200000	      0.33094260	      0.39589226	      0.36054215	      0.23744508	      0.36427931	      0.59377071	      0.50091958	      0.87490046	      1.51608444	      0.27280730	      0.55220351	      0.30722429	      0.26949287	      0.35720871	      0.43231477	      0.32673240	      0.63862307	      1.17504676
      1.84250000	      0.33472648	      0.39418877	      0.36272591	      0.23659759	      0.36363547	      0.59831304	      0.51066223	      0.88372798	      1.50622911	      0.26209391	      0.52067152	      0.30695699	      0.26973888	      0.38092053	      0.44696536	      0.32621441	      0.64712324	      1.19531189
      1.85300000	      0.33851297	      0.39280214	      0.36479447	      0.23581673	      0.36272452	      0.60211407	      0.52055291	      0.89344756	      1.49591119	      0.25236239	      0.49248767	      0.30683830	      0.26984853	      0.40925595	      0.46396689	      0.32777110	      0.65412149	      1.21177898
      1.86350000	      0.34236374	      0.39174266	      0.36675689	      0.23509486	      0.36146011	      0.60508352	      0.53044939	      0.90406263	      1.48527257	      0.24366584	      0.46782493	      0.30684594	      0.26984147	      0.44310071	      0.48344266	      0.33169423	      0.65967222	      1.22469221
      1.87400000	      0.34635157	      0.39102123	      0.36862622	      0.23442375	      0.35976131	      0.60713886	      0.54024778	      0.91564800	      1.47440030	      0.23604019	      0.44666380	      0.30696057	      0.26973558	      0.48319448	      0.50534757	      0.33811507	      0.66387649	      1.23438233
      1.88450000	      0.35055305	      0.39065038	      0.37041605	      0.23379576	      0.35755907	      0.60820615	      0.54972085	      0.92809794	      1.46356100	      0.22949208	      0.42884407	      0.30716340	      0.26954880	      0.52941537	      0.52916552	      0.34699752	      0.66691308	      1.24133106
      1.89500000	      0.35504087	      0.39063673	      0.37214096	      0.23320361	      0.35481370	      0.60824558	      0.55860953	      0.94122252	      1.45306275	      0.22400167	      0.41410474	      0.30743969	      0.26929556	      0.58098561	      0.55424039	      0.35808327	      0.66894769	      1.24596296
      1.90550000	      0.35989424	      0.39098736	      0.37381757	      0.23263995	      0.35150028	      0.60723602	      0.56676726	      0.95497285	      1.44306421	      0.21952658	      0.40214187	      0.30777617	      0.26898898	      0.63578650	      0.57948703	      0.37089208	      0.67018538	      1.24877110
      1.91600000	      0.36521821	      0.39170866	      0.37547191	      0.23209492	      0.34760129	      0.60517978	      0.57367199	      0.96870167	      1.43407936	      0.21599871	      0.39261288	      0.30816255	      0.26863937	      0.69053085	      0.60360116	      0.38471697	      0.67078841	      1.25013664
      1.92650000	      0.37111660	      0.39280396	      0.37712955	      0.23155959	      0.34312679	      0.60210903	      0.57904984	      0.98205122	      1.42627707	      0.21333959	      0.38519203	      0.30858883	      0.26825669	      0.74182325	      0.62555792	      0.39865071	      0.67089703	      1.25038244
      1.93700000	      0.37762387	      0.39424448	      0.37880454	      0.23102930	      0.33817983	      0.59816229	      0.58299742	      0.99496957	      1.41958396	      0.21143853	      0.37954997	      0.30903801	      0.26785682	      0.78719992	      0.64486621	      0.41176110	      0.67064747	      1.24981764
      1.94750000	      0.38474977	      0.39598988	      0.38050738	      0.23050085	      0.33288915	      0.59351455	      0.58527763	      1.00679625	      1.41417969	      0.21018570	      0.37540262	      0.30949117	      0.26745688	      0.82442361	      0.66107001	      0.42312619	      0.67010722	      1.24859398
      1.95800000	      0.39243896	      0.39796691	      0.38224193	      0.22997327	      0.32743777	      0.58841955	      0.58547587	      1.01640068	      1.41028963	      0.20944799	      0.37247351	      0.30992282	      0.26707915	      0.85227162	      0.67384057	      0.43213839	      0.66935849	      1.24689580
      1.96850000	      0.40043731	      0.40005643	      0.38396898	      0.22945840	      0.32210262	      0.58322088	      0.58480096	      1.02487921	      1.40722081	      0.20908801	      0.37053463	      0.31029901	      0.26675246	      0.87072101	      0.68302298	      0.43848703	      0.66848008	      1.24490015
      1.97900000	      0.40778317	      0.40199313	      0.38549360	      0.22901229	      0.31748798	      0.57856503	      0.58322875	      1.03095913	      1.40522815	      0.20894728	      0.36937080	      0.31057642	      0.26651304	      0.88144806	      0.68885236	      0.44232135	      0.66760933	      1.24291829
      1.98950000	      0.41336830	      0.40347424	      0.38661583	      0.22868883	      0.31414948	      0.57510554	      0.58125711	      1.03418658	      1.40424025	      0.20888646	      0.36879422	      0.31072108	      0.26638869	      0.88683533	      0.69183606	      0.44410227	      0.66691199	      1.24132858
