TendonLength
version=1
nRows=98
nColumns=19
inDegrees=no

This analysis gathers basic information about muscles during a simulation (e.g., forces, tendon lengths, moment arms, etc).
Units are S.I. units (second, meters, Newtons, ...)
If the header above contains a line with 'inDegrees', this indicates whether rotational values are in degrees (yes) or radians (no).

endheader
time	hamstrings_r	bifemsh_r	glut_max_r	iliopsoas_r	rect_fem_r	vasti_r	gastroc_r	soleus_r	dorsiflexors_r	hamstrings_l	bifemsh_l	glut_max_l	iliopsoas_l	rect_fem_l	vasti_l	gastroc_l	soleus_l	dorsiflexors_l
      0.97100000	      0.31899488	      0.14812271	      0.08605182	      0.16460705	      0.36505187	      0.12325262	      0.40431635	      0.27174064	      0.24777235	      0.32168206	      0.14853963	      0.08643672	      0.16508904	      0.36959453	      0.12526098	      0.39461124	      0.26554821	      0.24251313
      0.98150000	      0.31899488	      0.14812271	      0.08605182	      0.16460705	      0.36505187	      0.12325262	      0.40431635	      0.27174064	      0.24777235	      0.32168206	      0.14853963	      0.08643672	      0.16508904	      0.36959453	      0.12526098	      0.39461124	      0.26554821	      0.24251313
      0.99200000	      0.31899488	      0.14812271	      0.08605182	      0.16460705	      0.36505187	      0.12325262	      0.40431635	      0.27174064	      0.24777235	      0.32168206	      0.14853963	      0.08643672	      0.16508904	      0.36959453	      0.12526098	      0.39461124	      0.26554821	      0.24251313
      1.00250000	      0.31899488	      0.14812271	      0.08605182	      0.16460705	      0.36505187	      0.12325262	      0.40431635	      0.27174064	      0.24777235	      0.32168206	      0.14853963	      0.08643672	      0.16508904	      0.36959453	      0.12526098	      0.39461124	      0.26554821	      0.24251313
      1.01300000	      0.31899488	      0.14812271	      0.08605182	      0.16460705	      0.36505187	      0.12325262	      0.40431635	      0.27174064	      0.24777235	      0.32168206	      0.14853963	      0.08643672	      0.16508904	      0.36959453	      0.12526098	      0.39461124	      0.26554821	      0.24251313
      1.02350000	      0.31899488	      0.14812271	      0.08605182	      0.16460705	      0.36505187	      0.12325262	      0.40431635	      0.27174064	      0.24777235	      0.32168206	      0.14853963	      0.08643672	      0.16508904	      0.36959453	      0.12526098	      0.39461124	      0.26554821	      0.24251313
      1.03400000	      0.31899488	      0.14812271	      0.08605182	      0.16460705	      0.36505187	      0.12325262	      0.40431635	      0.27174064	      0.24777235	      0.32168206	      0.14853963	      0.08643672	      0.16508904	      0.36959453	      0.12526098	      0.39461124	      0.26554821	      0.24251313
      1.04450000	      0.31899488	      0.14812271	      0.08605182	      0.16460705	      0.36505187	      0.12325262	      0.40431635	      0.27174064	      0.24777235	      0.32168206	      0.14853963	      0.08643672	      0.16508904	      0.36959453	      0.12526098	      0.39461124	      0.26554821	      0.24251313
      1.05500000	      0.31899488	      0.14812271	      0.08605182	      0.16460705	      0.36505187	      0.12325262	      0.40431635	      0.27174064	      0.24777235	      0.32168206	      0.14853963	      0.08643672	      0.16508904	      0.36959453	      0.12526098	      0.39461124	      0.26554821	      0.24251313
      1.06550000	      0.31899488	      0.14812271	      0.08605182	      0.16460705	      0.36505187	      0.12325262	      0.40431635	      0.27174064	      0.24777235	      0.32168206	      0.14853963	      0.08643672	      0.16508904	      0.36959453	      0.12526098	      0.39461124	      0.26554821	      0.24251313
      1.07600000	      0.31899488	      0.14812271	      0.08605182	      0.16460705	      0.36505187	      0.12325262	      0.40431635	      0.27174064	      0.24777235	      0.32168206	      0.14853963	      0.08643672	      0.16508904	      0.36959453	      0.12526098	      0.39461124	      0.26554821	      0.24251313
      1.08650000	      0.31899488	      0.14812271	      0.08605182	      0.16460705	      0.36505187	      0.12325262	      0.40431635	      0.27174064	      0.24777235	      0.32168206	      0.14853963	      0.08643672	      0.16508904	      0.36959453	      0.12526098	      0.39461124	      0.26554821	      0.24251313
      1.09700000	      0.31899488	      0.14812271	      0.08605182	      0.16460705	      0.36505187	      0.12325262	      0.40431635	      0.27174064	      0.24777235	      0.32168206	      0.14853963	      0.08643672	      0.16508904	      0.36959453	      0.12526098	      0.39461124	      0.26554821	      0.24251313
      1.10750000	      0.31899488	      0.14812271	      0.08605182	      0.16460705	      0.36505187	      0.12325262	      0.40431635	      0.27174064	      0.24777235	      0.32168206	      0.14853963	      0.08643672	      0.16508904	      0.36959453	      0.12526098	      0.39461124	      0.26554821	      0.24251313
      1.11800000	      0.31899488	      0.14812271	      0.08605182	      0.16460705	      0.36505187	      0.12325262	      0.40431635	      0.27174064	      0.24777235	      0.32168206	      0.14853963	      0.08643672	      0.16508904	      0.36959453	      0.12526098	      0.39461124	      0.26554821	      0.24251313
      1.12850000	      0.31899488	      0.14812271	      0.08605182	      0.16460705	      0.36505187	      0.12325262	      0.40431635	      0.27174064	      0.24777235	      0.32168206	      0.14853963	      0.08643672	      0.16508904	      0.36959453	      0.12526098	      0.39461124	      0.26554821	      0.24251313
      1.13900000	      0.31899488	      0.14812271	      0.08605182	      0.16460705	      0.36505187	      0.12325262	      0.40431635	      0.27174064	      0.24777235	      0.32168206	      0.14853963	      0.08643672	      0.16508904	      0.36959453	      0.12526098	      0.39461124	      0.26554821	      0.24251313
      1.14950000	      0.31899488	      0.14812271	      0.08605182	      0.16460705	      0.36505187	      0.12325262	      0.40431635	      0.27174064	      0.24777235	      0.32168206	      0.14853963	      0.08643672	      0.16508904	      0.36959453	      0.12526098	      0.39461124	      0.26554821	      0.24251313
      1.16000000	      0.31899488	      0.14812271	      0.08605182	      0.16460705	      0.36505187	      0.12325262	      0.40431635	      0.27174064	      0.24777235	      0.32168206	      0.14853963	      0.08643672	      0.16508904	      0.36959453	      0.12526098	      0.39461124	      0.26554821	      0.24251313
      1.17050000	      0.31899488	      0.14812271	      0.08605182	      0.16460705	      0.36505187	      0.12325262	      0.40431635	      0.27174064	      0.24777235	      0.32168206	      0.14853963	      0.08643672	      0.16508904	      0.36959453	      0.12526098	      0.39461124	      0.26554821	      0.24251313
      1.18100000	      0.31899488	      0.14812271	      0.08605182	      0.16460705	      0.36505187	      0.12325262	      0.40431635	      0.27174064	      0.24777235	      0.32168206	      0.14853963	      0.08643672	      0.16508904	      0.36959453	      0.12526098	      0.39461124	      0.26554821	      0.24251313
      1.19150000	      0.31899488	      0.14812271	      0.08605182	      0.16460705	      0.36505187	      0.12325262	      0.40431635	      0.27174064	      0.24777235	      0.32168206	      0.14853963	      0.08643672	      0.16508904	      0.36959453	      0.12526098	      0.39461124	      0.26554821	      0.24251313
      1.20200000	      0.31899488	      0.14812271	      0.08605182	      0.16460705	      0.36505187	      0.12325262	      0.40431635	      0.27174064	      0.24777235	      0.32168206	      0.14853963	      0.08643672	      0.16508904	      0.36959453	      0.12526098	      0.39461124	      0.26554821	      0.24251313
      1.21250000	      0.31899488	      0.14812271	      0.08605182	      0.16460705	      0.36505187	      0.12325262	      0.40431635	      0.27174064	      0.24777235	      0.32168206	      0.14853963	      0.08643672	      0.16508904	      0.36959453	      0.12526098	      0.39461124	      0.26554821	      0.24251313
      1.22300000	      0.31899488	      0.14812271	      0.08605182	      0.16460705	      0.36505187	      0.12325262	      0.40431635	      0.27174064	      0.24777235	      0.32168206	      0.14853963	      0.08643672	      0.16508904	      0.36959453	      0.12526098	      0.39461124	      0.26554821	      0.24251313
      1.23350000	      0.31899488	      0.14812271	      0.08605182	      0.16460705	      0.36505187	      0.12325262	      0.40431635	      0.27174064	      0.24777235	      0.32168206	      0.14853963	      0.08643672	      0.16508904	      0.36959453	      0.12526098	      0.39461124	      0.26554821	      0.24251313
      1.24400000	      0.31899488	      0.14812271	      0.08605182	      0.16460705	      0.36505187	      0.12325262	      0.40431635	      0.27174064	      0.24777235	      0.32168206	      0.14853963	      0.08643672	      0.16508904	      0.36959453	      0.12526098	      0.39461124	      0.26554821	      0.24251313
      1.25450000	      0.31899488	      0.14812271	      0.08605182	      0.16460705	      0.36505187	      0.12325262	      0.40431635	      0.27174064	      0.24777235	      0.32168206	      0.14853963	      0.08643672	      0.16508904	      0.36959453	      0.12526098	      0.39461124	      0.26554821	      0.24251313
      1.26500000	      0.31899488	      0.14812271	      0.08605182	      0.16460705	      0.36505187	      0.12325262	      0.40431635	      0.27174064	      0.24777235	      0.32168206	      0.14853963	      0.08643672	      0.16508904	      0.36959453	      0.12526098	      0.39461124	      0.26554821	      0.24251313
      1.27550000	      0.31899488	      0.14812271	      0.08605182	      0.16460705	      0.36505187	      0.12325262	      0.40431635	      0.27174064	      0.24777235	      0.32168206	      0.14853963	      0.08643672	      0.16508904	      0.36959453	      0.12526098	      0.39461124	      0.26554821	      0.24251313
      1.28600000	      0.31899488	      0.14812271	      0.08605182	      0.16460705	      0.36505187	      0.12325262	      0.40431635	      0.27174064	      0.24777235	      0.32168206	      0.14853963	      0.08643672	      0.16508904	      0.36959453	      0.12526098	      0.39461124	      0.26554821	      0.24251313
      1.29650000	      0.31899488	      0.14812271	      0.08605182	      0.16460705	      0.36505187	      0.12325262	      0.40431635	      0.27174064	      0.24777235	      0.32168206	      0.14853963	      0.08643672	      0.16508904	      0.36959453	      0.12526098	      0.39461124	      0.26554821	      0.24251313
      1.30700000	      0.31899488	      0.14812271	      0.08605182	      0.16460705	      0.36505187	      0.12325262	      0.40431635	      0.27174064	      0.24777235	      0.32168206	      0.14853963	      0.08643672	      0.16508904	      0.36959453	      0.12526098	      0.39461124	      0.26554821	      0.24251313
      1.31750000	      0.31899488	      0.14812271	      0.08605182	      0.16460705	      0.36505187	      0.12325262	      0.40431635	      0.27174064	      0.24777235	      0.32168206	      0.14853963	      0.08643672	      0.16508904	      0.36959453	      0.12526098	      0.39461124	      0.26554821	      0.24251313
      1.32800000	      0.31899488	      0.14812271	      0.08605182	      0.16460705	      0.36505187	      0.12325262	      0.40431635	      0.27174064	      0.24777235	      0.32168206	      0.14853963	      0.08643672	      0.16508904	      0.36959453	      0.12526098	      0.39461124	      0.26554821	      0.24251313
      1.33850000	      0.31899488	      0.14812271	      0.08605182	      0.16460705	      0.36505187	      0.12325262	      0.40431635	      0.27174064	      0.24777235	      0.32168206	      0.14853963	      0.08643672	      0.16508904	      0.36959453	      0.12526098	      0.39461124	      0.26554821	      0.24251313
      1.34900000	      0.31899488	      0.14812271	      0.08605182	      0.16460705	      0.36505187	      0.12325262	      0.40431635	      0.27174064	      0.24777235	      0.32168206	      0.14853963	      0.08643672	      0.16508904	      0.36959453	      0.12526098	      0.39461124	      0.26554821	      0.24251313
      1.35950000	      0.31899488	      0.14812271	      0.08605182	      0.16460705	      0.36505187	      0.12325262	      0.40431635	      0.27174064	      0.24777235	      0.32168206	      0.14853963	      0.08643672	      0.16508904	      0.36959453	      0.12526098	      0.39461124	      0.26554821	      0.24251313
      1.37000000	      0.31899488	      0.14812271	      0.08605182	      0.16460705	      0.36505187	      0.12325262	      0.40431635	      0.27174064	      0.24777235	      0.32168206	      0.14853963	      0.08643672	      0.16508904	      0.36959453	      0.12526098	      0.39461124	      0.26554821	      0.24251313
      1.38050000	      0.31899488	      0.14812271	      0.08605182	      0.16460705	      0.36505187	      0.12325262	      0.40431635	      0.27174064	      0.24777235	      0.32168206	      0.14853963	      0.08643672	      0.16508904	      0.36959453	      0.12526098	      0.39461124	      0.26554821	      0.24251313
      1.39100000	      0.31899488	      0.14812271	      0.08605182	      0.16460705	      0.36505187	      0.12325262	      0.40431635	      0.27174064	      0.24777235	      0.32168206	      0.14853963	      0.08643672	      0.16508904	      0.36959453	      0.12526098	      0.39461124	      0.26554821	      0.24251313
      1.40150000	      0.31899488	      0.14812271	      0.08605182	      0.16460705	      0.36505187	      0.12325262	      0.40431635	      0.27174064	      0.24777235	      0.32168206	      0.14853963	      0.08643672	      0.16508904	      0.36959453	      0.12526098	      0.39461124	      0.26554821	      0.24251313
      1.41200000	      0.31899488	      0.14812271	      0.08605182	      0.16460705	      0.36505187	      0.12325262	      0.40431635	      0.27174064	      0.24777235	      0.32168206	      0.14853963	      0.08643672	      0.16508904	      0.36959453	      0.12526098	      0.39461124	      0.26554821	      0.24251313
      1.42250000	      0.31899488	      0.14812271	      0.08605182	      0.16460705	      0.36505187	      0.12325262	      0.40431635	      0.27174064	      0.24777235	      0.32168206	      0.14853963	      0.08643672	      0.16508904	      0.36959453	      0.12526098	      0.39461124	      0.26554821	      0.24251313
      1.43300000	      0.31899488	      0.14812271	      0.08605182	      0.16460705	      0.36505187	      0.12325262	      0.40431635	      0.27174064	      0.24777235	      0.32168206	      0.14853963	      0.08643672	      0.16508904	      0.36959453	      0.12526098	      0.39461124	      0.26554821	      0.24251313
      1.44350000	      0.31899488	      0.14812271	      0.08605182	      0.16460705	      0.36505187	      0.12325262	      0.40431635	      0.27174064	      0.24777235	      0.32168206	      0.14853963	      0.08643672	      0.16508904	      0.36959453	      0.12526098	      0.39461124	      0.26554821	      0.24251313
      1.45400000	      0.31899488	      0.14812271	      0.08605182	      0.16460705	      0.36505187	      0.12325262	      0.40431635	      0.27174064	      0.24777235	      0.32168206	      0.14853963	      0.08643672	      0.16508904	      0.36959453	      0.12526098	      0.39461124	      0.26554821	      0.24251313
      1.46450000	      0.31899488	      0.14812271	      0.08605182	      0.16460705	      0.36505187	      0.12325262	      0.40431635	      0.27174064	      0.24777235	      0.32168206	      0.14853963	      0.08643672	      0.16508904	      0.36959453	      0.12526098	      0.39461124	      0.26554821	      0.24251313
      1.47500000	      0.31899488	      0.14812271	      0.08605182	      0.16460705	      0.36505187	      0.12325262	      0.40431635	      0.27174064	      0.24777235	      0.32168206	      0.14853963	      0.08643672	      0.16508904	      0.36959453	      0.12526098	      0.39461124	      0.26554821	      0.24251313
      1.48550000	      0.31899488	      0.14812271	      0.08605182	      0.16460705	      0.36505187	      0.12325262	      0.40431635	      0.27174064	      0.24777235	      0.32168206	      0.14853963	      0.08643672	      0.16508904	      0.36959453	      0.12526098	      0.39461124	      0.26554821	      0.24251313
      1.49600000	      0.31899488	      0.14812271	      0.08605182	      0.16460705	      0.36505187	      0.12325262	      0.40431635	      0.27174064	      0.24777235	      0.32168206	      0.14853963	      0.08643672	      0.16508904	      0.36959453	      0.12526098	      0.39461124	      0.26554821	      0.24251313
      1.50650000	      0.31899488	      0.14812271	      0.08605182	      0.16460705	      0.36505187	      0.12325262	      0.40431635	      0.27174064	      0.24777235	      0.32168206	      0.14853963	      0.08643672	      0.16508904	      0.36959453	      0.12526098	      0.39461124	      0.26554821	      0.24251313
      1.51700000	      0.31899488	      0.14812271	      0.08605182	      0.16460705	      0.36505187	      0.12325262	      0.40431635	      0.27174064	      0.24777235	      0.32168206	      0.14853963	      0.08643672	      0.16508904	      0.36959453	      0.12526098	      0.39461124	      0.26554821	      0.24251313
      1.52750000	      0.31899488	      0.14812271	      0.08605182	      0.16460705	      0.36505187	      0.12325262	      0.40431635	      0.27174064	      0.24777235	      0.32168206	      0.14853963	      0.08643672	      0.16508904	      0.36959453	      0.12526098	      0.39461124	      0.26554821	      0.24251313
      1.53800000	      0.31899488	      0.14812271	      0.08605182	      0.16460705	      0.36505187	      0.12325262	      0.40431635	      0.27174064	      0.24777235	      0.32168206	      0.14853963	      0.08643672	      0.16508904	      0.36959453	      0.12526098	      0.39461124	      0.26554821	      0.24251313
      1.54850000	      0.31899488	      0.14812271	      0.08605182	      0.16460705	      0.36505187	      0.12325262	      0.40431635	      0.27174064	      0.24777235	      0.32168206	      0.14853963	      0.08643672	      0.16508904	      0.36959453	      0.12526098	      0.39461124	      0.26554821	      0.24251313
      1.55900000	      0.31899488	      0.14812271	      0.08605182	      0.16460705	      0.36505187	      0.12325262	      0.40431635	      0.27174064	      0.24777235	      0.32168206	      0.14853963	      0.08643672	      0.16508904	      0.36959453	      0.12526098	      0.39461124	      0.26554821	      0.24251313
      1.56950000	      0.31899488	      0.14812271	      0.08605182	      0.16460705	      0.36505187	      0.12325262	      0.40431635	      0.27174064	      0.24777235	      0.32168206	      0.14853963	      0.08643672	      0.16508904	      0.36959453	      0.12526098	      0.39461124	      0.26554821	      0.24251313
      1.58000000	      0.31899488	      0.14812271	      0.08605182	      0.16460705	      0.36505187	      0.12325262	      0.40431635	      0.27174064	      0.24777235	      0.32168206	      0.14853963	      0.08643672	      0.16508904	      0.36959453	      0.12526098	      0.39461124	      0.26554821	      0.24251313
      1.59050000	      0.31899488	      0.14812271	      0.08605182	      0.16460705	      0.36505187	      0.12325262	      0.40431635	      0.27174064	      0.24777235	      0.32168206	      0.14853963	      0.08643672	      0.16508904	      0.36959453	      0.12526098	      0.39461124	      0.26554821	      0.24251313
      1.60100000	      0.31899488	      0.14812271	      0.08605182	      0.16460705	      0.36505187	      0.12325262	      0.40431635	      0.27174064	      0.24777235	      0.32168206	      0.14853963	      0.08643672	      0.16508904	      0.36959453	      0.12526098	      0.39461124	      0.26554821	      0.24251313
      1.61150000	      0.31899488	      0.14812271	      0.08605182	      0.16460705	      0.36505187	      0.12325262	      0.40431635	      0.27174064	      0.24777235	      0.32168206	      0.14853963	      0.08643672	      0.16508904	      0.36959453	      0.12526098	      0.39461124	      0.26554821	      0.24251313
      1.62200000	      0.31899488	      0.14812271	      0.08605182	      0.16460705	      0.36505187	      0.12325262	      0.40431635	      0.27174064	      0.24777235	      0.32168206	      0.14853963	      0.08643672	      0.16508904	      0.36959453	      0.12526098	      0.39461124	      0.26554821	      0.24251313
      1.63250000	      0.31899488	      0.14812271	      0.08605182	      0.16460705	      0.36505187	      0.12325262	      0.40431635	      0.27174064	      0.24777235	      0.32168206	      0.14853963	      0.08643672	      0.16508904	      0.36959453	      0.12526098	      0.39461124	      0.26554821	      0.24251313
      1.64300000	      0.31899488	      0.14812271	      0.08605182	      0.16460705	      0.36505187	      0.12325262	      0.40431635	      0.27174064	      0.24777235	      0.32168206	      0.14853963	      0.08643672	      0.16508904	      0.36959453	      0.12526098	      0.39461124	      0.26554821	      0.24251313
      1.65350000	      0.31899488	      0.14812271	      0.08605182	      0.16460705	      0.36505187	      0.12325262	      0.40431635	      0.27174064	      0.24777235	      0.32168206	      0.14853963	      0.08643672	      0.16508904	      0.36959453	      0.12526098	      0.39461124	      0.26554821	      0.24251313
      1.66400000	      0.31899488	      0.14812271	      0.08605182	      0.16460705	      0.36505187	      0.12325262	      0.40431635	      0.27174064	      0.24777235	      0.32168206	      0.14853963	      0.08643672	      0.16508904	      0.36959453	      0.12526098	      0.39461124	      0.26554821	      0.24251313
      1.67450000	      0.31899488	      0.14812271	      0.08605182	      0.16460705	      0.36505187	      0.12325262	      0.40431635	      0.27174064	      0.24777235	      0.32168206	      0.14853963	      0.08643672	      0.16508904	      0.36959453	      0.12526098	      0.39461124	      0.26554821	      0.24251313
      1.68500000	      0.31899488	      0.14812271	      0.08605182	      0.16460705	      0.36505187	      0.12325262	      0.40431635	      0.27174064	      0.24777235	      0.32168206	      0.14853963	      0.08643672	      0.16508904	      0.36959453	      0.12526098	      0.39461124	      0.26554821	      0.24251313
      1.69550000	      0.31899488	      0.14812271	      0.08605182	      0.16460705	      0.36505187	      0.12325262	      0.40431635	      0.27174064	      0.24777235	      0.32168206	      0.14853963	      0.08643672	      0.16508904	      0.36959453	      0.12526098	      0.39461124	      0.26554821	      0.24251313
      1.70600000	      0.31899488	      0.14812271	      0.08605182	      0.16460705	      0.36505187	      0.12325262	      0.40431635	      0.27174064	      0.24777235	      0.32168206	      0.14853963	      0.08643672	      0.16508904	      0.36959453	      0.12526098	      0.39461124	      0.26554821	      0.24251313
      1.71650000	      0.31899488	      0.14812271	      0.08605182	      0.16460705	      0.36505187	      0.12325262	      0.40431635	      0.27174064	      0.24777235	      0.32168206	      0.14853963	      0.08643672	      0.16508904	      0.36959453	      0.12526098	      0.39461124	      0.26554821	      0.24251313
      1.72700000	      0.31899488	      0.14812271	      0.08605182	      0.16460705	      0.36505187	      0.12325262	      0.40431635	      0.27174064	      0.24777235	      0.32168206	      0.14853963	      0.08643672	      0.16508904	      0.36959453	      0.12526098	      0.39461124	      0.26554821	      0.24251313
      1.73750000	      0.31899488	      0.14812271	      0.08605182	      0.16460705	      0.36505187	      0.12325262	      0.40431635	      0.27174064	      0.24777235	      0.32168206	      0.14853963	      0.08643672	      0.16508904	      0.36959453	      0.12526098	      0.39461124	      0.26554821	      0.24251313
      1.74800000	      0.31899488	      0.14812271	      0.08605182	      0.16460705	      0.36505187	      0.12325262	      0.40431635	      0.27174064	      0.24777235	      0.32168206	      0.14853963	      0.08643672	      0.16508904	      0.36959453	      0.12526098	      0.39461124	      0.26554821	      0.24251313
      1.75850000	      0.31899488	      0.14812271	      0.08605182	      0.16460705	      0.36505187	      0.12325262	      0.40431635	      0.27174064	      0.24777235	      0.32168206	      0.14853963	      0.08643672	      0.16508904	      0.36959453	      0.12526098	      0.39461124	      0.26554821	      0.24251313
      1.76900000	      0.31899488	      0.14812271	      0.08605182	      0.16460705	      0.36505187	      0.12325262	      0.40431635	      0.27174064	      0.24777235	      0.32168206	      0.14853963	      0.08643672	      0.16508904	      0.36959453	      0.12526098	      0.39461124	      0.26554821	      0.24251313
      1.77950000	      0.31899488	      0.14812271	      0.08605182	      0.16460705	      0.36505187	      0.12325262	      0.40431635	      0.27174064	      0.24777235	      0.32168206	      0.14853963	      0.08643672	      0.16508904	      0.36959453	      0.12526098	      0.39461124	      0.26554821	      0.24251313
      1.79000000	      0.31899488	      0.14812271	      0.08605182	      0.16460705	      0.36505187	      0.12325262	      0.40431635	      0.27174064	      0.24777235	      0.32168206	      0.14853963	      0.08643672	      0.16508904	      0.36959453	      0.12526098	      0.39461124	      0.26554821	      0.24251313
      1.80050000	      0.31899488	      0.14812271	      0.08605182	      0.16460705	      0.36505187	      0.12325262	      0.40431635	      0.27174064	      0.24777235	      0.32168206	      0.14853963	      0.08643672	      0.16508904	      0.36959453	      0.12526098	      0.39461124	      0.26554821	      0.24251313
      1.81100000	      0.31899488	      0.14812271	      0.08605182	      0.16460705	      0.36505187	      0.12325262	      0.40431635	      0.27174064	      0.24777235	      0.32168206	      0.14853963	      0.08643672	      0.16508904	      0.36959453	      0.12526098	      0.39461124	      0.26554821	      0.24251313
      1.82150000	      0.31899488	      0.14812271	      0.08605182	      0.16460705	      0.36505187	      0.12325262	      0.40431635	      0.27174064	      0.24777235	      0.32168206	      0.14853963	      0.08643672	      0.16508904	      0.36959453	      0.12526098	      0.39461124	      0.26554821	      0.24251313
      1.83200000	      0.31899488	      0.14812271	      0.08605182	      0.16460705	      0.36505187	      0.12325262	      0.40431635	      0.27174064	      0.24777235	      0.32168206	      0.14853963	      0.08643672	      0.16508904	      0.36959453	      0.12526098	      0.39461124	      0.26554821	      0.24251313
      1.84250000	      0.31899488	      0.14812271	      0.08605182	      0.16460705	      0.36505187	      0.12325262	      0.40431635	      0.27174064	      0.24777235	      0.32168206	      0.14853963	      0.08643672	      0.16508904	      0.36959453	      0.12526098	      0.39461124	      0.26554821	      0.24251313
      1.85300000	      0.31899488	      0.14812271	      0.08605182	      0.16460705	      0.36505187	      0.12325262	      0.40431635	      0.27174064	      0.24777235	      0.32168206	      0.14853963	      0.08643672	      0.16508904	      0.36959453	      0.12526098	      0.39461124	      0.26554821	      0.24251313
      1.86350000	      0.31899488	      0.14812271	      0.08605182	      0.16460705	      0.36505187	      0.12325262	      0.40431635	      0.27174064	      0.24777235	      0.32168206	      0.14853963	      0.08643672	      0.16508904	      0.36959453	      0.12526098	      0.39461124	      0.26554821	      0.24251313
      1.87400000	      0.31899488	      0.14812271	      0.08605182	      0.16460705	      0.36505187	      0.12325262	      0.40431635	      0.27174064	      0.24777235	      0.32168206	      0.14853963	      0.08643672	      0.16508904	      0.36959453	      0.12526098	      0.39461124	      0.26554821	      0.24251313
      1.88450000	      0.31899488	      0.14812271	      0.08605182	      0.16460705	      0.36505187	      0.12325262	      0.40431635	      0.27174064	      0.24777235	      0.32168206	      0.14853963	      0.08643672	      0.16508904	      0.36959453	      0.12526098	      0.39461124	      0.26554821	      0.24251313
      1.89500000	      0.31899488	      0.14812271	      0.08605182	      0.16460705	      0.36505187	      0.12325262	      0.40431635	      0.27174064	      0.24777235	      0.32168206	      0.14853963	      0.08643672	      0.16508904	      0.36959453	      0.12526098	      0.39461124	      0.26554821	      0.24251313
      1.90550000	      0.31899488	      0.14812271	      0.08605182	      0.16460705	      0.36505187	      0.12325262	      0.40431635	      0.27174064	      0.24777235	      0.32168206	      0.14853963	      0.08643672	      0.16508904	      0.36959453	      0.12526098	      0.39461124	      0.26554821	      0.24251313
      1.91600000	      0.31899488	      0.14812271	      0.08605182	      0.16460705	      0.36505187	      0.12325262	      0.40431635	      0.27174064	      0.24777235	      0.32168206	      0.14853963	      0.08643672	      0.16508904	      0.36959453	      0.12526098	      0.39461124	      0.26554821	      0.24251313
      1.92650000	      0.31899488	      0.14812271	      0.08605182	      0.16460705	      0.36505187	      0.12325262	      0.40431635	      0.27174064	      0.24777235	      0.32168206	      0.14853963	      0.08643672	      0.16508904	      0.36959453	      0.12526098	      0.39461124	      0.26554821	      0.24251313
      1.93700000	      0.31899488	      0.14812271	      0.08605182	      0.16460705	      0.36505187	      0.12325262	      0.40431635	      0.27174064	      0.24777235	      0.32168206	      0.14853963	      0.08643672	      0.16508904	      0.36959453	      0.12526098	      0.39461124	      0.26554821	      0.24251313
      1.94750000	      0.31899488	      0.14812271	      0.08605182	      0.16460705	      0.36505187	      0.12325262	      0.40431635	      0.27174064	      0.24777235	      0.32168206	      0.14853963	      0.08643672	      0.16508904	      0.36959453	      0.12526098	      0.39461124	      0.26554821	      0.24251313
      1.95800000	      0.31899488	      0.14812271	      0.08605182	      0.16460705	      0.36505187	      0.12325262	      0.40431635	      0.27174064	      0.24777235	      0.32168206	      0.14853963	      0.08643672	      0.16508904	      0.36959453	      0.12526098	      0.39461124	      0.26554821	      0.24251313
      1.96850000	      0.31899488	      0.14812271	      0.08605182	      0.16460705	      0.36505187	      0.12325262	      0.40431635	      0.27174064	      0.24777235	      0.32168206	      0.14853963	      0.08643672	      0.16508904	      0.36959453	      0.12526098	      0.39461124	      0.26554821	      0.24251313
      1.97900000	      0.31899488	      0.14812271	      0.08605182	      0.16460705	      0.36505187	      0.12325262	      0.40431635	      0.27174064	      0.24777235	      0.32168206	      0.14853963	      0.08643672	      0.16508904	      0.36959453	      0.12526098	      0.39461124	      0.26554821	      0.24251313
      1.98950000	      0.31899488	      0.14812271	      0.08605182	      0.16460705	      0.36505187	      0.12325262	      0.40431635	      0.27174064	      0.24777235	      0.32168206	      0.14853963	      0.08643672	      0.16508904	      0.36959453	      0.12526098	      0.39461124	      0.26554821	      0.24251313
