Length
version=1
nRows=98
nColumns=19
inDegrees=no

This analysis gathers basic information about muscles during a simulation (e.g., forces, tendon lengths, moment arms, etc).
Units are S.I. units (second, meters, Newtons, ...)
If the header above contains a line with 'inDegrees', this indicates whether rotational values are in degrees (yes) or radians (no).

endheader
time	hamstrings_r	bifemsh_r	glut_max_r	iliopsoas_r	rect_fem_r	vasti_r	gastroc_r	soleus_r	dorsiflexors_r	hamstrings_l	bifemsh_l	glut_max_l	iliopsoas_l	rect_fem_l	vasti_l	gastroc_l	soleus_l	dorsiflexors_l
      0.97100000	      0.36982330	      0.20543696	      0.22596344	      0.28347926	      0.41543079	      0.16915310	      0.38285375	      0.25955781	      0.24648514	      0.43356608	      0.21189635	      0.26594357	      0.26570887	      0.38683952	      0.16467170	      0.36286408	      0.24088134	      0.25098931
      0.98150000	      0.36879125	      0.20443302	      0.22614756	      0.28340721	      0.41657293	      0.17022612	      0.38201456	      0.25908854	      0.24671335	      0.43265546	      0.21150726	      0.26568963	      0.26585598	      0.38766686	      0.16517758	      0.36262983	      0.24091375	      0.25096132
      0.99200000	      0.36760270	      0.20310489	      0.22652699	      0.28325832	      0.41797427	      0.17159080	      0.38096721	      0.25845756	      0.24704728	      0.43151176	      0.21105577	      0.26533569	      0.26606040	      0.38867479	      0.16575707	      0.36249776	      0.24107154	      0.25082518
      1.00250000	      0.36638610	      0.20149045	      0.22715873	      0.28300917	      0.41952464	      0.17317108	      0.37980815	      0.25769908	      0.24748576	      0.43026904	      0.21059708	      0.26492036	      0.26629929	      0.38974117	      0.16633777	      0.36234663	      0.24120112	      0.25071352
      1.01300000	      0.36518668	      0.19960182	      0.22805248	      0.28265401	      0.42115323	      0.17491376	      0.37865210	      0.25687388	      0.24800317	      0.42895862	      0.21016044	      0.26443867	      0.26657507	      0.39082777	      0.16688322	      0.36226501	      0.24137114	      0.25056719
      1.02350000	      0.36404289	      0.19745536	      0.22920530	      0.28219121	      0.42278532	      0.17676053	      0.37749252	      0.25593030	      0.24863899	      0.42757923	      0.20975842	      0.26387885	      0.26689383	      0.39192744	      0.16737914	      0.36232680	      0.24164809	      0.25032932
      1.03400000	      0.36300579	      0.19507693	      0.23061402	      0.28161840	      0.42435303	      0.17866105	      0.37655336	      0.25504242	      0.24927365	      0.42615406	      0.20940467	      0.26324427	      0.26725290	      0.39301722	      0.16781056	      0.36250146	      0.24199871	      0.25002907
      1.04450000	      0.36214036	      0.19252048	      0.23226068	      0.28093851	      0.42578323	      0.18055712	      0.37576146	      0.25411244	      0.24996997	      0.42471517	      0.20911868	      0.26253918	      0.26764906	      0.39406563	      0.16815592	      0.36273566	      0.24236563	      0.24971607
      1.05500000	      0.36147509	      0.18982006	      0.23411817	      0.28015792	      0.42703560	      0.18241685	      0.37524066	      0.25324477	      0.25064391	      0.42328837	      0.20890652	      0.26177519	      0.26807501	      0.39505332	      0.16841014	      0.36305742	      0.24277622	      0.24936739
      1.06550000	      0.36104140	      0.18702356	      0.23615297	      0.27928582	      0.42806872	      0.18420401	      0.37473099	      0.25266899	      0.25110209	      0.42189139	      0.20876783	      0.26096406	      0.26852349	      0.39596973	      0.16857540	      0.36346745	      0.24323389	      0.24898089
      1.07600000	      0.36090488	      0.18422915	      0.23832306	      0.27833565	      0.42882493	      0.18586209	      0.37463374	      0.25200204	      0.25164223	      0.42052691	      0.20870389	      0.26010605	      0.26899374	      0.39681216	      0.16865136	      0.36392471	      0.24370044	      0.24858949
      1.08650000	      0.36106472	      0.18147701	      0.24059042	      0.27732009	      0.42930030	      0.18738083	      0.37484069	      0.25153947	      0.25202209	      0.41919140	      0.20871693	      0.25919614	      0.26948779	      0.39758049	      0.16863588	      0.36443514	      0.24418109	      0.24818930
      1.09700000	      0.36154531	      0.17883242	      0.24292325	      0.27625017	      0.42948180	      0.18874135	      0.37541023	      0.25136917	      0.25216292	      0.41788515	      0.20880141	      0.25823838	      0.27000272	      0.39827650	      0.16853546	      0.36498722	      0.24466714	      0.24778811
      1.10750000	      0.36239835	      0.17639801	      0.24529058	      0.27513766	      0.42934799	      0.18991363	      0.37591202	      0.25111735	      0.25237207	      0.41661114	      0.20895076	      0.25723946	      0.27053426	      0.39890085	      0.16835728	      0.36555921	      0.24513989	      0.24740164
      1.11800000	      0.36359558	      0.17421767	      0.24765200	      0.27400021	      0.42892612	      0.19090222	      0.37645922	      0.25093017	      0.25252821	      0.41536468	      0.20916022	      0.25619921	      0.27108187	      0.39945737	      0.16810595	      0.36614789	      0.24559683	      0.24703196
      1.12850000	      0.36509439	      0.17232372	      0.24996882	      0.27285648	      0.42825261	      0.19171601	      0.37713128	      0.25091808	      0.25253830	      0.41413924	      0.20942448	      0.25511655	      0.27164548	      0.39995103	      0.16778652	      0.36675255	      0.24603771	      0.24667926
      1.13900000	      0.36686988	      0.17075541	      0.25221302	      0.27172157	      0.42735634	      0.19235906	      0.37781162	      0.25100041	      0.25246955	      0.41292703	      0.20973476	      0.25399255	      0.27222385	      0.40038976	      0.16740814	      0.36736802	      0.24645954	      0.24634581
      1.14950000	      0.36889502	      0.16954564	      0.25436021	      0.27061005	      0.42626814	      0.19283625	      0.37840386	      0.25111227	      0.25237630	      0.41172081	      0.21008251	      0.25282849	      0.27281569	      0.40078124	      0.16697981	      0.36798345	      0.24685400	      0.24603785
      1.16000000	      0.37112730	      0.16870607	      0.25638784	      0.26953675	      0.42502609	      0.19315779	      0.37889986	      0.25126457	      0.25224966	      0.41051438	      0.21046008	      0.25162563	      0.27341972	      0.40113221	      0.16650967	      0.36860814	      0.24723164	      0.24574680
      1.17050000	      0.37352664	      0.16824184	      0.25827707	      0.26851548	      0.42366582	      0.19333220	      0.37929126	      0.25146123	      0.25208673	      0.40930343	      0.21085950	      0.25038696	      0.27403387	      0.40144905	      0.16600653	      0.36923742	      0.24759040	      0.24547401
      1.18100000	      0.37606160	      0.16815274	      0.26001544	      0.26755725	      0.42221629	      0.19336540	      0.37954649	      0.25167657	      0.25190909	      0.40808882	      0.21127429	      0.24911793	      0.27465489	      0.40173481	      0.16547760	      0.36986807	      0.24792924	      0.24521993
      1.19150000	      0.37870783	      0.16843619	      0.26159366	      0.26667164	      0.42070008	      0.19325948	      0.37964338	      0.25188857	      0.25173503	      0.40687250	      0.21169763	      0.24782547	      0.27527904	      0.40199284	      0.16493083	      0.37051115	      0.24826128	      0.24497453
      1.20200000	      0.38144865	      0.16908385	      0.26300789	      0.26586518	      0.41913200	      0.19301409	      0.37958116	      0.25208954	      0.25157083	      0.40565508	      0.21212235	      0.24651619	      0.27590285	      0.40222800	      0.16437500	      0.37116078	      0.24858469	      0.24473915
      1.21250000	      0.38427415	      0.17008530	      0.26425716	      0.26514256	      0.41751948	      0.19262541	      0.37936446	      0.25227218	      0.25142232	      0.40443863	      0.21254177	      0.24519774	      0.27652259	      0.40244465	      0.16381851	      0.37181213	      0.24889908	      0.24451400
      1.22300000	      0.38718191	      0.17142727	      0.26534456	      0.26450566	      0.41586174	      0.19208697	      0.37900043	      0.25242689	      0.25129706	      0.40323307	      0.21295173	      0.24388149	      0.27713296	      0.40264133	      0.16326602	      0.37247320	      0.24921498	      0.24429163
      1.23350000	      0.39017263	      0.17309444	      0.26627438	      0.26395520	      0.41415232	      0.19138980	      0.37850183	      0.25254573	      0.25120119	      0.40204831	      0.21334820	      0.24257926	      0.27772879	      0.40281702	      0.16272193	      0.37314279	      0.24953478	      0.24407071
      1.24400000	      0.39325000	      0.17506711	      0.26705389	      0.26348953	      0.41237866	      0.19052377	      0.37789054	      0.25262557	      0.25113695	      0.40088663	      0.21372483	      0.24130003	      0.27830643	      0.40297725	      0.16219461	      0.37380638	      0.24985090	      0.24385674
      1.25450000	      0.39641630	      0.17732156	      0.26769088	      0.26310617	      0.41052468	      0.18947762	      0.37719265	      0.25266408	      0.25110603	      0.39974947	      0.21407603	      0.24005185	      0.27886284	      0.40312830	      0.16169229	      0.37446694	      0.25017229	      0.24364395
      1.26500000	      0.39967107	      0.17982704	      0.26819528	      0.26280078	      0.40857115	      0.18824060	      0.37643915	      0.25266018	      0.25110915	      0.39864415	      0.21440098	      0.23884257	      0.27939524	      0.40327018	      0.16121721	      0.37513257	      0.25050912	      0.24342641
      1.27550000	      0.40300723	      0.18254715	      0.26857667	      0.26256881	      0.40649977	      0.18680318	      0.37566347	      0.25261319	      0.25114691	      0.39757545	      0.21469814	      0.23767915	      0.27990133	      0.40340530	      0.16077317	      0.37578515	      0.25084802	      0.24321351
      1.28600000	      0.40640551	      0.18543627	      0.26884383	      0.26240578	      0.40429840	      0.18516076	      0.37490270	      0.25252439	      0.25121838	      0.39653328	      0.21495668	      0.23656733	      0.28037946	      0.40355257	      0.16037863	      0.37640700	      0.25118488	      0.24300823
      1.29650000	      0.40983981	      0.18844281	      0.26900695	      0.26230601	      0.40195925	      0.18331377	      0.37419362	      0.25239581	      0.25132218	      0.39550665	      0.21516878	      0.23550911	      0.28082960	      0.40372905	      0.16004885	      0.37699559	      0.25152775	      0.24280615
      1.30700000	      0.41328042	      0.19150642	      0.26908229	      0.26225987	      0.39947897	      0.18127181	      0.37393935	      0.25223186	      0.25145504	      0.39449260	      0.21534522	      0.23449162	      0.28125793	      0.40392765	      0.15977001	      0.37756914	      0.25188591	      0.24260292
      1.31750000	      0.41668589	      0.19456366	      0.26908422	      0.26225869	      0.39686709	      0.17905319	      0.37345610	      0.25203688	      0.25161378	      0.39348021	      0.21548848	      0.23350446	      0.28166934	      0.40415257	      0.15954048	      0.37810903	      0.25224180	      0.24240941
      1.32800000	      0.41998545	      0.19754409	      0.26901752	      0.26229954	      0.39415749	      0.17668679	      0.37320751	      0.25181617	      0.25179438	      0.39241957	      0.21554487	      0.23257033	      0.28205494	      0.40448831	      0.15944932	      0.37853632	      0.25257804	      0.24223479
      1.33850000	      0.42311397	      0.20038048	      0.26889265	      0.26237593	      0.39138780	      0.17420911	      0.37320395	      0.25157868	      0.25198974	      0.39128705	      0.21548755	      0.23170262	      0.28240991	      0.40497789	      0.15954197	      0.37885772	      0.25292918	      0.24206141
      1.34900000	      0.42604756	      0.20301596	      0.26874240	      0.26246773	      0.38859653	      0.17168005	      0.37343620	      0.25133529	      0.25219099	      0.39020550	      0.21546809	      0.23082554	      0.28276561	      0.40539692	      0.15957332	      0.37920324	      0.25326452	      0.24190487
      1.35950000	      0.42876655	      0.20540263	      0.26859930	      0.26255502	      0.38585711	      0.16919042	      0.37387200	      0.25109481	      0.25239084	      0.38928533	      0.21562205	      0.22987003	      0.28314962	      0.40554334	      0.15932381	      0.37969281	      0.25355940	      0.24177490
      1.37000000	      0.43120603	      0.20749648	      0.26846798	      0.26263502	      0.38327034	      0.16682741	      0.37445532	      0.25086386	      0.25258365	      0.38843290	      0.21584540	      0.22887916	      0.28354402	      0.40557002	      0.15895551	      0.38025738	      0.25384865	      0.24165471
      1.38050000	      0.43330310	      0.20926814	      0.26834537	      0.26270960	      0.38095440	      0.16469570	      0.37512074	      0.25065441	      0.25275921	      0.38752871	      0.21601179	      0.22790356	      0.28392858	      0.40567372	      0.15867604	      0.38071411	      0.25409282	      0.24155911
      1.39100000	      0.43504153	      0.21070880	      0.26824230	      0.26277224	      0.37898332	      0.16287891	      0.37580125	      0.25047911	      0.25290664	      0.38654961	      0.21610074	      0.22694944	      0.28430111	      0.40589218	      0.15852479	      0.38102272	      0.25428044	      0.24148943
      1.40150000	      0.43642212	      0.21181929	      0.26817196	      0.26281494	      0.37739277	      0.16142567	      0.37642455	      0.25034233	      0.25302198	      0.38549812	      0.21611354	      0.22601814	      0.28466138	      0.40622558	      0.15850291	      0.38121258	      0.25443956	      0.24143297
      1.41200000	      0.43744213	      0.21260928	      0.26813628	      0.26283659	      0.37620528	      0.16035746	      0.37691350	      0.25023191	      0.25311527	      0.38437887	      0.21604961	      0.22511482	      0.28500768	      0.40667367	      0.15861190	      0.38124711	      0.25453808	      0.24139925
      1.42250000	      0.43810358	      0.21309327	      0.26813330	      0.26283840	      0.37543542	      0.15968326	      0.37722202	      0.25014765	      0.25318657	      0.38319953	      0.21590596	      0.22425006	      0.28533635	      0.40723623	      0.15885431	      0.38110676	      0.25455963	      0.24139200
      1.43300000	      0.43843603	      0.21330785	      0.26815567	      0.26282482	      0.37506208	      0.15937853	      0.37738085	      0.25012469	      0.25320602	      0.38198328	      0.21568005	      0.22344769	      0.28563883	      0.40790556	      0.15922891	      0.38078964	      0.25450097	      0.24141184
      1.44350000	      0.43846553	      0.21328274	      0.26819629	      0.26280017	      0.37505878	      0.15941439	      0.37739341	      0.25015702	      0.25317864	      0.38074766	      0.21536767	      0.22272880	      0.28590784	      0.40867615	      0.15973424	      0.38028427	      0.25434925	      0.24146471
      1.45400000	      0.43819323	      0.21301841	      0.26825520	      0.26276440	      0.37542319	      0.15978870	      0.37715153	      0.25014046	      0.25319266	      0.37947751	      0.21495908	      0.22209167	      0.28614468	      0.40955732	      0.16037494	      0.37956689	      0.25408281	      0.24156292
      1.46450000	      0.43763096	      0.21252080	      0.26833197	      0.26271775	      0.37613108	      0.16047894	      0.37666905	      0.25006728	      0.25325467	      0.37815635	      0.21444231	      0.22153525	      0.28635032	      0.41055888	      0.16115603	      0.37863247	      0.25369524	      0.24171753
      1.47500000	      0.43689087	      0.21187248	      0.26842209	      0.26266294	      0.37703821	      0.16135480	      0.37630245	      0.25018966	      0.25315101	      0.37680870	      0.21380774	      0.22109231	      0.28651323	      0.41167435	      0.16207699	      0.37747933	      0.25317671	      0.24194498
      1.48550000	      0.43605371	      0.21114904	      0.26850906	      0.26261000	      0.37803762	      0.16230856	      0.37605563	      0.25044230	      0.25293766	      0.37545829	      0.21304345	      0.22079745	      0.28662129	      0.41290137	      0.16314107	      0.37610526	      0.25251463	      0.24226709
      1.49600000	      0.43494409	      0.21028064	      0.26853922	      0.26259163	      0.37928691	      0.16342669	      0.37532277	      0.25028312	      0.25307199	      0.37408511	      0.21213177	      0.22065078	      0.28667493	      0.41426009	      0.16436259	      0.37450020	      0.25168850	      0.24271391
      1.50650000	      0.43343165	      0.20921668	      0.26846856	      0.26263466	      0.38089275	      0.16475923	      0.37458613	      0.25017360	      0.25316460	      0.37267140	      0.21105261	      0.22065542	      0.28667323	      0.41577516	      0.16576109	      0.37268178	      0.25069876	      0.24330651
      1.51700000	      0.43175997	      0.20810208	      0.26832715	      0.26272068	      0.38260044	      0.16611169	      0.37458803	      0.25072173	      0.25270271	      0.37124092	      0.20979893	      0.22083538	      0.28660741	      0.41743629	      0.16732944	      0.37071540	      0.24957709	      0.24404182
      1.52750000	      0.43016767	      0.20704693	      0.26817609	      0.26281243	      0.38418985	      0.16734965	      0.37432928	      0.25093082	      0.25252766	      0.36983182	      0.20836326	      0.22122691	      0.28646380	      0.41921985	      0.16905329	      0.36860861	      0.24829981	      0.24494630
      1.53800000	      0.42857770	      0.20601181	      0.26800046	      0.26291892	      0.38573312	      0.16852135	      0.37359542	      0.25062398	      0.25278477	      0.36845714	      0.20672781	      0.22185245	      0.28623323	      0.42110388	      0.17091831	      0.36640948	      0.24688357	      0.24601492
      1.54850000	      0.42687224	      0.20500600	      0.26771974	      0.26308873	      0.38730644	      0.16961829	      0.37351057	      0.25087595	      0.25257354	      0.36711372	      0.20488970	      0.22269897	      0.28591896	      0.42304586	      0.17288581	      0.36418781	      0.24535766	      0.24722496
      1.55900000	      0.42507637	      0.20407831	      0.26731243	      0.26333424	      0.38887775	      0.17059652	      0.37388937	      0.25150520	      0.25205039	      0.36582717	      0.20285592	      0.22376695	      0.28551876	      0.42499811	      0.17492328	      0.36208478	      0.24382007	      0.24848958
      1.56950000	      0.42324936	      0.20323620	      0.26681151	      0.26363474	      0.39041008	      0.17145854	      0.37395484	      0.25178001	      0.25182406	      0.36463978	      0.20062858	      0.22507541	      0.28502273	      0.42690487	      0.17699978	      0.36012087	      0.24225975	      0.24980627
      1.58000000	      0.42144512	      0.20250540	      0.26623237	      0.26398018	      0.39186342	      0.17218745	      0.37391368	      0.25190220	      0.25172387	      0.36356888	      0.19822313	      0.22660457	      0.28443491	      0.42870461	      0.17906819	      0.35836614	      0.24071615	      0.25113206
      1.59050000	      0.41970439	      0.20192462	      0.26557235	      0.26437131	      0.39320298	      0.17275436	      0.37420865	      0.25229797	      0.25140139	      0.36265180	      0.19568691	      0.22832118	      0.28376441	      0.43034002	      0.18107895	      0.35688094	      0.23922873	      0.25242452
      1.60100000	      0.41799285	      0.20149182	      0.26481203	      0.26481849	      0.39445646	      0.17316978	      0.37466853	      0.25281430	      0.25098570	      0.36192273	      0.19304424	      0.23021524	      0.28301130	      0.43178409	      0.18301664	      0.35583113	      0.23795412	      0.25353988
      1.61150000	      0.41627058	      0.20119553	      0.26393459	      0.26533007	      0.39565508	      0.17345073	      0.37499980	      0.25317959	      0.25069536	      0.36140776	      0.19032233	      0.23226881	      0.28217863	      0.43301392	      0.18486687	      0.35483649	      0.23695686	      0.25441587
      1.62200000	      0.41458618	      0.20104529	      0.26296303	      0.26589095	      0.39676425	      0.17359211	      0.37532370	      0.25351250	      0.25043371	      0.36117755	      0.18761285	      0.23444778	      0.28127629	      0.43397228	      0.18657702	      0.35433264	      0.23594944	      0.25530273
      1.63250000	      0.41299366	      0.20105330	      0.26192176	      0.26648563	      0.39774482	      0.17358459	      0.37574538	      0.25391359	      0.25012251	      0.36126456	      0.18496912	      0.23672837	      0.28031054	      0.43464070	      0.18813058	      0.35426747	      0.23528199	      0.25589098
      1.64300000	      0.41145312	      0.20120078	      0.26079787	      0.26712007	      0.39862535	      0.17344577	      0.37618111	      0.25430555	      0.24982300	      0.36167428	      0.18243586	      0.23907810	      0.27929205	      0.43501866	      0.18952108	      0.35465555	      0.23499712	      0.25614216
      1.65350000	      0.40991679	      0.20146505	      0.25957547	      0.26780147	      0.39943814	      0.17319528	      0.37660769	      0.25466771	      0.24955065	      0.36242128	      0.18008338	      0.24145794	      0.27823553	      0.43510221	      0.19073220	      0.35509865	      0.23473955	      0.25636930
      1.66400000	      0.40840262	      0.20183393	      0.25827321	      0.26851758	      0.40017120	      0.17284190	      0.37701691	      0.25499103	      0.24931134	      0.36350379	      0.17796223	      0.24383816	      0.27715291	      0.43490285	      0.19176192	      0.35570099	      0.23464879	      0.25644934
      1.67450000	      0.40693347	      0.20229589	      0.25691285	      0.26925502	      0.40081034	      0.17239321	      0.37744058	      0.25530367	      0.24908361	      0.36491348	      0.17611850	      0.24619174	      0.27605614	      0.43443798	      0.19261148	      0.35652097	      0.23481948	      0.25629881
      1.68500000	      0.40549593	      0.20283029	      0.25549967	      0.27000976	      0.40136721	      0.17186556	      0.37787907	      0.25560546	      0.24886743	      0.36661953	      0.17458704	      0.24848592	      0.27496115	      0.43373672	      0.19328631	      0.35744105	      0.23516774	      0.25599171
      1.69550000	      0.40407517	      0.20341548	      0.25403912	      0.27077789	      0.40185580	      0.17127702	      0.37830364	      0.25586970	      0.24868126	      0.36858316	      0.17339459	      0.25068926	      0.27388472	      0.43283253	      0.19379286	      0.35836717	      0.23562807	      0.25558591
      1.70600000	      0.40267821	      0.20403689	      0.25254625	      0.27155073	      0.40227625	      0.17063948	      0.37872687	      0.25610840	      0.24851571	      0.37077160	      0.17256218	      0.25277851	      0.27284094	      0.43175600	      0.19413680	      0.35927708	      0.23620101	      0.25508113
      1.71650000	      0.40131483	      0.20468097	      0.25103799	      0.27231916	      0.40262850	      0.16996455	      0.37916660	      0.25633918	      0.24835816	      0.37315718	      0.17210750	      0.25473485	      0.27184265	      0.43053417	      0.19432132	      0.36014563	      0.23687904	      0.25448432
      1.72700000	      0.39998248	      0.20533344	      0.24952415	      0.27307817	      0.40292119	      0.16926548	      0.37961325	      0.25655519	      0.24821301	      0.37571228	      0.17203895	      0.25654301	      0.27090155	      0.42919200	      0.19434894	      0.36093063	      0.23762936	      0.25382488
      1.73750000	      0.39867840	      0.20598125	      0.24801405	      0.27382331	      0.40316383	      0.16855526	      0.38005844	      0.25675180	      0.24808293	      0.37841493	      0.17236103	      0.25819103	      0.27002804	      0.42774881	      0.19421872	      0.36160031	      0.23842282	      0.25312908
      1.74800000	      0.39740920	      0.20661689	      0.24651944	      0.27454925	      0.40335919	      0.16784176	      0.38051495	      0.25694362	      0.24795795	      0.38125280	      0.17307422	      0.25967278	      0.26922958	      0.42621522	      0.19392617	      0.36214056	      0.23924076	      0.25241402
      1.75850000	      0.39618343	      0.20723327	      0.24505378	      0.27525018	      0.40351106	      0.16713413	      0.38097185	      0.25712369	      0.24784244	      0.38422036	      0.17417679	      0.26098471	      0.26851212	      0.42459409	      0.19346243	      0.36254291	      0.24006391	      0.25169734
      1.76900000	      0.39500577	      0.20782455	      0.24362730	      0.27592216	      0.40362585	      0.16644140	      0.38143185	      0.25729818	      0.24773223	      0.38731624	      0.17565956	      0.26212748	      0.26787902	      0.42288098	      0.19281660	      0.36280536	      0.24087131	      0.25099797
      1.77950000	      0.39387893	      0.20838534	      0.24224883	      0.27656214	      0.40371104	      0.16577225	      0.38189955	      0.25747551	      0.24762202	      0.39054108	      0.17750820	      0.26310360	      0.26733217	      0.42106514	      0.19197497	      0.36293469	      0.24164415	      0.25033269
      1.79000000	      0.39280454	      0.20891094	      0.24092624	      0.27716765	      0.40377424	      0.16513466	      0.38236598	      0.25765174	      0.24751435	      0.39389613	      0.17969861	      0.26392002	      0.26687045	      0.41912949	      0.19092328	      0.36294989	      0.24236828	      0.24971381
      1.80050000	      0.39178375	      0.20939793	      0.23966613	      0.27773694	      0.40382234	      0.16453507	      0.38283122	      0.25783128	      0.24740662	      0.39737821	      0.18219881	      0.26458456	      0.26649169	      0.41705381	      0.18964653	      0.36287733	      0.24303136	      0.24915163
      1.81100000	      0.39081434	      0.20984313	      0.23847245	      0.27826946	      0.40386333	      0.16397954	      0.38330127	      0.25802424	      0.24729313	      0.40097303	      0.18496182	      0.26510735	      0.26619187	      0.41482052	      0.18813473	      0.36275387	      0.24362560	      0.24865209
      1.82150000	      0.38989142	      0.21024291	      0.23734772	      0.27876530	      0.40390646	      0.16347464	      0.38376531	      0.25822560	      0.24717730	      0.40465509	      0.18793133	      0.26549857	      0.26596642	      0.41241687	      0.18638240	      0.36261962	      0.24414486	      0.24821935
      1.83200000	      0.38900793	      0.21059420	      0.23629214	      0.27922552	      0.40396114	      0.16302619	      0.38422265	      0.25843965	      0.24705719	      0.40838362	      0.19103647	      0.26577076	      0.26580902	      0.40984051	      0.18439481	      0.36292677	      0.24458825	      0.24785298
      1.84250000	      0.38815523	      0.21089452	      0.23530395	      0.27965189	      0.40403652	      0.16263920	      0.38467928	      0.25867655	      0.24692804	      0.41210615	      0.19419989	      0.26593720	      0.26571256	      0.40710093	      0.18218744	      0.36287270	      0.24495629	      0.24755127
      1.85300000	      0.38732032	      0.21114080	      0.23437833	      0.28004742	      0.40414361	      0.16231930	      0.38512689	      0.25893346	      0.24679264	      0.41575489	      0.19733696	      0.26601119	      0.26566962	      0.40422436	      0.17978918	      0.36303471	      0.24525314	      0.24730964
      1.86350000	      0.38648945	      0.21133009	      0.23350942	      0.28041535	      0.40429311	      0.16207185	      0.38555957	      0.25920948	      0.24665282	      0.41925673	      0.20036537	      0.26600643	      0.26567238	      0.40124519	      0.17723460	      0.36343651	      0.24548477	      0.24712225
      1.87400000	      0.38564772	      0.21145954	      0.23268995	      0.28075941	      0.40449554	      0.16190181	      0.38597381	      0.25950553	      0.24650967	      0.42253531	      0.20320967	      0.26593497	      0.26571385	      0.39822272	      0.17457875	      0.36407474	      0.24565801	      0.24698278
      1.88450000	      0.38478079	      0.21152626	      0.23191272	      0.28108311	      0.40476071	      0.16181391	      0.38636162	      0.25981785	      0.24636665	      0.42552115	      0.20580724	      0.26580865	      0.26578708	      0.39526495	      0.17191971	      0.36492018	      0.24578199	      0.24688335
      1.89500000	      0.38387652	      0.21152872	      0.23117044	      0.28138991	      0.40509569	      0.16181067	      0.38671476	      0.26014085	      0.24622781	      0.42815680	      0.20811382	      0.26563685	      0.26588652	      0.39247160	      0.16934476	      0.36591881	      0.24586452	      0.24681733
      1.90550000	      0.38292290	      0.21146563	      0.23045520	      0.28168338	      0.40550664	      0.16189380	      0.38703013	      0.26047269	      0.24609526	      0.43040090	      0.21010278	      0.26542801	      0.26600715	      0.38994721	      0.16695472	      0.36700144	      0.24591452	      0.24677740
      1.91600000	      0.38190472	      0.21133618	      0.22975543	      0.28196847	      0.40599984	      0.16206386	      0.38729081	      0.26079763	      0.24597585	      0.43223447	      0.21176894	      0.26518875	      0.26614503	      0.38777421	      0.16483803	      0.36809268	      0.24593882	      0.24675802
      1.92650000	      0.38080929	      0.21114048	      0.22906013	      0.28224978	      0.40657908	      0.16231973	      0.38749002	      0.26110777	      0.24587193	      0.43365597	      0.21312056	      0.26492546	      0.26629637	      0.38598470	      0.16303561	      0.36911961	      0.24594320	      0.24675453
      1.93700000	      0.37963867	      0.21088466	      0.22836344	      0.28252970	      0.40723661	      0.16265196	      0.38763417	      0.26140267	      0.24578259	      0.43469380	      0.21418176	      0.26464879	      0.26645495	      0.38456108	      0.16153885	      0.37002568	      0.24593315	      0.24676254
      1.94750000	      0.37840003	      0.21057707	      0.22766115	      0.28280990	      0.40796061	      0.16304817	      0.38771666	      0.26166834	      0.24571032	      0.43538786	      0.21498116	      0.26437045	      0.26661402	      0.38348622	      0.16034086	      0.37076822	      0.24591137	      0.24677992
      1.95800000	      0.37711147	      0.21023174	      0.22695190	      0.28309091	      0.40873015	      0.16348883	      0.38772380	      0.26188119	      0.24565822	      0.43580037	      0.21555596	      0.26410606	      0.26676469	      0.38272945	      0.15943134	      0.37133090	      0.24588113	      0.24680406
      1.96850000	      0.37582094	      0.20987027	      0.22625178	      0.28336637	      0.40950758	      0.16394544	      0.38769946	      0.26206698	      0.24561708	      0.43600270	      0.21594121	      0.26387621	      0.26689533	      0.38224813	      0.15879515	      0.37171425	      0.24584559	      0.24683246
      1.97900000	      0.37467793	      0.20953842	      0.22563867	      0.28360603	      0.41020035	      0.16436053	      0.38764257	      0.26219904	      0.24559034	      0.43608199	      0.21617430	      0.26370707	      0.26699127	      0.38197511	      0.15839868	      0.37194079	      0.24581028	      0.24686070
      1.98950000	      0.37383457	      0.20928666	      0.22519032	      0.28378036	      0.41071379	      0.16467281	      0.38757084	      0.26226875	      0.24557707	      0.43611629	      0.21629030	      0.26361898	      0.26704116	      0.38183981	      0.15819792	      0.37204476	      0.24578194	      0.24688338
