ActiveFiberForce
version=1
nRows=98
nColumns=19
inDegrees=no

This analysis gathers basic information about muscles during a simulation (e.g., forces, tendon lengths, moment arms, etc).
Units are S.I. units (second, meters, Newtons, ...)
If the header above contains a line with 'inDegrees', this indicates whether rotational values are in degrees (yes) or radians (no).

endheader
time	hamstrings_r	bifemsh_r	glut_max_r	iliopsoas_r	rect_fem_r	vasti_r	gastroc_r	soleus_r	dorsiflexors_r	hamstrings_l	bifemsh_l	glut_max_l	iliopsoas_l	rect_fem_l	vasti_l	gastroc_l	soleus_l	dorsiflexors_l
      0.97100000	     10.33398132	     10.32266639	    138.46341560	    100.07484800	     91.23199715	     32.79778299	      4.85152264	     11.25309639	      0.73162261	    137.74073504	     16.00178419	    112.03535866	     94.16411475	      1.79969544	     15.71587179	     31.29286229	    183.00468323	      0.95952126
      0.98150000	      8.78075445	      8.95513074	    140.14973440	     99.43656964	     96.63241227	     39.70629523	      5.38984381	     12.15029875	      0.72957722	    133.32071119	     15.57269192	    111.46523746	     94.88853610	      1.94478402	     16.35112219	     33.13407982	    177.38225259	      0.94811828
      0.99200000	      7.58360318	      7.43652121	    142.41108519	     98.59506028	    101.07736977	     50.65554805	      6.07285490	     13.50841310	      0.72800945	    131.13815189	     15.18481463	    111.39029240	     95.43433336	      2.10255983	     17.01628378	     34.17137903	    172.90895442	      0.93709581
      1.00250000	      6.74798663	      5.83498256	    145.10026927	     97.60083788	    104.84897351	     67.12481959	      6.82494753	     15.38196987	      0.72830206	    130.34840344	     14.86409994	    111.55161229	     95.90971832	      2.26603746	     17.65676557	     35.79733168	    172.59051688	      0.93462001
      1.01300000	      6.14683179	      4.26662839	    147.78262791	     96.61758755	    108.10322753	     90.17547907	      7.72595852	     18.44255560	      0.73092900	    129.24444209	     14.57342512	    111.64849659	     96.49980257	      2.44857998	     18.29038941	     35.77816710	    165.87850139	      0.91981674
      1.02350000	      5.72599221	      2.89892133	    150.48887616	     95.59866509	    110.70142847	    119.49630760	      8.74735947	     23.62254426	      0.73711855	    128.10545593	     14.31484893	    111.82401924	     97.12787914	      2.65004503	     18.90308536	     34.22077824	    157.42566693	      0.90120029
      1.03400000	      5.45029645	      1.88295407	    153.07944853	     94.56776923	    112.37687699	    153.10496762	      9.71872281	     30.88712070	      0.74527850	    127.25634912	     14.11412205	    112.12377076	     97.75752574	      2.86391486	     19.44401507	     32.02571851	    150.52557759	      0.88590217
      1.04450000	      5.29107912	      1.25930972	    155.37285738	     93.56527043	    112.96072839	    187.69992312	     11.02473600	     42.78597572	      0.75891574	    126.67000157	     13.98380871	    112.55566924	     98.37437966	      3.08460534	     19.86246309	     29.48955306	    143.75787986	      0.87209465
      1.05500000	      5.20839156	      0.92691130	    157.25381250	     92.59804097	    112.60929199	    220.54932209	     11.41683505	     55.12701421	      0.76767661	    126.25136268	     13.91034694	    113.16660686	     98.93498487	      3.30987849	     20.15166755	     26.18364334	    134.42895743	      0.85505120
      1.06550000	      5.22611771	      0.75450032	    158.56927982	     91.69766959	    110.80074374	    248.70846382	     12.54776140	     65.31295023	      0.77578886	    125.83095359	     13.89720467	    113.86920701	     99.47113367	      3.53716380	     20.29284223	     22.75765029	    125.28138614	      0.84017009
      1.07600000	      5.34240002	      0.64878543	    159.22814333	     90.87391101	    107.78144790	    270.77721422	     12.76910038	     80.40869156	      0.79134879	    125.22250941	     13.95399721	    114.55205519	    100.03765793	      3.76522512	     20.26198294	     19.54007733	    116.20575555	      0.82728195
      1.08650000	      5.53660076	      0.57146570	    159.23408591	     90.09522647	    104.12913699	    287.49695156	     11.02482108	     85.21605599	      0.78831798	    124.45594143	     14.07851149	    115.24633270	    100.61655391	      3.99302648	     20.05943409	     16.48886333	    106.25625452	      0.81460959
      1.09700000	      5.86232330	      0.51793209	    158.59257265	     89.34199513	     99.39528223	    298.68802554	      9.44733813	     87.82965381	      0.78942818	    123.66077234	     14.25783566	    116.02674335	    101.15927448	      4.22046317	     19.71709159	     13.89671308	     96.63049183	      0.80406787
      1.10750000	      6.34178806	      0.48165889	    157.24901076	     88.65271185	     94.14169388	    305.36674374	      8.70759334	     95.02464956	      0.79823752	    122.80173939	     14.48956244	    116.83700012	    101.68320423	      4.44837593	     19.25640726	     11.80881355	     87.40738671	      0.79519350
      1.11800000	      6.98852112	      0.45593215	    155.17883358	     88.08242008	     89.18541105	    309.11665476	      7.68023033	     95.95521580	      0.79564303	    121.79949583	     14.77022752	    117.62079143	    102.21063085	      4.67988340	     18.70119410	     10.15692036	     78.52350249	      0.78739710
      1.12850000	      7.90669081	      0.43895686	    152.51587227	     87.60892472	     84.51847279	    310.54198706	      6.83649571	     93.28508253	      0.79003686	    120.66709259	     15.08914991	    118.39216625	    102.72876417	      4.91746337	     18.08618074	      8.88032552	     70.14009153	      0.78058986
      1.13900000	      9.34767946	      0.42928152	    149.39528712	     87.21725828	     80.14991587	    310.11875968	      6.34301266	     90.51833761	      0.78632331	    119.39840428	     15.43254091	    119.15351022	    103.22893515	      5.16450495	     17.44839207	      7.92779659	     62.58757489	      0.77505124
      1.14950000	     11.87521708	      0.42535849	    145.91609214	     86.92553603	     76.22673132	    308.37004314	      6.05416566	     87.58531798	      0.78292603	    118.02535040	     15.79245298	    119.89135525	    103.70988609	      5.42109569	     16.80985638	      7.20085389	     55.85889463	      0.77034517
      1.16000000	     16.53429072	      0.42619184	    142.18945760	     86.74841401	     72.81167743	    305.68220051	      5.85103405	     83.43309450	      0.77801566	    116.56116701	     16.15862178	    120.60374742	    104.16505126	      5.68773866	     16.18957852	      6.60743197	     49.71187182	      0.76605487
      1.17050000	     24.72331982	      0.43170494	    138.35200265	     86.67769882	     69.81279978	    302.17802036	      5.75277469	     78.77558383	      0.77309746	    115.07227725	     16.52271943	    121.30371526	    104.58062138	      5.96281624	     15.59880091	      6.12900242	     44.40633415	      0.76262106
      1.18100000	     37.51169704	      0.44213754	    134.51494194	     86.70901222	     67.15627890	    297.89559553	      5.76946761	     74.37923015	      0.76913940	    113.61914789	     16.87844237	    122.00205865	    104.94378880	      6.24175252	     15.04218128	      5.70626189	     39.71603755	      0.75950940
      1.19150000	     54.77435593	      0.45807628	    130.77603588	     86.83439403	     64.75963795	    292.79847416	      5.88288010	     70.36549214	      0.76588695	    112.18630608	     17.21722733	    122.69235079	    105.25021058	      6.52339514	     14.52529519	      5.31929511	     35.47827247	      0.75664721
      1.20200000	     74.90833190	      0.48034988	    127.21442612	     87.04070925	     62.52128583	    286.81778401	      6.08155738	     66.72912670	      0.76313443	    110.74581242	     17.53204202	    123.36169685	    105.49996449	      6.80936358	     14.05098247	      4.98000619	     31.82029715	      0.75431082
      1.21250000	     95.45430970	      0.51021414	    123.88942418	     87.31488855	     60.29139812	    279.81306341	      6.37223654	     63.63917227	      0.76104672	    109.36509153	     17.82048382	    124.03273061	    105.67957209	      7.09710297	     13.61661453	      4.66760076	     28.60492515	      0.75222289
      1.22300000	    114.13550251	      0.54930121	    120.83782021	     87.64489489	     57.87011657	    271.61878734	      6.76472295	     61.24478932	      0.75971434	    108.11672891	     18.08362713	    124.73018397	    105.77616656	      7.37480852	     13.21530536	      4.37127120	     25.69494425	      0.75028915
      1.23350000	    129.60311816	      0.59977169	    118.08306839	     88.01955233	     54.98406133	    262.03570410	      7.26974080	     59.59053623	      0.75906237	    106.89746716	     18.31628706	    125.42945278	    105.79966247	      7.64073349	     12.84952419	      4.10781654	     23.16235367	      0.74873487
      1.24400000	    141.64586123	      0.66449605	    115.63654764	     88.42605994	     51.26855519	    250.81995350	      7.90790532	     58.66746029	      0.75902193	    105.59859465	     18.51233888	    126.10850727	    105.76133544	      7.90545505	     12.52457585	      3.87626131	     21.00900585	      0.74750623
      1.25450000	    150.89926028	      0.74739555	    113.49904710	     88.85491778	     46.30407994	    237.67344705	      8.72618583	     58.49854686	      0.75960645	    104.24582460	     18.67635193	    126.76929161	    105.66443738	      8.17284059	     12.23633100	      3.65347336	     19.06052955	      0.74639013
      1.26500000	    158.40705792	      0.85398393	    111.66723267	     89.29330299	     39.70040376	    222.22168108	      9.81389717	     59.09726851	      0.76082815	    102.88189422	     18.81752004	    127.41441243	    105.51330191	      8.43437182	     11.97609452	      3.45012216	     17.34997157	      0.74557782
      1.27550000	    165.11173767	      0.99214424	    110.11704465	     89.74297440	     31.40359480	    204.09346392	     11.30645612	     60.48477635	      0.76270647	    101.33510126	     18.92389782	    128.03470197	    105.31793515	      8.70849574	     11.75556295	      3.28081422	     15.95501895	      0.74512550
      1.28600000	    171.58219474	      1.17428351	    108.82942685	     90.20232016	     22.04761232	    182.93364042	     13.32720574	     62.66244143	      0.76524827	     99.43673038	     18.97735407	    128.63527275	    105.08341874	      9.05321627	     11.59526668	      3.13806051	     14.78324183	      0.74489621
      1.29650000	    177.93341548	      1.43481574	    107.82048925	     90.64124705	     13.21118979	    158.59499533	     15.86842364	     65.62711926	      0.76845464	     97.23575264	     19.00305081	    129.12023983	    104.85391203	      9.49196253	     11.47666990	      3.00529795	     13.75208342	      0.74486636
      1.30700000	    183.84185755	      1.90871348	    107.09474037	     91.02818413	      6.85849114	    131.44432464	     16.85647886	     69.33015868	      0.77228603	     94.77644098	     19.03863088	    129.36637570	    104.68182313	      9.99253631	     11.36384226	      2.87451064	     12.85121153	      0.74507922
      1.31750000	    188.51452562	      2.92741746	    106.56377552	     91.40162663	      3.70677054	    102.75900312	     18.77436176	     73.74602266	      0.77676439	     91.70629002	     19.01013209	    129.60101182	    104.48314829	     10.65632916	     11.31911047	      2.79196467	     12.18412911	      0.74548283
      1.32800000	    191.11239442	      4.84153851	    106.17340113	     91.79104536	      2.53118484	     74.88456912	     19.43737416	     78.76246655	      0.78176994	     87.50849078	     18.78859812	    130.14792336	    104.14215404	     11.87830623	     11.47228449	      2.76677030	     11.60553713	      0.74599098
      1.33850000	    191.51795840	      7.60934183	    106.04443428	     92.09401104	      1.97063886	     50.86761037	     18.61884609	     84.14175909	      0.78704489	     83.24098653	     18.62767838	    130.37350803	    103.90846296	     13.62642651	     11.62995171	      2.72387255	     11.04959033	      0.74666927
      1.34900000	    190.02981186	     10.73135518	    106.25985803	     92.19969649	      1.60674088	     33.36537598	     16.61870990	     89.61000817	      0.79234391	     80.43301181	     18.90367951	    129.53412673	    104.05193904	     14.73954708	     11.41716999	      2.60128013	     10.69872991	      0.74725062
      1.35950000	    186.51150676	     13.60720319	    106.61067566	     92.19941544	      1.36713591	     22.73993270	     14.09534754	     94.98773021	      0.79758299	     77.89122949	     19.28593597	    128.52980338	    104.20989910	     14.76933829	     11.02284086	      2.43645181	     10.38396164	      0.74783425
      1.37000000	    180.93296992	     15.85119338	    106.90198944	     92.22007070	      1.21856659	     17.25202476	     11.70847226	    100.02496564	      0.80246284	     73.95924590	     19.37038602	    128.16761029	    104.08984708	     14.88203104	     10.84457445	      2.34336619	     10.09356869	      0.74843570
      1.38050000	    174.17119245	     17.37585025	    107.20266841	     92.21942025	      1.13526690	     14.71160108	      9.82856486	    104.28804060	      0.80640993	     69.02696352	     19.29008444	    128.00973676	    103.87103929	     15.54632802	     10.82972018	      2.32819823	      9.96114298	      0.74873868
      1.39100000	    167.10785130	     18.27021583	    107.59208107	     92.12471442	      1.09062203	     13.52407078	      8.54940147	    107.48600169	      0.80911495	     63.62169410	     19.17700133	    127.80220633	    103.65190863	     16.70505998	     10.87655644	      2.32323400	      9.83821680	      0.74901821
      1.40150000	    160.11446906	     18.67417790	    107.98269637	     91.97368612	      1.07126656	     12.96456824	      7.81326569	    109.83844319	      0.81106146	     57.78721047	     19.02480139	    127.61206696	    103.41100183	     18.45478819	     10.99083814	      2.33895321	      9.74946523	      0.74922149
      1.41200000	    153.35782841	     18.71208499	    108.30617922	     91.80993914	      1.07056827	     12.76541705	      7.50933489	    111.87553201	      0.81299151	     51.61352109	     18.83340312	    127.46200998	    103.14465066	     20.91117085	     11.17361621	      2.39598522	      9.77925318	      0.74913702
      1.42250000	    147.26758109	     18.50570431	    108.54101371	     91.65161108	      1.08368166	     12.82067917	      7.44643388	    112.79730583	      0.81327721	     45.29250774	     18.59749220	    127.46966051	    102.81697451	     24.20917125	     11.43107187	      2.48555872	      9.88265981	      0.74887222
      1.43300000	    142.13629587	     18.16362408	    108.66130429	     91.52935601	      1.10747164	     13.05676243	      7.47153793	    111.46866122	      0.81031128	     39.11688182	     18.31738120	    127.74684096	    102.39984776	     28.42031868	     11.76489135	      2.61274200	     10.07240353	      0.74840513
      1.44350000	    137.67872025	     17.69045721	    108.72400366	     91.41572240	      1.14622523	     13.49009864	      7.71344046	    110.43499704	      0.80886652	     33.17842066	     17.98014729	    128.14386932	    101.95990419	     33.63914894	     12.18794482	      2.79312864	     10.39343935	      0.74765362
      1.45400000	    133.52185146	     17.04968967	    108.76691251	     91.28404740	      1.20702123	     14.17372257	      8.36966059	    113.18160743	      0.81390113	     27.48519379	     17.56731949	    128.48108546	    101.56602340	     40.00050664	     12.72107171	      3.04061652	     10.87800215	      0.74663680
      1.46450000	    130.60421644	     16.34739828	    108.75432946	     91.16003109	      1.28587579	     15.04570503	      9.10777343	    113.68493591	      0.81362639	     22.28476017	     17.07164874	    128.98951337	    101.13588950	     47.43423039	     13.38081294	      3.36681441	     11.55888783	      0.74550942
      1.47500000	    130.21020711	     15.76502428	    108.67476368	     91.05970360	      1.36668149	     15.94863235	      9.25818443	    103.59534405	      0.79646506	     17.88966266	     16.48358497	    129.96569639	    100.57490688	     55.58214717	     14.19001473	      3.79663467	     12.53846633	      0.74455153
      1.48550000	    129.14510288	     15.12741727	    108.33677517	     91.14789440	      1.46659970	     17.01562067	      9.99690769	    102.69693860	      0.79899480	     14.31861493	     15.77888436	    131.16964050	     99.98695079	     64.11737281	     15.19665763	      4.36746986	     14.01324397	      0.74443033
      1.49600000	    124.28088678	     14.16103377	    107.61670176	     91.60281492	      1.63122394	     18.62038759	     12.40319415	    115.59198761	      0.82153561	     11.46373250	     14.92235665	    132.40137479	     99.44799830	     72.82528271	     16.49258267	      5.14427622	     16.46722415	      0.74648281
      1.50650000	    120.62973761	     13.12817880	    106.97989383	     92.16542566	      1.84678742	     20.77442055	     13.60011996	    104.06978081	      0.79710327	      9.30348990	     13.90101999	    133.85058410	     98.88599812	     81.18986420	     18.21061713	      6.18274909	     20.86705254	      0.75269254
      1.51700000	    122.36200484	     12.31285907	    106.94595152	     92.42606381	      2.05828723	     23.28999648	     12.64827426	     85.64213165	      0.77161403	      7.79219652	     12.71539296	    135.69319341	     98.23702486	     88.49527234	     20.59347346	      7.60469731	     29.41442309	      0.76536481
      1.52750000	    124.92179565	     11.49849240	    107.21293916	     92.49547916	      2.27230275	     26.42409162	     15.25391415	     98.07579389	      0.80001333	      6.77425287	     11.32527928	    137.97918269	     97.48454875	     94.56707507	     24.23526684	      9.73451145	     46.30545843	      0.78797703
      1.53800000	    124.43434400	     10.58607401	    107.00554251	     92.92604764	      2.53514367	     30.57092259	     18.49415184	    104.14320075	      0.80544345	      6.06300133	      9.72417956	    140.41297588	     96.74451607	     99.48818172	     30.26816991	     14.12749301	     75.89315526	      0.82345744
      1.54850000	    122.92918562	      9.73169816	    106.44503132	     93.75274451	      2.84792339	     35.57031136	     16.36243298	     82.40763339	      0.76826883	      5.54247184	      7.96870329	    142.82707064	     96.07014388	    103.48363265	     40.39622979	     25.86481966	    117.79453736	      0.87163375
      1.55900000	    122.10757090	      8.95258691	    106.23091643	     94.53130699	      3.20181511	     41.12625997	     14.73615804	     72.41252630	      0.76149009	      5.16765505	      6.14268243	    145.50219011	     95.32032681	    106.81083904	     56.55276216	     48.49912476	    163.24994911	      0.93062811
      1.56950000	    121.76417992	      8.24167169	    106.39363776	     95.19201821	      3.59957977	     46.99333818	     15.50360199	     74.26646743	      0.77131530	      4.88999423	      4.38908008	    148.30432980	     94.53203642	    109.50442451	     79.86164795	     77.76278643	    205.11032337	      1.00352722
      1.58000000	    122.00361910	      7.66961944	    106.69300827	     95.86432998	      4.02900636	     52.47922629	     15.15518012	     69.69828066	      0.76484373	      4.68165578	      2.91560271	    150.84615795	     93.84969472	    111.37035239	    109.38413922	    104.10380424	    236.33690034	      1.08532310
      1.59050000	    122.05029350	      7.24970124	    107.01163460	     96.61867111	      4.49883503	     56.95373832	     13.02414431	     58.03282250	      0.75004555	      4.54770077	      1.86972710	    153.19882635	     93.19767798	    112.29011289	    142.34199316	    121.70730256	    255.79532622	      1.17091905
      1.60100000	    120.83414869	      6.95011667	    107.23513692	     97.53859110	      5.07817673	     60.31256851	     11.62847363	     50.53138575	      0.74605694	      4.47087889	      1.24387237	    155.41438777	     92.50480269	    112.43966997	    175.96004299	    125.51356131	    258.88600714	      1.22842424
      1.61150000	    119.41058554	      6.77323221	    107.60970720	     98.48547821	      5.85662521	     62.42767269	     10.98530938	     46.54434311	      0.74566598	      4.46540087	      0.92663147	    157.23123889	     91.85607210	    111.32204407	    207.03408841	    131.12962290	    264.11330626	      1.29283372
      1.62200000	    119.07755487	      6.74365870	    108.37341231	     99.28682579	      6.90966860	     62.99712724	     10.02071231	     41.15433935	      0.74109338	      4.54743873	      0.76829804	    158.57998769	     91.23936230	    108.82473883	    232.89026006	    131.25289993	    268.59664459	      1.36360502
      1.63250000	    118.80063623	      6.86031519	    109.23902119	    100.07115166	      8.29867346	     62.00527396	      9.06416063	     35.70379762	      0.73717635	      4.70039298	      0.66964607	    159.43136578	     90.62649024	    105.55058062	    253.37037199	    118.01982741	    250.87866857	      1.35159485
      1.64300000	    117.41198702	      7.09504104	    109.93965063	    100.98622661	     10.10511791	     59.83419085	      8.37843588	     31.51796415	      0.73509086	      4.93573776	      0.60119850	    159.61150842	     90.08489251	    101.54433016	    268.46324725	    110.20655587	    244.29078132	      1.35078457
      1.65350000	    115.76074199	      7.44070092	    110.70993358	    101.90641216	     12.32329749	     56.72836816	      7.83403333	     28.14981246	      0.73357240	      5.27000457	      0.55340063	    159.11842534	     89.60499511	     97.04057877	    278.73295974	    106.16837745	    244.29569068	      1.36731027
      1.66400000	    114.63634977	      7.89789111	    111.75269919	    102.69699282	     14.76860247	     52.86892627	      7.38308883	     25.47865931	      0.73239975	      5.72230128	      0.52019415	    158.01545102	     89.15503039	     92.35725171	    285.21702848	     96.06466781	    229.79274153	      1.33274306
      1.67450000	    113.59131405	      8.45645069	    112.89288374	    103.41867312	     17.24612943	     48.52462508	      6.93758773	     23.06044215	      0.73119226	      6.32585720	      0.49842366	    156.29260772	     88.76747692	     87.73790266	    288.70266623	     85.90077908	    215.18327517	      1.28275578
      1.68500000	    112.24581734	      9.09120052	    114.01636164	    104.11322908	     19.67896022	     44.03707064	      6.57587423	     21.14801033	      0.73050790	      7.13644630	      0.48536329	    153.96778325	     88.48417360	     83.46235156	    289.93357848	     77.01257869	    205.32633450	      1.23613701
      1.69550000	    110.86732866	      9.78153500	    115.18431507	    104.73718169	     21.98625555	     39.64884966	      6.27981058	     19.73341100	      0.73013138	      8.31303549	      0.47957034	    151.16620269	     88.29667295	     79.56268936	    289.39811556	     68.23604875	    196.62599962	      1.18790934
      1.70600000	    109.69190884	     10.51091569	    116.44988548	    105.24828442	     24.04495921	     35.51789298	      5.98079560	     18.51497363	      0.72975229	     10.28573585	      0.48038034	    148.02248903	     88.19481437	     75.98625062	    287.39774190	     59.17331616	    187.08997288	      1.13398436
      1.71650000	    108.56921852	     11.25653578	    117.74440552	    105.66315767	     25.80480178	     31.78003423	      5.69175685	     17.44862166	      0.72947636	     14.01852233	      0.48759159	    144.65020989	     88.18300315	     72.70326427	    284.12798614	     50.73118050	    178.70233174	      1.08112773
      1.72700000	    107.33988339	     11.99339333	    119.00577879	    106.00161870	     27.29632725	     28.52346931	      5.44055388	     16.60609800	      0.72936388	     21.07542528	      0.50141599	    141.15520238	     88.26678493	     69.68092681	    279.68959835	     43.54628586	    171.92316886	      1.03313760
      1.73750000	    106.07759624	     12.70386092	    120.24645495	    106.25285386	     28.53287340	     25.76333755	      5.19826842	     15.88695285	      0.72930094	     33.04901579	      0.52271418	    137.65289172	     88.43642929	     66.82811526	    274.03824641	     37.82909241	    165.78903605	      0.98978539
      1.74800000	    104.84987022	     13.37753285	    121.48818769	    106.40429461	     29.49973076	     23.46482328	      4.96412659	     15.23893175	      0.72930044	     50.44671163	      0.55287457	    134.23471920	     88.68351226	     64.05453830	    267.03750780	     33.60986500	    159.69500896	      0.95114074
      1.75850000	    103.58963681	     14.00252408	    122.71591235	    106.46168114	     30.22920454	     21.59041522	      4.75471134	     14.70552576	      0.72936613	     71.91906672	      0.59382825	    130.97464612	     88.99933315	     61.27617462	    258.50539882	     30.83121840	    153.44297051	      0.91794080
      1.76900000	    102.22539224	     14.57236272	    123.89891079	    106.44099438	     30.76439721	     20.07982312	      4.54694648	     14.19688421	      0.72947953	     94.62360657	      0.64819451	    127.92642771	     89.37444114	     58.38188181	    248.21103493	     29.33345335	    146.77508829	      0.89031069
      1.77950000	    100.71796428	     15.08137777	    125.03553484	    106.34842216	     31.15548430	     18.87297841	      4.35234781	     13.72300107	      0.72965782	    115.51809001	      0.71964267	    125.13647855	     89.79391912	     55.18840942	    235.86602747	     28.90738979	    139.42262284	      0.86769259
      1.79000000	     99.05307029	     15.52799743	    126.12346468	    106.19220987	     31.44653181	     17.91056485	      4.17658932	     13.30019231	      0.72988928	    132.64256892	      0.81335590	    122.63364898	     90.24184485	     51.39468217	    221.11063650	     29.33348030	    131.45110277	      0.84954280
      1.80050000	     97.20585000	     15.91298118	    127.15017426	    105.98593230	     31.68063087	     17.14157765	      4.00453125	     12.87534188	      0.73020444	    145.59320408	      0.93675190	    120.42748617	     90.70934578	     46.58740958	    203.59312752	     30.37233883	    123.13611805	      0.83524052
      1.81100000	     95.14020824	     16.23625434	    128.10622653	    105.74269832	     31.91499683	     16.52892266	      3.84284186	     12.45416549	      0.73061726	    155.23758347	      1.10087363	    118.51941647	     91.18593369	     40.23197170	    183.00593016	     31.70218695	    114.89307710	      0.82417788
      1.82150000	     92.83478661	     16.49833039	    128.98596123	    105.47413931	     32.21089402	     16.04544892	      3.69958255	     12.06417678	      0.73110305	    162.93964699	      1.32950745	    116.90383205	     91.66334454	     31.92883880	    159.19031983	     32.93116650	    107.15664028	      0.81578833
      1.83200000	     90.28121892	     16.70230464	    129.78132259	    105.19250519	     32.62321852	     15.66919058	      3.56007000	     11.65964484	      0.73173251	    169.79094785	      1.71457480	    115.58168175	     92.12366723	     22.06396512	    132.45860195	     30.15191867	    100.23222375	      0.80950409
      1.84250000	     87.44245486	     16.84996526	    130.47649926	    104.91231180	     33.21604609	     15.38657448	      3.42868248	     11.24826503	      0.73251967	    176.15401599	      2.54707815	    114.52944692	     92.56351324	     12.52588439	    103.92503615	     29.57271591	     94.37676816	      0.80496946
      1.85300000	     84.27123395	     16.94191957	    131.06129869	    104.64474029	     34.06733842	     15.19033069	      3.31241220	     10.85477275	      0.73342726	    181.68096671	      4.26909089	    113.73285996	     92.97272150	      5.97748864	     75.80827528	     26.88353884	     89.62195018	      0.80174634
      1.86350000	     80.73925911	     16.98015709	    131.53481958	    104.39603241	     35.24728644	     15.07482691	      3.20699056	     10.46966447	      0.73447532	    185.68720658	      7.01863067	    113.16163480	     93.35087080	      3.13923877	     51.15621127	     22.55024001	     85.97563051	      0.79961647
      1.87400000	     76.79855739	     16.96481691	    131.89695716	    104.17076991	     36.83528800	     15.03887667	      3.11343731	     10.09699126	      0.73564616	    187.52704164	     10.33740472	    112.79028773	     93.69665238	      2.21353863	     32.91229112	     17.56100012	     83.31879342	      0.79829413
      1.88450000	     72.42731369	     16.89791637	    132.15592509	    103.96911366	     38.89659818	     15.08104206	      3.03574906	      9.75224175	      0.73686549	    186.95915659	     13.51466635	    112.58975737	     94.01130217	      1.78357589	     21.86527207	     13.01861943	     81.50478803	      0.79758768
      1.89500000	     67.60797885	     16.78153904	    132.31710331	    103.79126872	     41.48013486	     15.20080840	      2.97005547	      9.42755067	      0.73811967	    184.12123380	     16.05982001	    112.52779515	     94.30157181	      1.52483084	     16.21198370	      9.65505205	     80.40004528	      0.79735853
      1.90550000	     62.30532856	     16.61683851	    132.36026278	    103.64627867	     44.62958774	     15.39988390	      2.91996855	      9.13508536	      0.73931802	    179.54815704	     17.83667007	    112.58469913	     94.56752683	      1.37676647	     13.60677459	      7.56184890	     79.82849448	      0.79743622
      1.91600000	     56.47400243	     16.40261899	    132.25398839	    103.54567979	     48.38487033	     15.68357896	      2.89125625	      8.89246135	      0.74033750	    173.84518100	     18.93756580	    112.73030065	     94.81840621	      1.29460672	     12.32238936	      6.39242506	     79.70502690	      0.79780234
      1.92650000	     50.22762448	     16.14677776	    132.04514426	    103.46978377	     52.67316525	     16.04928968	      2.87524746	      8.67981500	      0.74122315	    167.75798145	     19.53389756	    112.98031482	     95.03534094	      1.24860469	     11.57873462	      5.74310596	     79.90272764	      0.79833159
      1.93700000	     43.75150144	     15.85920624	    131.76180839	    103.40665518	     57.31532884	     16.49097211	      2.86764856	      8.49052585	      0.74198412	    161.88515364	     19.78908675	    113.34171996	     95.19954282	      1.22280598	     11.09436035	      5.37427960	     80.34766452	      0.79900708
      1.94750000	     37.28532435	     15.55146253	    131.43425812	    103.34368510	     62.06406238	     17.00083860	      2.88550834	      8.37400638	      0.74241382	    156.70123125	     19.83088278	    113.81111219	     95.29760202	      1.21236307	     10.79793550	      5.17552933	     81.00432617	      0.79982224
      1.95800000	     31.11434235	     15.23756312	    131.07291467	    103.27649968	     66.61989064	     17.56523217	      2.90944008	      8.28369287	      0.74272606	    152.59561477	     19.75188598	    114.40715501	     95.29766259	      1.21189023	     10.64274050	      5.08684950	     81.79634605	      0.80070064
      1.96850000	     25.85304313	     14.96384938	    131.15205561	    103.03189828	     70.30079982	     18.12618647	      2.92622457	      8.20339841	      0.74298944	    149.82178219	     19.61109239	    115.14564699	     95.16275122	      1.21716038	     10.59368272	      5.07189050	     82.63629724	      0.80154021
      1.97900000	     22.17666975	     14.79245931	    132.17861867	    102.44467848	     72.22674904	     18.57442895	      2.95540014	      8.20156206	      0.74296879	    148.49830559	     19.45047588	    116.01661293	     94.86270545	      1.22354473	     10.61636353	      5.09949716	     83.36282538	      0.80214721
      1.98950000	     20.10802282	     14.76046630	    133.72956386	    101.69873263	     72.19225226	     18.80360050	      2.96680721	      8.21525349	      0.74291008	    148.23805102	     19.30358989	    116.84067547	     94.47720087	      1.22855062	     10.67734052	      5.14211574	     83.79404647	      0.80231754
