Coordinates
version=1
nRows=67
nColumns=34
inDegrees=yes

Units are S.I. units (second, meters, Newtons, ...)
If the header above contains a line with 'inDegrees', this indicates whether rotational values are in degrees (yes) or radians (no).

endheader
time	pelvis_tilt	pelvis_list	pelvis_rotation	pelvis_tx	pelvis_ty	pelvis_tz	hip_flexion_l	hip_adduction_l	hip_rotation_l	hip_flexion_r	hip_adduction_r	hip_rotation_r	knee_angle_l_beta	knee_angle_r_beta	knee_angle_l	knee_angle_r	ankle_angle_l	ankle_angle_r	subtalar_angle_l	subtalar_angle_r	mtp_angle_l	mtp_angle_r	lumbar_ext	lumbar_bend	lumbar_rota	shoulder_flexion_r	shoulder_adduction_r	shoulder_rotation_r	elbow_flexion_r	shoulder_flexion_l	shoulder_adduction_l	shoulder_rotation_l	elbow_flexion_l
      0.17000000	     10.90481262	      8.12037176	     -4.13671122	     -0.03044281	      0.83801112	     -0.22437823	      4.48592112	     13.56378198	     -3.02406394	    -18.95841868	    -14.97676463	    -12.11556906	      0.15769671	      0.80900744	     -9.03535568	    -46.35271205	     -0.49550312	    -26.31556424	      0.77618211	     14.02077842	    -18.91930706	     10.17161973	    -20.30663610	    -10.44980647	     -4.78484197	      2.76326619	     -0.29343267	     10.02874476	     28.45871526	    -14.80284777	      1.14579322	    -17.26168161	     37.35375034
      0.18000000	     10.80877223	      8.66626749	     -3.92742400	     -0.01864192	      0.83883878	     -0.22615757	      3.91460951	     14.33343861	     -2.81171180	    -17.44854917	    -16.15210630	    -12.76521528	      0.16377320	      0.85584853	     -9.38351321	    -49.03650842	      0.06138580	    -27.07146439	      0.97331745	     12.46012520	    -18.57541704	      9.49649112	    -20.10634982	    -10.90968052	     -5.42700160	      2.60177019	     -0.24750851	      9.89285462	     28.46965986	    -14.87165209	      0.92091179	    -17.38856801	     37.69067120
      0.19000000	     10.62487150	      8.88096945	     -3.65109690	     -0.00761856	      0.83962260	     -0.22786966	      3.45027992	     14.71858116	     -2.49297135	    -15.62666960	    -16.80066787	    -13.01313715	      0.17019741	      0.90662549	     -9.75159302	    -51.94581416	      0.73420069	    -26.29422027	      1.26777139	     11.00648388	    -17.72131739	      3.83497997	    -19.91378512	    -11.01134338	     -6.22267189	      2.76873967	     -0.24260576	     10.40550334	     28.07108482	    -14.93010248	      0.79418078	    -17.89920498	     38.05048677
      0.20000000	     10.43732488	      9.08386548	     -3.38878304	      0.00315678	      0.84038778	     -0.22953816	      2.93975537	     15.08438381	     -2.18418121	    -13.76892941	    -17.43045969	    -13.24144446	      0.17492393	      0.95326301	    -10.02240266	    -54.61794714	      1.34142064	    -25.03321474	      1.57059693	      9.74260452	    -17.29569529	      0.92174943	    -19.75491701	    -11.09198896	     -6.82105116	      2.80735050	     -0.26452608	     10.58141907	     27.88699532	    -14.85418902	      0.59699863	    -18.15852295	     38.39426685
      0.21000000	     10.28168713	      9.23869027	     -3.05817457	      0.01344563	      0.84124848	     -0.23137009	      2.31275179	     15.41900493	     -1.89051325	    -11.91234310	    -17.91370188	    -13.39267194	      0.17627760	      0.99497373	    -10.09996264	    -57.00779525	      2.05404279	    -23.49006606	      1.76357961	      8.49369299	    -17.03136313	      0.40366139	    -19.73397511	    -11.10350392	     -7.36909186	      2.82521482	     -0.32107983	     10.55741917	     27.83411782	    -14.62929504	      0.39471501	    -18.25291544	     38.76632313
      0.22000000	     10.09948050	      9.18122509	     -2.76296539	      0.02328668	      0.84210218	     -0.23294886	      1.70630627	     15.49567460	     -1.48206880	     -9.92302044	    -18.10468640	    -13.39549241	      0.17707254	      1.03440090	    -10.14550949	    -59.26680564	      2.71302962	    -21.32918616	      1.92907736	      7.65366783	    -16.75360813	     -0.46380546	    -19.70189221	    -10.91076928	     -7.83809294	      2.94348342	     -0.35192452	     10.71392757	     27.68664896	    -14.34097660	      0.20321510	    -18.38701146	     39.07682019
      0.23000000	     10.08725332	      8.96821280	     -2.50638821	      0.03286346	      0.84333733	     -0.23440611	      0.80112780	     15.41431081	     -0.96324900	     -8.11987604	    -18.00469968	    -13.28632427	      0.17355127	      1.06705705	     -9.94375515	    -61.13786557	      3.33545306	    -18.88540162	      2.03029805	      6.91507999	    -16.55913602	     -0.85048043	    -19.87240440	    -10.54120290	     -8.24143638	      3.09412319	     -0.43269643	     10.83155874	     27.57418471	    -13.99454313	      0.00620642	    -18.41751901	     39.35168076
      0.24000000	      9.74025116	      8.79967395	     -2.27535119	      0.04173956	      0.84388285	     -0.23586585	      0.42697017	     15.36140281	     -0.51671816	     -5.69476441	    -17.92696535	    -13.04299624	      0.17318368	      1.10453186	     -9.92269376	    -63.28501367	      3.78200679	    -15.40015428	      1.95146029	      7.06539665	    -16.21338409	     -6.46728177	    -19.73480604	    -10.23719837	     -8.94041784	      3.68144451	     -0.50822900	     12.01833329	     26.80284880	    -13.84178718	     -0.04636335	    -19.07298511	     39.97970164
      0.25000000	      9.58215721	      8.46466201	     -2.10251179	      0.05059339	      0.84483386	     -0.23714028	     -0.27347618	     15.12790164	     -0.13630265	     -3.60678562	    -17.58992719	    -12.78161668	      0.16864903	      1.12939562	     -9.66287751	    -64.70960246	      4.28842124	    -12.65006954	      1.89174611	      7.04901379	    -16.12447366	     -6.22132195	    -19.82436719	     -9.76730838	     -9.12550137	      3.85985954	     -0.61053019	     12.08091077	     26.71787238	    -13.39641456	     -0.20667952	    -19.11871195	     40.42493812
      0.26000000	      9.60075524	      8.02388128	     -1.96669996	      0.05934917	      0.84616361	     -0.23829548	     -1.26265539	     14.77498915	      0.35958114	     -1.74917992	    -17.05173010	    -12.54010606	      0.16039661	      1.14724144	     -9.19004884	    -65.73209259	      4.66359790	    -10.29616324	      1.88020575	      6.83340826	    -16.09677406	     -5.90400577	    -20.08958363	     -9.18381917	     -9.28222538	      4.07602174	     -0.71614544	     12.10436088	     26.63017614	    -12.92792746	     -0.33701633	    -19.08681747	     40.81105576
      0.27000000	      9.47633225	      7.57121180	     -1.91716090	      0.06795898	      0.84712607	     -0.23939598	     -2.01867723	     14.41523095	      0.68878993	      0.28431819	    -16.48754358	    -12.20386489	      0.15370548	      1.16132422	     -8.80667538	    -66.53897639	      5.03953442	     -7.70579217	      1.67641619	      7.22805864	    -16.08808456	     -5.57852432	    -20.18283370	     -8.60494591	     -9.29274557	      4.27547002	     -0.86926875	     12.17470980	     26.49838356	    -12.48356334	     -0.43792714	    -19.13923907	     41.35337676
      0.28000000	      9.22604827	      7.24448779	     -1.93384845	      0.07623264	      0.84773322	     -0.24046016	     -2.54774194	     14.19986415	      0.92775881	      2.51616821	    -16.05814139	    -11.72566847	      0.14847362	      1.17275514	     -8.50691181	    -67.19391993	      5.32122100	     -5.10566297	      1.28256604	      8.67825302	    -16.16756274	     -5.26502854	    -20.18195646	     -8.18373929	     -9.28939309	      4.51987475	     -0.99638659	     12.33489978	     26.34080520	    -12.02709011	     -0.47425690	    -19.35628968	     41.95754739
      0.29000000	      9.12785608	      6.83454942	     -1.92925759	      0.08469102	      0.84862034	     -0.24143443	     -3.33136078	     13.88046230	      1.16686302	      4.42874839	    -15.44435749	    -11.35191861	      0.14069981	      1.17623290	     -8.06150509	    -67.39318067	      5.59144713	     -3.05423052	      1.03763291	      9.50123981	    -16.28447857	     -4.92325914	    -20.30224579	     -7.66677375	     -9.27776011	      4.72209388	     -1.13386470	     12.39288784	     26.20929987	    -11.61891480	     -0.52740015	    -19.46991781	     42.60965415
      0.30000000	      9.07338692	      6.40209217	     -1.92909645	      0.09304568	      0.84956378	     -0.24227832	     -4.17266651	     13.51196184	      1.45037064	      6.24243230	    -14.78497314	    -11.10968386	      0.13196298	      1.17470078	     -7.56092198	    -67.30539707	      5.79237109	     -1.59629822	      1.02803397	      9.81890686	    -16.33696554	     -4.66578222	    -20.49623872	     -7.12871311	     -9.26990517	      4.91956899	     -1.23100203	     12.34603388	     26.13510478	    -11.21615839	     -0.59116359	    -19.44732435	     43.20685349
      0.31000000	      9.02928612	      5.98146058	     -2.06339925	      0.10164864	      0.85034645	     -0.24302428	     -4.97220200	     13.18832958	      1.29709820	      7.90162782	    -14.11430502	    -10.66837954	      0.12527425	      1.16640174	     -7.17768599	    -66.82989708	      6.18418933	      0.27036041	      0.80367349	     11.36264577	    -16.43136141	     -4.17650642	    -20.62777302	     -6.66902148	     -9.04612183	      5.00686954	     -1.38877045	     12.24694971	     26.12862941	    -10.85373728	     -0.55229179	    -19.68052736	     44.02532187
      0.32000000	      9.02450008	      5.63094776	     -2.10870123	      0.11025998	      0.85112704	     -0.24381736	     -5.84986759	     12.90893156	      1.22503852	      9.41694192	    -13.49691431	    -10.36579506	      0.11739709	      1.15341784	     -6.72635755	    -66.08597431	      6.47558461	      1.56360480	      0.95921632	     12.33388859	    -16.49296477	     -3.67744575	    -20.81313739	     -6.25121113	     -8.94298548	      5.06900993	     -1.50306766	     12.03827065	     26.17647986	    -10.52550652	     -0.55751373	    -19.79298314	     44.80494966
      0.33000000	      8.90092508	      5.31559316	     -2.06575172	      0.11894341	      0.85162917	     -0.24462992	     -6.59139834	     12.64701461	      1.21412860	     10.94225714	    -12.87999187	    -10.17725741	      0.11009559	      1.13575192	     -6.30801238	    -65.07379146	      6.72774291	      2.48835337	      1.03726585	     12.63599488	    -16.49300560	     -3.50479609	    -20.82984181	     -5.85883052	     -8.88041902	      5.09357686	     -1.60426722	     11.90568902	     26.12084155	    -10.21808919	     -0.61151638	    -19.73430702	     45.52413275
      0.34000000	      9.05140309	      4.87502782	     -2.11485905	      0.12776627	      0.85246036	     -0.24530416	     -7.62926676	     12.25880121	      0.78283879	     12.00579553	    -12.11446237	     -9.94311102	      0.10312349	      1.11172450	     -5.90854051	    -63.69712179	      7.24747158	      3.49676848	      1.49686283	     13.47384541	    -16.35905064	     -3.11082516	    -21.13639698	     -5.36731717	     -8.65669756	      5.04310409	     -1.75099777	     11.52825313	     26.29317247	     -9.90878879	     -0.59994150	    -19.81700127	     46.33029148
      0.35000000	      9.28606050	      4.46968129	     -2.04265972	      0.13678309	      0.85338660	     -0.24607249	     -8.81663190	     11.85762670	      0.12931841	     12.78793453	    -11.37592426	     -9.83341956	      0.09489277	      1.08162864	     -5.43695531	    -61.97275583	      7.75845026	      4.13999954	      2.65821425	     13.85727189	    -15.87942445	     -2.54262039	    -21.53396326	     -4.88960669	     -8.43100761	      4.81118834	     -1.86454536	     10.85576096	     26.64119700	     -9.53358070	     -0.61334112	    -19.72701980	     47.08247260
      0.36000000	      9.10277133	      4.50215011	     -1.94370074	      0.14549497	      0.85337278	     -0.24684326	     -9.38136342	     11.95276982	      0.05455946	     14.09696960	    -11.10763594	     -9.68179868	      0.09135665	      1.05164419	     -5.23435021	    -60.25477391	      7.97128892	      4.52871632	      2.73578988	     13.90349797	    -15.81272305	     -2.57443104	    -21.42823338	     -4.85995505	     -8.50699601	      4.76808864	     -1.89175470	     10.76691112	     26.62114239	     -9.26586417	     -0.71661707	    -19.63025389	     47.59592810
      0.37000000	      9.41221518	      3.79534371	     -1.87709484	      0.15475103	      0.85424843	     -0.24730213	    -10.71336261	     11.17713074	     -1.08318328	     14.44863721	     -9.95759121	     -9.69932678	      0.08060388	      1.00981536	     -4.61826194	    -57.85815842	      8.61967660	      5.08073801	      4.61052695	     13.87792193	    -13.81110931	     -1.55434086	    -21.87574498	     -4.10303023	     -7.71401933	      4.12857443	     -2.04535584	      9.15040228	     27.48699473	     -8.66993793	     -0.79828944	    -18.91666183	     48.15184269
      0.38000000	      9.33213871	      3.58141761	     -1.67500114	      0.16365230	      0.85415762	     -0.24809147	    -11.47881888	     10.97608280	     -1.32237281	     15.29466913	     -9.37221760	     -9.65438477	      0.07479235	      0.96957209	     -4.28528578	    -55.55238851	      9.01389641	      5.59392691	      4.95104801	     13.83585806	    -13.74994864	     -1.62058266	    -21.88505384	     -3.79315980	     -7.74364693	      4.00844587	     -2.09056231	      8.94445220	     27.49817363	     -8.45423921	     -0.87800544	    -18.74479855	     48.87546809
      0.39000000	      9.65533876	      3.21010667	     -1.40029389	      0.17272294	      0.85474608	     -0.24884316	    -12.74104164	     10.56340278	     -1.85810261	     15.42875962	     -8.62050107	     -9.80225676	      0.06794978	      0.92145347	     -3.89323544	    -52.79539459	      9.65896517	      5.77486512	      6.07526624	     13.59368249	    -13.45921156	     -1.69767270	    -22.31632077	     -3.31619875	     -7.74378288	      3.81561457	     -2.14288530	      8.53122964	     27.72846143	     -8.15687067	     -0.95401728	    -18.53507789	     49.47368392
      0.40000000	      9.74876267	      3.02009081	     -1.18425750	      0.18173206	      0.85471871	     -0.24944121	    -13.72078513	     10.33477065	     -2.53418751	     15.81533375	     -8.00621632	     -9.76129490	      0.06122036	      0.87233406	     -3.50766823	    -49.98106016	     10.06780773	      5.96350157	      7.39208913	     13.28592534	    -12.69258420	     -1.67043145	    -22.49111455	     -3.04743399	     -7.60109135	      3.47168744	     -2.15378306	      7.84869687	     28.10642694	     -7.79058429	     -1.07993442	    -18.12332737	     49.99715822
      0.41000000	      9.80822326	      2.83320456	     -0.84179763	      0.19065479	      0.85450839	     -0.25019480	    -14.63551537	     10.10572628	     -2.79396552	     16.09998751	     -7.42695354	     -9.85070015	      0.05576260	      0.81993578	     -3.19496150	    -46.97885943	     10.53025598	      6.11622321	      7.95081698	     13.06921471	    -12.33416321	     -1.77530572	    -22.63192120	     -2.73747979	     -7.65253267	      3.23132775	     -2.14720291	      7.44469678	     28.28213246	     -7.45667722	     -1.22584490	    -17.75327578	     50.48370334
      0.42000000	      9.87787108	      2.70938072	     -0.50149607	      0.19953289	      0.85414119	     -0.25088846	    -15.54865850	      9.93323141	     -2.98085189	     16.28941393	     -6.88684378	     -9.86162879	      0.05065982	      0.76502645	     -2.90259385	    -43.83278675	     10.98284565	      6.15889329	      8.56006353	     12.82395431	    -12.05810138	     -1.92640789	    -22.78368841	     -2.49091930	     -7.74390555	      2.99337141	     -2.11610379	      7.03586226	     28.48849920	     -7.11957714	     -1.37499519	    -17.38443627	     50.92534342
      0.43000000	      9.87273647	      2.65064122	     -0.17314934	      0.20837509	      0.85348369	     -0.25147209	    -16.35575836	      9.82690196	     -3.11094786	     16.48851219	     -6.40726499	     -9.86150635	      0.04629290	      0.70854695	     -2.65238794	    -40.59674997	     11.43752972	      6.20455691	      8.98309410	     12.58672038	    -11.85395473	     -2.11691577	    -22.85471768	     -2.32018325	     -7.86055016	      2.76343991	     -2.04629379	      6.62162331	     28.68118109	     -6.79554344	     -1.54327579	    -16.98481461	     51.34539590
      0.44000000	      9.55372359	      2.91112970	      0.05921863	      0.21694835	      0.85202883	     -0.25191978	    -16.73041647	     10.08789555	     -3.06327775	     17.12544577	     -6.24148926	     -9.50841869	      0.04446431	      0.65496853	     -2.54761749	    -37.52693223	     11.69756230	      6.38426443	      9.09828206	     12.59000269	    -11.79575877	     -2.32564081	    -22.60665878	     -2.51214817	     -8.11650101	      2.62449000	     -1.92902976	      6.46198609	     28.74618228	     -6.54243027	     -1.72990406	    -16.74513856	     51.78617925
      0.45000000	      9.79230746	      2.68395776	      0.53268141	      0.22587048	      0.85161494	     -0.25259422	    -17.79109653	      9.74891937	     -3.01479202	     16.74326922	     -5.61392708	     -9.76964237	      0.04114525	      0.59183955	     -2.35744898	    -33.90990822	     12.31535158	      6.10283355	      9.36767474	     12.06420064	    -11.72133053	     -2.67733356	    -22.93568286	     -2.11096494	     -8.28194679	      2.37699106	     -1.84160248	      5.93988048	     28.98268382	     -6.14452408	     -1.90570210	    -16.23105419	     52.04514685
      0.46000000	      9.73758515	      2.78614826	      0.84722048	      0.23455091	      0.85046196	     -0.25303111	    -18.44326256	      9.79036514	     -2.90972445	     16.79707410	     -5.30406652	     -9.65305029	      0.04041795	      0.53251212	     -2.31577779	    -30.51069729	     12.71932196	      5.97197560	      9.53324239	     11.76201331	    -11.69670184	     -3.03252245	    -22.97702789	     -2.10771469	     -8.46303532	      2.14567579	     -1.69958681	      5.44454771	     29.26651724	     -5.76986380	     -2.08667636	    -15.80944081	     52.27227910
      0.47000000	      9.33442520	      3.29625857	      1.00375413	      0.24325712	      0.84840378	     -0.25333486	    -18.74209628	     10.32909511	     -2.83924780	     17.39157057	     -5.47853794	     -9.36702823	      0.03875017	      0.47995919	     -2.22022111	    -27.49963566	     13.09541638	      6.00812251	      9.55000092	     11.83100627	    -11.65914270	     -3.29320631	    -22.62795098	     -2.59314698	     -8.73105470	      1.95144519	     -1.56234097	      5.34476008	     29.41300661	     -5.49595988	     -2.23251820	    -15.67286531	     52.54548204
      0.48000000	      9.03875117	      3.61109398	      1.21452167	      0.25185251	      0.84654884	     -0.25358128	    -19.05961680	     10.61320566	     -2.64065967	     17.68338132	     -5.41903066	     -9.06969639	      0.04052179	      0.42301865	     -2.32172728	    -24.23718341	     13.45854831	      6.01088177	      9.56684912	     11.74668005	    -11.63035522	     -3.60487358	    -22.43037965	     -2.85225693	     -9.01743764	      1.82424729	     -1.40021061	      5.13812541	     29.56035951	     -5.20445543	     -2.39065065	    -15.44057348	     52.75215957
      0.49000000	      9.60901800	      3.15717515	      1.77252553	      0.26071146	      0.84648148	     -0.25414919	    -20.33817534	      9.91227160	     -2.39439527	     16.54153640	     -4.53766580	     -9.43054017	      0.04285913	      0.35486524	     -2.45564738	    -20.33228056	     14.19730874	      5.08192081	     10.02044990	     10.31945501	    -12.25450942	     -5.35699267	    -23.18404037	     -2.15276950	     -7.98900956	      0.55759161	     -1.20886671	      1.90507620	     31.44670865	     -3.74837597	     -2.65600446	    -13.39682677	     51.75942342
      0.50000000	      9.49920789	      3.34513126	      2.11114342	      0.26941512	      0.84488326	     -0.25452824	    -20.79375401	      9.98337370	     -2.01959986	     16.45747985	     -4.41113317	     -9.48603025	      0.04765641	      0.29815765	     -2.73051123	    -17.08317525	     14.68508536	      4.66883826	      9.92887280	      9.74173918	    -12.20205231	     -5.86447737	    -23.17737104	     -2.22653549	     -8.26400152	      0.41512365	     -1.04203993	      1.62607295	     31.60114401	     -3.34222550	     -2.77869210	    -13.04447065	     51.70001026
      0.51000000	      9.18327760	      3.71115766	      2.21867451	      0.27823862	      0.84274892	     -0.25458457	    -21.04900410	     10.31130291	     -1.86759302	     16.69523172	     -4.47134558	     -9.27200971	      0.05175664	      0.24722826	     -2.96543713	    -14.16513579	     15.03292796	      4.67017313	      9.97541761	      9.70089393	    -12.15974789	     -6.18309349	    -22.94503702	     -2.57712459	     -8.48257872	      0.29312916	     -0.88618896	      1.48877113	     31.78427040	     -3.06953190	     -2.84309275	    -12.92708387	     51.75490613
      0.52000000	      9.45730013	      3.60112472	      2.53642626	      0.28723469	      0.84181978	     -0.25477202	    -21.92056542	      9.99284780	     -1.85009095	     15.99611802	     -3.98370294	     -9.46461586	      0.05710910	      0.19072320	     -3.27211032	    -10.92763452	     15.72483968	      3.83486388	     10.62186546	      8.43870324	    -12.39516775	     -7.83870368	    -23.35227495	     -2.33677514	     -7.95588236	     -0.42479515	     -0.68662279	     -0.24286817	     32.85787738	     -2.11267295	     -2.93379237	    -11.76553001	     51.05052499
      0.53000000	      9.28322559	      3.83567899	      2.73473068	      0.29611460	      0.84001048	     -0.25484397	    -22.23224123	     10.09836038	     -1.59260889	     15.98840202	     -3.94391595	     -9.51565360	      0.06503838	      0.14408756	     -3.72642490	     -8.25560930	     16.15678428	      3.50354840	     10.75829130	      8.23401137	    -12.28493216	     -8.22363947	    -23.29583936	     -2.51145564	     -8.20939783	     -0.47230878	     -0.51690403	     -0.38056640	     32.98955994	     -1.79692018	     -2.94892886	    -11.63784843	     50.90339304
      0.54000000	      9.01316000	      4.13649236	      2.76062252	      0.30543286	      0.83790275	     -0.25461772	    -22.53228204	     10.32885619	     -1.58568883	     16.16819477	     -3.94894351	     -9.58720004	      0.07048039	      0.10479541	     -4.03822864	     -6.00433467	     16.50576643	      3.68042762	     10.81308333	      8.13673256	    -12.20732185	     -8.43989838	    -23.07395597	     -2.86622920	     -8.26324965	     -0.62284417	     -0.38427797	     -0.39915629	     33.09691269	     -1.56928001	     -2.89859056	    -11.64233921	     50.91289616
      0.55000000	      9.35638580	      3.93161314	      3.22579866	      0.31464287	      0.83723262	     -0.25494102	    -23.36728101	      9.77754924	     -1.42766543	     15.34041481	     -3.44722376	     -9.99127001	      0.08034177	      0.05947213	     -4.60324452	     -3.40750223	     17.14902891	      2.47051070	     11.72168942	      7.07352499	    -12.06554688	     -9.16008842	    -23.55141421	     -2.46262268	     -8.47750775	     -0.73103341	     -0.24984731	     -0.84751330	     33.38433836	     -1.12031720	     -2.87117826	    -11.35620082	     50.50247806
      0.56000000	      9.23625597	      4.08992283	      3.25128538	      0.32404058	      0.83556185	     -0.25466575	    -23.76193358	      9.81007473	     -1.45702817	     15.33724079	     -3.32099102	     -9.75719059	      0.08798976	      0.02929041	     -5.04144169	     -1.67821674	     17.42597425	      2.50536464	     12.04950202	      7.04821516	    -11.95559767	     -9.42197368	    -23.52252231	     -2.62816203	     -8.50986260	     -0.82022951	     -0.14237455	     -0.94771676	     33.57686623	     -0.88093078	     -2.77113105	    -11.35843747	     50.33756017
      0.57000000	      9.49018862	      3.91465918	      3.42149018	      0.33379814	      0.83469257	     -0.25439286	    -24.54855839	      9.34725115	     -1.78814420	     14.80151110	     -2.80181884	     -9.88015470	      0.09654339	      0.00113698	     -5.53152892	     -0.06514438	     17.92952901	      1.99610084	     13.32411352	      6.30784374	    -11.64824313	    -10.15747082	    -23.84439829	     -2.39422892	     -8.36679409	     -1.04034683	     -0.01377027	     -1.41460946	     33.94185423	     -0.50440347	     -2.64378176	    -11.10651900	     49.96296397
      0.58000000	      9.38968322	      4.01685872	      3.39378197	      0.34344581	      0.83324435	     -0.25388598	    -24.92929556	      9.31088305	     -1.70908352	     14.89289838	     -2.62878702	     -9.59563109	      0.10569206	     -0.01345049	     -6.05570920	      0.77065650	     17.97822815	      2.21011283	     13.49347545	      6.39600833	    -11.54885149	    -10.24296351	    -23.82860812	     -2.53385777	     -8.34601569	     -1.06089582	      0.08726823	     -1.40332245	     34.01840602	     -0.34861456	     -2.49768525	    -11.18825330	     49.81657150
      0.59000000	      9.53808692	      3.97427570	      3.61699765	      0.35317928	      0.83244820	     -0.25380537	    -25.49547668	      8.96844543	     -1.84224488	     14.57257138	     -2.36103464	     -9.48161804	      0.11821177	     -0.02643913	     -6.77303568	      1.51485056	     18.32620690	      1.90502726	     14.45031106	      6.19385109	    -11.20588801	    -10.60254435	    -24.08940747	     -2.41996116	     -8.40273457	     -1.13775938	      0.16970020	     -1.55278810	     34.18146015	     -0.05729313	     -2.30730947	    -11.24336700	     49.41648204
      0.60000000	      9.53321928	      3.93928662	      3.61628277	      0.36320867	      0.83141290	     -0.25326292	    -25.96245613	      8.75220031	     -1.73869922	     14.56524843	     -2.06706043	     -9.09130637	      0.12828511	     -0.02893592	     -7.35019512	      1.65790623	     18.19658886	      2.08763012	     14.68477897	      6.26938711	    -11.10868115	    -10.61401466	    -24.15256832	     -2.39032465	     -8.39466197	     -1.11717425	      0.24974051	     -1.54207852	     34.22547339	      0.00777887	     -2.13692066	    -11.30639466	     49.25478522
      0.61000000	      9.68615875	      3.90591540	      3.70125173	      0.37337700	      0.83080377	     -0.25283938	    -26.50017084	      8.45833147	     -1.87785540	     14.35586323	     -1.79784304	     -8.80828923	      0.14232775	     -0.02648177	     -8.15477948	      1.51729359	     18.25748390	      2.16912381	     15.37025241	      6.29644246	    -10.79146523	    -10.66020689	    -24.37779964	     -2.34773660	     -8.38466855	     -1.14746134	      0.29889377	     -1.54642148	     34.30742822	      0.15058128	     -1.92452709	    -11.49458086	     48.92090879
      0.62000000	      9.72543357	      3.80569455	      3.78856333	      0.38385706	      0.83013231	     -0.25245221	    -26.98767277	      8.12463181	     -1.72449997	     14.25872329	     -1.49519323	     -8.32680165	      0.15363190	     -0.01913424	     -8.80245964	      1.09631144	     17.94194533	      2.14311471	     15.67653929	      6.44951128	    -10.68212284	    -10.60764944	    -24.46274767	     -2.21218771	     -8.42768643	     -1.13977634	      0.34733673	     -1.54276276	     34.31428716	      0.13542765	     -1.72287390	    -11.55928270	     48.73143830
      0.63000000	      9.87809140	      3.67567960	      3.83078431	      0.39456286	      0.82974739	     -0.25189338	    -27.49320634	      7.70093262	     -2.20084569	     14.06864027	     -1.14510149	     -8.02856820	      0.16785219	     -0.00634234	     -9.61722197	      0.36338907	     17.58245343	      2.15513648	     16.86927815	      6.78750120	     -8.96097333	     -9.95359337	    -24.64882419	     -2.07552243	     -8.36344646	     -1.15203135	      0.37553099	     -1.51470448	     34.34545097	      0.14605581	     -1.47069383	    -11.77694894	     48.42947156
      0.64000000	      9.96458000	      3.56088327	      3.94356480	      0.40542672	      0.82945487	     -0.25150136	    -27.94272735	      7.33088038	     -1.97848471	     13.88615463	     -0.84879435	     -7.52159531	      0.18216617	      0.00827948	    -10.43735280	     -0.47437918	     17.00435140	      1.92615218	     17.05037654	      6.94738899	     -8.90822972	     -9.83452239	    -24.76190271	     -1.91005187	     -8.42260718	     -1.12503036	      0.40199180	     -1.51330125	     34.32231419	      0.05895307	     -1.26427076	    -11.87121010	     48.18754793
      0.65000000	     10.04342549	      3.50089916	      4.04138497	      0.41645515	      0.82930726	     -0.25102898	    -28.27517983	      7.00946554	     -1.90960923	     13.73940828	     -0.61175195	     -7.11891949	      0.20024206	      0.02690167	    -11.47302507	     -1.54135229	     16.30586371	      1.61542929	     17.28537186	      7.06324735	     -8.68982244	     -9.55943969	    -24.86489242	     -1.82155220	     -8.44412696	     -1.11821270	      0.41657874	     -1.49126323	     34.27778013	     -0.02597847	     -1.04251259	    -12.07681492	     47.88634077
      0.66000000	     10.10370828	      3.35999092	      4.16957742	      0.42782004	      0.82927996	     -0.25065146	    -28.59574919	      6.59849334	     -1.75476512	     13.51951860	     -0.31241825	     -6.60730830	      0.21730535	      0.04474572	    -12.45067923	     -2.56374111	     15.39348957	      1.09791397	     17.53721673	      7.20093493	     -8.52168623	     -9.34404643	    -24.90863914	     -1.61229548	     -8.50539202	     -1.09798536	      0.41780678	     -1.50057384	     34.23203527	     -0.20033263	     -0.82727171	    -12.17833055	     47.61363809
      0.67000000	      9.88066065	      3.29411506	      4.19998510	      0.43925025	      0.82894575	     -0.24993631	    -28.43527897	      6.27900006	     -1.84939428	     13.64327057	     -0.07547951	     -5.85349014	      0.23901704	      0.06371581	    -13.69466757	     -3.65064694	     14.23018148	      0.09733604	     18.10798167	      6.73515400	     -6.66434644	     -7.92419325	    -24.64487439	     -1.57840875	     -8.52414810	     -1.04373497	      0.43406324	     -1.42401957	     34.05360918	     -0.41962968	     -0.61539810	    -12.45944213	     47.23802126
      0.68000000	     10.07009048	      3.03890753	      4.30504378	      0.45126169	      0.82953052	     -0.24940922	    -28.79388615	      5.68970204	     -2.08443061	     13.13418667	      0.36053758	     -5.44528308	      0.25654465	      0.07815053	    -14.69892573	     -4.47769578	     12.46014258	     -1.11703885	     18.57216819	      6.35600334	     -3.99758998	     -6.01545609	    -24.76318929	     -1.26438400	     -8.52288476	     -1.03082356	      0.38212719	     -1.34731027	     33.93601355	     -0.71758002	     -0.41689169	    -12.53779666	     46.97283394
      0.69000000	     10.13416097	      2.81711029	      4.44802414	      0.46328426	      0.83014474	     -0.24900944	    -28.85291663	      5.16125922	     -2.14270701	     12.75840853	      0.71455734	     -5.14593344	      0.28036647	      0.09416181	    -16.06381518	     -5.39507440	     10.85084664	     -2.02556428	     18.86311303	      6.36838896	     -3.80242550	     -5.88762004	    -24.75988777	     -0.98265928	     -8.52102846	     -1.03036346	      0.33352763	     -1.38173872	     33.86452375	     -0.99742690	     -0.20990218	    -12.62192721	     46.63539931
      0.70000000	     10.07674043	      2.45476854	      4.50898135	      0.47554381	      0.83071155	     -0.24823620	    -28.64586984	      4.44792166	     -2.60613816	     12.46139170	      1.28720656	     -4.38525512	      0.30604904	      0.10702964	    -17.53531804	     -6.13234664	      8.85868364	     -3.52760179	     19.74125547	      5.07837480	     -1.09438369	     -5.11186538	    -24.57332960	     -0.60575779	     -8.39408538	     -1.02086615	      0.26186905	     -1.31423831	     33.66411103	     -1.30760902	     -0.03644264	    -12.62639427	     46.15371882
      0.71000000	     10.13297684	      2.05148720	      4.59329087	      0.48799929	      0.83170603	     -0.24754657	    -28.46520912	      3.64820571	     -3.17005091	     11.98499039	      1.86000767	     -4.03203604	      0.33314787	      0.11872544	    -19.08796670	     -6.80246691	      6.37078180	     -4.74566414	     20.55675773	      4.52231133	      1.96545482	     -4.61535290	    -24.49944556	     -0.17277592	     -8.26781776	     -1.02425473	      0.16476073	     -1.24043916	     33.52252243	     -1.66178978	      0.14597951	    -12.66468839	     45.75338141
      0.72000000	     10.24343962	      1.67901778	      4.71771782	      0.50041346	      0.83300510	     -0.24703513	    -28.17977848	      2.90207609	     -3.44815210	     11.44709762	      2.35332332	     -3.81020461	      0.36612596	      0.13152972	    -20.97747239	     -7.53609767	      3.94143721	     -5.43034018	     20.89669306	      4.52056084	      2.14277269	     -4.58318629	    -24.50575651	      0.25072874	     -8.17725880	     -1.01960738	      0.05844324	     -1.22273611	     33.44478567	     -2.02992542	      0.33976314	    -12.71366007	     45.42340082
      0.73000000	     10.34368039	      1.24224295	      4.82411465	      0.51287294	      0.83445238	     -0.24645076	    -27.70162471	      2.05591725	     -3.87737187	     10.89024944	      2.91376416	     -3.61857257	      0.40359561	      0.14290282	    -23.12432527	     -8.18772868	      1.24174678	     -6.07196908	     21.35828573	      4.35425203	      2.46424895	     -4.55274693	    -24.50260104	      0.74762025	     -8.02073832	     -1.00600282	     -0.07364116	     -1.13241391	     33.31931899	     -2.40779150	      0.51348347	    -12.74372814	     45.05168139
      0.74000000	     10.17044517	      0.53010697	      4.78431620	      0.52577626	      0.83546331	     -0.24521964	    -26.82398566	      0.74595058	     -5.40373024	     10.55299001	      3.87565198	     -3.30143101	      0.43935750	      0.14987918	    -25.17333045	     -8.58744466	     -2.43803109	     -7.38693084	     22.90297285	      2.80537198	      9.45677049	     -4.78693007	    -24.05730070	      1.38726728	     -7.84014194	     -0.85487416	     -0.27484756	     -0.30137618	     32.72062296	     -2.97945066	      0.67448631	    -12.91031501	     44.57343599
      0.75000000	     10.39544927	      0.06229070	      4.84779967	      0.53799535	      0.83727035	     -0.24449675	    -26.14299892	     -0.21737687	     -5.93111919	      9.82396241	      4.47898672	     -3.14757357	      0.48479245	      0.16015697	    -27.77656129	     -9.17631816	     -5.36527684	     -7.44405422	     23.17701695	      2.79812400	      9.51659821	     -4.72213275	    -24.23021856	      1.89349036	     -7.56434814	     -0.82336167	     -0.43317604	     -0.11895085	     32.59338219	     -3.31077275	      0.82827464	    -12.91167101	     44.26622040
      0.76000000	     10.12959297	     -0.62075002	      4.90207449	      0.55080155	      0.83832952	     -0.24358353	    -24.82546442	     -1.53320307	     -7.08934829	      9.58209397	      5.28796833	     -3.50790030	      0.53257244	      0.16849848	    -30.51415310	     -9.65425163	     -8.98303658	     -7.86265469	     23.61176285	      2.59468893	      9.98295400	     -4.78004248	    -23.69072295	      2.55144322	     -7.31645375	     -0.84838401	     -0.66478822	      0.50620570	     32.26624412	     -3.81885395	      0.94461979	    -12.83012939	     43.76037421
      0.77000000	      9.82043619	     -1.30518156	      4.87037331	      0.56301324	      0.83920763	     -0.24248951	    -23.23691754	     -2.84438095	     -8.03643194	      9.44714064	      6.12731829	     -3.46562398	      0.58542850	      0.17851512	    -33.54258230	    -10.22816302	    -12.10529447	     -7.84310924	     23.84924792	      2.23499693	     11.57664453	     -5.01586720	    -23.16655010	      3.18063852	     -7.21455005	     -0.50756019	     -0.95192195	      2.05716875	     31.31298655	     -4.35965356	      1.05839679	    -12.87369194	     43.22410172
      0.78000000	      9.84849487	     -1.90306570	      4.85355997	      0.57520272	      0.84068759	     -0.24148144	    -22.00224723	     -4.13307370	     -8.97851324	      8.83519919	      6.87622218	     -3.63773176	      0.63661468	      0.18604458	    -36.47533447	    -10.65956948	    -15.39226715	     -7.51042933	     23.63530040	      2.34282323	     11.54767975	     -5.01080311	    -23.06478782	      3.75058785	     -6.88816008	     -0.47416942	     -1.17943043	      2.67592388	     31.10324927	     -4.83212654	      1.19369028	    -12.95873483	     43.07097379
      0.79000000	      9.54091084	     -2.45895468	      4.81827326	      0.58691188	      0.84146621	     -0.24035702	    -20.18575013	     -5.33686046	     -9.64078770	      8.65394773	      7.56182884	     -3.82610993	      0.69364726	      0.19545580	    -39.74306070	    -11.19879218	    -17.78415123	     -6.87318241	     22.83585114	      2.63279402	     10.57495393	     -5.72165030	    -22.59599903	      4.23488812	     -7.54266492	      0.51380731	     -1.48588442	      5.82755058	     29.35770670	     -5.89341093	      1.38150671	    -14.13231565	     43.32495685
      0.80000000	      9.41907584	     -3.02139068	      4.75096501	      0.59850736	      0.84258070	     -0.23919455	    -18.57071931	     -6.59688423	    -10.36100865	      8.16714783	      8.27877316	     -3.99354928	      0.74730896	      0.20139375	    -42.81764951	    -11.53901202	    -20.03700755	     -6.31417437	     22.02688792	      2.85745263	     10.05495321	     -5.65643641	    -22.39002654	      4.73567489	     -7.12995807	      0.56647316	     -1.71353603	      6.58592862	     29.11383012	     -6.26541792	      1.44379339	    -14.08223961	     43.05695882
      0.81000000	      9.13874954	     -3.52897325	      4.67084715	      0.60981897	      0.84332017	     -0.23803599	    -16.67865783	     -7.76234417	    -10.88694769	      7.84227871	      8.92670584	     -4.14661607	      0.80182347	      0.20709126	    -45.94110049	    -11.86545542	    -21.54240830	     -5.58775967	     20.83429463	      3.17014221	      9.11812230	     -5.61865688	    -22.02477604	      5.17599195	     -6.81892703	      0.69718753	     -1.96226475	      7.63189072	     28.72327533	     -6.67556870	      1.48513684	    -14.05858279	     42.76395789
      0.82000000	      8.62865357	     -3.81809819	      4.66691231	      0.62036654	      0.84366385	     -0.23713323	    -14.31694842	     -8.56253637	    -10.88596253	      7.83801134	      9.28975044	     -4.32112102	      0.85946859	      0.21462093	    -49.24392281	    -12.29687328	    -21.77703821	     -4.79731187	     19.23795403	      3.64726281	      6.83484429	     -5.74202478	    -21.45619034	      5.40974058	     -6.87564202	      1.15774662	     -2.19529295	      9.37288584	     27.82848379	     -7.10835094	      1.52289649	    -14.28074684	     42.46173801
      0.83000000	      8.45897655	     -3.89587865	      4.60148586	      0.63068297	      0.84458152	     -0.23613083	    -12.35562691	     -9.06961234	    -10.82042512	      7.34821192	      9.48905435	     -4.24235866	      0.91390967	      0.21954836	    -52.36316697	    -12.57919433	    -20.87168518	     -3.70359902	     18.20002870	      4.07344442	      0.85238594	     -6.35776734	    -21.27235546	      5.42378054	     -7.71783510	      2.38843360	     -2.34320264	     12.66301070	     26.10680826	     -8.10044695	      1.64504277	    -15.54935707	     43.01297943
