Model Marker Errors from IK
version=1
nRows=67
nColumns=4
inDegrees=no
endheader
time	total_squared_error	marker_error_RMS	marker_error_max
      0.17000000	      0.02582005	      0.02540672	      0.06876640
      0.18000000	      0.02609009	      0.02553923	      0.06886390
      0.19000000	      0.02629668	      0.02564015	      0.06922656
      0.20000000	      0.02644539	      0.02571254	      0.06954363
      0.21000000	      0.02652678	      0.02575208	      0.06967545
      0.22000000	      0.02653769	      0.02575737	      0.06998971
      0.23000000	      0.02648654	      0.02573254	      0.07031411
      0.24000000	      0.02635318	      0.02566767	      0.07103154
      0.25000000	      0.02619934	      0.02559265	      0.07130093
      0.26000000	      0.02602310	      0.02550642	      0.07158772
      0.27000000	      0.02583142	      0.02541231	      0.07187651
      0.28000000	      0.02562973	      0.02531291	      0.07204337
      0.29000000	      0.02543514	      0.02521663	      0.07222887
      0.30000000	      0.02525126	      0.02512532	      0.07232823
      0.31000000	      0.02506921	      0.02503458	      0.07228853
      0.32000000	      0.02490502	      0.02495247	      0.07221196
      0.33000000	      0.02476274	      0.02488109	      0.07231977
      0.34000000	      0.02464145	      0.02482008	      0.07201755
      0.35000000	      0.02455042	      0.02477419	      0.07161154
      0.36000000	      0.02450510	      0.02475131	      0.07179205
      0.37000000	      0.02447346	      0.02473533	      0.07109089
      0.38000000	      0.02449275	      0.02474507	      0.07108307
      0.39000000	      0.02454042	      0.02476914	      0.07081955
      0.40000000	      0.02461358	      0.02480604	      0.07065733
      0.41000000	      0.02470618	      0.02485265	      0.07061422
      0.42000000	      0.02480997	      0.02490480	      0.07057154
      0.43000000	      0.02491856	      0.02495924	      0.07062133
      0.44000000	      0.02503375	      0.02501687	      0.07090989
      0.45000000	      0.02513642	      0.02506812	      0.07084554
      0.46000000	      0.02524179	      0.02512060	      0.07093021
      0.47000000	      0.02535908	      0.02517890	      0.07127815
      0.48000000	      0.02547897	      0.02523835	      0.07156465
      0.49000000	      0.02554114	      0.02526912	      0.07047386
      0.50000000	      0.02564192	      0.02531893	      0.07062487
      0.51000000	      0.02574987	      0.02537217	      0.07089868
      0.52000000	      0.02583808	      0.02541559	      0.07035193
      0.53000000	      0.02593567	      0.02546354	      0.07054857
      0.54000000	      0.02604187	      0.02551562	      0.07082516
      0.55000000	      0.02611484	      0.02555134	      0.07073515
      0.56000000	      0.02619830	      0.02559214	      0.07092013
      0.57000000	      0.02626371	      0.02562406	      0.07089847
      0.58000000	      0.02632602	      0.02565444	      0.07117285
      0.59000000	      0.02636609	      0.02567396	      0.07124745
      0.60000000	      0.02639215	      0.02568665	      0.07156099
      0.61000000	      0.02639301	      0.02568707	      0.07170039
      0.62000000	      0.02637336	      0.02567750	      0.07199876
      0.63000000	      0.02632361	      0.02565327	      0.07209562
      0.64000000	      0.02625410	      0.02561938	      0.07225433
      0.65000000	      0.02615934	      0.02557310	      0.07229433
      0.66000000	      0.02604288	      0.02551611	      0.07233921
      0.67000000	      0.02589679	      0.02544444	      0.07255536
      0.68000000	      0.02573103	      0.02536288	      0.07242680
      0.69000000	      0.02555905	      0.02527798	      0.07227313
      0.70000000	      0.02537686	      0.02518773	      0.07226938
      0.71000000	      0.02519877	      0.02509919	      0.07212804
      0.72000000	      0.02504340	      0.02502169	      0.07181942
      0.73000000	      0.02492242	      0.02496118	      0.07147753
      0.74000000	      0.02477728	      0.02488839	      0.07179859
      0.75000000	      0.02470596	      0.02485254	      0.07106959
      0.76000000	      0.02465541	      0.02482711	      0.07141307
      0.77000000	      0.02463934	      0.02481902	      0.07158076
      0.78000000	      0.02466881	      0.02483385	      0.07123386
      0.79000000	      0.02472531	      0.02486227	      0.07159712
      0.80000000	      0.02482074	      0.02491021	      0.07128226
      0.81000000	      0.02493966	      0.02496981	      0.07116376
      0.82000000	      0.02504642	      0.02502320	      0.07136391
      0.83000000	      0.02511569	      0.02505778	      0.07181335
