Coordinates

Units are S.I. units (second, meters, Newtons, ...)
If the header above contains a line with 'inDegrees', this indicates whether rotational values are in degrees (yes) or radians (no).

inDegrees=yes
nColumns=34
nRows=67
DataType=double
version=3
OpenSimVersion=4.5-2023-11-26-efcdfd3eb
endheader
time	pelvis_tilt	pelvis_tx	pelvis_ty	hip_flexion_l	hip_flexion_r	knee_angle_l	knee_angle_r	ankle_angle_l	ankle_angle_r	mtp_angle_l	mtp_angle_r	lumbar_ext	shoulder_flexion_r	elbow_flexion_r	shoulder_flexion_l	elbow_flexion_l
0.17	10.90481262	-0.03044281	0.83801112	4.48592112	-18.95841868	-9.03535568	-46.35271205	-0.49550312	-26.31556424	-18.91930706	10.17161973	-20.3066361	2.76326619	28.45871526	-14.80284777	37.35375034
0.18	10.80877223	-0.01864192	0.83883878	3.91460951	-17.44854917	-9.38351321	-49.03650842	0.0613858	-27.07146439	-18.57541704	9.49649112	-20.10634982	2.60177019	28.46965986	-14.87165209	37.6906712
0.19	10.6248715	-0.00761856	0.8396226	3.45027992	-15.6266696	-9.75159302	-51.94581416	0.73420069	-26.29422027	-17.72131739	3.83497997	-19.91378512	2.76873967	28.07108482	-14.93010248	38.05048677
0.2	10.43732488	0.00315678	0.84038778	2.93975537	-13.76892941	-10.02240266	-54.61794714	1.34142064	-25.03321474	-17.29569529	0.92174943	-19.75491701	2.8073505	27.88699532	-14.85418902	38.39426685
0.21	10.28168713	0.01344563	0.84124848	2.31275179	-11.9123431	-10.09996264	-57.00779525	2.05404279	-23.49006606	-17.03136313	0.40366139	-19.73397511	2.82521482	27.83411782	-14.62929504	38.76632313
0.22	10.0994805	0.02328668	0.84210218	1.70630627	-9.92302044	-10.14550949	-59.26680564	2.71302962	-21.32918616	-16.75360813	-0.46380546	-19.70189221	2.94348342	27.68664896	-14.3409766	39.07682019
0.23	10.08725332	0.03286346	0.84333733	0.8011277999999999	-8.119876039999999	-9.943755149999999	-61.13786557	3.33545306	-18.88540162	-16.55913602	-0.85048043	-19.8724044	3.09412319	27.57418471	-13.99454313	39.35168076
0.24	9.74025116	0.04173956	0.84388285	0.42697017	-5.69476441	-9.92269376	-63.28501367	3.78200679	-15.40015428	-16.21338409	-6.46728177	-19.73480604	3.68144451	26.8028488	-13.84178718	39.97970164
0.25	9.58215721	0.05059339	0.84483386	-0.27347618	-3.60678562	-9.66287751	-64.70960246	4.28842124	-12.65006954	-16.12447366	-6.22132195	-19.82436719	3.85985954	26.71787238	-13.39641456	40.42493812
0.26	9.60075524	0.05934917	0.84616361	-1.26265539	-1.74917992	-9.190048839999999	-65.73209258999999	4.6635979	-10.29616324	-16.09677406	-5.90400577	-20.08958363	4.07602174	26.63017614	-12.92792746	40.81105576
0.27	9.47633225	0.06795898	0.84712607	-2.01867723	0.28431819	-8.80667538	-66.53897639	5.03953442	-7.70579217	-16.08808456	-5.57852432	-20.1828337	4.27547002	26.49838356	-12.48356334	41.35337676
0.28	9.22604827	0.07623264	0.84773322	-2.54774194	2.51616821	-8.50691181	-67.19391993000001	5.321221	-5.10566297	-16.16756274	-5.26502854	-20.18195646	4.51987475	26.3408052	-12.02709011	41.95754739
0.29	9.127856080000001	0.08469102000000001	0.84862034	-3.33136078	4.42874839	-8.061505090000001	-67.39318067000001	5.59144713	-3.05423052	-16.28447857	-4.92325914	-20.30224579	4.72209388	26.20929987	-11.6189148	42.60965415
0.3	9.073386920000001	0.09304568000000001	0.84956378	-4.17266651	6.2424323	-7.56092198	-67.30539707	5.79237109	-1.59629822	-16.33696554	-4.66578222	-20.49623872	4.91956899	26.13510478	-11.21615839	43.20685349
0.31	9.02928612	0.10164864	0.85034645	-4.972202	7.90162782	-7.17768599	-66.82989707999999	6.18418933	0.27036041	-16.43136141	-4.17650642	-20.62777302	5.00686954	26.12862941	-10.85373728	44.02532187
0.32	9.024500079999999	0.11025998	0.8511270399999999	-5.84986759	9.416941919999999	-6.72635755	-66.08597431	6.47558461	1.5636048	-16.49296477	-3.67744575	-20.81313739	5.06900993	26.17647986	-10.52550652	44.80494966
0.33	8.90092508	0.11894341	0.85162917	-6.59139834	10.94225714	-6.30801238	-65.07379146	6.72774291	2.48835337	-16.4930056	-3.50479609	-20.82984181	5.09357686	26.12084155	-10.21808919	45.52413275
0.34	9.051403090000001	0.12776627	0.85246036	-7.62926676	12.00579553	-5.90854051	-63.69712179	7.24747158	3.49676848	-16.35905064	-3.11082516	-21.13639698	5.04310409	26.29317247	-9.908788789999999	46.33029148
0.35	9.2860605	0.13678309	0.8533866	-8.816631900000001	12.78793453	-5.43695531	-61.97275583	7.75845026	4.13999954	-15.87942445	-2.54262039	-21.53396326	4.81118834	26.641197	-9.5335807	47.0824726
0.36	9.102771329999999	0.14549497	0.8533727800000001	-9.38136342	14.0969696	-5.23435021	-60.25477391	7.97128892	4.52871632	-15.81272305	-2.57443104	-21.42823338	4.76808864	26.62114239	-9.26586417	47.5959281
0.37	9.41221518	0.15475103	0.8542484299999999	-10.71336261	14.44863721	-4.61826194	-57.85815842	8.6196766	5.08073801	-13.81110931	-1.55434086	-21.87574498	4.12857443	27.48699473	-8.66993793	48.15184269
0.38	9.332138710000001	0.1636523	0.85415762	-11.47881888	15.29466913	-4.28528578	-55.55238851	9.013896409999999	5.59392691	-13.74994864	-1.62058266	-21.88505384	4.00844587	27.49817363	-8.454239210000001	48.87546809
0.39	9.655338759999999	0.17272294	0.85474608	-12.74104164	15.42875962	-3.89323544	-52.79539459	9.65896517	5.77486512	-13.45921156	-1.6976727	-22.31632077	3.81561457	27.72846143	-8.15687067	49.47368392
0.4	9.74876267	0.18173206	0.85471871	-13.72078513	15.81533375	-3.50766823	-49.98106016	10.06780773	5.96350157	-12.6925842	-1.67043145	-22.49111455	3.47168744	28.10642694	-7.79058429	49.99715822
0.41	9.80822326	0.19065479	0.85450839	-14.63551537	16.09998751	-3.1949615	-46.97885943	10.53025598	6.11622321	-12.33416321	-1.77530572	-22.6319212	3.23132775	28.28213246	-7.45667722	50.48370334
0.42	9.87787108	0.19953289	0.85414119	-15.5486585	16.28941393	-2.90259385	-43.83278675	10.98284565	6.15889329	-12.05810138	-1.92640789	-22.78368841	2.99337141	28.4884992	-7.11957714	50.92534342
0.43	9.87273647	0.20837509	0.85348369	-16.35575836	16.48851219	-2.65238794	-40.59674997	11.43752972	6.20455691	-11.85395473	-2.11691577	-22.85471768	2.76343991	28.68118109	-6.79554344	51.3453959
0.44	9.553723590000001	0.21694835	0.85202883	-16.73041647	17.12544577	-2.54761749	-37.52693223	11.6975623	6.38426443	-11.79575877	-2.32564081	-22.60665878	2.62449	28.74618228	-6.54243027	51.78617925
0.45	9.79230746	0.22587048	0.85161494	-17.79109653	16.74326922	-2.35744898	-33.90990822	12.31535158	6.10283355	-11.72133053	-2.67733356	-22.93568286	2.37699106	28.98268382	-6.14452408	52.04514685
0.46	9.737585149999999	0.23455091	0.85046196	-18.44326256	16.7970741	-2.31577779	-30.51069729	12.71932196	5.9719756	-11.69670184	-3.03252245	-22.97702789	2.14567579	29.26651724	-5.7698638	52.2722791
0.47	9.3344252	0.24325712	0.8484037800000001	-18.74209628	17.39157057	-2.22022111	-27.49963566	13.09541638	6.00812251	-11.6591427	-3.29320631	-22.62795098	1.95144519	29.41300661	-5.49595988	52.54548204
0.48	9.038751169999999	0.25185251	0.84654884	-19.0596168	17.68338132	-2.32172728	-24.23718341	13.45854831	6.01088177	-11.63035522	-3.60487358	-22.43037965	1.82424729	29.56035951	-5.20445543	52.75215957
0.49	9.609018000000001	0.26071146	0.84648148	-20.33817534	16.5415364	-2.45564738	-20.33228056	14.19730874	5.08192081	-12.25450942	-5.35699267	-23.18404037	0.55759161	31.44670865	-3.74837597	51.75942342
0.5	9.499207889999999	0.26941512	0.84488326	-20.79375401	16.45747985	-2.73051123	-17.08317525	14.68508536	4.66883826	-12.20205231	-5.86447737	-23.17737104	0.41512365	31.60114401	-3.3422255	51.70001026
0.51	9.1832776	0.27823862	0.84274892	-21.0490041	16.69523172	-2.96543713	-14.16513579	15.03292796	4.67017313	-12.15974789	-6.18309349	-22.94503702	0.29312916	31.7842704	-3.0695319	51.75490613
0.52	9.45730013	0.28723469	0.84181978	-21.92056542	15.99611802	-3.27211032	-10.92763452	15.72483968	3.83486388	-12.39516775	-7.83870368	-23.35227495	-0.42479515	32.85787738	-2.11267295	51.05052499
0.53	9.283225590000001	0.2961146	0.84001048	-22.23224123	15.98840202	-3.7264249	-8.2556093	16.15678428	3.5035484	-12.28493216	-8.22363947	-23.29583936	-0.47230878	32.98955994	-1.79692018	50.90339304
0.54	9.013159999999999	0.30543286	0.83790275	-22.53228204	16.16819477	-4.03822864	-6.00433467	16.50576643	3.68042762	-12.20732185	-8.439898380000001	-23.07395597	-0.62284417	33.09691269	-1.56928001	50.91289616
0.55	9.3563858	0.31464287	0.83723262	-23.36728101	15.34041481	-4.60324452	-3.40750223	17.14902891	2.4705107	-12.06554688	-9.160088419999999	-23.55141421	-0.73103341	33.38433836	-1.1203172	50.50247806
0.5600000000000001	9.23625597	0.32404058	0.8355618500000001	-23.76193358	15.33724079	-5.04144169	-1.67821674	17.42597425	2.50536464	-11.95559767	-9.421973680000001	-23.52252231	-0.82022951	33.57686623	-0.88093078	50.33756017
0.57	9.49018862	0.33379814	0.83469257	-24.54855839	14.8015111	-5.53152892	-0.06514438	17.92952901	1.99610084	-11.64824313	-10.15747082	-23.84439829	-1.04034683	33.94185423	-0.50440347	49.96296397
0.58	9.38968322	0.34344581	0.83324435	-24.92929556	14.89289838	-6.0557092	0.7706565	17.97822815	2.21011283	-11.54885149	-10.24296351	-23.82860812	-1.06089582	34.01840602	-0.34861456	49.8165715
0.59	9.53808692	0.35317928	0.8324482	-25.49547668	14.57257138	-6.77303568	1.51485056	18.3262069	1.90502726	-11.20588801	-10.60254435	-24.08940747	-1.13775938	34.18146015	-0.05729313	49.41648204
0.6	9.533219280000001	0.36320867	0.8314129	-25.96245613	14.56524843	-7.35019512	1.65790623	18.19658886	2.08763012	-11.10868115	-10.61401466	-24.15256832	-1.11717425	34.22547339	0.00777887	49.25478522
0.61	9.686158750000001	0.373377	0.8308037700000001	-26.50017084	14.35586323	-8.15477948	1.51729359	18.2574839	2.16912381	-10.79146523	-10.66020689	-24.37779964	-1.14746134	34.30742822	0.15058128	48.92090879
0.62	9.72543357	0.38385706	0.83013231	-26.98767277	14.25872329	-8.80245964	1.09631144	17.94194533	2.14311471	-10.68212284	-10.60764944	-24.46274767	-1.13977634	34.31428716	0.13542765	48.7314383
0.63	9.878091400000001	0.39456286	0.82974739	-27.49320634	14.06864027	-9.617221969999999	0.36338907	17.58245343	2.15513648	-8.96097333	-9.95359337	-24.64882419	-1.15203135	34.34545097	0.14605581	48.42947156
0.64	9.96458	0.40542672	0.82945487	-27.94272735	13.88615463	-10.4373528	-0.47437918	17.0043514	1.92615218	-8.90822972	-9.83452239	-24.76190271	-1.12503036	34.32231419	0.05895307	48.18754793
0.65	10.04342549	0.41645515	0.82930726	-28.27517983	13.73940828	-11.47302507	-1.54135229	16.30586371	1.61542929	-8.68982244	-9.55943969	-24.86489242	-1.1182127	34.27778013	-0.02597847	47.88634077
0.66	10.10370828	0.42782004	0.82927996	-28.59574919	13.5195186	-12.45067923	-2.56374111	15.39348957	1.09791397	-8.52168623	-9.344046430000001	-24.90863914	-1.09798536	34.23203527	-0.20033263	47.61363809
0.67	9.880660649999999	0.43925025	0.82894575	-28.43527897	13.64327057	-13.69466757	-3.65064694	14.23018148	0.09733604	-6.66434644	-7.92419325	-24.64487439	-1.04373497	34.05360918	-0.41962968	47.23802126
0.68	10.07009048	0.45126169	0.82953052	-28.79388615	13.13418667	-14.69892573	-4.47769578	12.46014258	-1.11703885	-3.99758998	-6.01545609	-24.76318929	-1.03082356	33.93601355	-0.71758002	46.97283394
0.6899999999999999	10.13416097	0.46328426	0.83014474	-28.85291663	12.75840853	-16.06381518	-5.3950744	10.85084664	-2.02556428	-3.8024255	-5.88762004	-24.75988777	-1.03036346	33.86452375	-0.9974269	46.63539931
0.7	10.07674043	0.47554381	0.83071155	-28.64586984	12.4613917	-17.53531804	-6.13234664	8.858683640000001	-3.52760179	-1.09438369	-5.11186538	-24.5733296	-1.02086615	33.66411103	-1.30760902	46.15371882
0.71	10.13297684	0.48799929	0.83170603	-28.46520912	11.98499039	-19.0879667	-6.80246691	6.3707818	-4.74566414	1.96545482	-4.6153529	-24.49944556	-1.02425473	33.52252243	-1.66178978	45.75338141
0.72	10.24343962	0.50041346	0.8330051000000001	-28.17977848	11.44709762	-20.97747239	-7.53609767	3.94143721	-5.43034018	2.14277269	-4.58318629	-24.50575651	-1.01960738	33.44478567	-2.02992542	45.42340082
0.73	10.34368039	0.5128729400000001	0.83445238	-27.70162471	10.89024944	-23.12432527	-8.187728679999999	1.24174678	-6.07196908	2.46424895	-4.55274693	-24.50260104	-1.00600282	33.31931899	-2.4077915	45.05168139
0.74	10.17044517	0.52577626	0.83546331	-26.82398566	10.55299001	-25.17333045	-8.587444659999999	-2.43803109	-7.38693084	9.45677049	-4.78693007	-24.0573007	-0.85487416	32.72062296	-2.97945066	44.57343599
0.75	10.39544927	0.53799535	0.8372703500000001	-26.14299892	9.82396241	-27.77656129	-9.176318159999999	-5.36527684	-7.44405422	9.51659821	-4.72213275	-24.23021856	-0.82336167	32.59338219	-3.31077275	44.2662204
0.76	10.12959297	0.55080155	0.8383295200000001	-24.82546442	9.582093970000001	-30.5141531	-9.654251629999999	-8.98303658	-7.86265469	9.982953999999999	-4.78004248	-23.69072295	-0.84838401	32.26624412	-3.81885395	43.76037421
0.77	9.820436190000001	0.56301324	0.83920763	-23.23691754	9.447140640000001	-33.5425823	-10.22816302	-12.10529447	-7.84310924	11.57664453	-5.0158672	-23.1665501	-0.50756019	31.31298655	-4.35965356	43.22410172
0.78	9.84849487	0.5752027199999999	0.84068759	-22.00224723	8.835199190000001	-36.47533447	-10.65956948	-15.39226715	-7.51042933	11.54767975	-5.01080311	-23.06478782	-0.47416942	31.10324927	-4.83212654	43.07097379
0.79	9.54091084	0.5869118800000001	0.84146621	-20.18575013	8.653947730000001	-39.7430607	-11.19879218	-17.78415123	-6.87318241	10.57495393	-5.7216503	-22.59599903	0.51380731	29.3577067	-5.89341093	43.32495685
0.8	9.41907584	0.59850736	0.8425807	-18.57071931	8.167147829999999	-42.81764951	-11.53901202	-20.03700755	-6.31417437	10.05495321	-5.65643641	-22.39002654	0.56647316	29.11383012	-6.26541792	43.05695882
0.8100000000000001	9.138749539999999	0.60981897	0.84332017	-16.67865783	7.84227871	-45.94110049	-11.86545542	-21.5424083	-5.58775967	9.1181223	-5.61865688	-22.02477604	0.69718753	28.72327533	-6.6755687	42.76395789
0.82	8.628653570000001	0.62036654	0.84366385	-14.31694842	7.83801134	-49.24392281	-12.29687328	-21.77703821	-4.79731187	6.83484429	-5.74202478	-21.45619034	1.15774662	27.82848379	-7.10835094	42.46173801
0.83	8.458976549999999	0.63068297	0.84458152	-12.35562691	7.34821192	-52.36316697	-12.57919433	-20.87168518	-3.70359902	0.85238594	-6.35776734	-21.27235546	2.3884336	26.10680826	-8.10044695	43.01297943
