DataType=double
version=3
OpenSimVersion=4.5-2023-11-26-efcdfd3eb
endheader
time	pelvis_tx_force	pelvis_ty_force	pelvis_tz_force	pelvis_tilt_moment	pelvis_list_moment	pelvis_rotation_moment	hip_flexion_r_moment	hip_adduction_r_moment	hip_rotation_r_moment	knee_angle_r_moment	ankle_angle_r_moment	hip_flexion_l_moment	hip_adduction_l_moment	hip_rotation_l_moment	knee_angle_l_moment	ankle_angle_l_moment	lumbar_ext_moment	lumbar_bend_moment	lumbar_rota_moment
0.9604999999999748	0.00361583410139183	0.003942763458143859	-0.006155605678436543	0.006169167107777688	0.002759499691200072	0.007323717352913577	-18.97707623095245	-25.97503798603791	1.025755946727851	8.06262180225078	-82.48826618299701	-14.90168143906419	1.497136862600001	-0.8211752131821658	-3.615114359693575	5.383127138029751	48.5341614595154	4.934269978182107	7.389304201187532
0.9709999999999743	0.006535041160621252	0.007250831303280299	-0.0126114850731233	0.01564715938271637	0.005425796832317821	0.01754959679526192	-3.415825448155958	-25.1861723237043	1.107195783413534	14.32565775499328	-74.46748126739658	-20.35351921500253	-1.355536282689908	-0.03993120201961209	-1.624599801638584	6.392511662265507	37.85831693805514	7.616561429861487	4.706487379552626
0.9814999999999738	0.009015135818461036	0.01117413881201034	-0.01988388334596345	0.02423195706905853	0.008950165545149401	0.02577605496006824	10.09344918194843	-24.034922841053	1.143536213775089	19.3801696346326	-66.18075053013814	-24.98345289213924	-4.86565217044895	0.7883881080879174	0.5791773446324071	7.182028244175614	28.21031217389037	9.699290593078763	2.134052522172903
0.9919999999999733	0.01082642339237156	0.01597390726865043	-0.02826635537641893	0.03141655023371752	0.01364574746808737	0.0310339439532808	20.93380525322741	-22.43409828116267	1.122527935552976	22.85576325030095	-57.59468816783819	-28.5872591724458	-9.172142007087707	1.669048539497367	3.020583232836784	7.671749318455205	19.9576140874776	11.05035137267637	-0.2733376822157934
1.002499999999973	0.01173426177238541	0.02186719121774121	-0.03793846111489276	0.03664204318528025	0.01971505775240878	0.03239600470849244	28.84183258058452	-20.37331640604225	1.038518782704655	24.59647787685018	-48.77697794489389	-31.1159524664081	-14.24820409948464	2.59148841090702	5.658941185577758	7.812306625303318	13.32253058879714	11.66297559070171	-2.457111078679863
1.012999999999972	0.01150741431446302	0.02902806971539275	-0.04895972604665303	0.0393093935567765	0.027248254694597	0.02900451039376609	33.88061185095521	-17.90540538690713	0.8889641516030949	24.65724355234385	-39.9003777876847	-32.63935545937491	-19.92009882631878	3.531033045703198	8.399715305771393	7.586465621642713	8.371803367908838	11.61726390794215	-4.35400115711292
1.023499999999972	0.009930780162769076	0.03759689661442587	-0.06127977138953031	0.03880489482192695	0.03623407211757056	0.020112610971193	36.37373818878766	-15.12937708575812	0.672909328979047	23.27413622221453	-31.22532981525551	-33.29957918841934	-25.9121922126048	4.452829810930084	11.11152837431603	7.005377405928247	5.025629877509132	11.03377252779095	-5.902694075319102
1.033999999999971	0.006820342272418352	0.04769512247634882	-0.07476002137423524	0.03453420555052556	0.04657605183963412	0.005134623663340977	36.80892034780084	-12.1827452361315	0.395210579760907	20.81304637650299	-23.06298642303275	-33.2609837667934	-31.9050144470159	5.317021746802354	13.64802855298062	6.101414650705219	3.086686589864261	10.04327466907745	-7.056820672227591
1.044499999999971	0.002037706436015838	0.05944246489640778	-0.08920158835593767	0.02595917149438606	0.05811060886739666	-0.01630798220149128	35.72595066119245	-9.238017032895341	0.07325956103496128	17.70270058446934	-15.72515309012181	-32.66372533240786	-37.59131788636904	6.084264652984377	15.87232477472763	4.920227946427093	2.284528676485706	8.775522039426317	-7.797443767738661
1.05499999999997	-0.004498275927347773	0.07297310705264692	-0.1043744397380973	0.01263247659762387	0.07062805641208486	-0.0443603054163583	33.62792654740127	-6.483284038807373	-0.2632473462199976	14.36694387658423	-9.471454292955157	-31.60343836122797	-42.71453457271112	6.720424587410633	17.67439619535727	3.513927211608769	2.322475313693707	7.351471761064265	-8.137358534185953
1.06549999999997	-0.01280449048550314	0.08844801104684184	-0.1200439861952494	-0.005773803690604921	0.08389673865088108	-0.07893481985757811	30.94101778255937	-4.081000831129971	-0.5829561646976703	11.17082830744831	-4.466210065845862	-30.14707036927727	-47.08380185191878	7.199571922407578	18.97549131753437	1.93610531668674	2.915713986171131	5.868820687239757	-8.115231646749329
1.075999999999969	-0.02283167928047765	0.106061256892444	-0.1359923689410729	-0.02944853853372529	0.09768553028921356	-0.1197345222835978	28.00393041014679	-2.128698287391335	-0.8647632015464355	8.384494847587023	-0.7561382113511246	-28.36053605544158	-50.57456195342498	7.505299106010125	19.72623107187976	0.2385745681634108	3.819163471709994	4.390345091593943	-7.785007327082926
1.086499999999969	-0.03446740362697604	0.126039481814737	-0.1520329600375471	-0.05843175861014656	0.111779142689616	-0.166288965572172	25.05920892909479	-0.6481205936579471	-1.100801170581986	6.164312722648218	1.726639272479813	-26.31966000579701	-53.1267390184033	7.631000168858805	19.90730570202401	-1.530731301961495	4.846663457817177	2.947695300999288	-7.20742712382539
1.096999999999968	-0.0475432258645913	0.1486347665706055	-0.1680178658993906	-0.09261383125468296	0.125985313139087	-0.2179977413914001	22.24982691710486	0.3978221852483315	-1.291577309288317	4.554112833967536	3.140850662008448	-24.10534052081149	-54.74283917704258	7.57961925895354	19.53161089393794	-3.329304935905593	5.878048786022555	1.556947020210676	-6.445639675846499
1.107499999999968	-0.06184525651646906	0.1741123500973351	-0.1838392985954343	-0.1317420499319276	0.1401367889389866	-0.2741795839549167	19.63645071656955	1.079283842738168	-1.440682988682223	3.506735127835086	3.701566531971562	-21.79858363975166	-55.48190148361513	7.362927710066939	18.64215617961235	-5.121449028520488	6.850887032917496	0.2326977139038828	-5.56263535900675
1.117999999999967	-0.07712691904367448	0.2027351343419269	-0.1994263496190165	-0.1754336505535212	0.154090954326313	-0.3341240745632604	17.22907550941946	1.477923456080772	-1.552237376420794	2.916575303949387	3.644599240907595	-19.4780493613982	-55.44818887750799	7.000161167817196	17.30568231114843	-6.879545306491698	7.741622701169368	-1.005551782364097	-4.618274980678811
1.128499999999967	-0.09312262456242998	0.2347470577832323	-0.2147389104043699	-0.2231944354922356	0.1677284730571521	-0.3971406334788168	15.01478236615752	1.671419722034154	-1.629575911462005	2.651021029230025	3.19633465395104	-17.21462671673688	-54.77760156886825	6.516039378051747	15.6053234261935	-8.58506942061069	8.54558994198722	-2.132496438196004	-3.665762621036489
1.138999999999966	-0.1095611211625378	0.2703571816656178	-0.2297603201741323	-0.2744414609108808	0.180951555003017	-0.462599342637404	12.97610426275653	1.723015658958921	-1.674176848363536	2.575398051623667	2.552289859387128	-15.06547812699918	-53.62458403029906	5.938517107987746	13.63275478790569	-10.22918741879623	9.262132658850472	-3.118499725066312	-2.748718106351337
1.149499999999966	-0.1261774716932402	0.3097259028644498	-0.244489960028668	-0.3285275653013076	0.1936822053764932	-0.529959877475332	11.10450696272259	1.676221127149769	-1.685370885897544	2.571480305974639	1.86512944732533	-13.07329662233929	-52.15015791763594	5.296598398816908	11.47899724544244	-11.81273128511012	9.885741383318319	-3.932386708710799	-1.89966586119241
1.159999999999966	-0.1427228434030096	0.3529542055478554	-0.2589366101883839	-0.3847655350067523	0.2058606083913463	-0.5987870213393194	9.409055998216044	1.554768392685848	-1.661082224735227	2.549301337889935	1.241089312782264	-11.26890950226901	-50.51064767516124	4.61824630544284	9.225759088550138	-13.3453260520598	10.40173266121079	-4.545048733837268	-1.139672772881462
1.170499999999965	-0.158971578698219	0.4000763645701408	-0.2731130321006086	-0.4424502084512004	0.2174436559413065	-0.6687528439616035	7.916770013329986	1.366689687166139	-1.599077569998175	2.451449194033305	0.7428120900218131	-9.671993934825265	-48.84717764110442	3.928352479092317	6.940064796186656	-14.84363668281766	10.78554942157511	-4.933027944452643	-0.4785740557056312
1.180999999999965	-0.1747253252662622	0.4510560779356054	-0.2870319443104389	-0.5008773647907654	0.2284035699352555	-0.7396266239243898	6.665516612387548	1.110420748570606	-1.498162234046545	2.250942531994995	0.3963509176643815	-8.290072209274514	-47.27706249003097	3.246985892495969	4.672314157211509	-16.32906596055651	11.00592645989451	-5.081316791982555	0.08417777107034774
1.191499999999964	-0.1898142459714573	0.5057856881934717	-0.3007033107940436	-0.5593585371429695	0.2387264677818035	-0.8112546529602587	5.693851132399134	0.7809248927661137	-1.359058508714993	1.945238015215287	0.2002510390637022	-7.119146719273488	-45.88841319854929	2.588298445943844	2.456222160558089	-17.8254459686751	11.03178072482948	-4.985092733655327	0.5577702568609534
1.201999999999964	-0.2040954861422817	0.5640879754823529	-0.3141326696733824	-0.617231008079865	0.2484105980297302	-0.8835332213777023	5.030596063894469	0.3747295248456017	-1.184878909141627	1.548422691333851	0.1349632167575328	-6.146135268079266	-44.73844011915465	1.96031275025778	0.3100326729869645	-19.35717316708061	10.84094732468375	-4.650590372868082	0.9576034607156181
1.212499999999963	-0.2174492100894599	0.6257199543596168	-0.3273201483498641	-0.673862499565598	0.2574639737014139	-0.9563786614079605	4.684908782252429	-0.1064440007816686	-0.9812019768889791	1.082832658728071	0.1713106182958177	-5.350450883348699	-43.85503213014748	1.365525824102662	-1.760612299667021	-20.947966753223	10.42791510255245	-4.095449598460616	1.302727571175827
1.222999999999963	-0.2297726611220717	0.6903781497022634	-0.3402598394725156	-0.7286505816683326	0.2659012767584396	-1.02969800785603	4.637886305935059	-0.6535423837360976	-0.7558139707609766	0.571211059845114	0.2772514954136458	-4.703383128212258	-43.24088398469924	0.8020377134239913	-3.758243424412481	-22.62017770548583	9.808519826475365	-3.348681819925187	1.61346657305324
1.233499999999962	-0.240972825363973	0.7577049263203235	-0.352939294559777	-0.7810174252011137	0.2737400809522857	-1.103363000724719	4.837449904256626	-1.249642898580542	-0.5181377318167038	0.03046465575069091	0.4226476088181809	-4.166450888842418	-42.87954637525612	0.2648424215591646	-5.688586026542022	-24.39446494081131	9.021192869066779	-2.450159415828691	1.909155992485526
1.243999999999962	-0.25095837036831	0.827295571680988	-0.3653389761713624	-0.8304009971118955	0.2809966097129124	-1.177189386667828	5.197848134304545	-1.870943864500411	-0.2783372533456914	-0.532325595010021	0.5820965567535179	-3.690695871365304	-42.74270391326331	-0.2529897740530483	-7.55629090173812	-26.28966035386467	8.125405662610513	-1.449397839432365	2.205827553976106
1.254499999999961	-0.2596315860283727	0.8987059560696919	-0.3774315766562916	-0.8762440505957974	0.2876814469213351	-1.250923122473152	5.604215332444996	-2.488650515501152	-0.04625945182975491	-1.12145247290047	0.7361083978582916	-3.217863821636746	-42.79735227344421	-0.7593037118984729	-9.362103753495374	-28.32264850179872	7.197662569410412	-0.403296759497358	2.513970099479824
1.264999999999961	-0.2668810667340972	0.9714606865037709	-0.3891811752151759	-0.9179824214860843	0.2937956985966862	-1.324234847556576	5.921945040522875	-3.070621581545228	0.1693785058692682	-1.751782480868246	0.8710232528432883	-2.683170863427208	-43.01085629294182	-1.261888465734101	-11.10149587328765	-30.50806588272181	6.324706017260134	0.6275341876762082	2.836853704362555
1.27549999999996	-0.2725758209285865	1.045061697317318	-0.4005422860874681	-0.9550343996441653	0.2993278380238413	-1.396723242876948	6.010234673031958	-3.581958009999296	0.3612158380440693	-2.445841758355231	0.9781029084691468	-2.019505394633789	-43.35229736557974	-1.767357391651243	-12.76460216364118	-32.85766661574382	5.594179916000884	1.584004640357679	3.169865683778808
1.28599999999996	-0.2765613892477777	1.118997180713701	-0.4114589292095092	-0.9867931454993955	0.3042510513537231	-1.46792669059932	5.738795893922207	-3.9850361836952	0.5230152852563356	-3.229145934664545	1.052210718365322	-1.163909922522777	-43.79070034996718	-2.279866579554882	-14.33762025024719	-35.3793510853765	5.084468877615425	2.414698321568576	3.500944914395794
1.296499999999959	-0.2786584359339294	1.192750688601308	-0.4218638830205442	-1.012623902453472	0.3085208369619936	-1.537341724742491	5.006123178510262	-4.24097870684448	0.6495926788971857	-4.124344137325258	1.090437362581788	-0.06676338460195463	-44.29370049746471	-2.799970944713347	-15.80581660608014	-38.07605934900043	4.855670044074234	3.081193583246529	3.812010436783017
1.306999999999959	-0.2786641742857634	1.265810176615832	-0.4316782558142983	-1.031867213262073	0.3120729861043964	-1.604446459520325	3.756621038924335	-4.314363610087342	0.7374881714922638	-5.145155312864679	1.090938346806605	1.298495773629858	-44.83044588142945	-3.324029805010327	-17.15728679757419	-40.9448845503926	4.942225780092245	3.560715783000155	4.081317257261579
1.317499999999958	-0.2763568726226163	1.337676736486634	-0.4408114844441017	-1.043848937474955	0.3148224873552035	-1.668727190246409	1.992579506366444	-4.179944223606545	0.7861198591260721	-6.291599147124095	1.052130190524919	2.930151842339745	-45.37726630933702	-3.844190058984682	-18.38489100645096	-43.97675641469425	5.346390604686638	3.846544067259855	4.286546274466557
1.327999999999958	-0.2715034765097978	1.407872742770742	-0.4491618642848728	-1.047897512389767	0.3166640574375134	-1.729706263732667	-0.2228545942542728	-3.827264663993685	0.7983273337485662	-7.547993951817889	0.9723016864984431	4.802380620973216	-45.91945834961859	-4.348501148995178	-19.48328785476793	-47.15684316281309	6.031899485820848	3.948721229894331	4.40816217321024
1.338499999999957	-0.2638700102886238	1.475949079021334	-0.4566177141372083	-1.043368098441634	0.3174748560937072	-1.786968939521805	-2.772321326224831	-3.260998552598423	0.7796127177812626	-8.883941394472437	0.8496971442622117	6.878365014105445	-46.44666528070474	-4.820926457979777	-20.44079877662638	-50.46548133427323	6.919010622544476	3.895535320819869	4.432570183640197
1.348999999999957	-0.2532340242296924	1.541491063563167	-0.4630592408252244	-1.029672158630085	0.3171193901554729	-1.840186552469096	-5.497125088796319	-2.499733577976678	0.7366590486710316	-10.25696495348746	0.6831647765715511	9.125028786554196	-46.94864313031072	-5.241719458215603	-21.23026854055648	-53.8791125008787	7.884318379356091	3.732100745391602	4.354826035245059
1.359499999999956	-0.2393981826914257	1.6041227885102	-0.4683610634337201	-1.006310368487201	0.3154556356867027	-1.889133313611314	-8.212814946568162	-1.576719577164264	0.6761727363391725	-11.61545650940682	0.4734039976668965	11.52064501701798	-47.41838650292208	-5.588799142451802	-21.80463568069202	-57.37055334208816	8.769501987014134	3.512871078776977	4.18059971333945
1.369999999999956	-0.222204137820381	1.663509814561213	-0.4723952391447048	-0.9729065665328474	0.3123406502674369	-1.933694715964891	-10.72721849601494	-0.5416301670537318	0.6043238529278174	-12.90193858232402	0.2246924312669161	14.05220117622313	-47.85948622804706	-5.840105119038824	-22.10002156441612	-60.90803171019872	9.400974453497238	3.29017506727082	3.926664106166457
1.380499999999955	-0.2015458574544187	1.719360386624337	-0.4750346024907115	-0.9292400675907443	0.3076342981144725	-1.97386651658093	-12.86225665201993	0.5413756311766558	0.5262177196374567	-14.05729754217268	-0.05314230406585313	16.70673187046456	-48.28768681130822	-5.97618250076833	-22.04448360853076	-64.45274348340121	9.617424090020878	3.104061878860729	3.61888477448196
1.390999999999955	-0.1773814892537346	1.771425434338444	-0.4761563099518287	-0.8752729849268355	0.3012008959223894	-2.009744384498656	-14.47869518645775	1.602551908009822	0.444870470245761	-15.02579353335164	-0.3427787723222497	19.4636998118753	-48.72063225100664	-5.982183369470379	-21.56799299455853	-67.95510127048119	9.298129049599046	2.976620285857281	3.287189861229145
1.401499999999954	-0.1497427983154897	1.819497588059813	-0.475645597459348	-0.8111689154830255	0.292909393408008	-2.041505385382902	-15.49971480448664	2.579837688777979	0.359999152445548	-15.75942583155785	-0.6177968053407656	22.29161432056107	-49.16006427647086	-5.849178721480611	-20.61077359551019	-71.3502212253926	8.385965203669652	2.909651179760044	2.958514594144638
1.411999999999954	-0.1187413626279573	1.863409377720425	-0.4733998274995617	-0.737299956446427	0.2826328214927115	-2.069383406769901	-15.92751718679072	3.429021131750477	0.2676922049263009	-16.21975273232971	-0.8417975593946955	25.14630291632523	-49.57729830592781	-5.575367328837856	-19.13053143025915	-74.55346890231908	6.90290977428173	2.882858101690633	2.650265937055932
1.422499999999953	-0.08457106788514479	1.903030809794386	-0.4693328885375986	-0.6542405282711339	0.2702479168683851	-2.093641231963449	-15.84788259777727	4.125086019797999	0.1617476557947441	-16.37584907863412	-0.9687077418034697	27.96830625228588	-49.90866008059369	-5.167443715583985	-17.10970935968172	-77.4570759535538	4.956022597675586	2.852699476411759	2.366862757552378
1.432999999999953	-0.04750687960037801	1.938266583071674	-0.4633799371525112	-0.5627484846790858	0.2556363095311329	-2.114541848901306	-15.42001346632401	4.656032072938153	0.03636819409326561	-16.19851773600907	-0.9447778851822566	30.6812780313963	-50.0581899082558	-4.641420419966146	-14.56187639684836	-79.9289527598514	2.729578839682823	2.75565802044288	2.100130228017419
1.443499999999952	-0.007900194206827783	1.969053123819318	-0.455502394380229	-0.4637359463257136	0.2386888740853233	-2.132320604541004	-14.85178767200623	5.015004528498954	-0.1108104119750475	-15.65250681788796	-0.7127867900667465	33.1933639245613	-49.90314052707548	-4.022017208395326	-11.53603249801553	-81.81481945806549	0.4616489044968353	2.517635130827193	1.83228896671656
1.453999999999952	0.03382877696699038	1.99535536225764	-0.4456930165895344	-0.3582338101610024	0.2193143479712917	-2.147159242006177	-14.36245663652779	5.194011546621489	-0.2760957887359775	-14.68916312546613	-0.2187451090466885	35.3993971660381	-49.30411220769992	-3.340573301783625	-8.119283580781477	-82.94459580905348	-1.590513675392669	2.066428678256778	1.540219062023841
1.464499999999951	0.07720106839212305	2.017162916814071	-0.4339807218832867	-0.2473547555456637	0.1974522252379593	-2.15916402931381	-14.13634780521462	5.175827342684546	-0.447495491116999	-13.24124961750088	0.5792209017152308	37.18218093330528	-48.1241474243503	-2.632183972929873	-4.438062690181706	-83.14357033452868	-3.190994338717025	1.345558442860739	1.202252088174812
1.474999999999951	0.1216908890589494	2.034485345048955	-0.4204347383319247	-0.1322595284610995	0.1730888845758821	-2.168350818435653	-14.27697432234641	4.920329802986228	-0.6027380237564713	-11.22245859911938	1.700860949048046	38.41754661116634	-46.25481627012407	-1.932800981137391	-0.6553412874848652	-82.24819795871579	-4.167554205005709	0.3312358061632659	0.8094775023301511
1.48549999999995	0.1667388197756921	2.047346485997714	-0.4051676581254668	-0.01413010591574132	0.1462754131708729	-2.174636532591121	-14.78289806050258	4.354718445476768	-0.7086764299352178	-8.538664110470428	3.134222161703829	38.99171204173881	-43.63929101811554	-1.27671598082434	3.039974689227715	-80.12550048770422	-4.444574718971217	-0.9519646956794454	0.3773835305826551
1.49599999999995	0.2117657608002963	2.055778451162464	-0.3883369881471269	0.105848752130876	0.1171447320917031	-2.177833383524122	-15.56685584023784	3.386476984293421	-0.7241509034400404	-5.117119470207426	4.82899281028782	38.83302982838812	-40.28207833786642	-0.6944810369273285	6.452418462245282	-76.69406196089311	-4.049437312835106	-2.430137833511117	-0.05243182362580701
1.506499999999949	0.2561873197629983	2.059816109615461	-0.3701445608777607	0.2265003228204449	0.08592330490594813	-2.177646753375866	-16.50780231546391	1.938025194734934	-0.6066535859736212	-0.942685488960822	6.697203318573601	37.9446110638262	-36.24565600922161	-0.2109566231476278	9.403444811694118	-71.94369968799724	-3.09073890790647	-3.998960187406821	-0.4239469310104433
1.516999999999949	0.2994284587441669	2.059492812081856	-0.3508330445194823	0.3466613453310753	0.05293133677355485	-2.173684747604275	-17.49039148108174	-0.02712273493391759	-0.3201056811368669	3.926703882165938	8.625698587151586	36.41433638528805	-31.64493516883736	0.1568803454277709	11.75078431557518	-65.95038739000694	-1.730184992758831	-5.549017711066261	-0.6820529527084596
1.527499999999948	0.3409380029026775	2.054837823108072	-0.3306793654550951	0.4651843739549781	0.01856891068983257	-2.165483165146401	-18.40304234091597	-2.506558796506384	0.1592025897756573	9.379041376896907	10.49888772062257	34.39138690995413	-26.64563155204083	0.4021112050304655	13.39851380621264	-58.88322377762195	-0.1646436791647661	-6.983051010962912	-0.7823854956098704
1.537999999999948	0.3802022444102776	2.045875765519812	-0.3099857699442395	0.5809387806903119	-0.01670821863910371	-2.152537923332753	-19.11862250449889	-5.470758084678044	0.8390733741815988	15.28130047581779	12.22218998686781	32.04473331854687	-21.45811788693665	0.5289210892766055	14.30002272540811	-51.0010362665695	1.391774864550114	-8.225941687683083	-0.6987701257658481
1.548499999999947	0.4167568694051836	2.032628442013802	-0.2890694488343075	0.6928121934299287	-0.0524171845271643	-2.134336232016227	-19.49659776390981	-8.860147107416463	1.709843894536151	21.49698482468616	13.7353789449141	29.53014215039876	-16.31659234952291	0.5513958824548987	14.45983017947277	-42.63720553926143	2.738323744415614	-9.231425226362196	-0.433087106156869
1.558999999999947	0.4501968336363887	2.015119426242667	-0.2682511189334733	0.7997147864617212	-0.0880771043773763	-2.110388686000865	-19.40923046708763	-12.57554516077489	2.745320607281174	27.88230735090258	15.01189418101536	26.97924762835264	-11.44757393896575	0.4901802096433706	13.93725913742134	-34.17274706645961	3.719157392604746	-9.979296793727723	-0.02155716124339846
1.569499999999946	0.4801841464137806	1.993381397630541	-0.2478427364078925	0.9005885813210271	-0.1232357385815541	-2.080268953649188	-18.76569930914827	-16.48439532556851	3.906277566386474	34.27622449126082	16.04757574445665	24.50456923755713	-7.042587308960226	0.3687407430642085	12.84905310256753	-26.00012941008692	4.234883184718282	-10.45967688267994	0.4715731533596758
1.579999999999946	0.5064535378726914	1.967465404676462	-0.2281349617742823	0.994422295795158	-0.1574893515262816	-2.043659807251982	-17.51759483550924	-20.44434280783948	5.14463227255138	40.49801930966598	16.84512025717304	22.20505888376293	-3.245595566256738	0.2112136698053327	11.36426336526362	-18.48300057748139	4.232938035079113	-10.65688295360722	0.9716556238094258
1.590499999999945	0.5288158361964808	1.937450619873715	-0.2093854652309237	1.080270361494378	-0.1904924494766489	-2.000395190766021	-15.65384345421778	-24.32642622870185	6.406239468605945	46.35343628523108	17.39975989445669	20.16186898903377	-0.1521217949346956	0.04151226731845706	9.686192565771327	-11.91826774230906	3.695853703293473	-10.54728237306903	1.412310863923691
1.600999999999945	0.5471588029813935	1.903453013858994	-0.1918091666492169	1.157273884765574	-0.2219580595151951	-1.950487016105397	-13.20270683728703	-28.02412765568239	7.632376553903014	51.64288829016531	17.68972458341007	18.42630388494387	2.191647728158112	-0.1188968483754285	8.022391549710022	-6.506554091715814	2.644442698862195	-10.10975067145418	1.746295459898972
1.611499999999944	0.5614452821850696	1.865631636142588	-0.1755711232226651	1.224682095879376	-0.2516517051767873	-1.894131770162925	-10.24377166503324	-31.44921264525611	8.761532341005269	56.16914409127843	17.67351698058567	17.0095453280677	3.79468512171702	-0.2553124406349123	6.550955891617895	-2.335991574652512	1.151855006951607	-9.338202860369863	1.947133051241112
1.621999999999944	0.5717087459915865	1.82419165255074	-0.1607823476034718	1.28187390554317	-0.2793817566400941	-1.831699574930137	-6.912821028440026	-34.52435695461591	9.732722620358109	59.74945974086647	17.29479296604715	15.88205141299408	4.72313587564847	-0.3629994026668635	5.394633291059429	0.6174328535399822	-0.6529799284421975	-8.250914383619335	2.005931725468274
1.632499999999943	0.5780464967413794	1.779383811605875	-0.1474986423687853	1.328378515315722	-0.3049880872239088	-1.763710825631031	-3.386256939420104	-37.18075397294876	10.49049852443249	62.23517408519215	16.49369535454508	14.98394495829591	5.089184643935035	-0.4462431961661714	4.610348408962072	2.473155437367725	-2.605268630405348	-6.896178924945412	1.927903248305771
1.642999999999943	0.5806108373444185	1.731500490703667	-0.1357224670806513	1.363892085382774	-0.3283312530392557	-1.690803554226636	0.1457897946631155	-39.36123509029751	10.99098111806509	63.5321788547876	15.22123105469584	14.24204604036768	5.029998287856378	-0.5144682540402631	4.193690422998408	3.41739974641852	-4.535779348913962	-5.352222335088761	1.72945739044831
1.653499999999942	0.5795985335448353	1.680868842852305	-0.125407575888666	1.388286886523499	-0.3492844283556236	-1.613694132140839	3.501005619791143	-41.02515402607835	11.20747778961239	63.61307923437398	13.4524063972189	13.58741022276165	4.68675048665331	-0.5785319341265547	4.092707917996719	3.669811448647723	-6.294958273680458	-3.719534198427281	1.43497868410906
1.663999999999942	0.5752389785421523	1.627841800658891	-0.1164657555825353	1.401610953671501	-0.3677293507863165	-1.533135997841682	6.518383009860956	-42.15262957642707	11.13382468866461	62.5190567415831	11.19484517258898	12.96859273036524	4.188757441589265	-0.6482409250382817	4.22528245810554	3.452408501514723	-7.765977259028085	-2.108351210831747	1.073560333462996
1.674499999999941	0.5677816911333147	1.572787793534173	-0.1087748877892921	1.40407838713391	-0.3835562768070735	-1.449881509712962	9.070949293147775	-42.7474970119384	10.7843312426462	60.35507312154738	8.491422428082782	12.35768114065741	3.642513236032513	-0.7304841619483531	4.496016667027506	2.965574238037816	-8.873212372423302	-0.6262132529679191	0.6763410353877009
1.684999999999941	0.557484042724447	1.516079980875168	-0.1021877670070755	1.39605186569484	-0.3966671405706972	-1.364649765901326	11.07982909832375	-42.83811278512115	10.19073600015356	57.28091365863435	5.417066912785156	11.74793500565799	3.125596188477242	-0.8279643625574142	4.809856702970471	2.372868860289123	-9.587767874188934	0.6319507161012785	0.273820681458555
1.69549999999994	0.5446002330915745	1.458085595446842	-0.09654121149620098	1.378019674181894	-0.4069808615090328	-1.278101642154359	12.52394293640416	-42.47539746642401	9.397561741754075	53.49795422704866	2.071026799487339	11.14500237333634	2.685927288008558	-0.9390229550043935	5.081297149239503	1.794244898066615	-9.926145085359618	1.591308155348574	-0.1075398364926413
1.70599999999994	0.5293724384155392	1.399155726249564	-0.09166491171789065	1.350569909345651	-0.4144397853385906	-1.190823631091874	13.43937042141141	-41.72896693029008	8.457104901310235	49.23160804050146	-1.43352159614067	10.5565092438943	2.345071654030701	-1.058388601080106	5.239771727062218	1.306195894187904	-9.940356067877941	2.202444788307515	-0.4485511973908466
1.71649999999994	0.5120248003370427	1.339615710719678	-0.08738947544493293	1.314364624510551	-0.4190162201419794	-1.10332227397146	13.90790631904898	-40.68285317722109	7.424605387999977	44.71126784567419	-4.980639636442598	9.983720863280876	2.103150000688913	-1.178145982886202	5.232204642871014	0.9469099955999229	-9.701958454403647	2.444280788688901	-0.7388447666305492
1.726999999999939	0.4927606063617971	1.279756310105911	-0.08355335781611159	1.270116513690544	-0.4207179237693046	-1.016029716543607	14.03979274722865	-39.43133030193814	6.353682900105557	40.15103080801348	-8.462061325823228	9.415277391941295	1.944014339216394	-1.288568532453188	5.022962784798117	0.7243077902782009	-9.283992278097736	2.324508465581039	-0.9764118050742233
1.737499999999939	0.471762698046424	1.219825937017724	-0.08000860227627693	1.218570298124273	-0.4195914974703587	-0.9293188647369122	13.95661423459728	-38.07414224896321	5.292222774272089	35.73430253074856	-11.78580935435873	8.822051620059909	1.840887890930594	-1.379047869202327	4.591521598438978	0.6250342660898505	-8.744722405604053	1.877905348301823	-1.166096521303296
1.747999999999938	0.4491968681490265	1.160024301837896	-0.07662540506517414	1.160490273767871	-0.4157230908789543	-0.8435250511738122	13.77710601626999	-36.71060273467758	4.279228511832789	31.60373883692606	-14.88224252088545	8.154551338291157	1.762882237057072	-1.439467261715518	3.929196492995094	0.6230053567445715	-8.116380553477196	1.163191031925904	-1.318089565122585
1.758499999999938	0.4252177762034881	1.100497907282929	-0.07329547556830078	1.096654591825662	-0.409236464660648	-0.7589708813246947	13.60517422818639	-35.43387247359521	3.343098540847072	27.85622635936503	-17.70716644104622	7.345427254650891	1.681542845681469	-1.461894514020925	3.036575820114602	0.6866707551979625	-7.400190179877622	0.2593862422156326	-1.446586797166646
1.768999999999937	0.3999767150619103	1.041337882107046	-0.0699341176446291	1.027855950230415	-0.4002889298198901	-0.6759916288512098	13.51877822932437	-34.32797394936482	2.501273693633244	24.54182258241962	-20.24211432627039	6.317789784961074	1.575461536182277	-1.441960547365662	1.922356316086288	0.7845703239164067	-6.566884697323132	-0.7375511651615851	-1.567994791811313
1.779499999999937	0.3736303965645638	0.9825807621061127	-0.06648101207339145	0.9549076510954877	-0.3890656985612084	-0.5949590103710024	13.56038745652971	-33.46804042485874	1.760788154213816	21.66594005228249	-22.49235044485941	4.997740013263735	1.431935200923523	-1.379448815400802	0.6033645260086127	0.8890768137738152	-5.561890732416546	-1.718294862745532	-1.698317379343637
1.789999999999936	0.3463498201532104	0.9242129574950875	-0.06289980758354302	0.8786534215689128	-0.3757729565449202	-0.5163009725294726	13.73189387080626	-32.92085205021479	1.119278645920972	19.19474460519069	-24.48338587985793	3.328704536053905	1.246735681896788	-1.278241088847154	-0.8946603510733233	0.9784780442818724	-4.31566604697786	-2.565710226614936	-1.850298044784483
1.800499999999936	0.3183282853626079	0.8661796604048106	-0.05917669530651681	0.799978861690599	-0.3606300350311034	-0.4405148386387605	13.99625572602965	-32.74291306595783	0.5663218631641476	17.0636531257449	-26.25671312783391	1.285458858290072	1.023390040458727	-1.145941653277433	-2.53586898531276	1.037729187590467	-2.7593453160885	-3.163620170809	-2.03125231038999
1.810999999999935	0.2897877072974149	0.8083987662621099	-0.05531811580146015	0.7198218811865588	-0.3438614743610882	-0.3681712234460592	14.28548482501035	-32.97692202920794	0.08523051945464555	15.18811261859204	-27.86515856634996	-1.113919807118627	0.7718140754843305	-0.9931234482179416	-4.273104916074598	1.058275134630185	-0.8436220477870533	-3.407921893258424	-2.242006877883398
1.821499999999935	0.2609825476203934	0.7507800103512544	-0.05134771873126048	0.639179203118593	-0.325690060335668	-0.2999065165662745	14.51335812054218	-33.64912490902891	-0.3446303241830727	13.4756677631899	-29.36796895852524	-3.800163310849695	0.5054097338116397	-0.8319671822508479	-6.047345667085313	1.037314639310306	1.442581145773089	-3.218080551242165	-2.476821157557311
1.831999999999934	0.2322008396243854	0.6932489565602158	-0.04730272149076346	0.5591060751876188	-0.3063318333769287	-0.2364024783819834	14.5921843556445	-34.7679435510591	-0.7452591474280928	11.83883340871044	-30.82564726988844	-6.651524608524366	0.2368508404553657	-0.6743941880100647	-7.788623141542784	0.9767887147962391	4.056642663201419	-2.547663146954729	-2.724059883687128
1.842499999999934	0.2037619484457816	0.6357747045376929	-0.04322987294079628	0.4807067481330306	-0.2859937577490091	-0.1783527487392728	14.45358687124474	-36.32173841642062	-1.137627556096464	10.20851293867059	-32.29461695769741	-9.501581293509988	-0.02582274093576459	-0.530184579075975	-9.41927466795425	0.882271578718391	6.892203676034836	-1.39354765524732	-2.967409288356778
1.852999999999933	0.1760108750587496	0.5783992272047556	-0.03918127508646834	0.4051140478285761	-0.2648743329321877	-0.1264178642047469	14.07232230384939	-38.27326562196403	-1.53989691951643	8.547283123255349	-33.82190998026486	-12.1575994294249	-0.2808936394549865	-0.4056376235842452	-10.86013602458768	0.7618545023917288	9.776621223773788	0.196381527892127	-3.187327380798383
1.863499999999933	0.1493091043860434	0.5212652025589591	-0.03521031420656861	0.3334574922983269	-0.2431669538573	-0.08117245787536104	13.49068175268953	-40.55025197517418	-1.966474615664779	6.861352421558665	-35.44013644202254	-14.42927127028099	-0.5314330575087349	-0.3030632409815788	-12.03985237355084	0.6250520627407379	12.47778030019366	2.11779598789544	-3.362275458160831
1.873999999999932	0.1240222163563712	0.4646382208442084	-0.0313678997740296	0.2668208742511431	-0.2210653516956562	-0.04305013076773703	12.8399396066483	-43.03419086726466	-2.427919860947709	5.209728671050241	-37.16302994063557	-16.16566783467334	-0.7809208064088539	-0.221019437380688	-12.90688923722708	0.4817296974249826	14.72132081868797	4.208229120909603	-3.469295675111702
1.884499999999932	0.1005047068540073	0.4089185514604136	-0.02769913381517725	0.2061919268320034	-0.1987700624179385	-0.01229246400895777	12.35461012123168	-45.55144542320377	-2.931446603623864	3.708939230959273	-38.98198728105329	-17.2960001404361	-1.02736030632835	-0.1550026735826412	-13.44304756428762	0.341053185943848	16.21787253139877	6.25099600808453	-3.483796619067865
1.894999999999931	0.07908268666468365	0.3546375066283418	-0.02424048267315558	0.1524082709205934	-0.1764944628102351	0.01109126728525328	12.37474917318819	-47.87111565568832	-3.48157979444388	2.531422591686382	-40.86422312083189	-17.86727037693785	-1.257441872454281	-0.09833664129647421	-13.67627407609941	0.2104959055888571	16.69793571204838	7.986340594462344	-3.3788359240623
1.905499999999931	0.06003532890890216	0.3024341008230509	-0.02101753414912014	0.1061048534879691	-0.1544682936886312	0.02734748918508806	13.33140410740391	-49.7129625378288	-4.08058177311462	1.895663447281275	-42.75328500700841	-18.06954469120146	-1.442154431083642	-0.04314509260577866	-13.68944510431942	0.09500006223705358	15.94987674323611	9.130519900167481	-3.124457018736478
1.91599999999993	0.04357610080205235	0.2530093604724468	-0.01804347807254506	0.06766833216625955	-0.1329359697978426	0.03697919244254916	15.71156574668415	-50.76711342679911	-4.728546822406797	2.046767355231322	-44.5726052540217	-18.23889683672899	-1.53542517228456	0.01866094378734548	-13.62128678833639	-0.003561962405857488	13.85475876911706	9.402062250584962	-2.687758319534057
1.92649999999993	0.02983493492129959	0.2070583550634198	-0.01531848644590665	0.03720343658004154	-0.1121469400983707	0.0407196761435301	20.00270247931089	-50.72627278952172	-5.423325096299523	3.227881551560499	-46.23249402175273	-18.83079783180992	-1.478047723651924	0.09457520261420346	-13.65652269540689	-0.0864858342468536	10.41111182007476	8.552565474859618	-2.034542481972018
1.936999999999929	0.01884261234395292	0.1651837447345617	-0.01283015111797343	0.0145153356662515	-0.09233633142513802	0.03947741318695571	26.62254654255873	-49.32907444272415	-6.160520089257467	5.645304624521348	-47.64056164988619	-20.36249841075953	-1.208714163675205	0.1911218714105482	-14.00449497485026	-0.1578171278467989	5.743270203640612	6.397620994485357	-1.133311932918425
1.947499999999929	0.01051879633584795	0.1277991133355848	-0.01055505657866804	-0.0008895404080504323	-0.07369613786436578	0.03425604917031295	35.84520478455019	-46.40758048731754	-6.933727747780052	9.432362559016962	-48.71503980193799	-23.32960777811761	-0.6804254268407472	0.313850423670859	-14.86782275312688	-0.2234274658072298	0.08809472412116293	2.84251639812729	0.03851073008281691
1.957999999999928	0.004665295730825187	0.09503497138928269	-0.008461408655042496	-0.009783930887391597	-0.05634013227212065	0.02606087052280188	47.73870506170399	-41.92561836754228	-7.735082300675905	14.61879057813078	-49.3997443123684	-28.10861773259699	0.1242123331278706	0.4671577375028997	-16.40487366948192	-0.289688177580578	-6.242954417111971	-2.102030209409254	1.487614810762509
1.968499999999928	0.000966082938466556	0.06666406877188835	-0.006512391568805105	-0.01318371550601731	-0.04026904019407476	0.01580858386155536	62.13086093052041	-35.9945357904187	-8.556148926526362	21.11326040626759	-49.6783719115547	-34.86368018367477	1.18643950252923	0.6533899761974932	-18.69243486572909	-0.3619551367356125	-12.924794030503	-8.316566639863449	3.199278383906385
1.978999999999927	-0.001004720960084045	0.04206423743444202	-0.00466962685529907	-0.01230025396378251	-0.02534544986091799	0.004259159056751097	78.61569567282086	-28.86123482059	-9.389130871753318	28.70496559068156	-49.58472716250813	-43.48073883740592	2.456760873698531	0.8713015966637234	-21.69756881681984	-0.4432029484672457	-19.6915578023079	-15.5815235190359	5.135073382816209
1.989499999999927	-0.001766221846478844	0.02023478286925674	-0.002895886093747759	-0.008487598804115802	-0.01128899933633223	-0.008013169197815279	96.59814517189886	-20.87517997724249	-10.22803995787095	37.08399346997146	-49.2050515006863	-53.55137667944663	3.868372497628304	1.114710499982717	-25.26853449928592	-0.533235975908903	-26.3962544154438	-23.59520453038547	7.234513001636188
1.999999999999926	-0.001905682007757313	-0.0001254675049066102	-0.001156285466979957	-0.003190817225724454	0.002300431265809363	-0.02059918439319826	115.3589215006083	-12.44863097668856	-11.06916142415292	45.8730601310443	-48.66970456755693	-64.41960086875443	5.349958843387097	1.372458059897633	-29.15182417194659	-0.6288467450261763	-33.02573246971921	-31.99811553502664	9.42028022368574
