inDegrees=yes
DataType=double
version=3
OpenSimVersion=4.5-2023-11-26-efcdfd3eb
endheader
time	pelvis_tilt	pelvis_list	pelvis_rotation	pelvis_tx	pelvis_ty	pelvis_tz	hip_flexion_l	hip_adduction_l	hip_rotation_l	hip_flexion_r	hip_adduction_r	hip_rotation_r	lumbar_ext	lumbar_bend	lumbar_rota	knee_angle_l_beta	knee_angle_r_beta	knee_angle_l	knee_angle_r	ankle_angle_l	ankle_angle_r
0.95	-1.803042972918288	5.899808716253673	-1.958356233165801	-0.01147246167963306	0.8187451501701198	-0.2014817461442206	30.55751569089451	7.45060880288329	-3.815739800963208	-4.949559739562674	-4.474649523828607	-10.52316687524834	-6.892315226973577	-8.895967586399086	5.054517205493934	0.2613899170001892	0.5280862631078418	-14.97653905138573	-30.25711409491448	-8.217843411592169	10.43578527136753
0.9604999999999999	-1.959333419875378	5.900643117359452	-1.869586039155544	0.0004363635798547696	0.8175935956468422	-0.2026206914214536	30.37051882915176	7.492298079029334	-3.826570429228001	-5.031775811181398	-4.57282898014985	-10.53120266858502	-6.971949109394291	-8.947286704091685	5.126056964906776	0.2624341075060905	0.5327186229367162	-15.0363667603815	-30.52252876229493	-8.223276085958725	10.27081315766767
0.971	-2.079935886436411	5.89735400855445	-1.761588108182988	0.01308655208912291	0.8169015844639612	-0.2040356372021183	30.05234984443301	7.576300483634948	-3.817391424142681	-5.153824231155321	-4.698178154046609	-10.50702712726404	-6.933942240712848	-8.945412974736984	5.232246137990877	0.2647784792675741	0.5449633535902599	-15.17068936792416	-31.22410015001745	-8.194412197563624	9.89246398860589
0.9814999999999999	-2.17574922637134	5.893698584422838	-1.611670600674622	0.02621002165830414	0.8167363764392884	-0.2058945939036939	29.59985463168049	7.743070916788832	-3.767191083191602	-5.183468004577703	-4.871296282374558	-10.40871822196937	-6.826727822976058	-8.858994842079071	5.319719825902845	0.2682812598379107	0.5639149395392843	-15.37138391116488	-32.30994603997598	-8.121850882435851	9.38154740214082
0.992	-2.241836536298194	5.879352930907136	-1.429761989430488	0.03969546123970701	0.8170376010641106	-0.2081027031065794	29.02454171681226	7.96746952905032	-3.665270641849216	-5.127239759814242	-5.071463217047102	-10.25031345670883	-6.68007973443291	-8.695069916002442	5.396721709032175	0.272450526142812	0.5888522846520312	-15.61026527410183	-33.73875066719757	-7.996985354337244	8.581422192852756
1.0025	-2.276627235026914	5.854853148135123	-1.221577436857401	0.0534241973724476	0.8177322161503557	-0.2105220862744078	28.35291886286228	8.234622271490712	-3.503453455644657	-4.988777527483375	-5.283779490977917	-10.08610622725985	-6.519346619976239	-8.484908139784098	5.467138161067956	0.2765586150522271	0.6193678859085455	-15.84564143047582	-35.48716582849995	-7.754639723300222	7.504569735056073
1.013	-2.27451543250818	5.828598290177647	-1.006275913158557	0.06717442616412039	0.8188049150834282	-0.2129942510027762	27.55875361503361	8.53601993293189	-3.333872925993003	-4.670902423302807	-5.500266646204683	-9.981136373124123	-6.391295029568204	-8.266077696235136	5.524431572602301	0.2801387044704479	0.6552806075298474	-16.05076544441931	-37.54481320822877	-7.46547234281637	6.551437390959084
1.0235	-2.234133286311499	5.801060387278964	-0.8049205297038787	0.08074424821561131	0.820224331561317	-0.2154043519375892	26.62742656467824	8.851962111995951	-3.187598994579547	-4.088052712740033	-5.711837995759219	-9.929996194728792	-6.332044550181931	-8.053814785202103	5.560336213369569	0.283236203272345	0.6958340294415287	-16.22823905281485	-39.86835312858146	-7.117256092427767	5.686606099986512
1.034	-2.175289711699116	5.750455936230649	-0.6062809016403684	0.09411527381237984	0.8218466017386242	-0.2178822820338565	25.63224222983626	9.152625324941681	-3.013490942821544	-3.318686136723976	-5.92356038535392	-9.781148356164849	-6.315569109971642	-7.786493372232717	5.539713982670072	0.285518719843147	0.7388944502750023	-16.35901761899047	-42.3355335063967	-6.651493188198732	4.479485830163629
1.0445	-2.118112982171197	5.66163302166675	-0.3826755974264191	0.1072771306343421	0.8235324444701865	-0.2205604630752468	24.64251978967303	9.420387273062525	-2.763701467908199	-2.443877138340463	-6.146206578449613	-9.482652567829696	-6.3147828063315	-7.41566507918122	5.418691196809169	0.2864073991235329	0.783669665106142	-16.40993519109731	-44.90096434301257	-6.159410715629108	3.281704497983066
1.055	-2.058518115263301	5.555892512990419	-0.1455942134846056	0.1200753927644178	0.8252590779645749	-0.2232346238402652	23.61430624925189	9.665406791031854	-2.447538287908289	-1.378001893435466	-6.361897514533157	-9.192097431281512	-6.357600747975265	-7.009699510985999	5.221811480536982	0.2858101858521175	0.8307974965101046	-16.375717391176	-47.60119018006373	-5.620878180308704	2.542807767405856
1.0655	-1.986708691608452	5.455773266330429	0.07319823592676339	0.1323727233458623	0.8270352047900025	-0.2256654049840246	22.49578887324948	9.894400789410666	-2.094806097370937	-0.04331811120036144	-6.540968321109615	-8.979051521282686	-6.474937957043807	-6.641522959924963	4.997112638788714	0.2837376521467964	0.8788255995570147	-16.2569699569625	-50.35299778267109	-5.000248088224301	1.729926009016141
1.076	-1.912994839115622	5.349326438549059	0.2829666229010727	0.1442261738577366	0.8288454017872988	-0.2279272185359103	21.34187919348242	10.09083712872359	-1.735227052817227	1.486132872641561	-6.67445553434634	-8.753698399980417	-6.640874843457753	-6.279060481602238	4.735308894565001	0.280192605185703	0.9262491720770646	-16.05385372791617	-53.07016833750254	-4.368012474547392	0.7949889250688815
1.0865	-1.847674261544839	5.218317519277289	0.5104461206218632	0.1557245308110695	0.8306796329794951	-0.2301564376162095	20.20728518519545	10.24026037338959	-1.37140888732188	3.119508364379917	-6.76718211683376	-8.476528677989554	-6.826419371355399	-5.873889404202565	4.406686559205796	0.2751624540001619	0.9725645965402876	-15.76564729467193	-55.72384668560218	-3.722568991386745	0.2033887389096442
1.097	-1.789972751524548	5.06939156640945	0.7397369771631661	0.166866348726264	0.8325670650673286	-0.2323095975034102	19.07048815936031	10.34761933930024	-0.9746896521579723	4.871615010833518	-6.829396682051631	-8.176972099398043	-7.035141435109862	-5.440815189049496	4.028347294851017	0.2686991187417129	1.016670533834701	-15.39532546278471	-58.25093074404074	-3.042098750943101	-0.1692244956461312
1.1075	-1.741424855804535	4.914132808650194	0.9401839273105012	0.1776385648836142	0.8345227613333503	-0.2342972997926482	17.9075065518883	10.41774177192832	-0.5309961323010419	6.778760180887141	-6.863355860713454	-7.864347126381512	-7.27006276105552	-5.007780264735122	3.63521021066133	0.2608156867866994	1.057492691590733	-14.94363808368387	-60.5898680940786	-2.366683551124811	-0.521468681334072
1.118	-1.704326073710884	4.754419959784549	1.118608276867785	0.1880923112941887	0.8365195989194605	-0.2361175671728801	16.73594860925865	10.45401491693838	-0.05975999506555023	8.793965775945377	-6.862869835597929	-7.543105888247997	-7.52287997859802	-4.581002831437924	3.231133517662601	0.2515810625659262	1.094271752712997	-14.41453309044428	-62.69715307083802	-1.715350058702599	-0.8045838044604471
1.1285	-1.679308669292217	4.590885422297314	1.29051831143382	0.1982929662538447	0.8385308731467718	-0.2377899729656691	15.57583216190738	10.4610690231219	0.419856982064557	10.85569943943074	-6.825634688489576	-7.225463184886328	-7.78441991840542	-4.16254067951634	2.81103593794866	0.2411289657564464	1.126349096603737	-13.81567205619893	-64.53504949376718	-1.064018474511344	-0.9409559009359488
1.139	-1.666795271849782	4.427708460820194	1.448705996624892	0.2083009564857204	0.8405382144259439	-0.2393001722826477	14.41729017274803	10.44290417958724	0.9081439952992787	12.94862857129296	-6.756428229357238	-6.91536388878289	-8.044462413815618	-3.760777856459709	2.385976536022884	0.2296305202513221	1.153136412878328	-13.15685965779414	-66.06984966078333	-0.4135066949467745	-0.9725215994924039
1.1495	-1.668039390242782	4.269878551455844	1.583687800717772	0.2181717721801014	0.8425169654599962	-0.2406312554159452	13.24873736959371	10.4050578748841	1.404227667049649	15.06398472146658	-6.65999932406361	-6.614798042004706	-8.292913847696001	-3.385342364192751	1.968481782952565	0.2172174150652309	1.174094949934799	-12.44564111997916	-67.27068537888768	0.2026624331901221	-0.9563275486432981
1.16	-1.683901721969858	4.122235636331624	1.699937833570713	0.2279436684156262	0.8444293255945462	-0.2417895292852463	12.08053367539373	10.35789675871722	1.893525993675583	17.16784693485481	-6.539162744704969	-6.329774105687758	-8.525249064218515	-3.044050143316491	1.560373058175451	0.2040083678961442	1.188889583641981	-11.68881846580126	-68.11835544975119	0.8021105700769441	-0.895290945050341
1.1705	-1.715059024389051	3.988994009748803	1.802513681504231	0.2376521569334593	0.8462383946194775	-0.2427834924444183	10.92523688309865	10.30984715708542	2.367704739297302	19.22439228540251	-6.396598334781666	-6.064620003857019	-8.737414629060366	-2.743352540460002	1.162756336566303	0.1901620781968205	1.197286398466221	-10.89548450411455	-68.59945750053302	1.392518207567929	-0.7861116550929169
1.181	-1.762173254233962	3.87342114863899	1.890849615750587	0.247343016321802	0.8479161861861172	-0.2436194404590704	9.779440310036696	10.26349413978014	2.827853836079337	21.21294223044089	-6.238932030817357	-5.820766693490993	-8.921675313678424	-2.487123352092312	0.7782029025805108	0.1758400766145974	1.199177382060308	-10.07489425927348	-68.70780287960268	1.963917755310828	-0.6497184510399836
1.1915	-1.82610720149434	3.779114194095976	1.965127699907185	0.2570592371454459	0.8494378974011502	-0.2443067318094735	8.638939389326678	10.22148571322203	3.267029523790924	23.11638803229263	-6.075031066017117	-5.600400285914734	-9.070292221190551	-2.278978937532478	0.4075449235864399	0.161239570334785	1.19451459389655	-9.238346870685971	-68.4406447970558	2.528797936371975	-0.5092165719470811
1.202	-1.90712687315087	3.708437291912907	2.028929961008379	0.2668248587605724	0.8507836896462111	-0.2448601442180086	7.506431361792024	10.18743119829299	3.676524042719654	24.91690155076563	-5.912872730855668	-5.405438888506493	-9.180006568744959	-2.120422662263687	0.0490738716858076	0.1465452336362238	1.183389435700534	-8.396423395114214	-67.8032201860087	3.08465980439949	-0.3746249433498497
1.2125	-2.005064439047532	3.662774684392925	2.085304659379393	0.2766553405459481	0.8519355252418941	-0.2452951044051551	6.385762727341013	10.16552082667872	4.051716097514221	26.59867956802881	-5.759539490882468	-5.237318650162845	-9.249726441396726	-2.011444667318965	-0.2980523711661704	0.1319363814055107	1.165954472422832	-7.559397818764076	-66.8042703742308	3.627703371821282	-0.253322269920813
1.223	-2.118397339593893	3.642846141258581	2.133006424238912	0.2865496570939499	0.8528806128074781	-0.2456235438688516	5.280104718182546	10.15948162565185	4.395856944718089	28.15374168415872	-5.62119071621637	-5.097203476707845	-9.283235367593289	-1.950701122228246	-0.630475518598433	0.1175882818883982	1.142455579558237	-6.737312272399835	-65.45788298985943	4.171864618491821	-0.1548655249702128
1.2335	-2.245528590307563	3.649493190277664	2.170540718293718	0.2965048201931094	0.8536091601558892	-0.2458564824130125	4.192113980285827	10.17139167814739	4.712982270650456	29.57697726392181	-5.504294172193619	-4.986400259259324	-9.284700649783906	-1.936847175436047	-0.9451061571663874	0.1036790392570191	1.113175407308993	-5.940371373398373	-63.78025269656167	4.719569641277308	-0.08860852938183732
1.244	-2.386163162970904	3.682989411978496	2.201021971435372	0.3065269652892669	0.8541152345757155	-0.2460095506108727	3.121894102866694	10.19929539491468	4.992687455593658	30.86750423490392	-5.417208605601572	-4.907101570501582	-9.254457733465918	-1.967367073283549	-1.245072093167233	0.0903753450177279	1.078486046685975	-5.178125841554481	-61.79269873885543	5.257825943439886	-0.05878921716243083
1.2545	-2.539226509330282	3.743031832891081	2.228330679140128	0.3166194144620514	0.8543960250960707	-0.2461001278617585	2.069751799678283	10.24147382687771	5.222798818956365	32.02574665416195	-5.367548027498211	-4.862195695779674	-9.194365584729074	-2.038702540897561	-1.53412543840234	0.07786134051197277	1.03880013724469	-4.461126198567016	-59.51886362173141	5.794873063233384	-0.06774739826566223
1.265	-2.699886140463886	3.826942721626828	2.250749431820986	0.326764680757846	0.8544552850118405	-0.2461397933919304	1.040779336929426	10.29788959937111	5.397765782362199	33.05472744050282	-5.354543468214246	-4.854146943403838	-9.115331788925181	-2.144252828704262	-1.808220991584401	0.0664212615761673	0.994604948356717	-3.805657958248849	-56.98666582366709	6.341200795173854	-0.1172834097799131
1.2755	-2.862838641306876	3.931583039613499	2.2655021232414	0.3369466121977052	0.8542970337851304	-0.2461414734575377	0.03838879023170687	10.37059641390614	5.520428080161692	33.95850385212995	-5.374792923057099	-4.885497647011038	-9.028579164116076	-2.276230980728107	-2.062025550050839	0.05628464674627896	0.9464199833265105	-3.224872709946526	-54.22587069145079	6.880617224450064	-0.2087986338888715
1.286	-3.025282290746725	4.054713979467091	2.270101892437048	0.3471736119734855	0.8539191597867118	-0.2461273633679096	-0.944410358957381	10.46749982584891	5.627289911564421	34.7445957174151	-5.422931498582841	-4.957725433838326	-8.936952020243975	-2.42580999479365	-2.29169873338351	0.04736647254703627	0.8948463476746928	-2.713898967367457	-51.27091903445621	7.412992120682015	-0.3403152019546939
1.2965	-3.184974740161384	4.19408018588486	2.261207670479814	0.3574598000221273	0.8533184027146139	-0.2461091163196445	-1.91366189030972	10.59098448932355	5.74010107559935	35.4230277551043	-5.493889118081169	-5.071967941574644	-8.84119507630667	-2.586334400623867	-2.492268994646528	0.03966546241314639	0.8405421286323499	-2.27266358870809	-48.159516473576	7.944804245105897	-0.5097107151498615
1.307	-3.338451665443268	4.346432684653088	2.245354257614047	0.3678165829843172	0.8525005770255317	-0.2460681693841599	-2.859044967439184	10.7199001891783	5.802697906681881	36.00477185368477	-5.591931203627332	-5.231840786216028	-8.743979009490728	-2.759246287853645	-2.666408177112755	0.03402812121296096	0.7842687090511219	-1.949667730262251	-44.93528703280279	8.470272689368739	-0.713930320768154
1.3175	-3.482057589946521	4.507312961572702	2.234066812221092	0.3782538826670986	0.8514771669810887	-0.2459964946429475	-3.768979283115756	10.83503639238796	5.774224496122375	36.49749756586782	-5.720222476745369	-5.439307683863287	-8.648842749662373	-2.943134822409007	-2.821884989034681	0.03115441500328216	0.7268246397544876	-1.785016492887119	-41.64398430404862	8.985441213485792	-0.9471986435074934
1.328	-3.613667302106156	4.671592479691357	2.222974939087609	0.3887797646886705	0.850265017945432	-0.2459246557100747	-4.646538600185224	10.95066647236849	5.711642319428699	36.90316583619702	-5.86226751652996	-5.688817022626302	-8.558137877431747	-3.122850161747838	-2.953618286828467	0.03010896030363576	0.6690865766160555	-1.725116350925263	-38.33583696895658	9.464111531476306	-1.202285927368899
1.3385	-3.732763736380134	4.834446751028019	2.20013338346538	0.3994040143162476	0.8488805166104076	-0.2458711190054425	-5.497629956728975	11.08240889475693	5.671848230383336	37.2280664525702	-5.99813458952521	-5.975007138892868	-8.471705982747741	-3.284823232181395	-3.049119523717656	0.02971907166305025	0.6119879098820361	-1.70277737733962	-35.06432434927324	9.922099537154892	-1.472233807749754
1.349	-3.840609900563899	4.989556219868969	2.165957182603825	0.4101471735577001	0.8473448713489833	-0.2457983425675868	-6.329389006000308	11.20899131952101	5.642508404418006	37.48758067175909	-6.119153568594253	-6.295885964711099	-8.385502361195915	-3.429891140367879	-3.105641416761209	0.0293711268890654	0.5564900748720738	-1.682841610286655	-31.88453263108902	10.36239189356177	-1.74583744645222
1.3595	-3.938012049947655	5.130143074130725	2.129456940859808	0.4210399046918732	0.8456853195517263	-0.2456707085631683	-7.145432564650871	11.30277333829405	5.594583093489867	37.69440948603486	-6.222442173117468	-6.648566425576377	-8.293732299733534	-3.560047137300087	-3.128631807990809	0.02896223250169437	0.5035587026644588	-1.659413687623707	-28.85178839975661	10.74247529816178	-2.010857237157589
1.37	-4.02523107312506	5.2500136221553	2.106832241359626	0.4321403865695291	0.8439382211734328	-0.2454990159060522	-7.926488852395879	11.35217658911489	5.490434044967687	37.85030637496558	-6.312613043536513	-7.025702054733372	-8.183169492355729	-3.669674670332053	-3.1315740350232	0.03005027940355154	0.4541804269278056	-1.721754183012408	-26.02262160041315	11.05876808139042	-2.261676262863363
1.3805	-4.100597838939767	5.343068784494995	2.108095071311636	0.4435002855596679	0.8421450072108756	-0.2452976894485344	-8.652334589894116	11.35253562905127	5.314315993612833	37.9539817150504	-6.388978025625934	-7.412824116233219	-8.044070482129587	-3.750554860464887	-3.124237173508347	0.03417783581342588	0.4092973970454991	-1.958245745000378	-23.45101341639743	11.31556800913174	-2.489458465256148
1.391	-4.155526023180312	5.402427920911056	2.11372633433022	0.4551181266182937	0.8403550480829153	-0.2450539975734414	-9.321046637154739	11.3141777228381	5.145907598750862	38.00160937594521	-6.423451935286818	-7.795565092756031	-7.887567610030315	-3.79027337599372	-3.095952279702764	0.04121627501761078	0.3696181157436664	-2.36151860575959	-21.17755806369005	11.49751959092405	-2.680414707834079
1.4015	-4.183667299987698	5.422159373451411	2.104322896777417	0.4669910185820347	0.8386126423451702	-0.2447474513035658	-9.933602630528121	11.24598151626814	5.055519478197369	37.99104545148331	-6.390393879181163	-8.169303976440615	-7.72276317503645	-3.779469435192427	-3.036283773854489	0.05076504360693893	0.3357388669820167	-2.908622745475182	-19.2364200965737	11.59907940684415	-2.828114447995381
1.412	-4.19354006834874	5.400609070924547	2.100413776583395	0.4791632561754816	0.8369408580115634	-0.2443625538729562	-10.4853078873451	11.12576657106685	4.977829002510622	37.92758813349091	-6.303056197193446	-8.526592996713877	-7.531823638308405	-3.725342803158819	-2.966049338224662	0.06305522586615986	0.3080842073466543	-3.612798318375101	-17.65192481559664	11.59854991993989	-2.943256372321433
1.4225	-4.193742969629176	5.337244105506769	2.128024635368335	0.4916688514341932	0.8353606017165165	-0.2438996499467614	-10.96899122110184	10.92986656530519	4.835692206305736	37.81505966209264	-6.182265647894163	-8.855204898417792	-7.299611907948698	-3.634600517962279	-2.909480287092177	0.0784353628577818	0.2868765226059408	-4.494015256328073	-16.43681398670976	11.47723550744848	-3.030384639727963
1.433	-4.177566772765375	5.235489336346778	2.180752695177893	0.504455106146238	0.8339033565416401	-0.2434017678584459	-11.37812749757567	10.67509051907668	4.659748654139012	37.64817603752766	-6.036919507998163	-9.146228454972238	-7.048821291063441	-3.499515151543789	-2.859163181125046	0.09685694446978975	0.2717870827367133	-5.549494134651932	-15.57225276698659	11.22985838044553	-3.065063875831668
1.4435	-4.137042054419291	5.098878998174294	2.244240085703758	0.5174702264686589	0.8325955766884089	-0.2428919707503922	-11.71008683472435	10.38269904851204	4.499248852125753	37.42213067562179	-5.865110949794021	-9.395188693749342	-6.803367174828701	-3.314345478429858	-2.803302211385143	0.1182155025952483	0.2624460847846394	-6.773249371725558	-15.03705300789241	10.84733945819908	-3.040637929750298
1.454	-4.074026505349074	4.924788501463429	2.315407809206177	0.5307523445041152	0.8314390403964346	-0.2422841678379402	-11.97482366900005	10.04058439389057	4.359524747045993	37.13820799185535	-5.639074586955974	-9.617827136240656	-6.555206475282075	-3.092660694607873	-2.754939578345518	0.1426110100080202	0.2587911837845343	-8.171008985557503	-14.82764260604824	10.301278977644	-3.024496189432708
1.4645	-3.990135306662195	4.713649996361945	2.401715348348558	0.5443239401350481	0.8304316914138271	-0.2415300409242269	-12.18270405480117	9.637762046641072	4.232739746649443	36.79990165867798	-5.350608683576608	-9.829364930574462	-6.301161226628281	-2.846937636969112	-2.730933771782313	0.1702253276882583	0.2604831844231252	-9.753192842768634	-14.92458710157294	9.584104676276723	-3.051531972799601
1.475	-3.878200966915169	4.48326251150933	2.522806064048285	0.5580503714503073	0.8295682733579166	-0.2408109047439132	-12.33605988757532	9.198518920967137	4.105800259134747	36.4237575045025	-5.082377994085834	-10.00679824792915	-6.086441241684249	-2.566139695288649	-2.718500347861681	0.2010248319961472	0.2659724054473255	-11.51787445070567	-15.2390962990741	8.697310277471942	-2.979194224755957
1.4855	-3.730934153237017	4.249257029477798	2.682944315775163	0.5718362096821372	0.8288449676520223	-0.2402570127554484	-12.43110900093428	8.748444919834466	3.958225305705926	36.01147280697793	-4.892116076196761	-10.13692815618251	-5.945220389246013	-2.243393443978602	-2.696090235969746	0.2348829832552239	0.2740496475326838	-13.45780361996631	-15.70188818067058	7.655461933528048	-2.740242957253131
1.496	-3.544287336374957	4.002715250515973	2.857265876548197	0.5859151127510412	0.8282883418817716	-0.2396345366132576	-12.45387326685782	8.28481913026164	3.790963544345306	35.46796001191252	-4.673555887240138	-10.29053456826547	-5.82606400048357	-1.910742318135001	-2.684470031272326	0.2716326784028731	0.2856235234319544	-15.56340605031902	-16.36502242230696	6.405950054158144	-2.691511392191147
1.5065	-3.322706668092972	3.728416321477413	3.02325863309641	0.6004559711205925	0.8279540626766149	-0.2387162243993443	-12.37600716892011	7.796774821550165	3.624345898962185	34.73609183244954	-4.31882135516644	-10.47566838950666	-5.676875727635482	-1.5927910176303	-2.704975296376663	0.3113185263176982	0.3007445876533747	-17.83723764223655	-17.23139558394062	4.916207533072965	-2.815634618495586
1.517	-3.067524468192331	3.443630629090935	3.174746365898035	0.6151114963533025	0.8279683862817109	-0.2376457309352753	-12.18704054448121	7.298754441460859	3.460959198166597	33.94385878901518	-3.925489744485643	-10.60282340427348	-5.559847850253095	-1.282080433656825	-2.718617852019378	0.3539587356481543	0.3166460816750263	-20.28034167442604	-18.14248407933376	3.34860084529194	-2.519015100421743
1.5275	-2.775445374347907	3.179954489805577	3.302060823693198	0.6295502390769843	0.8284348846741973	-0.2365814057637627	-11.89379245032726	6.816575533851737	3.277651283430351	33.21566377794485	-3.623437233062868	-10.667538470259	-5.541944334825998	-0.9847025959505094	-2.681498866434544	0.399291636740716	0.3322730215899501	-22.87772558011383	-19.03784178316342	1.722719704278106	-2.146675687386773
1.538	-2.469850418885312	2.937488435055763	3.379171050917256	0.643928421805941	0.8293090564959903	-0.2353455595850887	-11.48069836846609	6.351240276634408	3.075812791520336	32.51825663093121	-3.337402302285053	-10.69451741248509	-5.553446999991794	-0.7345146497120568	-2.600164943037312	0.4470050588460509	0.3485990113579824	-25.61150329287572	-19.97325209324544	-0.1566993809361012	-2.161334946817267
1.5485	-2.168679902271974	2.706645668866522	3.405991187952695	0.6584645850408033	0.8305092946299866	-0.2337827508185542	-10.93546380639924	5.895683304756139	2.885881884529826	31.7471453162987	-2.962449288547314	-10.69312799931117	-5.519873556947959	-0.5540648239790853	-2.511182536746133	0.4967731397504838	0.3646296856572581	-28.46300428316535	-20.89174207334278	-2.298960128418616	-1.945154324802774
1.559	-1.876301014477789	2.481951842156094	3.392374225186885	0.673056627015007	0.8319302246409619	-0.232058572230926	-10.22669950491131	5.458559092370892	2.659619360643155	30.88663034833049	-2.523581594485206	-10.65322988788006	-5.452073237896699	-0.4044870868419141	-2.405165858179646	0.5488904385304318	0.3793672361321778	-31.44910554287869	-21.7361415159167	-4.149505406661089	-1.374847099205958
1.5695	-1.603546653300031	2.262843199610556	3.326871338206077	0.6875092891173182	0.8334683008201382	-0.2303299671094327	-9.319450221346246	5.049886551292369	2.354030767890984	29.99230433486988	-2.069149411476818	-10.54980496549489	-5.371969348000255	-0.2504695347460845	-2.240089774622966	0.6031881450566253	0.3932239736717935	-34.56013496406952	-22.53007409475717	-5.694319262807611	-0.9612277339524506
1.58	-1.351087149846552	2.075570300297829	3.210364259134393	0.7016876518242688	0.8350676753547398	-0.2285333241298259	-8.245142897843239	4.676925098427887	2.069687476529575	29.08958569880038	-1.634484846756338	-10.43788935523386	-5.307058159454909	-0.1420992690484389	-2.002269069062258	0.6574868566554963	0.4057924153127564	-37.67122197168288	-23.25019275584082	-7.726362025888421	-0.6934562861315088
1.5905	-1.119900785507684	1.939866956505912	3.048354748291374	0.7155132835387142	0.8366832657691957	-0.2265940838565026	-7.029224757644748	4.353932395160912	1.876172075794527	28.18463117775261	-1.23578662748873	-10.3542193740657	-5.270322634978868	-0.1261053587301844	-1.690120810332371	0.7111950838500039	0.4163659434771205	-40.74847671505792	-23.8560112942216	-9.639294869805047	-0.2635971509951909
1.601	-0.913093621766208	1.822115981022609	2.841704421777741	0.729087828586459	0.8382902391177873	-0.2245635611219428	-5.670839424878274	4.067327292919766	1.687256730451268	27.23561968868739	-0.8248953623875334	-10.22834421829727	-5.222024702873952	-0.1533863641207369	-1.313108420135547	0.7654515356139643	0.4247907894356489	-43.85714241248798	-24.33871941069312	-10.72978099456809	0.311209289084325
1.6115	-0.7251644333743792	1.689523267619087	2.590579430361164	0.7425090976901562	0.839888792775117	-0.2224946452590212	-4.199391890688001	3.790649027457396	1.441074406122515	26.19492203668985	-0.3589926546997684	-10.00746072030582	-5.137064884761091	-0.1725658262014145	-0.8811145325787019	0.8188580731984205	0.4309112750190849	-46.91711161448413	-24.68939740319466	-11.96376561147884	0.7865923683914297
1.622	-0.5512882294832884	1.56319783844624	2.297601479771215	0.7556163250226763	0.8414896051828481	-0.2203648467020089	-2.632006239790636	3.541123803522399	1.202764101776916	25.10144805142357	0.1255623681959457	-9.733404513928042	-5.062320015855103	-0.2139719928937046	-0.3921520384691709	0.8699223586809904	0.4346415111098467	-49.84287965648655	-24.9031241877827	-13.35780586259091	1.216390517716061
1.6325	-0.3905001393148337	1.465627446698683	1.968179284351117	0.7682427643676217	0.8431011955019335	-0.2181535030044617	-0.96699519053009	3.337533353847774	1.024512655146822	23.99915664581563	0.5885887764061652	-9.458808378137901	-5.042751907882313	-0.3104353031430231	0.1542756858774389	0.918457902174536	0.4358947186491399	-52.62376145504035	-24.97492769063818	-14.15350800490863	1.70590629392979
1.643	-0.2448044239798317	1.380971388298529	1.613405778893297	0.7804788267563285	0.8447431706699894	-0.2159089717487204	0.7780095097057931	3.160019604498725	0.8879356867503828	22.86440660855275	1.045885176809346	-9.144566713733647	-5.058239968860229	-0.4335309006034427	0.7417641242075986	0.9635729437309257	0.4347632863054878	-55.2086629287788	-24.91010139254231	-14.56514812492514	2.195669993349979
1.6535	-0.1161167835027447	1.291173299132144	1.246370730141655	0.7924451353010292	0.8464312563192171	-0.2136923914383938	2.582203188602957	2.990216654249461	0.7796488539115398	21.66714005763492	1.51661395855361	-8.733684870695196	-5.082182470136908	-0.5497308272879351	1.350988699803045	1.004310565236274	0.43135561401366	-57.54275670843664	-24.71485615225691	-14.90247315974669	2.67370876036469
1.664	0.00109347989973449	1.197522358697152	0.8699687398852862	0.8041270017559418	0.8481611786655198	-0.211523208719893	4.427190805265399	2.825979708519862	0.7039086261165177	20.41543702446412	1.985711330054204	-8.265858725014626	-5.129238065837567	-0.6570432647620512	1.981358047688957	1.040053491243086	0.4258636885355957	-59.59067551607536	-24.40019200096345	-15.07827541323485	3.102567664653026
1.6745	0.112245087469618	1.103895418255959	0.4836182338319475	0.8154919136508141	0.8499177854463618	-0.2094079490107848	6.29391119894461	2.665626637532327	0.6607676979525958	19.12548718834174	2.438454123524612	-7.785525818163356	-5.217981531449589	-0.7587761918512551	2.635429144964106	1.070249797916988	0.418488472539864	-61.32079644537266	-23.97762325141065	-14.97439829973825	3.513995544780371
1.685	0.2119837911100393	1.00750748992157	0.09056036928891696	0.8265647864036001	0.8516648493898692	-0.2073627718535465	8.163342180760843	2.505108147797926	0.6441851109449558	17.81928767867309	2.8800378288202	-7.27754797400215	-5.340051230215781	-0.8478992376742203	3.302204270324431	1.09439266000016	0.4094920621995072	-62.70408054810483	-23.46216690814036	-14.65618824449662	3.925038566430853
1.6955	0.2936335222330587	0.903588792284693	-0.3025689681639647	0.8373815708365836	0.8533655446556729	-0.2054097652582044	10.01873421734555	2.339879153861102	0.6510518482887989	16.51718348959563	3.316096572634119	-6.727314262396851	-5.482651704701227	-0.9144928248215275	3.966807366433727	1.112046780818723	0.3991654985221485	-63.71558716202254	-22.87049839255461	-14.20410087004979	4.297871192455196
1.706	0.3577956278668564	0.7866082073998376	-0.6873610481593463	0.8479726665043694	0.8549960280867294	-0.2035661015931974	11.84751961299291	2.160558609059317	0.6810927419026173	15.21886566606207	3.748396860086478	-6.131662319239281	-5.642847580107792	-0.9500550021552693	4.620102220721431	1.122884887744948	0.3877503495807635	-64.33656494680673	-22.21645853570002	-13.61992462658975	4.644644286344816
1.7165	0.4060435396250426	0.6516801800252308	-1.057614120777612	0.8583680530378547	0.8565323052614779	-0.2018439143362703	13.6363352274883	1.957758309202965	0.7331659393085612	13.92205507431942	4.176321729209225	-5.497337614835694	-5.818809604687257	-0.9477167532673519	5.257015089639115	1.126631852995422	0.3754904293243476	-64.55125024164107	-21.51401684784044	-12.90055409354695	4.98707167731527
1.727	0.4383156819793235	0.4964323711823308	-1.412797657668055	0.8686011633951499	0.8579435120933576	-0.2002466821059429	15.36439584508521	1.726098859922663	0.8053113352605487	12.63416508124161	4.592701686551685	-4.877619117889858	-6.005412685267234	-0.9043800833440779	5.877970743440734	1.123211312516813	0.3626450784745107	-64.35526770856312	-20.77803245778	-12.07822641122489	5.314151916300711
1.7375	0.4532898936112439	0.3206024719761342	-1.755069890927904	0.8786989971455546	0.8591960392875028	-0.1987691388005485	17.01268881793806	1.463110190596727	0.8928622315770308	11.36688635995679	4.993762501058964	-4.308954382846604	-6.19709148694631	-0.8204729057165355	6.484975861415691	1.112622874069459	0.3494822491983181	-63.74859487389568	-20.02385789380293	-11.18677710355101	5.618790069737564
1.748	0.4465620483510032	0.1268687153622235	-2.084088704094526	0.8886609358632157	0.8602525928109538	-0.1973939324548757	18.57738291045591	1.173573172008678	0.9895723683770312	10.13604449956739	5.390932587467968	-3.750047963803018	-6.390346704963211	-0.7024383258888668	7.073723496827131	1.094945722735387	0.3362016024132706	-62.7357687086393	-19.26293288381572	-10.24476763607046	5.924940588193629
1.7585	0.4142313285100843	-0.08390905098057046	-2.394630029639132	0.8984869316458995	0.8610794561625433	-0.1961125529756823	20.05743697055991	0.8609087731387927	1.092333911081563	8.954340141196445	5.793570795850428	-3.18044921391636	-6.582099441942582	-0.5539005954280503	7.635702033457931	1.070320128944378	0.3230018766581472	-61.32482611641093	-18.50664430731701	-9.271028822845674	6.222017917456821
1.769	0.3582303581912984	-0.3139489942144155	-2.680432446249855	0.908209670589585	0.8616569924052789	-0.1949372393542633	21.44379196031068	0.519773231038308	1.19700025944039	7.814319162004367	6.193826456370246	-2.648400177413941	-6.769134863717339	-0.3710590538309586	8.166989052500915	1.039043417299041	0.3100234787885466	-59.53280254208544	-17.76303688454732	-8.289389988457224	6.519847101589982
1.7795	0.2813570447520348	-0.5643152762590967	-2.940166723875283	0.917862811418339	0.8619671713969114	-0.1938710360045898	22.72615207091376	0.1447722810994362	1.294836204760104	6.707964120026098	6.584902576540653	-2.181650960804182	-6.948897386919917	-0.1523176999871519	8.668928736487192	1.001470469917303	0.2974197662908152	-57.38003123324473	-17.04089735223102	-7.321959160349866	6.828201732798488
1.79	0.184165660138953	-0.8330048193447408	-3.173996651649405	0.9274510531055358	0.8619870898532825	-0.1928893659474117	23.90137480766554	-0.2605081084372899	1.377578830829785	5.641959021494138	6.97504146943248	-1.761638325187225	-7.122027499542009	0.09454250071205052	9.140641265663696	0.9580826257002544	0.2853456044625415	-54.89409087743675	-16.34909883831298	-6.38567069574402	7.133575672946975
1.8005	0.06710548757957895	-1.11756338699967	-3.37938533930489	0.9369781653861579	0.8616945368686771	-0.191969853663062	24.96882120704564	-0.6899989044667003	1.439235600393844	4.623207673651439	7.372358528533643	-1.380105097744593	-7.28914074754096	0.3610276114392815	9.577731795984011	0.9094301896077924	0.273910705173363	-52.10651162630872	-15.69392736988591	-5.496875770435438	7.447589038984852
1.811	-0.06787130288821548	-1.414968606105551	-3.555681568209358	0.9464712463441521	0.861075161725384	-0.1911047114530793	25.92813868891893	-1.138943811083091	1.472168815916717	3.649339809930283	7.774847256984208	-1.037814291713838	-7.447398516039488	0.6419837151100097	9.977878762445391	0.8561977482480533	0.2632135382611111	-49.05651740321803	-15.08102485306688	-4.667622168828853	7.788822611703099
1.8215	-0.218511145290963	-1.723248709394	-3.704081013462815	0.9559642245782082	0.8601183493487871	-0.1902887098717046	26.77932208809461	-1.604323606848199	1.468156906851079	2.71648291936775	8.180001839323962	-0.7321304814216747	-7.592880671162106	0.9347748886279404	10.3405782964589	0.7991385466766207	0.2533726527692994	-45.7872659707887	-14.51718364771454	-3.907439606568782	8.140832810499449
1.832	-0.3834317551271348	-2.042277924954851	-3.82551522743422	0.9654962740009231	0.8588163476998759	-0.1895226620480573	27.52480846863691	-2.082961886375504	1.423672751400469	1.820892911731687	8.587184828533799	-0.4604641348489279	-7.719718483342555	1.240739344023353	10.66432275357825	0.7391308387566971	0.2444429937064032	-42.34907756872332	-14.00555187091985	-3.221266691068808	8.503390536255997
1.8425	-0.561354523195477	-2.371750852819718	-3.920348066138299	0.9751097918257404	0.8571625890795853	-0.1888103855538864	28.16821245032484	-2.56957441953847	1.337945922124353	0.9583674065270078	8.996266422278181	-0.2171783778288959	-7.821178696782074	1.561700661857657	10.94662670957662	0.6771148495612562	0.2364607020237273	-38.79582312549564	-13.54820024666014	-2.61172830587876	8.895875100796651
1.853	-0.7503154810324028	-2.711884427262308	-3.985546981364385	0.9848539651070054	0.8551555256793365	-0.188161691768769	28.71433947784353	-3.055102727186059	1.21285132511649	0.1244783374378068	9.411095728185414	0.01639808036408988	-7.88942207569749	1.900939315977439	11.18114990813051	0.614117873475106	0.2294939778215724	-35.18636227367266	-13.14903635284502	-2.077920793254219	9.310496365757237
1.8635	-0.9485993999686371	-3.063754955143519	-4.017003714076655	0.9947802704410754	0.8527956009361085	-0.187589513122029	29.1694151236008	-3.530363831735814	1.051851043395595	-0.6851489143625813	9.837186812161894	0.262792806573155	-7.915580549128644	2.263360832827243	11.360839739055	0.5512115224507002	0.2235947290621288	-31.58209385540574	-12.81103429663111	-1.616583376038243	9.737302945605643
1.874	-1.156001369967672	-3.430389342051085	-4.012474189113918	1.004942989520494	0.8500862695763575	-0.1871103389484902	29.54162773336638	-3.989149449808742	0.8633650108486944	-1.47436572618075	10.28075253707398	0.5313090253714209	-7.887939291257978	2.657605924303837	11.48216827364337	0.48948823951835	0.2187831740084046	-28.04561024569021	-12.53535249915787	-1.221751265392316	10.18227326690471
1.8845	-1.372616420805109	-3.811990875787194	-3.972355788098086	1.015395509873737	0.8470333529436649	-0.1867410713031837	29.8388910448338	-4.42377875235734	0.6564543955111315	-2.246046589762007	10.74333573783767	0.8287192584311995	-7.794132042328778	3.089569798318093	11.54398866109018	0.4300335889533521	0.2150898558144993	-24.63910969589073	-12.32374095424822	-0.8862775885151019	10.64339936353308
1.895	-1.597884305621415	-4.196227189660699	-3.906217791601396	1.026186080735276	0.8436500439673909	-0.1864959098265225	30.06466023473205	-4.819358500657888	0.4361129206535133	-3.000898070523377	11.20712934877937	1.164047608583135	-7.62265484812352	3.551299850968466	11.55200525454926	0.3738721958692513	0.2125844911591887	-21.42129890059655	-12.18019413335767	-0.6047049582209294	11.10402622429953
1.9055	-1.830413175959632	-4.571420690306351	-3.820593095076945	1.037354689370673	0.8399514099900812	-0.1863950846042775	30.22344697644674	-5.161252215545425	0.2104022406095067	-3.741350254791443	11.65440036996379	1.537330455720199	-7.364904020322609	4.035947849890192	11.5096720370287	0.3219556382767582	0.2113138170513542	-18.44669926369883	-12.10738986984221	-0.3693896236094885	11.56671932953833
1.916	-2.065388491824959	-4.943867774668005	-3.701014553637856	1.048913885501822	0.835953251447124	-0.186483591321044	30.32856546596555	-5.444062192080072	-0.004468744519288573	-4.477941832631334	12.09468644038735	1.947149953140261	-7.023107252188926	4.557613385485217	11.40527519308163	0.2749844112053088	0.2112273049950807	-15.75544619395414	-12.10243309414074	-0.1725665997332674	12.01778278698784
1.9265	-2.298302325869678	-5.317412832857658	-3.537163038881688	1.060862154599489	0.8316713383888892	-0.1867952153021357	30.39424742983017	-5.665007037134242	-0.1983872437055052	-5.21958213261926	12.53567948393093	2.397520286553684	-6.601907875492455	5.125430796894636	11.23075101747223	0.2335202533326775	0.2122603164087984	-13.37972494678822	-12.1616202883356	-0.01050635251286236	12.43514027895664
1.937	-2.528967576728947	-5.666107298853318	-3.357477683768279	1.073169783539065	0.8271240899827866	-0.1872961701272743	30.43028212521131	-5.82225780352714	-0.3681866944773599	-5.963200708133049	12.93890207991879	2.85325347481287	-6.107867132925826	5.707209480805751	11.01008235241109	0.1979458488373611	0.2143363218250116	-11.34146171051536	-12.28056663693092	0.1190055202336384	12.82315054811804
1.9475	-2.756972991623408	-5.960065871018161	-3.197061693885941	1.085787749452166	0.8223329649580733	-0.1879270682500515	30.44419127688233	-5.916624404504229	-0.5085803800071493	-6.701091672889505	13.26298199239235	3.263082329228445	-5.55364853780311	6.262047881735165	10.77521246033346	0.1685133669085467	0.217373483242353	-9.655104715399235	-12.45458316784455	0.2196600217966533	13.18454336810409
1.958	-2.977088622740319	-6.182098494506437	-3.069962462043482	1.098615474138297	0.8173210702166916	-0.188607835630879	30.44404068757784	-5.949940357695941	-0.6244014405372097	-7.415267205263691	13.50445338670038	3.617380639151835	-4.970573919235282	6.753252649318654	10.5476706704636	0.1451508928357835	0.221262071999145	-8.316533552046092	-12.67738289187076	0.2925915517857234	13.47185180031395
1.9685	-3.181974504638932	-6.323429718147758	-2.976776123801141	1.111505678010621	0.8121119052186382	-0.1892615481262545	30.43792938668708	-5.92211742887899	-0.7215359728215742	-8.072416222068462	13.68020942557709	3.926707493622352	-4.403173990650447	7.15037398475287	10.34178917509062	0.1276738411907893	0.2257354225715413	-7.315172254455752	-12.9336869999515	0.3377166285696488	13.72850621358969
1.979	-3.359146533439992	-6.405429239092099	-2.883578732371967	1.124174389533215	0.8067427655167216	-0.1898402259083576	30.43215131569685	-5.835469166064495	-0.7850227995298709	-8.58780245482658	13.86560645055517	4.158297574568788	-3.93225464541122	7.452742283317687	10.15120536404374	0.1158048125398393	0.2298374931571179	-6.635127005836464	-13.16871833176979	0.3592339003000625	13.91305450885057
1.9895	-3.498251278838152	-6.435520994265907	-2.778338583332854	1.136374392360555	0.8012602599862844	-0.1902558927151545	30.41092685120827	-5.690808360671704	-0.8114342749038187	-8.870353731769907	14.12225951744555	4.282094294948215	-3.628723715281795	7.641008433353129	9.990885694133146	0.1092307264480802	0.2326320095877892	-6.258459618623013	-13.32883232902722	0.3627073171105449	14.0093502350011
2	-3.609389205486029	-6.33422293446097	-2.772619760687525	1.148140185775254	0.7957211920540364	-0.190237294779066	30.28260331968162	-5.478192464938977	-0.8489369940312265	-8.850061951090879	14.38518123784871	4.323470201718212	-3.480218499201189	7.593139499209451	9.98271522221002	0.1076131121707244	0.2338990998336424	-6.165777147650421	-13.40143125237681	0.3540365795528252	14.06134145314537
