Coordinates
version=1
nRows=53
nColumns=34
inDegrees=yes

Units are S.I. units (second, meters, Newtons, ...)
If the header above contains a line with 'inDegrees', this indicates whether rotational values are in degrees (yes) or radians (no).

endheader
time	pelvis_tilt	pelvis_list	pelvis_rotation	pelvis_tx	pelvis_ty	pelvis_tz	hip_flexion_l	hip_adduction_l	hip_rotation_l	hip_flexion_r	hip_adduction_r	hip_rotation_r	knee_angle_l_beta	knee_angle_r_beta	knee_angle_l	knee_angle_r	ankle_angle_l	ankle_angle_r	subtalar_angle_l	subtalar_angle_r	mtp_angle_l	mtp_angle_r	lumbar_ext	lumbar_bend	lumbar_rota	shoulder_flexion_r	shoulder_adduction_r	shoulder_rotation_r	elbow_flexion_r	shoulder_flexion_l	shoulder_adduction_l	shoulder_rotation_l	elbow_flexion_l
      0.17000000	     26.89205596	     -8.63974870	      3.97119145	      0.09109396	      0.90091895	     -0.23752708	    -33.85109171	    -10.49471787	     -7.66553764	     -9.78667611	     11.76496610	      0.80176905	      0.72087361	      0.28563854	    -41.30301523	    -16.36588293	    -10.38724222	     -3.49740310	     -6.57711083	     -7.06872187	      6.04264428	    -15.87315045	    -47.74429647	     11.68859893	      3.13584052	     -0.46538818	     -3.56316804	    -19.72537355	     34.09179797	      5.96419282	     -2.34554672	     -6.51991904	     49.45185337
      0.18000000	     27.04842294	     -8.89149631	      4.15224804	      0.10292489	      0.90226117	     -0.23576836	    -32.36567315	    -11.27245768	     -7.72798845	    -10.87648770	     12.30179939	      1.17356756	      0.77011441	      0.28220993	    -44.12430535	    -16.16943775	    -11.33112478	     -2.69407326	     -7.54918075	     -7.34701095	      5.87471462	    -15.77576502	    -47.85257531	     11.86317090	      3.29973176	     -0.33214083	     -3.56142073	    -19.53761793	     34.23568461	      5.66479305	     -2.27466067	     -6.50661233	     48.91557503
      0.19000000	     26.90892139	     -8.95079740	      4.35461195	      0.11402936	      0.90330051	     -0.23421184	    -30.32212068	    -11.79121189	     -7.49142335	    -11.51027808	     12.60097063	      1.17246724	      0.81983118	      0.28167879	    -46.97286626	    -16.13900609	    -11.88958385	     -2.20726397	     -9.72909272	     -7.78707150	      4.92006158	    -15.79818207	    -47.69815475	     11.90775351	      3.30713145	     -0.06842932	     -3.57626266	    -19.31120815	     34.28148130	      5.54314819	     -2.23285345	     -6.31812765	     48.12829230
      0.20000000	     27.02274605	     -8.70943188	      4.46486663	      0.12491547	      0.90488756	     -0.23261347	    -28.59031864	    -11.83658726	     -7.09471836	    -12.59578049	     12.57352745	      1.32449266	      0.86366050	      0.27676657	    -49.48410170	    -15.85755618	    -12.20442856	     -1.39825050	    -11.63894314	     -7.99986830	      0.02458728	    -15.92610560	    -47.83286709	     11.62628322	      3.25689073	      0.19691031	     -3.54954232	    -19.11371115	     34.39831357	      5.42250768	     -2.22250898	     -6.17286323	     47.45029131
      0.21000000	     27.03530075	     -8.55566389	      4.68776463	      0.13568834	      0.90625960	     -0.23114940	    -26.68494823	    -12.04842914	     -6.60372099	    -13.60029099	     12.64540215	      1.23769591	      0.90356841	      0.26941651	    -51.77065658	    -15.43642922	    -11.67183200	     -0.86062858	    -12.76268617	     -8.17439683	     -0.82202389	    -15.90952686	    -47.84680281	     11.48201336	      3.20694391	      0.47957279	     -3.52575612	    -18.91035803	     34.51420408	      5.32429682	     -2.22981582	     -5.95610977	     46.68819196
      0.22000000	     27.16365024	     -8.21332007	      4.86348262	      0.14637328	      0.90786680	     -0.22972629	    -24.97982620	    -11.97983696	     -6.12694197	    -14.82161695	     12.51525259	      1.17392277	      0.93563466	      0.25987028	    -53.60791726	    -14.88947019	    -10.86705532	     -0.18599248	    -13.97809281	     -8.36281471	     -1.40041292	    -15.88282616	    -47.97351448	     11.14992242	      3.09825724	      0.74027927	     -3.49496270	    -18.69343188	     34.75485263	      5.23509577	     -2.24359190	     -5.79698815	     45.92138790
      0.23000000	     27.32250883	     -7.78256425	      4.87153760	      0.15678418	      0.90965062	     -0.22814383	    -23.36303557	    -11.66758190	     -5.68446520	    -16.14186889	     12.24455835	      1.33685791	      0.96139372	      0.24812317	    -55.08380250	    -14.21641039	    -10.03686564	      0.26091643	    -14.84211133	     -8.35486738	     -1.68220370	    -15.87037347	    -48.19028147	     10.60311569	      3.14198813	      1.02028568	     -3.47668794	    -18.53029309	     34.94371802	      5.16255443	     -2.20789783	     -5.73091649	     45.32758453
      0.24000000	     27.30997939	     -7.08437874	      5.23625191	      0.16685460	      0.91114627	     -0.22745210	    -21.32688173	    -11.04001383	     -4.76242441	    -17.15627271	     11.70201021	      0.41446518	      0.98812334	      0.23906989	    -56.61529690	    -13.69769563	     -8.91785202	      1.05653260	    -15.83885975	     -7.75124214	     -7.94412190	    -15.29064528	    -48.20105048	     10.13845760	      2.78419049	      1.31100749	     -3.42053133	    -18.46961924	     35.20142852	      5.24036737	     -2.28083076	     -5.23658299	     44.33743853
      0.25000000	     27.37557488	     -6.59147420	      5.18769653	      0.17707706	      0.91277180	     -0.22595599	    -19.69422252	    -10.55046732	     -4.44332275	    -18.39844656	     11.34039757	      0.46897090	      1.00232931	      0.22593237	    -57.42923901	    -12.94497111	     -7.88292065	      1.35626739	    -16.39163948	     -7.79923866	     -7.89657415	    -15.31274428	    -48.35201381	      9.51113072	      2.80349208	      1.61405803	     -3.42000459	    -18.28316203	     35.50159023	      5.13751730	     -2.24509851	     -5.24523526	     43.72805274
      0.26000000	     27.39720026	     -5.90238137	      5.46663401	      0.18717785	      0.91418190	     -0.22513331	    -17.92463474	     -9.85430626	     -3.67349669	    -19.53551867	     10.84413273	     -0.23722575	      1.01278683	      0.21416173	    -58.02841077	    -12.27056353	     -6.68493947	      1.81079127	    -16.73134031	     -7.75839848	     -8.01938099	    -15.24117958	    -48.39221071	      8.97662507	      2.50237309	      1.91611690	     -3.39746103	    -18.05647519	     35.78273307	      5.14764617	     -2.31258126	     -4.93375128	     42.78315312
      0.27000000	     27.35448765	     -5.41740799	      5.40072925	      0.19732171	      0.91548998	     -0.22387625	    -16.25563497	     -9.27421358	     -3.44164547	    -20.68071431	     10.45916716	     -0.27794820	      1.01627273	      0.19991320	    -58.22813808	    -11.45418262	     -5.83035670	      2.08909938	    -16.96299623	     -7.61536311	     -8.01644223	    -15.22138580	    -48.43801343	      8.37164216	      2.55318257	      2.23608915	     -3.41286520	    -17.90304620	     36.17053868	      5.00500841	     -2.26381069	     -4.95153009	     42.20376305
      0.28000000	     27.47750203	     -4.65965294	      5.63262556	      0.20755625	      0.91684554	     -0.22327914	    -14.82400448	     -8.40699418	     -2.80426231	    -22.01770109	      9.86908163	     -1.17218824	      1.01368609	      0.18575539	    -58.07993462	    -10.64299959	     -4.65363421	      2.64934205	    -16.57181454	     -7.11961678	     -8.13416859	    -14.95227670	    -48.55978106	      7.75778144	      2.27383710	      2.48898248	     -3.42150605	    -17.70726358	     36.54807544	      4.97916143	     -2.30574973	     -4.64608135	     41.25616212
      0.29000000	     27.47533922	     -4.13574509	      5.64546321	      0.21785877	      0.91784876	     -0.22239727	    -13.38270184	     -7.72631698	     -2.52369753	    -23.22484456	      9.46035383	     -1.45203669	      1.00544168	      0.17109552	    -57.60756459	     -9.80305095	     -3.76163598	      3.07336693	    -16.31235132	     -6.78455070	     -8.16583647	    -14.74832615	    -48.58944605	      7.18232023	      2.25761791	      2.74912436	     -3.47903955	    -17.51403433	     37.05215080	      4.83270556	     -2.25522832	     -4.69380884	     40.52516085
      0.30000000	     27.28504078	     -3.90267908	      5.55584462	      0.22821809	      0.91838609	     -0.22132032	    -11.79095694	     -7.35375965	     -2.50388312	    -24.14065218	      9.31093130	     -1.54933884	      0.99268247	      0.15852771	    -56.87651583	     -9.08296875	     -3.36488241	      3.28262124	    -16.17864353	     -6.67030111	     -8.16730757	    -14.72145251	    -48.45967465	      6.76902604	      2.42801827	      3.08077020	     -3.54698756	    -17.38226960	     37.48697022	      4.52234060	     -2.19972824	     -4.76065673	     40.12867869
      0.31000000	     27.63318622	     -3.14246357	      5.59937831	      0.23892162	      0.91950240	     -0.22068987	    -11.03423535	     -6.43555165	     -2.23570290	    -25.90451727	      8.66673385	     -2.35179858	      0.97164087	      0.13938121	    -55.67092126	     -7.98595482	     -2.14670045	      3.94376950	    -14.87284017	     -5.58412820	     -8.00995916	    -13.84974817	    -48.76679895	      6.04310648	      2.28068664	      3.24823983	     -3.59999331	    -17.07485073	     38.08559426	      4.35091944	     -2.19643116	     -4.77357427	     39.29976954
      0.32000000	     27.64167994	     -2.71755152	      5.54165263	      0.24950060	      0.91989408	     -0.21991798	     -9.90965950	     -5.83041535	     -2.14889062	    -27.14352755	      8.34537152	     -2.60263259	      0.94777555	      0.12404819	    -54.30353916	     -7.10743786	     -1.58872737	      4.26433309	    -14.26645452	     -5.43320118	     -7.88533383	    -13.52637834	    -48.78512603	      5.51422213	      2.32099186	      3.51455206	     -3.69746861	    -16.76541800	     38.61936280	      4.06288827	     -2.14983447	     -4.93644091	     38.70047747
      0.33000000	     27.70829922	     -2.33506226	      5.44295726	      0.26020888	      0.92013367	     -0.21913534	     -8.98030879	     -5.28547132	     -2.17127133	    -28.47217967	      8.05082452	     -2.82165635	      0.91849120	      0.10794326	    -52.62566925	     -6.18469340	     -1.02382249	      4.59374887	    -13.49302399	     -5.13668947	     -7.63728071	    -13.12682598	    -48.84632238	      4.99869999	      2.38558538	      3.76687849	     -3.80112789	    -16.44222344	     39.20207845	      3.70374945	     -2.10145121	     -5.17638877	     38.22112441
      0.34000000	     27.73231542	     -2.00366754	      5.35961138	      0.27093152	      0.92006956	     -0.21843468	     -8.08710448	     -4.77600296	     -2.15149443	    -29.72558323	      7.81326744	     -2.97897514	      0.88501554	      0.09276784	    -50.70765548	     -5.31520581	     -0.51530066	      4.94647549	    -12.77446358	     -4.94060819	     -7.34233653	    -12.78631829	    -48.86717393	      4.53760742	      2.47004073	      4.01548685	     -3.91811914	    -16.09502373	     39.82577896	      3.33709714	     -2.04148069	     -5.49831116	     37.74557017
      0.35000000	     27.48293617	     -1.84501553	      5.34969491	      0.28150472	      0.91930541	     -0.21793861	     -6.84352724	     -4.40630519	     -2.02021059	    -30.62254801	      7.75773626	     -2.94690375	      0.85116564	      0.07846332	    -48.76819874	     -4.49561701	     -0.11290446	      5.30106280	    -12.36294778	     -4.89439145	     -7.23807773	    -12.68187537	    -48.63928904	      4.25785435	      2.63104894	      4.26157068	     -4.05635733	    -15.79639520	     40.51767617	      2.99136993	     -1.96132831	     -5.81703106	     37.27888252
      0.36000000	     27.76977902	     -1.40079405	      5.20587121	      0.29247785	      0.91930828	     -0.21726658	     -6.60159954	     -3.81209203	     -2.11351027	    -32.19338719	      7.40966063	     -3.18228531	      0.80480877	      0.06347920	    -46.11214582	     -3.63708997	      0.42278114	      5.60204194	    -11.25761389	     -4.71096160	     -6.73434301	    -12.37177676	    -48.91534604	      3.69345644	      2.64935869	      4.49646763	     -4.15018334	    -15.40849061	     41.11321585	      2.52017584	     -1.92088313	     -6.23623051	     36.98004432
      0.37000000	     27.64725048	     -1.14407313	      5.17317239	      0.30316360	      0.91841482	     -0.21688448	     -5.79787020	     -3.33585375	     -1.96384773	    -33.23680339	      7.25735591	     -3.24004819	      0.76044846	      0.04946524	    -43.57048710	     -2.83414924	      0.93681388	      5.95981491	    -10.62660384	     -4.63182095	     -6.38648192	    -12.16943247	    -48.82680197	      3.33472102	      2.72260070	      4.72929114	     -4.28883071	    -15.04775126	     41.86377879	      2.14586037	     -1.85007977	     -6.69544336	     36.56494112
      0.38000000	     27.84565228	     -0.75461602	      5.07497606	      0.31402542	      0.91791662	     -0.21641828	     -5.63009246	     -2.79762922	     -1.97050223	    -34.66289516	      6.95854733	     -3.68003086	      0.70592167	      0.03470356	    -40.44633258	     -1.98836751	      1.11135500	      6.14589297	     -9.95552255	     -4.16411816	     -3.00699960	    -10.32581133	    -49.03848267	      2.85812669	      2.61661315	      5.07336429	     -4.37421278	    -14.60119364	     42.41135754	      1.58783240	     -1.83441200	     -7.29859129	     36.49291832
      0.39000000	     27.87185653	     -0.43482464	      5.04010548	      0.32472750	      0.91701004	     -0.21612556	     -5.29911541	     -2.27975462	     -1.86342817	    -35.82971760	      6.77203693	     -3.78198450	      0.65157048	      0.02251883	    -37.33223879	     -1.29023370	      1.53458755	      6.38846314	     -9.05958193	     -4.26094671	     -2.84860431	    -10.32510470	    -49.10711197	      2.47673370	      2.65660334	      5.31107791	     -4.47167430	    -14.35865550	     43.10428383	      1.19879448	     -1.79930769	     -7.71824181	     36.18386632
      0.40000000	     27.92476196	     -0.13301740	      4.98751325	      0.33542455	      0.91605287	     -0.21592422	     -5.13840716	     -1.76621736	     -1.69804711	    -37.00153843	      6.58770139	     -3.98916928	      0.59318662	      0.01123416	    -33.98708992	     -0.64366984	      1.88810164	      6.63256451	     -8.16212227	     -4.19311818	     -2.56337269	    -10.25860959	    -49.21585674	      2.11129727	      2.65583949	      5.59159298	     -4.55578146	    -14.08473056	     43.77087225	      0.75877463	     -1.75647893	     -8.19161454	     35.92600284
      0.41000000	     27.90336659	      0.10804412	      5.02815575	      0.34600105	      0.91486296	     -0.21596560	     -4.97719947	     -1.29884016	     -1.35153495	    -37.99472702	      6.49846948	     -4.21511019	      0.53299754	      0.00289228	    -30.53850945	     -0.16571543	      2.20790757	      6.90795569	     -7.37761309	     -4.16106943	     -2.33774704	    -10.17894256	    -49.25952025	      1.86266706	      2.65506508	      5.86297572	     -4.65376493	    -13.81144588	     44.44296031	      0.39231767	     -1.70116862	     -8.66672754	     35.55687108
      0.42000000	     28.08103947	      0.43748683	      4.96271267	      0.35682141	      0.91391964	     -0.21587850	     -5.26797376	     -0.79445483	     -1.28363152	    -39.27198117	      6.29058599	     -4.56555549	      0.46778254	     -0.00704718	    -26.80196540	      0.40377348	      2.23588925	      7.08567961	     -6.48247434	     -3.86061547	     -1.94300709	    -10.01400451	    -49.47878855	      1.48840600	      2.60212477	      6.16314317	     -4.71118079	    -13.57360646	     45.00504721	     -0.08491095	     -1.69157055	     -9.14103293	     35.40564903
      0.43000000	     28.11900826	      0.59156417	      5.03221392	      0.36745734	      0.91264472	     -0.21611535	     -5.41085040	     -0.44836868	     -0.91987578	    -40.24153731	      6.29354374	     -4.88498294	      0.40409864	     -0.01239415	    -23.15314667	      0.71013277	      2.23934974	      7.35197686	     -5.79039807	     -3.68841169	     -1.71387666	     -9.85569513	    -49.57081988	      1.35121974	      2.59315714	      6.47094763	     -4.78000330	    -13.32970191	     45.58866005	     -0.45484739	     -1.64279674	     -9.58479435	     35.00801998
      0.44000000	     28.27446236	      0.77688640	      4.99791554	      0.37835516	      0.91146930	     -0.21630720	     -5.86767626	     -0.08461235	     -0.74244137	    -41.37415477	      6.20684082	     -5.26222846	      0.33849723	     -0.01814744	    -19.39446281	      1.03977165	      1.96077633	      7.54149842	     -5.15657803	     -3.29437816	     -1.48269785	     -9.65083120	    -49.74819970	      1.13236958	      2.59539374	      6.76572236	     -4.83630542	    -13.10379340	     46.10356804	     -0.89128405	     -1.60688706	    -10.00238394	     34.71410728
      0.45000000	     28.41251308	      0.89199932	      4.95517758	      0.38937456	      0.91020505	     -0.21661327	     -6.37189133	      0.20369855	     -0.54383306	    -42.41518782	      6.15181089	     -5.64921155	      0.27562980	     -0.02130294	    -15.79242451	      1.22056860	      1.51917568	      7.76613060	     -4.69870523	     -2.72039626	     -1.26081574	     -9.37101472	    -49.88648832	      0.96453088	      2.65584806	      7.05051236	     -4.90676567	    -12.87310462	     46.55159927	     -1.33671997	     -1.55670771	    -10.39176226	     34.40753014
      0.46000000	     28.54605402	      0.90932663	      4.94784711	      0.40045408	      0.90885239	     -0.21707914	     -6.88431288	      0.38487877	     -0.32435040	    -43.38085329	      6.18265514	     -6.01280241	      0.21753248	     -0.02190762	    -12.46369290	      1.25521408	      0.98285283	      8.01968237	     -4.39001181	     -2.15841716	     -1.17318353	     -9.11314736	    -49.99616702	      0.91457162	      2.73096491	      7.33163308	     -4.96588277	    -12.65235200	     46.98441624	     -1.74404203	     -1.50410762	    -10.72644576	     33.96659097
      0.47000000	     28.45527817	      0.69207771	      5.10295672	      0.41135624	      0.90712554	     -0.21788501	     -7.01254918	      0.31800950	      0.25040872	    -43.93680138	      6.46923756	     -6.15393654	      0.16929135	     -0.01777978	     -9.69967960	      1.01870652	      0.70026810	      8.25030640	     -3.97915147	     -1.99271378	     -1.27385631	     -9.01155249	    -49.89096167	      1.14528045	      2.92236979	      7.61099345	     -5.05379700	    -12.48324308	     47.32341505	     -2.05855800	     -1.42967555	    -10.96151142	     33.45579642
      0.48000000	     28.79799969	      0.84630869	      4.91243132	      0.42300901	      0.90606670	     -0.21835251	     -7.90720675	      0.65310227	      0.10168626	    -45.11846968	      6.22590254	     -6.83422238	      0.12110602	     -0.01602071	     -6.93886373	      0.91791933	     -0.29944284	      8.67226801	     -4.29411057	     -0.50650757	     -1.33506607	     -8.65413451	    -50.14412550	      0.89420312	      2.92380585	      7.84582579	     -5.06634406	    -12.25191358	     47.71949994	     -2.53674198	     -1.40001643	    -11.25147271	     32.99667984
      0.49000000	     28.99341813	      0.77767162	      4.79706558	      0.43449911	      0.90485100	     -0.21897131	     -8.48617591	      0.75008180	      0.07083886	    -45.97767475	      6.17726258	     -6.94499396	      0.08484340	     -0.00958259	     -4.86116886	      0.54904221	     -0.98191187	      8.82405297	     -4.33968045	      0.02721580	     -1.55551400	     -8.57869465	    -50.25357066	      0.85424769	      3.09986584	      8.05147450	     -5.10774481	    -12.05425738	     48.06461441	     -2.88496867	     -1.35303623	    -11.40070473	     32.38200724
      0.50000000	     29.11189368	      0.80340463	      4.72735038	      0.44607001	      0.90356799	     -0.21991467	     -8.90379510	      0.97360273	      0.22457556	    -46.69235138	      6.03117302	     -7.37169728	      0.05917327	     -0.00054285	     -3.39037869	      0.03110286	     -1.55207265	      9.17861189	     -4.62841672	      1.02145628	     -1.81976313	     -8.56199665	    -50.30561999	      0.79461974	      3.16640002	      8.23534364	     -5.12740287	    -11.96779728	     48.36473410	     -3.24086556	     -1.31909432	    -11.48937784	     31.86836991
      0.51000000	     29.15043874	      0.74322307	      4.69654364	      0.45763748	      0.90229182	     -0.22090003	     -9.10988014	      1.08838890	      0.32915880	    -47.20545781	      5.96229923	     -7.42956990	      0.04516552	      0.01196625	     -2.58779360	     -0.68561550	     -1.77825343	      9.14492761	     -4.61811060	      1.22854592	     -1.91147916	     -8.53398771	    -50.28518656	      0.80912419	      3.23487051	      8.41877367	     -5.12314486	    -11.85280656	     48.62408738	     -3.55096724	     -1.28018914	    -11.58415032	     31.29474669
      0.52000000	     29.29200743	      0.80712349	      4.54472206	      0.46934584	      0.90132564	     -0.22185241	     -9.40342623	      1.35672443	      0.28094094	    -47.77566875	      5.67557318	     -7.47866063	      0.04022798	      0.02695844	     -2.30489363	     -1.54460490	     -2.12712789	      9.04255779	     -4.78565488	      1.61067451	     -1.99091562	     -8.50083124	    -50.36662102	      0.67298842	      3.28794380	      8.55403120	     -5.10459115	    -11.75794593	     48.87338950	     -3.84371648	     -1.27283963	    -11.64747060	     30.72033248
      0.53000000	     29.55051959	      1.09409767	      4.16599090	      0.48157038	      0.90069173	     -0.22270886	     -9.95275979	      1.91383698	      0.02048590	    -48.47950472	      5.00815895	     -7.91461825	      0.03887249	      0.04382782	     -2.22722965	     -2.51114892	     -3.09045867	      9.41807686	     -5.69270478	      3.21668046	     -2.20727599	     -8.44978572	    -50.51648688	      0.21259744	      3.44655244	      8.49924362	     -5.12581341	    -11.73226854	     49.14928173	     -4.07568654	     -1.25469300	    -11.55983267	     30.12002200
      0.54000000	     29.59822907	      1.35881087	      4.04619921	      0.49368109	      0.89984032	     -0.22386769	    -10.02352907	      2.40554100	      0.17400556	    -48.80242194	      4.52152613	     -8.35052323	      0.05122858	      0.06511851	     -2.93518139	     -3.73101574	     -3.54723121	      9.39069318	     -6.34184762	      4.21377857	     -2.28496778	     -8.35568910	    -50.50232923	     -0.07697471	      3.40801167	      8.45497447	     -5.05392785	    -11.79625739	     49.39261283	     -4.28814906	     -1.29112284	    -11.50552571	     29.57579256
      0.55000000	     29.67236566	      1.66198823	      3.88279396	      0.50585124	      0.89921906	     -0.22504763	    -10.07227763	      2.93459711	      0.30507382	    -49.06128567	      3.95592842	     -8.61470021	      0.07066306	      0.08927861	     -4.04869501	     -5.11528742	     -3.94943087	      9.01026543	     -6.92902953	      4.87399057	     -2.33751593	     -8.15276049	    -50.52304604	     -0.41450905	      3.35288678	      8.38842836	     -4.95995589	    -11.89167962	     49.58425854	     -4.47366804	     -1.32359228	    -11.45796331	     29.10322636
      0.56000000	     29.68222593	      2.00891580	      3.80477899	      0.51823462	      0.89860904	     -0.22646888	     -9.99947404	      3.51835549	      0.73973376	    -49.14834734	      3.37753020	     -9.05261591	      0.09589886	      0.11719333	     -5.49460005	     -6.71468317	     -4.44320259	      8.52474081	     -7.93476411	      5.75252319	     -2.55704371	     -7.50158414	    -50.47226024	     -0.72723519	      3.26781528	      8.21880457	     -4.84907831	    -12.12452181	     49.76468310	     -4.62268050	     -1.37766084	    -11.30579982	     28.59876993
      0.57000000	     29.77117097	      2.40536200	      3.61532197	      0.53078182	      0.89831553	     -0.22768849	    -10.01596142	      4.13313146	      0.74254957	    -49.22657417	      2.69394080	     -9.23201929	      0.12455207	      0.14780881	     -7.13630812	     -8.46882102	     -4.77711069	      7.47724275	     -8.30683822	      5.98906424	     -2.57333699	     -7.24460944	    -50.50292864	     -1.15003793	      3.13403880	      8.05087028	     -4.71217373	    -12.22402979	     49.89863093	     -4.81514444	     -1.43161121	    -11.33455791	     28.25611534
      0.58000000	     29.69355865	      2.79985280	      3.52341899	      0.54333271	      0.89794180	     -0.22909165	     -9.79165477	      4.75150192	      1.10031890	    -48.95742152	      2.03943079	     -9.48442781	      0.15713480	      0.18369970	     -9.00316099	    -10.52521754	     -5.14296442	      6.35537809	     -8.95173702	      6.35829347	     -2.69136796	     -6.68887001	    -50.38779736	     -1.53142821	      3.03836017	      7.80091230	     -4.56810092	    -12.45588953	     49.98981103	     -4.91633697	     -1.48322585	    -11.34788706	     27.93902855
      0.59000000	     29.58577311	      3.21553466	      3.49474073	      0.55596038	      0.89766126	     -0.23068524	     -9.55880882	      5.40182991	      1.58483136	    -48.50405410	      1.37502716	     -9.80851854	      0.19036481	      0.22395953	    -10.90710035	    -12.83193594	     -5.43732161	      4.89039253	     -9.72158143	      6.70300394	     -2.89176362	     -5.96984172	    -50.24964940	     -1.86906516	      2.88645594	      7.50361783	     -4.40924849	    -12.75229783	     50.05380428	     -4.99059813	     -1.55101605	    -11.33608862	     27.65640432
      0.60000000	     29.22799056	      3.79147502	      3.76486676	      0.56844697	      0.89717444	     -0.23293143	     -9.01314722	      6.34652835	      3.29152625	    -47.74894497	      0.70533328	    -10.45957388	      0.22672764	      0.26194056	    -12.99053664	    -15.00808832	     -6.51665276	      2.84778273	    -12.06040864	      6.88699703	     -5.87158186	      0.40318643	    -49.89561261	     -2.10526186	      2.63967869	      7.05211868	     -4.19391165	    -13.38520019	     50.18071735	     -4.84507928	     -1.70771234	    -10.81336711	     27.16506969
      0.61000000	     29.23012746	      4.19061147	      3.64080714	      0.58116733	      0.89733008	     -0.23453077	     -9.10262153	      6.98501241	      3.62612453	    -47.11025377	     -0.08038999	    -10.80995985	      0.25486671	      0.31004045	    -14.60278654	    -17.76400929	     -6.10364318	      0.84551395	    -12.31103435	      6.91249716	     -5.93248794	      0.93428736	    -49.85328497	     -2.48579965	      2.59902823	      6.71777817	     -4.06314318	    -13.60936851	     50.03048313	     -4.89510191	     -1.72489838	    -10.99134988	     27.11571707
      0.62000000	     29.05276193	      4.61978802	      3.66572974	      0.59372367	      0.89740662	     -0.23628629	     -9.01641643	      7.65802638	      4.16376628	    -46.14682971	     -0.80976386	    -11.08130548	      0.28223265	      0.36050037	    -16.17073984	    -20.65514947	     -5.91482183	     -1.38320823	    -12.75397924	      6.83088463	     -6.14231775	      1.65017438	    -49.66956387	     -2.79910420	      2.45146075	      6.36206566	     -3.89000486	    -13.93178390	     49.88962644	     -4.86371774	     -1.78023828	    -11.09932409	     27.08164046
      0.63000000	     28.76998052	      5.05397154	      3.84050635	      0.60594999	      0.89742976	     -0.23853917	     -8.85272623	      8.44551442	      5.31251805	    -44.94767311	     -1.52597756	    -11.51588389	      0.30973665	      0.40985264	    -17.74660253	    -23.48282663	     -5.64852805	     -4.05341357	    -13.86946911	      5.78115912	     -9.45468013	      7.78125553	    -49.41120753	     -2.97629308	      2.29311434	      5.98781797	     -3.71812954	    -14.43573935	     49.72295967	     -4.68879852	     -1.84805647	    -10.95715541	     26.90971872
      0.64000000	     28.73452947	      5.55297763	      3.74690872	      0.61833235	      0.89798237	     -0.24026757	     -9.24767866	      9.17643391	      5.64595721	    -43.89278584	     -2.46802290	    -11.80677999	      0.32574947	      0.46390320	    -18.66407000	    -26.57969524	     -5.16479967	     -6.40331951	    -14.13852280	      5.65955134	     -9.41955581	      7.93093552	    -49.37677533	     -3.38086339	      2.13893941	      5.64122972	     -3.56358764	    -14.66864926	     49.48371753	     -4.63921041	     -1.90162984	    -11.02266473	     27.05140940
      0.65000000	     28.44453551	      5.88819839	      3.79625270	      0.63020496	      0.89829099	     -0.24219364	     -9.32042995	      9.76022479	      6.20010891	    -42.33407641	     -3.20341766	    -11.96445463	      0.34247521	      0.52142873	    -19.62238389	    -29.87566531	     -4.67917363	     -8.53363888	    -14.69206596	      4.59227268	     -9.65583928	      8.01443430	    -49.13598897	     -3.57900435	      2.03772867	      5.36288938	     -3.40259577	    -15.01264664	     49.10369170	     -4.46207496	     -1.92915233	    -11.13574253	     27.15273970
      0.66000000	     28.48539703	      6.33857216	      3.67252262	      0.64216839	      0.89919649	     -0.24397269	    -10.08827071	     10.41783223	      6.54912504	    -41.13995996	     -4.16120333	    -12.12790254	      0.34799378	      0.57571858	    -19.93857513	    -32.98624464	     -3.91761145	    -10.52398807	    -15.04203212	      4.13702639	     -9.70039221	      7.97383772	    -49.20534878	     -3.92059390	      1.88941080	      5.05817558	     -3.27300385	    -15.20058260	     48.82109231	     -4.34113592	     -1.97643042	    -11.10988262	     27.39045353
      0.67000000	     28.27591169	      6.55817239	      3.58410885	      0.65350755	      0.89990209	     -0.24563133	    -10.48643449	     10.84190406	      6.79799526	    -39.38762194	     -4.86431530	    -12.06200064	      0.35573058	      0.63445099	    -20.38186111	    -36.35136389	     -3.20709382	    -12.11857124	    -15.32619335	      2.29433209	    -11.35479104	      4.83702344	    -49.06351578	     -4.10341230	      1.91027857	      4.85476982	     -3.16178401	    -15.43759478	     48.33682406	     -4.07853689	     -1.98037587	    -11.15489211	     27.63109287
      0.68000000	     28.19701420	      6.87943692	      3.37921669	      0.66503449	      0.90080092	     -0.24736787	    -11.27552853	     11.34606162	      6.92497115	    -37.81413682	     -5.83038015	    -12.17244190	      0.35469646	      0.68817992	    -20.32261013	    -39.42980498	     -2.41800601	    -13.21232466	    -15.58337886	      1.30508773	    -11.32252497	      4.46913994	    -48.99793877	     -4.40232374	      1.84526409	      4.63671376	     -3.09572796	    -15.55758795	     47.91217618	     -3.90830149	     -1.96527414	    -11.14946132	     28.01351365
      0.69000000	     28.13580685	      7.07551518	      3.17733062	      0.67607691	      0.90186897	     -0.24889243	    -12.13973434	     11.68171709	      6.98734717	    -36.13353477	     -6.60244513	    -12.03263831	      0.35044711	      0.73975408	    -20.07914040	    -42.38478690	     -1.64380265	    -13.82864881	    -15.75928819	     -0.18907940	    -11.32050401	      3.70597432	    -49.00981872	     -4.58673987	      1.79277432	      4.49496202	     -3.00093388	    -15.60974946	     47.42260962	     -3.66485516	     -1.97452978	    -11.16665140	     28.41077200
