Coordinates

Units are S.I. units (second, meters, Newtons, ...)
If the header above contains a line with 'inDegrees', this indicates whether rotational values are in degrees (yes) or radians (no).

inDegrees=yes
nColumns=34
nRows=53
DataType=double
version=3
OpenSimVersion=4.5-2023-11-26-efcdfd3eb
endheader
time	pelvis_tilt	pelvis_tx	pelvis_ty	hip_flexion_l	hip_flexion_r	knee_angle_l	knee_angle_r	ankle_angle_l	ankle_angle_r	mtp_angle_l	mtp_angle_r	lumbar_ext	shoulder_flexion_r	elbow_flexion_r	shoulder_flexion_l	elbow_flexion_l
0.17	26.89205596	0.09109396	0.90091895	-33.85109171	-9.78667611	-41.30301523	-16.36588293	-10.38724222	-3.4974031	6.04264428	-15.87315045	-47.74429647	-0.46538818	34.09179797	5.96419282	49.45185337
0.18	27.04842294	0.10292489	0.9022611699999999	-32.36567315	-10.8764877	-44.12430535	-16.16943775	-11.33112478	-2.69407326	5.87471462	-15.77576502	-47.85257531	-0.33214083	34.23568461	5.66479305	48.91557503
0.19	26.90892139	0.11402936	0.90330051	-30.32212068	-11.51027808	-46.97286626	-16.13900609	-11.88958385	-2.20726397	4.92006158	-15.79818207	-47.69815475	-0.06842932	34.2814813	5.54314819	48.1282923
0.2	27.02274605	0.12491547	0.90488756	-28.59031864	-12.59578049	-49.4841017	-15.85755618	-12.20442856	-1.3982505	0.02458728	-15.9261056	-47.83286709	0.19691031	34.39831357	5.42250768	47.45029131
0.21	27.03530075	0.13568834	0.9062596000000001	-26.68494823	-13.60029099	-51.77065658	-15.43642922	-11.671832	-0.86062858	-0.82202389	-15.90952686	-47.84680281	0.47957279	34.51420408	5.32429682	46.68819196
0.22	27.16365024	0.14637328	0.9078668	-24.9798262	-14.82161695	-53.60791726	-14.88947019	-10.86705532	-0.18599248	-1.40041292	-15.88282616	-47.97351448	0.74027927	34.75485263	5.23509577	45.9213879
0.23	27.32250883	0.15678418	0.90965062	-23.36303557	-16.14186889	-55.0838025	-14.21641039	-10.03686564	0.26091643	-1.6822037	-15.87037347	-48.19028147	1.02028568	34.94371802	5.16255443	45.32758453
0.24	27.30997939	0.1668546	0.91114627	-21.32688173	-17.15627271	-56.6152969	-13.69769563	-8.91785202	1.0565326	-7.9441219	-15.29064528	-48.20105048	1.31100749	35.20142852	5.24036737	44.33743853
0.25	27.37557488	0.17707706	0.9127718	-19.69422252	-18.39844656	-57.42923901	-12.94497111	-7.88292065	1.35626739	-7.89657415	-15.31274428	-48.35201381	1.61405803	35.50159023	5.1375173	43.72805274
0.26	27.39720026	0.18717785	0.9141819	-17.92463474	-19.53551867	-58.02841077	-12.27056353	-6.68493947	1.81079127	-8.01938099	-15.24117958	-48.39221071	1.9161169	35.78273307	5.14764617	42.78315312
0.27	27.35448765	0.19732171	0.91548998	-16.25563497	-20.68071431	-58.22813808	-11.45418262	-5.8303567	2.08909938	-8.016442229999999	-15.2213858	-48.43801343	2.23608915	36.17053868	5.00500841	42.20376305
0.28	27.47750203	0.20755625	0.91684554	-14.82400448	-22.01770109	-58.07993462	-10.64299959	-4.65363421	2.64934205	-8.13416859	-14.9522767	-48.55978106	2.48898248	36.54807544	4.97916143	41.25616212
0.29	27.47533922	0.21785877	0.91784876	-13.38270184	-23.22484456	-57.60756459	-9.803050949999999	-3.76163598	3.07336693	-8.16583647	-14.74832615	-48.58944605	2.74912436	37.0521508	4.83270556	40.52516085
0.3	27.28504078	0.22821809	0.91838609	-11.79095694	-24.14065218	-56.87651583	-9.082968749999999	-3.36488241	3.28262124	-8.16730757	-14.72145251	-48.45967465	3.0807702	37.48697022	4.5223406	40.12867869
0.31	27.63318622	0.23892162	0.9195024000000001	-11.03423535	-25.90451727	-55.67092126	-7.98595482	-2.14670045	3.9437695	-8.009959159999999	-13.84974817	-48.76679895	3.24823983	38.08559426	4.35091944	39.29976954
0.32	27.64167994	0.2495006	0.9198940799999999	-9.9096595	-27.14352755	-54.30353916	-7.10743786	-1.58872737	4.26433309	-7.88533383	-13.52637834	-48.78512603	3.51455206	38.6193628	4.06288827	38.70047747
0.33	27.70829922	0.26020888	0.92013367	-8.98030879	-28.47217967	-52.62566925	-6.1846934	-1.02382249	4.59374887	-7.63728071	-13.12682598	-48.84632238	3.76687849	39.20207845	3.70374945	38.22112441
0.34	27.73231542	0.27093152	0.92006956	-8.087104480000001	-29.72558323	-50.70765548	-5.31520581	-0.51530066	4.94647549	-7.34233653	-12.78631829	-48.86717393	4.01548685	39.82577896	3.33709714	37.74557017
0.35	27.48293617	0.28150472	0.91930541	-6.84352724	-30.62254801	-48.76819874	-4.49561701	-0.11290446	5.3010628	-7.23807773	-12.68187537	-48.63928904	4.26157068	40.51767617	2.99136993	37.27888252
0.36	27.76977902	0.29247785	0.91930828	-6.60159954	-32.19338719	-46.11214582	-3.63708997	0.42278114	5.60204194	-6.73434301	-12.37177676	-48.91534604	4.49646763	41.11321585	2.52017584	36.98004432
0.37	27.64725048	0.3031636	0.91841482	-5.7978702	-33.23680339	-43.5704871	-2.83414924	0.93681388	5.95981491	-6.38648192	-12.16943247	-48.82680197	4.72929114	41.86377879	2.14586037	36.56494112
0.38	27.84565228	0.31402542	0.91791662	-5.63009246	-34.66289516	-40.44633258	-1.98836751	1.111355	6.14589297	-3.0069996	-10.32581133	-49.03848267	5.07336429	42.41135754	1.5878324	36.49291832
0.39	27.87185653	0.3247275	0.91701004	-5.29911541	-35.8297176	-37.33223879	-1.2902337	1.53458755	6.38846314	-2.84860431	-10.3251047	-49.10711197	5.31107791	43.10428383	1.19879448	36.18386632
0.4	27.92476196	0.33542455	0.91605287	-5.13840716	-37.00153843	-33.98708992	-0.64366984	1.88810164	6.63256451	-2.56337269	-10.25860959	-49.21585674	5.59159298	43.77087225	0.75877463	35.92600284
0.41	27.90336659	0.34600105	0.91486296	-4.97719947	-37.99472702	-30.53850945	-0.16571543	2.20790757	6.90795569	-2.33774704	-10.17894256	-49.25952025	5.86297572	44.44296031	0.39231767	35.55687108
0.42	28.08103947	0.35682141	0.91391964	-5.26797376	-39.27198117	-26.8019654	0.40377348	2.23588925	7.08567961	-1.94300709	-10.01400451	-49.47878855	6.16314317	45.00504721	-0.08491095	35.40564903
0.43	28.11900826	0.36745734	0.91264472	-5.4108504	-40.24153731	-23.15314667	0.71013277	2.23934974	7.35197686	-1.71387666	-9.855695130000001	-49.57081988	6.47094763	45.58866005	-0.45484739	35.00801998
0.44	28.27446236	0.37835516	0.9114693	-5.86767626	-41.37415477	-19.39446281	1.03977165	1.96077633	7.54149842	-1.48269785	-9.650831200000001	-49.7481997	6.76572236	46.10356804	-0.89128405	34.71410728
0.45	28.41251308	0.38937456	0.91020505	-6.37189133	-42.41518782	-15.79242451	1.2205686	1.51917568	7.7661306	-1.26081574	-9.37101472	-49.88648832	7.05051236	46.55159927	-1.33671997	34.40753014
0.46	28.54605402	0.40045408	0.90885239	-6.88431288	-43.38085329	-12.4636929	1.25521408	0.98285283	8.01968237	-1.17318353	-9.113147359999999	-49.99616702	7.33163308	46.98441624	-1.74404203	33.96659097
0.47	28.45527817	0.41135624	0.90712554	-7.01254918	-43.93680138	-9.6996796	1.01870652	0.7002680999999999	8.250306399999999	-1.27385631	-9.01155249	-49.89096167	7.61099345	47.32341505	-2.058558	33.45579642
0.48	28.79799969	0.42300901	0.9060667	-7.90720675	-45.11846968	-6.93886373	0.91791933	-0.29944284	8.67226801	-1.33506607	-8.65413451	-50.1441255	7.84582579	47.71949994	-2.53674198	32.99667984
0.49	28.99341813	0.43449911	0.904851	-8.48617591	-45.97767475	-4.86116886	0.54904221	-0.98191187	8.82405297	-1.555514	-8.578694649999999	-50.25357066	8.051474499999999	48.06461441	-2.88496867	32.38200724
0.5	29.11189368	0.44607001	0.90356799	-8.9037951	-46.69235138	-3.39037869	0.03110286	-1.55207265	9.178611890000001	-1.81976313	-8.561996649999999	-50.30561999	8.23534364	48.3647341	-3.24086556	31.86836991
0.51	29.15043874	0.45763748	0.90229182	-9.10988014	-47.20545781	-2.5877936	-0.6856155	-1.77825343	9.14492761	-1.91147916	-8.53398771	-50.28518656	8.41877367	48.62408738	-3.55096724	31.29474669
0.52	29.29200743	0.46934584	0.90132564	-9.403426230000001	-47.77566875	-2.30489363	-1.5446049	-2.12712789	9.04255779	-1.99091562	-8.50083124	-50.36662102	8.554031200000001	48.8733895	-3.84371648	30.72033248
0.53	29.55051959	0.48157038	0.90069173	-9.95275979	-48.47950472	-2.22722965	-2.51114892	-3.09045867	9.418076859999999	-2.20727599	-8.44978572	-50.51648688	8.49924362	49.14928173	-4.07568654	30.120022
0.54	29.59822907	0.49368109	0.89984032	-10.02352907	-48.80242194	-2.93518139	-3.73101574	-3.54723121	9.39069318	-2.28496778	-8.355689099999999	-50.50232923	8.45497447	49.39261283	-4.28814906	29.57579256
0.55	29.67236566	0.50585124	0.89921906	-10.07227763	-49.06128567	-4.04869501	-5.11528742	-3.94943087	9.01026543	-2.33751593	-8.15276049	-50.52304604	8.388428360000001	49.58425854	-4.47366804	29.10322636
0.5600000000000001	29.68222593	0.51823462	0.89860904	-9.999474040000001	-49.14834734	-5.49460005	-6.71468317	-4.44320259	8.524740810000001	-2.55704371	-7.50158414	-50.47226024	8.21880457	49.7646831	-4.6226805	28.59876993
0.57	29.77117097	0.53078182	0.89831553	-10.01596142	-49.22657417	-7.13630812	-8.46882102	-4.77711069	7.47724275	-2.57333699	-7.24460944	-50.50292864	8.05087028	49.89863093	-4.81514444	28.25611534
0.58	29.69355865	0.5433327100000001	0.8979418	-9.791654769999999	-48.95742152	-9.00316099	-10.52521754	-5.14296442	6.35537809	-2.69136796	-6.68887001	-50.38779736	7.8009123	49.98981103	-4.91633697	27.93902855
0.59	29.58577311	0.55596038	0.89766126	-9.558808819999999	-48.5040541	-10.90710035	-12.83193594	-5.43732161	4.89039253	-2.89176362	-5.96984172	-50.2496494	7.50361783	50.05380428	-4.99059813	27.65640432
0.6	29.22799056	0.56844697	0.89717444	-9.01314722	-47.74894497	-12.99053664	-15.00808832	-6.51665276	2.84778273	-5.87158186	0.40318643	-49.89561261	7.05211868	50.18071735	-4.84507928	27.16506969
0.61	29.23012746	0.58116733	0.89733008	-9.10262153	-47.11025377	-14.60278654	-17.76400929	-6.10364318	0.84551395	-5.93248794	0.93428736	-49.85328497	6.71777817	50.03048313	-4.89510191	27.11571707
0.62	29.05276193	0.59372367	0.89740662	-9.01641643	-46.14682971	-16.17073984	-20.65514947	-5.91482183	-1.38320823	-6.14231775	1.65017438	-49.66956387	6.36206566	49.88962644	-4.86371774	27.08164046
0.63	28.76998052	0.60594999	0.89742976	-8.85272623	-44.94767311	-17.74660253	-23.48282663	-5.64852805	-4.05341357	-9.45468013	7.78125553	-49.41120753	5.98781797	49.72295967	-4.68879852	26.90971872
0.64	28.73452947	0.61833235	0.89798237	-9.24767866	-43.89278584	-18.66407	-26.57969524	-5.16479967	-6.40331951	-9.41955581	7.93093552	-49.37677533	5.64122972	49.48371753	-4.63921041	27.0514094
0.65	28.44453551	0.63020496	0.89829099	-9.320429949999999	-42.33407641	-19.62238389	-29.87566531	-4.67917363	-8.53363888	-9.65583928	8.0144343	-49.13598897	5.36288938	49.1036917	-4.46207496	27.1527397
0.66	28.48539703	0.64216839	0.89919649	-10.08827071	-41.13995996	-19.93857513	-32.98624464	-3.91761145	-10.52398807	-9.70039221	7.97383772	-49.20534878	5.05817558	48.82109231	-4.34113592	27.39045353
0.67	28.27591169	0.65350755	0.89990209	-10.48643449	-39.38762194	-20.38186111	-36.35136389	-3.20709382	-12.11857124	-11.35479104	4.83702344	-49.06351578	4.85476982	48.33682406	-4.07853689	27.63109287
0.68	28.1970142	0.66503449	0.90080092	-11.27552853	-37.81413682	-20.32261013	-39.42980498	-2.41800601	-13.21232466	-11.32252497	4.46913994	-48.99793877	4.63671376	47.91217618	-3.90830149	28.01351365
0.6899999999999999	28.13580685	0.67607691	0.90186897	-12.13973434	-36.13353477	-20.0791404	-42.3847869	-1.64380265	-13.82864881	-11.32050401	3.70597432	-49.00981872	4.49496202	47.42260962	-3.66485516	28.410772
