Model Marker Errors from IK
version=1
nRows=53
nColumns=4
inDegrees=no
endheader
time	total_squared_error	marker_error_RMS	marker_error_max
      0.17000000	      0.03299477	      0.02872054	      0.06926850
      0.18000000	      0.03313973	      0.02878356	      0.06911973
      0.19000000	      0.03333535	      0.02886839	      0.06932153
      0.20000000	      0.03356504	      0.02896767	      0.06927367
      0.21000000	      0.03382180	      0.02907826	      0.06932955
      0.22000000	      0.03407642	      0.02918751	      0.06930895
      0.23000000	      0.03430589	      0.02928562	      0.06914476
      0.24000000	      0.03445678	      0.02934995	      0.06918027
      0.25000000	      0.03456326	      0.02939526	      0.06894146
      0.26000000	      0.03459425	      0.02940844	      0.06883468
      0.27000000	      0.03456123	      0.02939440	      0.06855309
      0.28000000	      0.03446206	      0.02935220	      0.06828247
      0.29000000	      0.03432286	      0.02929286	      0.06795757
      0.30000000	      0.03416792	      0.02922666	      0.06766922
      0.31000000	      0.03398645	      0.02914895	      0.06718650
      0.32000000	      0.03382797	      0.02908091	      0.06750009
      0.33000000	      0.03369432	      0.02902340	      0.06798005
      0.34000000	      0.03359393	      0.02898014	      0.06837273
      0.35000000	      0.03353375	      0.02895417	      0.06823775
      0.36000000	      0.03349899	      0.02893915	      0.06906437
      0.37000000	      0.03349658	      0.02893811	      0.06912246
      0.38000000	      0.03350430	      0.02894145	      0.06971093
      0.39000000	      0.03352861	      0.02895195	      0.06990608
      0.40000000	      0.03355425	      0.02896302	      0.07006206
      0.41000000	      0.03357448	      0.02897175	      0.06997227
      0.42000000	      0.03357956	      0.02897394	      0.07025550
      0.43000000	      0.03357035	      0.02896997	      0.07013026
      0.44000000	      0.03354466	      0.02895887	      0.07028848
      0.45000000	      0.03350974	      0.02894380	      0.07040265
      0.46000000	      0.03347678	      0.02892956	      0.07050251
      0.47000000	      0.03346326	      0.02892372	      0.07005162
      0.48000000	      0.03346425	      0.02892415	      0.07084857
      0.49000000	      0.03350430	      0.02894145	      0.07122312
      0.50000000	      0.03357873	      0.02897358	      0.07162260
      0.51000000	      0.03369049	      0.02902176	      0.07181243
      0.52000000	      0.03383260	      0.02908290	      0.07232404
      0.53000000	      0.03398559	      0.02914858	      0.07329411
      0.54000000	      0.03415515	      0.02922121	      0.07383921
      0.55000000	      0.03432355	      0.02929315	      0.07441316
      0.56000000	      0.03447420	      0.02935737	      0.07489143
      0.57000000	      0.03459753	      0.02940983	      0.07548841
      0.58000000	      0.03468059	      0.02944511	      0.07570887
      0.59000000	      0.03472023	      0.02946194	      0.07582108
      0.60000000	      0.03468255	      0.02944595	      0.07550470
      0.61000000	      0.03463136	      0.02942421	      0.07567754
      0.62000000	      0.03456148	      0.02939451	      0.07543615
      0.63000000	      0.03445332	      0.02934847	      0.07496993
      0.64000000	      0.03436966	      0.02931282	      0.07494270
      0.65000000	      0.03429577	      0.02928130	      0.07430162
      0.66000000	      0.03425229	      0.02926273	      0.07432581
      0.67000000	      0.03422936	      0.02925293	      0.07372102
      0.68000000	      0.03425441	      0.02926364	      0.07358407
      0.69000000	      0.03432396	      0.02929333	      0.07339399
