DataType=double
version=3
OpenSimVersion=4.5-2023-11-26-efcdfd3eb
endheader
time	pelvis_tx_force	pelvis_ty_force	pelvis_tilt_moment	hip_flexion_r_moment	knee_angle_r_moment	ankle_angle_r_moment	hip_flexion_l_moment	knee_angle_l_moment	ankle_angle_l_moment	lumbar_ext_moment	shoulder_flexion_r_moment	elbow_flexion_r_moment	shoulder_flexion_l_moment	elbow_flexion_l_moment
0.22	0.0005827678144970597	0.0001341260740525638	-0.0006778122766148012	47.70759957080504	-21.40813944862682	1.280724036500876	-57.69454309484873	4.488840148891955	-7.258935544005113	32.42253673694755	-12.3944265664432	-3.054187608819254	7.793805555320807	4.108236102286234
0.2255	-0.0001853033047008298	-0.0006534245861112703	0.0003664067846624606	46.47038743185914	-18.74772415629594	1.398450765294477	-50.95249931934476	5.504610656135801	-7.54119082482147	28.22532276964229	-11.40123672425416	-2.72246298255667	6.918716431331755	3.806200547901804
0.231	-0.0009962323780101428	-0.001437030778185638	0.001312078812535351	45.16789170371332	-16.11774657214141	1.513085816419572	-44.16279158881543	6.53646195579888	-7.852074520707951	24.04225767351297	-10.3971280588413	-2.387506025925941	6.042795070285781	3.503717504519233
0.2365	-0.001889163689796554	-0.002213416479590906	0.002069792980897465	43.74747977039746	-13.54519940506738	1.621935765482887	-37.29570814079311	7.593998616179189	-8.21746302725697	19.8920000750404	-9.373721633770646	-2.046898191449292	5.166925415979828	3.200922843253854
0.242	-0.002900690284013042	-0.002977997796668249	0.002553018277907084	42.17098034576854	-11.05403688479015	1.722699929608113	-30.34544676844568	8.678009840252363	-8.66077160987918	15.80194301232491	-8.326744484133435	-1.699518250659098	4.295156235230262	2.899037071566697
0.2475	-0.004063793103369109	-0.003724374066590046	0.002679531225417695	40.41830336885134	-8.664319242430418	1.813589607251443	-23.33543348483163	9.778532208736108	-9.201959522385778	11.8097341279133	-7.25700389947228	-1.345847223302062	3.435254942691376	2.600559874785398
0.253	-0.005406985628738538	-0.004443977005461713	0.002372833457416993	38.48805282097118	-6.391953737676992	1.893379213944326	-16.31823122763767	10.8747866129471	-9.856808167117977	7.962481005218321	-6.170512032816071	-0.9880030466164688	2.598435721403829	2.309185357446954
0.2585	-0.006953688003238329	-0.005125892181470333	0.001563501249127956	36.39561213087736	-4.248970117850582	1.961396998001926	-9.370942947270366	11.93669255123263	-10.63651460792833	4.314057245776686	-5.077928211732812	-0.629559153161295	1.798436478536529	2.029496166069906
0.264	-0.008721837202429651	-0.005756852214746993	0.0001903976976479638	34.16956037390806	-2.244153040761795	2.017472261635131	-2.587560909908799	12.9276600273244	-11.5475913877726	0.9211705307675606	-3.993543136336459	-0.2752191885273542	1.050211855941098	1.766525507728495
0.2695	-0.01072372635199037	-0.006321390331920277	-0.001798317648776583	31.84731796623799	-0.383820810353241	2.061858135073121	3.930197088931502	13.80826366699177	-12.59203441248176	-2.161114995231761	-2.934012455349255	0.06958595776743026	0.3685046852987965	1.525274846085848
0.275	-0.01296605514091668	-0.006802134911554349	-0.004444432237079429	29.47075901388002	1.327419235799084	2.095146116020985	10.08214167828658	14.54016355084217	-13.76771664602232	-4.883774679448332	-1.917015807099498	0.3991236330375385	-0.2334957639962043	1.310257874333354
0.2805	-0.01545016531177503	-0.007180220303383372	-0.007779209879834773	27.08231257025147	2.886047264888631	2.118184050307085	15.77780601788331	15.08960170214918	-15.06895971262681	-7.207624735142995	-0.9599796748330919	0.7077645915642752	-0.7452662365685891	1.125119807490565
0.286	-0.01817243082028229	-0.007435786311789965	-0.01182322199835463	24.72188020405362	4.289199457954639	2.132004923393123	20.94281564594904	15.43006192750627	-16.48722049365789	-9.106165248331742	-0.07895908839409893	0.9903383444445863	-1.159748936957027	0.9723610892943243
0.2915	-0.02112477048168176	-0.00754853773852398	-0.01658647990099133	22.42471808126142	5.534448217583516	2.137769954374626	25.52307286322781	15.54396567770998	-18.01182337758323	-10.56727293227775	0.712266747820413	1.242421282706961	-1.473803342151491	0.8531777249653474
0.297	-0.02429525074155714	-0.007498335839640413	-0.02206885074029589	20.22026877865163	6.619776825033565	2.136726099755561	29.48673546687242	15.42342483343874	-19.63067882026849	-11.59371863166075	1.402860435299499	1.460549594667551	-1.68831603660185	0.7674167187464234
0.3025	-0.02766874710136486	-0.007265795259207839	-0.02826072570801828	18.13180799816302	7.543703893074118	2.130175618228114	32.82421320014809	15.07014543321641	-21.33094520116497	-12.20261032189022	1.985351168160439	1.642355774410029	-1.808004922592684	0.7136347149446844
0.308	-0.0312276344784837	-0.00683286269796104	-0.03514389870732981	16.17670677203517	8.305499337367086	2.119454024514908	35.54655103934728	14.49463626936016	-23.09960558832689	-12.42393607275437	2.455830591812992	1.78663225745318	-1.840974621974477	0.689241014635207
0.3135	-0.03495247929585146	-0.006183356899316829	-0.04269260695688109	14.36708949329631	8.905431781294693	2.105912396859307	37.68263629738935	13.71491115162314	-24.92394407091847	-12.29841953442116	2.81394242661043	1.893329049280381	-1.798090525878342	0.6907025196894301
0.319	-0.03882270923567418	-0.005303453217904024	-0.05087468134059503	12.7106787522021	9.34499401074596	2.09090035135311	39.27567674400035	12.75487402747729	-26.79191819831001	-11.8749170397209	3.062695542223324	1.963494516498072	-1.692241205353051	0.7137873568769185
0.3245	-0.04281724013662042	-0.004182099907517991	-0.05965275371850017	11.2116511437318	9.627065532887178	2.075746842217347	40.37936350499791	11.64255831883785	-28.69243307984608	-11.20758281478714	3.208134263053199	1.999169915697964	-1.537554881739209	0.7538252273115118
0.33	-0.04691504329071303	-0.002811357091268019	-0.06898547054219466	9.871373905712346	9.755986137135693	2.0617370198138	41.05406970328767	10.40836832171274	-30.6155280592338	-10.35300863947516	3.258901261467051	2.003248838380313	-1.348627492482342	0.8059652052265539
0.3355	-0.0510956402927322	-0.001186652883905136	-0.0788286663731067	8.688939167371785	9.737528306893918	2.050084402211153	41.3633587364664	9.083441788339732	-32.55248941147556	-9.367511681267878	3.225727919755748	1.97931270476869	-1.139809320330385	0.8654152176980636
0.341	-0.05533951647221339	0.0006930457638716489	-0.08913645675467391	7.661455741353094	9.578768372567295	2.041898502348902	41.37099501585892	7.698220063299843	-34.49590305691615	-8.30470551342099	3.120885038367385	1.931452900307617	-0.9245854473929473	0.9276513398861488
0.3465	-0.05962844762823082	0.002825147155443456	-0.09986221696100024	6.784098653652775	9.287867235346585	2.038148868035192	41.13856991931084	6.281280312403853	-36.43966023758897	-7.213450097334489	2.957623722897461	1.864089241188352	-0.7150733543561529	0.9885889968827039
0.352	-0.06394573817920793	0.00520343107814334	-0.1109594209955214	6.049952328258367	8.873780763840372	2.039627207912677	40.72378112033067	4.8584554032095	-38.37892709630346	-6.136239575273974	2.749632472472828	1.781793264139329	-0.5216496848047721	1.044711884374554
0.3575	-0.06827637189941671	0.007818122367407941	-0.1223823233245761	5.449709249920886	8.345925597151188	2.046909746967374	40.17933979782809	3.452239600256449	-40.31008701456111	-5.10805256482131	2.510532041443817	1.689123423724839	-0.352708360580107	1.093157673376179
0.363	-0.0726070791357866	0.01065603549694693	-0.1340864737685	4.971299294126177	7.713827796261938	2.060322121583212	39.5524321149047	2.081454279220478	-42.23066278695911	-4.155659246381076	2.253424806575483	1.590477735221883	-0.2145442641033581	1.131762219217186
0.3685	-0.07692632677147988	0.01370078284213178	-0.146029063452535	4.599527322160728	6.98678116192619	2.079909058207892	38.88463118964081	0.7611322496896733	-44.13922410656335	-3.297355113729326	1.990510548767507	1.489967838231316	-0.1113505628055009	1.15906602629933
0.374	-0.08122423918161012	0.01693303853396321	-0.1581691065711805	4.315791323671398	6.173539804400049	2.105410862980283	38.21214283370026	-0.4974264939298036	-46.03528443404618	-2.543074969083382	1.732776081033315	1.39131697733058	-0.04531333931194825	1.174288164643749
0.3795000000000001	-0.08549245993730573	0.02033084926932094	-0.1704674688207602	4.097943532960114	5.282065416479924	2.136248432597078	37.56626899668468	-1.686472961159944	-47.91919032264317	-1.894833021041949	1.489762189079743	1.297783065239388	-0.01678442136903958	1.177273756146433
0.385	-0.0897239649875012	0.023869983114911	-0.1828867585374689	3.920344950987206	4.319344809777871	2.171518136580942	36.97398209738812	-2.801537534988778	-49.7920054031875	-1.347432510103979	1.269407955739163	1.212106830047495	-0.0245118898292091	1.168421612197412
0.3905	-0.09391283846489717	0.02752430738948299	-0.1953911006368239	3.754150051512335	3.291289371571971	2.209997564703826	36.45851651458173	-3.841090519882433	-51.6553902371308	-0.8893862518459447	1.077969618167827	1.136484025691002	-0.06590742985829684	1.148598640675917
0.396	-0.09805402221509761	0.03126618706610682	-0.2079458162589305	3.567840138507568	2.20272342177214	2.250162743806494	36.03989798203035	-4.806155225731954	-53.51147945402884	-0.5039875209233986	0.9200082511719183	1.072559743118792	-0.1373309508553445	1.119047205895614
0.4015	-0.1021430498254823	0.03506689552567184	-0.2205170326743724	3.327998484164254	1.057459769918544	2.290216933543083	35.7353485485533	-5.699919678048852	-55.36276042706698	-0.1704727456226186	0.7984375340025148	1.021441984063032	-0.2343762639990739	1.081290712558396
0.407	-0.1061757755367499	0.03889702975813344	-0.23307124897253	3.000296039788985	-0.1415483883264397	2.328130572805107	35.55952928150739	-6.527407428840629	-57.21196012138657	0.1347749726665334	0.7146206394100747	0.9837310376615551	-0.3521456474789137	1.037041584208706
0.4125	-0.1101481080380994	0.04272692232473644	-0.2455748837712631	2.550644949900955	-1.391992522542464	2.361691525421281	35.52461871181909	-7.29521506560986	-59.0619438569028	0.4370216630377932	0.6685052495696417	0.9595610622251348	-0.4855035085519707	0.988114925559898
0.418	-0.1140557585512602	0.0465270427547155	-0.2579938310351266	1.946470767829919	-2.691943158220152	2.388564471468942	35.64026272209057	-8.011253918813676	-60.91562515423613	0.7620052424809758	0.6587867504101825	0.9486504170084137	-0.6293009094394915	0.9363504004450156
0.4235	-0.1178940114875909	0.05026838169671834	-0.2702930480120176	1.158034551668873	-4.039552201498053	2.406357978794267	35.91345508206886	-8.684456285668372	-62.77588809624974	1.134799212165222	0.6830892864395169	0.9503572793615661	-0.7785663650803717	0.8835438135235677
0.429	-0.1216575245507149	0.05392281195431656	-0.2824361960426252	0.1597127818449446	-5.432750980799465	2.412697477475579	36.348418959918	-9.32447758395478	-64.64552905162834	1.578719331226648	0.7381536717181922	0.9637371417172054	-0.9286626836602103	0.8313888317969729
0.4345	-0.125340164020403	0.05746342122622253	-0.2943853525386592	-1.068852831986533	-6.868968748059273	2.405302210091821	36.94657240100234	-9.941389427067321	-66.52722062960402	2.114269661700114	0.8200237877939858	0.9875995728945201	-1.075410190403483	0.781428986938245
0.4400000000000001	-0.1289348799276782	0.06086481194830783	-0.3061008105751543	-2.541794709198242	-8.34488322587883	2.382064307306226	37.70666479041013	-10.54524980181982	-68.4234897956192	2.758127066109535	0.9242281277523118	1.020562948032406	-1.215174334601738	0.7350204159861151
0.4455	-0.132433624159481	0.06410336434600977	-0.3175409792416403	-4.26628633082925	-9.856209067011028	2.341128338346742	38.62513794542014	-11.14545143185043	-70.33669937565119	3.522174552678644	1.045955583779812	1.061106716412471	-1.344916117910531	0.6933057457899253
0.451	-0.1358273121983254	0.06715745963602407	-0.3286623932069798	-6.242065343452905	-11.39753261002478	2.280969848993458	39.69669461291002	-11.74988307969072	-72.26902745458227	4.41261836456271	1.180223516266047	1.107620883665605	-1.462207754137175	0.6571988415432524
0.4565	-0.1391058269724961	0.07000766100926188	-0.339419835888205	-8.461217129995196	-12.96219721212623	2.200471409373286	40.91498114031271	-12.36399926202151	-74.22243813398023	5.429263760439041	1.322034987419498	1.158452226922651	-1.565219160758403	0.6273793807019821
0.462	-0.142258061450829	0.07263685065198117	-0.3497665768313467	-10.90819678700234	-14.54223657842435	2.09899457092063	42.27323520288324	-12.98989367145894	-76.19863247989005	6.565061246214227	1.466520839887904	1.211946388054576	-1.652683363179009	0.6042954253858623
0.4675	-0.1452719949907957	0.07503032197585981	-0.3596547181919285	-13.56007975702513	-16.12836241858043	1.976445973384105	43.76472817770674	-13.62558781598113	-78.19897662774412	7.806035192530765	1.609058640989881	1.266484175741915	-1.723854025515949	0.5881710457269942
0.4730000000000001	-0.1481347977107692	0.07717582743641377	-0.3690356387232743	-16.38706673138201	-17.71002817446853	1.833335608162775	45.38288097936564	-14.26485400999899	-80.22441711363896	9.131654328186276	1.74535898180203	1.320510224608572	-1.778471093375551	0.5790156110626077
0.4785	-0.1508329582982252	0.07906358346513206	-0.3778605202718073	-19.35326552281784	-19.27558211458812	1.670824835627912	47.12107774647386	-14.89766253305586	-82.27538566616256	10.51561415228445	1.871518295844633	1.372554170044901	-1.816741400016127	0.576633185362547
0.484	-0.1533524326479587	0.08068623501838956	-0.3860809411485952	-22.41773014673097	-20.81249523729709	1.490761390919012	48.97236412054524	-15.51091025551002	-84.3516728845554	11.92691840834846	1.984051354185202	1.421247555524557	-1.839325319562716	0.5806334547252917
0.4895	-0.1556788110338167	0.08203878325233027	-0.3936495187669847	-25.53571378908378	-22.30763860735205	1.295698699157223	50.92925251821032	-16.088974827041	-86.4522468161249	13.3311194139128	2.079920809540525	1.465340603612455	-1.847315280190894	0.590446661738627
0.495	-0.1577974996137448	0.08311848085249277	-0.4005205799817667	-28.66009928552601	-23.74759783295026	1.088897305704766	52.9837367291224	-16.61394382459622	-88.57501431476703	14.69161838948518	2.15657229944094	1.503721027975969	-1.842200900232816	0.6053434194514067
0.5005000000000001	-0.1596939097877238	0.08392470031784593	-0.4066508350892574	-31.74296407394221	-25.11902129830789	0.8743066327546678	55.12744947206257	-17.06568926860889	-90.71654261043626	15.97100550196256	2.211972658595079	1.535434517883089	-1.825826237546298	0.624458234676484
0.506	-0.1613536478388905	0.08445878095512109	-0.4120000317932616	-34.73720525161191	-26.40899132614483	0.6565253966244935	57.35178750261183	-17.42204462178391	-92.87176152955324	17.13248276789191	2.244643987415244	1.559705220021076	-1.800348280781275	0.6468147631007748
0.5115000000000001	-0.1627626977308892	0.08472386065560863	-0.4165315667798117	-37.59812901250275	-27.60539753704891	0.4407390571002986	59.64782419013464	-17.65927309824998	-95.03366311628956	18.14141724208238	2.253687496940082	1.575954608646124	-1.768203272890765	0.6713512234580996
0.517	-0.1639075917552206	0.08472469876437982	-0.4202130339357077	-40.28491422543806	-28.69728870276635	0.2326327704246746	62.00591564559908	-17.75289985160892	-97.19301336998952	18.96701611632578	2.238795178983401	1.583817951659403	-1.732082093968981	0.6969453958267806
0.5225000000000001	-0.1647755664589523	0.08446749640727817	-0.4230166905122978	-42.76187731363425	-29.67517993431096	0.03827847100767745	64.41502997108182	-17.67884668100425	-99.33808949035139	19.58403940245632	2.200251574507847	1.583158396854172	-1.694910271712236	0.7224396059677334
0.528	-0.1653547038084995	0.08395972049461622	-0.4249198259256924	-44.99948364702687	-30.53129368372798	-0.1360050334937024	66.86192762443775	-17.41470266680131	-101.4544550662058	19.97441140682292	2.138929945480948	1.574078955885139	-1.659824758134205	0.7466665397976019
0.5335000000000001	-0.1656340586409913	0.08320993733656522	-0.4259050217110342	-46.97507071052778	-31.25971770199777	-0.283819555306438	69.33035201367764	-16.94095075544677	-103.5247873124349	20.12858016163442	2.056285965705109	1.556932189066215	-1.630140210720355	0.7684764079086154
0.539	-0.1656037733165787	0.08222766127992262	-0.4259602953896333	-48.67326677247708	-31.85646993032986	-0.3988823555657628	71.80035814431417	-16.24203724217431	-105.5287737054931	20.04649898344477	1.954348821202659	1.532326535797193	-1.609300963381143	0.786765208220758
0.5445	-0.1652551805064266	0.08102322278387272	-0.4250791263647253	-50.08609613550844	-32.31946500204891	-0.4752469196026857	74.24785509977288	-15.30723957378223	-107.4430959768689	19.73814324775152	1.835706904629854	1.501127603625234	-1.600817834122575	0.8005032688764293
0.55	-0.164580895886823	0.07960765889111951	-0.4232603683749404	-51.21275846828838	-32.64837764763474	-0.5075470707104204	76.64439610183214	-14.13131805214291	-109.2415161922035	19.22351018030461	1.703484362400159	1.464452607556288	-1.608189824642747	0.8087631819930151
0.5555	-0.1635749036449347	0.07799262736788073	-0.4205080595218542	-52.05906680215286	-32.84439723351312	-0.4912606261005235	78.95722291510603	-12.7149491997852	-110.8950751577759	18.53207575979183	1.561305031940689	1.423656387781403	-1.634810612335022	0.8107464557461531
0.5610000000000001	-0.1622326385266062	0.07619034408821265	-0.4168311467024238	-52.63653754875577	-32.90986988475684	-0.4229871790468431	81.14955676597393	-11.0649496699963	-112.3724094113035	17.7017054383039	1.41324094638163	1.380307812822494	-1.683859733158498	0.8058084563986699
0.5665	-0.1605510684498301	0.07421354160383965	-0.4122431462220527	-52.96115040173352	-32.84783441916073	-0.300732097957697	83.18112441071341	-9.194304051117483	-113.6401892776091	16.77704121892871	1.263743202235771	1.336155792200184	-1.758178907756717	0.7934813745277689
0.5720000000000001	-0.1585287815271185	0.07207544533867924	-0.4067617662640097	-53.05183259992208	-32.66147458591455	-0.1241867013761032	85.00891554587091	-7.122005052615783	-114.6636767441818	15.80741716823062	1.117553547056352	1.293084562124615	-1.860134920342042	0.7734950489429739
0.5775	-0.1561660808571002	0.06978976256734387	-0.4004085194078284	-52.92876189713075	-32.35352724032145	0.1050057038511226	86.5881848747328	-4.872707033760333	-115.4073986435346	14.84438268105724	0.9795956714825143	1.253058395083586	-1.991471471447334	0.7457955906672531
0.5830000000000001	-0.1534650897209949	0.06737067833534599	-0.3932083541843067	-52.61161722564719	-31.92570019518751	0.3830093709268287	87.87372982082579	-2.476187060564337	-115.8359274622152	13.93893371491403	0.8548458984498593	1.21805641755612	-2.153153410192651	0.7105618773058193
0.5885	-0.1504298687690408	0.06483285178701467	-0.3851893335354715	-52.11792932090594	-31.37816328655974	0.7035984974166891	88.82148067971241	0.03339920104361394	-115.9147581330051	13.13856800773719	0.7481838052647019	1.189998813665131	-2.345207755029088	0.668220127477051
0.5940000000000001	-0.1470665453313641	0.06219140606385404	-0.376382385101498	-51.46169002709946	-30.70917855965435	1.05802423849465	89.39043206938101	2.618481008327078	-115.6112647392454	12.48429568102577	0.6642249429209424	1.170666534071712	-2.566566363869949	0.6194571024914063
0.5995	-0.1433834530341926	0.05946190507761868	-0.36682114379106	-50.65236191182716	-29.91492629629983	1.434962821925128	89.5449169687775	5.239253990225611	-114.8957172672962	12.00776165328053	0.6071405794874285	1.16161781658188	-2.814914684630311	0.5652331348078727
0.605	-0.1393912770815668	0.05666031087226647	-0.3565419013858916	-49.69437904696914	-28.98956384324415	1.820559603507854	89.25712419158606	7.855036387834206	-113.7423345553933	11.72869194078899	0.5804709749695203	1.16410568191512	-3.086552069166241	0.5067964559637044
0.6105	-0.1351031967605729	0.05380291580368476	-0.3455836709763183	-48.58714431015466	-27.92552923212687	2.198608743843414	88.50954603391705	10.42569611141975	-112.1303435179466	11.65296637206968	0.5869361658161992	1.179000165986567	-3.376274600524271	0.4456991828831395
0.616	-0.1305350133350544	0.05090624493756682	-0.3339883652605622	-47.3254435266193	-26.71407365990084	2.550940856593347	87.29684949034356	12.91300043732325	-110.045008067254	11.77167167696419	0.6282445212584936	1.206717932046739	-3.677298063789366	0.3838132336047667
0.6215000000000001	-0.1257052506579786	0.0479869268135771	-0.3218010765631913	-45.90016355570721	-25.34597588531355	2.858080936217814	85.62672334294557	15.28175679732368	-107.4785879918076	12.06139240022273	0.7049012604927365	1.247161709925579	-3.981239219453144	0.3233429638187817
0.627	-0.1206352177174805	0.04506153493736931	-0.3090704334805009	-44.29922015144947	-23.81236392975778	3.100173470594946	83.51957401629902	17.50068767790155	-104.4311890310499	12.48575545981988	0.8160270731437	1.299672988048989	-4.278167032191341	0.2668309588921373
0.6325000000000001	-0.115349024841509	0.04214640674497244	-0.2958489964023671	-42.50862246327344	-22.10555609127636	3.258089704149819	81.00728751581042	19.54306336685703	-100.9114671388879	12.99798516646932	0.9592041980931654	1.363002162189295	-4.55672844992993	0.2171532923476019
0.638	-0.1098735462807812	0.03925744994214415	-0.2821936443154982	-40.51359534427685	-20.21983652811646	3.314581219085319	78.13142665373013	21.38715432550439	-96.9371499052456	13.5440812354131	1.130368810877268	1.435299916955095	-4.804350687068889	0.1774999392108779
0.6435000000000001	-0.1042383206599994	0.03640994729361057	-0.2681659000910614	-38.29966098193631	-18.15209326589998	3.255349222239754	74.94114192041076	23.01654509019753	-92.53533664549822	14.06625718761445	1.323764749333224	1.514132169232501	-5.007523406823	0.1513350969677927
0.649	-0.09847537879655434	0.03361837037277754	-0.2538321406641944	-35.85357452654253	-15.90226261534144	3.069941531694869	71.49087746137806	24.42030165666272	-87.74253827571661	14.50640386770219	1.53196848624955	1.596519472351815	-5.152165380734125	0.1423319775103388
0.6545000000000001	-0.09261898816728545	0.03089621137574739	-0.2392636403258115	-33.16403430608569	-13.47354356521893	2.752424874618419	67.83786374647215	25.59295400136622	-82.60442160420655	14.80943937758892	1.745993093815333	1.67900139688709	-5.224076271556621	0.1542783170551082
0.66	-0.08670530551040147	0.02825584028750952	-0.2245363987842672	-30.2221452128935	-10.87237181910527	2.301794845674892	64.03945344486854	26.53426450702025	-77.17523031478233	14.92642540860144	1.955479259953594	1.757726738106732	-5.209465443020532	0.190952032347973
0.6655000000000001	-0.0807719322816409	0.02570839227967044	-0.2097307111046558	-27.02168446771422	-8.108177721448813	1.722101035987087	60.15045077433489	27.24878342932265	-71.51686480106834	14.81732618340062	2.148979742289929	1.828570050432413	-5.095540944244846	0.2559695694736927
0.671	-0.07485737109201888	0.02326368721331135	-0.1949304446004407	-23.55928138821167	-5.192990126692585	1.022290106758182	56.22063220380623	27.74522404912453	-65.69761503661749	14.45329829598852	2.314337986442111	1.887273446021958	-4.871135326395367	0.3526120008454229
0.6765	-0.06900038514991247	0.020930179881024	-0.1802219983816144	-19.83466057752892	-2.140977090258671	0.2157926850858332	52.29268252064072	28.03571435727465	-59.79055660766215	13.81841683991016	2.43915376547797	1.929610462767784	-4.527339162846475	0.4836365408171293
0.6820000000000001	-0.06323926719908293	0.01871493646469889	-0.1656929346572911	-15.8510931454392	1.031978589558156	-0.6801071374095669	48.40077173923918	28.13499359416108	-53.87163977591077	12.91076108110388	2.511320285261973	1.95156659298474	-4.058107029765056	0.651084132083442
0.6875	-0.05761102908897825	0.0166236298134353	-0.1514302869856644	-11.61614090683469	4.308591912226616	-1.64507477528396	44.56992957714427	28.05961730844414	-48.01752257982271	11.74281382020159	2.519608514274597	1.949528715044004	-3.460795111048855	0.8560965199111221
0.6930000000000001	-0.05215052791910544	0.01466054393550259	-0.1375185686804995	-7.142677725293806	7.670341518126282	-2.65665299030476	40.81624582758658	27.82721909601427	-42.30321983752143	10.3411654928624	2.454265688942662	1.920473166289886	-2.736585582499194	1.098758280138535
0.6985	-0.04688955004011316	0.01282857706637265	-0.124037523361668	-2.450063991434213	11.09750230604944	-3.691268107970617	37.14780716972281	27.45586185153849	-36.7996594621341	8.745531696858873	2.307586782248252	1.862139810459426	-1.89075102292491	1.377980506956767
0.7040000000000001	-0.04185587998433191	0.0111292331263805	-0.111059678870187	2.43474418880858	14.56910487149738	-4.725272051073571	33.5662123755943	26.96350038383718	-31.57125230490801	7.007085426403328	2.074411755478609	1.773177702952884	-0.9327124197163204	1.69144332548701
0.7095	-0.03707238694026367	0.009562593313319838	-0.09864778571354627	7.476445609499821	18.06292607701418	-5.735981471529339	30.06847125406949	26.36756653734656	-26.67358739475114	5.186092959768296	1.752499316393577	1.653247356182005	0.1241527134042628	2.035613879180981
0.7150000000000001	-0.03255616591971992	0.008127262835285139	-0.08685224088575584	12.63134432714797	21.55564570333596	-6.702677423050258	26.64905791920079	25.68467498237355	-22.15136153278353	3.348846174005346	1.342729988661364	1.503065224779735	1.262988136962497	2.40585414294466
0.7205	-0.02831777382728662	0.006820292150926581	-0.07570861531699799	17.848331746997	25.02330310046483	-7.607529905929492	23.30184530471853	24.93043339344204	-18.0366439959535	1.563913986117133	0.8490972552976737	1.324377789157491	2.464244167006877	2.796627861063995
0.7260000000000001	-0.02436060221792965	0.005637077236382836	-0.06523541755812307	23.07115701035397	28.44215592144786	-8.436411570555578	20.02162516910652	24.11932283534235	-14.34755895653805	-0.1022088709971416	0.2784574771828914	1.119856323588153	3.706770195364814	3.201808291695407
0.7314999999999999	-0.02068042870544842	0.004571248920381663	-0.05543223768974825	28.24209898359899	31.78999604150269	-9.179563845632446	16.80496328312952	23.2645930517875	-11.08743539804725	-1.589900992975976	-0.3599692194687487	0.8929104343031852	4.969186249222949	3.615079212778832
0.737	-0.01726518707095123	0.003614566657160696	-0.04627842196726482	33.3069458133139	35.04791228694846	-9.832077758296787	13.6502491813017	22.37811164969512	-8.244448233451649	-2.851405540408408	-1.055323688051576	0.6474288875987365	6.231469735463386	4.030410443671408
0.7424999999999999	-0.01409499089040525	0.002756836567275008	-0.03773242660591467	38.22092230653557	38.2023858758091	-10.3941528181164	10.55692391372707	21.4701405281721	-5.7917849905854	-3.855625447057786	-1.795997614013868	0.3874688296475149	7.476646713237412	4.442574472380818
0.748	-0.01114243655013312	0.001985876490950379	-0.02973198586409761	42.95489342580913	41.24746543175273	-10.87110237511078	7.523990089940018	20.54907688537861	-3.688396865959833	-4.592183154484004	-2.570588815333049	0.1169277783818526	8.69241959311204	4.847652509221389
0.7534999999999999	-0.008373199419863633	0.001287551558348088	-0.02219520388282507	47.50084188429135	44.18662702665323	-11.27308401854892	4.548059407695165	19.62124817582422	-1.880370528038963	-5.074076254453021	-3.368785423963503	-0.1607548382814054	9.872501177313916	5.243458354246144
0.759	-0.005746922195454721	0.0006459018878831608	-0.01502263821811676	51.87532719372273	47.03381954008609	-11.61454994916205	1.621416565329101	18.69086666849105	-0.3028814710279368	-5.33822195794388	-4.18201647892901	-0.4428112346578884	11.01736756726305	5.629789875537635
0.7645	-0.00321837712627339	4.337855862680102e-05	-0.008100380071965353	56.11952267049997	49.81317674801235	-11.91343477698276	-1.269163378856135	17.760233709955	1.117383566384538	-5.443316340711604	-5.003708231448927	-0.727219265157832	12.13411700563798	6.008409325900494
0.77	-0.0007388642210268198	-0.0005388074798846549	-0.001304046975603145	60.29480783862567	52.55704241022197	-12.19012301454991	-4.14207388088076	16.83023921885944	2.459478545804747	-5.464803182040367	-5.829041926357629	-1.012601613110439	13.23520663142953	6.382679741436155
