Coordinates
version=1
nRows=106
nColumns=26
inDegrees=yes

Units are S.I. units (second, meters, Newtons, ...)
If the header above contains a line with 'inDegrees', this indicates whether rotational values are in degrees (yes) or radians (no).

endheader
time	pelvis_tilt	pelvis_list	pelvis_rotation	pelvis_tx	pelvis_ty	pelvis_tz	hip_flexion_l	hip_adduction_l	hip_rotation_l	hip_flexion_r	hip_adduction_r	hip_rotation_r	knee_angle_l_beta	knee_angle_r_beta	knee_angle_l	knee_angle_r	ankle_angle_l	ankle_angle_r	subtalar_angle_l	subtalar_angle_r	mtp_angle_l	mtp_angle_r	lumbar_ext	lumbar_bend	lumbar_rota
      0.95000000	      1.50173076	     -5.16801259	     -3.74361714	     -0.01886416	      0.83036816	     -0.20252798	     31.54521673	     -6.34926342	    -10.24005183	    -12.57565975	      9.44740773	     -0.08517584	      0.38700714	      0.33028047	    -22.17387584	    -18.92367724	     -8.49041598	      4.79963304	      0.00000000	      0.00000000	      0.00000000	      0.00000000	    -14.30473637	      4.10320035	      9.18832399
      0.96000000	      1.86057239	     -4.71566399	     -3.48622916	     -0.00651711	      0.82969374	     -0.20394723	     31.30728428	     -5.80017829	    -10.45153587	    -13.07999805	      8.78212084	     -0.46689333	      0.41563717	      0.35494515	    -23.81425571	    -20.33685924	     -9.19147320	      3.94943077	      0.00000000	      0.00000000	      0.00000000	      0.00000000	    -14.62782699	      3.57638418	      9.01860016
      0.97000000	      2.02501663	     -4.29630710	     -3.34921912	      0.00573011	      0.82905223	     -0.20531601	     31.23720617	     -5.29717309	    -10.42852774	    -13.12949109	      8.16097673	     -0.67131599	      0.44511830	      0.38724085	    -25.50339986	    -22.18726611	     -9.61216581	      3.06648426	      0.00000000	      0.00000000	      0.00000000	      0.00000000	    -14.75372294	      3.10363420	      8.98204454
      0.98000000	      2.30530581	     -3.81513369	     -3.15197422	      0.01806467	      0.82896766	     -0.20680718	     30.84705347	     -4.62109671	    -10.18402180	    -13.15205043	      7.44923709	     -1.07207828	      0.46915133	      0.42287082	    -26.88039103	    -24.22871326	    -10.06198192	      1.67861639	      0.00000000	      0.00000000	      0.00000000	      0.00000000	    -15.01204189	      2.56519491	      8.87153701
      0.99000000	      2.53586906	     -3.26328580	     -2.98707065	      0.03034858	      0.82912851	     -0.20845357	     30.38300266	     -3.83076994	     -9.89953052	    -12.87336064	      6.61828341	     -1.57535609	      0.48990219	      0.46505232	    -28.06932774	    -26.64553495	    -10.32354696	      0.04204033	      0.00000000	      0.00000000	      0.00000000	      0.00000000	    -15.22493724	      1.97798284	      8.75853201
      1.00000000	      2.42329516	     -2.57746250	     -2.89595301	      0.04224968	      0.82913113	     -0.21017241	     30.12730279	     -2.82536660	     -9.42505036	    -11.78741038	      5.58772843	     -2.21357399	      0.50432424	      0.51918008	    -28.89565019	    -29.74682732	    -10.54940705	     -1.55784868	      0.00000000	      0.00000000	      0.00000000	      0.00000000	    -15.07827804	      1.26816008	      8.68928866
      1.01000000	      2.50419120	     -1.86959513	     -2.77098959	      0.05429461	      0.82969483	     -0.21204704	     29.56623658	     -1.78020462	     -9.08105254	    -10.84476784	      4.46846427	     -2.93963447	      0.51671779	      0.57343055	    -29.60574830	    -32.85515014	    -10.49369876	     -3.62662688	      0.00000000	      0.00000000	      0.00000000	      0.00000000	    -15.14406775	      0.55422226	      8.55354935
      1.02000000	      2.59409071	     -1.12093714	     -2.63028551	      0.06625393	      0.83047507	     -0.21405857	     28.91240860	     -0.68061935	     -8.85995693	     -9.72720352	      3.24378851	     -3.73280847	      0.52645986	      0.63135079	    -30.16392832	    -36.17373537	    -10.20712863	     -5.89674748	      0.00000000	      0.00000000	      0.00000000	      0.00000000	    -15.22991503	     -0.17540759	      8.38205894
      1.03000000	      2.60027051	     -0.36850563	     -2.51473634	      0.07795139	      0.83134105	     -0.21610660	     28.24893209	      0.44882664	     -8.61895996	     -8.31718317	      1.96588194	     -4.44727070	      0.53227780	      0.69302407	    -30.49727147	    -39.70735428	     -9.84744771	     -7.98800510	      0.00000000	      0.00000000	      0.00000000	      0.00000000	    -15.24803635	     -0.88482578	      8.16763965
      1.04000000	      2.69537807	      0.38666519	     -2.41370102	      0.08967159	      0.83241522	     -0.21822653	     27.47083498	      1.53998955	     -8.60713954	     -6.91008091	      0.59576580	     -5.21229024	      0.53849419	      0.75463485	    -30.85344431	    -43.23739169	     -9.14700052	    -10.24830462	      0.00000000	      0.00000000	      0.00000000	      0.00000000	    -15.35922734	     -1.57479620	      7.97398086
      1.05000000	      2.44208437	      1.21754147	     -2.39066041	      0.10087446	      0.83317113	     -0.22023679	     26.89252728	      2.74906507	     -8.44072047	     -4.82414579	     -0.86558762	     -5.72732783	      0.53659240	      0.82172731	    -30.74447982	    -47.08150654	     -8.65600868	    -11.84887865	      0.00000000	      0.00000000	      0.00000000	      0.00000000	    -15.10707148	     -2.34729056	      7.79165850
      1.06000000	      2.14675785	      1.92909923	     -2.32747697	      0.11177267	      0.83390251	     -0.22229789	     26.38323445	      3.83525494	     -8.29285728	     -2.59225673	     -2.14698122	     -6.02984863	      0.53488053	      0.88789184	    -30.64639715	    -50.87245500	     -8.21850453	    -13.01592358	      0.00000000	      0.00000000	      0.00000000	      0.00000000	    -14.83898503	     -2.94363818	      7.55537175
      1.07000000	      2.17028682	      2.51025392	     -2.30161152	      0.12285736	      0.83515460	     -0.22424355	     25.52413108	      4.70751467	     -8.38074797	     -0.77715777	     -3.31052560	     -6.26774406	      0.53502614	      0.94711492	    -30.65473988	    -54.26568735	     -7.26385345	    -14.27106545	      0.00000000	      0.00000000	      0.00000000	      0.00000000	    -14.90919002	     -3.39751859	      7.35457101
      1.08000000	      1.79653002	      3.08101368	     -2.28440221	      0.13332290	      0.83591164	     -0.22602731	     25.03100577	      5.59408575	     -8.28336996	      1.70605735	     -4.34088346	     -6.20350215	      0.53020254	      1.00796993	    -30.37836780	    -57.75242298	     -6.81587716	    -14.74227833	      0.00000000	      0.00000000	      0.00000000	      0.00000000	    -14.57610019	     -3.84588130	      7.16126101
      1.09000000	      1.69897410	      3.51050867	     -2.29553422	      0.14388057	      0.83708920	     -0.22762391	     24.24855397	      6.27431240	     -8.32967713	      3.82734189	     -5.17872226	     -6.07161633	      0.52732461	      1.06144967	    -30.21347467	    -60.81658650	     -5.87180400	    -15.20383240	      0.00000000	      0.00000000	      0.00000000	      0.00000000	    -14.53928917	     -4.14972111	      6.96228117
      1.10000000	      1.50681075	      3.83151283	     -2.31089856	      0.15419442	      0.83820538	     -0.22918735	     23.54868280	      6.84809121	     -8.27793656	      6.11683469	     -5.81173295	     -5.81079930	      0.52316806	      1.11065010	    -29.97532206	    -63.63556304	     -5.16277453	    -15.25938995	      0.00000000	      0.00000000	      0.00000000	      0.00000000	    -14.40600212	     -4.31249190	      6.80787179
      1.11000000	      1.34733798	      4.04951144	     -2.31234099	      0.16433495	      0.83937646	     -0.23059369	     22.82162189	      7.31220835	     -8.15126343	      8.38253460	     -6.22796258	     -5.46541834	      0.51926074	      1.15442278	    -29.75144868	    -66.14355302	     -4.45343638	    -15.13196703	      0.00000000	      0.00000000	      0.00000000	      0.00000000	    -14.32373681	     -4.36588351	      6.61737281
      1.12000000	      1.12006317	      4.19882526	     -2.33672982	      0.17441834	      0.84045974	     -0.23178706	     22.14766608	      7.67755461	     -8.00246131	     10.73823008	     -6.49003699	     -5.07722796	      0.51465621	      1.19264505	    -29.48762855	    -68.33352780	     -3.79859925	    -14.84199652	      0.00000000	      0.00000000	      0.00000000	      0.00000000	    -14.13634293	     -4.36542926	      6.39641780
      1.13000000	      0.94693469	      4.26563336	     -2.28854799	      0.18438342	      0.84163935	     -0.23294746	     21.42778185	      7.96644155	     -7.79920697	     12.98425895	     -6.55384219	     -4.68237080	      0.51046159	      1.22420779	    -29.24729460	    -70.14193963	     -3.17834466	    -14.48947453	      0.00000000	      0.00000000	      0.00000000	      0.00000000	    -14.02401299	     -4.27159076	      6.17811207
      1.14000000	      0.78409018	      4.28278626	     -2.23204439	      0.19440110	      0.84279618	     -0.23391677	     20.67957270	      8.18032497	     -7.57746329	     15.17359358	     -6.49644242	     -4.29990783	      0.50604214	      1.24939024	    -28.99407890	    -71.58478750	     -2.58324499	    -14.09024857	      0.00000000	      0.00000000	      0.00000000	      0.00000000	    -13.89684645	     -4.14791716	      5.87561432
      1.15000000	      0.71211450	      4.23044885	     -2.13825372	      0.20448062	      0.84406595	     -0.23482075	     19.81758286	      8.32167807	     -7.30701262	     17.17141124	     -6.32221405	     -3.98206346	      0.50197603	      1.26748143	    -28.76110790	    -72.62133628	     -2.04518523	    -13.70615426	      0.00000000	      0.00000000	      0.00000000	      0.00000000	    -13.85967111	     -3.94623072	      5.57479597
      1.16000000	      0.92720582	      4.05590545	     -1.95428120	      0.21476569	      0.84566052	     -0.23562266	     18.73049844	      8.24711938	     -7.31133090	     18.68147309	     -6.04865309	     -3.91139271	      0.50170039	      1.27742952	    -28.74531505	    -73.19131986	     -1.85868159	    -13.58752493	      0.00000000	      0.00000000	      0.00000000	      0.00000000	    -14.13498670	     -3.63487835	      5.09568216
      1.17000000	      0.64322462	      4.08873443	     -1.85119377	      0.22481703	      0.84649684	     -0.23646065	     17.93447489	      8.54868486	     -6.75557487	     20.84862701	     -5.86977292	     -3.50835336	      0.49147077	      1.28514245	    -28.15920093	    -73.63323826	     -0.91620838	    -12.88737635	      0.00000000	      0.00000000	      0.00000000	      0.00000000	    -13.80055924	     -3.54139010	      4.78077386
      1.18000000	      0.79318845	      3.98118471	     -1.64636747	      0.23512723	      0.84775282	     -0.23716874	     16.91450749	      8.51593637	     -6.80573479	     22.32191129	     -5.61591949	     -3.41067872	      0.49101207	      1.28488517	    -28.13291933	    -73.61849740	     -0.74281326	    -12.75751378	      0.00000000	      0.00000000	      0.00000000	      0.00000000	    -13.96044634	     -3.31159381	      4.26750792
      1.19000000	      0.70224541	      3.99806828	     -1.38579688	      0.24542785	      0.84877814	     -0.23792969	     15.77503189	      8.81658005	     -6.10457245	     23.98858472	     -5.50592467	     -3.31097685	      0.47736768	      1.27917458	    -27.35115323	    -73.29130491	     -0.00022187	    -12.18934799	      0.00000000	      0.00000000	      0.00000000	      0.00000000	    -13.82137615	     -3.22531929	      3.76284844
      1.20000000	      0.77515528	      3.92681608	     -1.18531607	      0.25584049	      0.84967842	     -0.23846756	     14.80421754	      8.78734185	     -6.18869179	     25.37106517	     -5.26971834	     -3.21486767	      0.47585488	      1.26814557	    -27.26447614	    -72.65938902	      0.25701250	    -12.02244005	      0.00000000	      0.00000000	      0.00000000	      0.00000000	    -13.84887167	     -3.06817696	      3.24951574
      1.21000000	      1.05996776	      3.83948078	     -0.86186065	      0.26641617	      0.85105385	     -0.23913100	     13.13862428	      8.93789734	     -5.47393949	     26.30880167	     -5.13292679	     -3.34812159	      0.45978838	      1.24988359	    -26.34393380	    -71.61305459	      0.97429770	    -11.60975915	      0.00000000	      0.00000000	      0.00000000	      0.00000000	    -14.11935021	     -2.86335088	      2.70110901
      1.22000000	      1.06644386	      3.86953012	     -0.66493460	      0.27683228	      0.85150761	     -0.23955736	     12.27090281	      8.97362728	     -5.64137749	     27.60165614	     -5.04522832	     -3.28078489	      0.45904602	      1.22978140	    -26.30139972	    -70.46128403	      1.20640805	    -11.46238447	      0.00000000	      0.00000000	      0.00000000	      0.00000000	    -14.04952436	     -2.84252494	      2.23360634
      1.23000000	      1.33395797	      3.68747843	     -0.29261771	      0.28738605	      0.85254570	     -0.24010043	     10.63668955	      8.95898818	     -4.93010628	     28.32703931	     -4.86892296	     -3.59154015	      0.44367517	      1.20162026	    -25.42071449	    -68.84776940	      2.03276576	    -11.20681353	      0.00000000	      0.00000000	      0.00000000	      0.00000000	    -14.29533895	     -2.54245553	      1.67031215
      1.24000000	      1.67026592	      3.71374015	     -0.01511602	      0.29800530	      0.85341963	     -0.24061908	      8.99219159	      9.07339385	     -4.66260013	     28.91993218	     -4.92527495	     -3.77988118	      0.42984220	      1.17001126	    -24.62814368	    -67.03670742	      2.37535457	    -11.08545390	      0.00000000	      0.00000000	      0.00000000	      0.00000000	    -14.60950572	     -2.48974682	      1.12827253
      1.25000000	      1.65110967	      3.69941479	      0.20525600	      0.30840771	      0.85345984	     -0.24091189	      7.94774678	      9.08036147	     -4.53907376	     29.88347233	     -4.85811494	     -3.87399304	      0.42236122	      1.13564525	    -24.19951537	    -65.06767966	      2.79413909	    -10.97776655	      0.00000000	      0.00000000	      0.00000000	      0.00000000	    -14.50610349	     -2.42830399	      0.70926162
      1.26000000	      1.84162758	      3.70495726	      0.50152831	      0.31880167	      0.85373333	     -0.24135976	      6.56041861	      9.13110601	     -4.26485182	     30.44293915	     -4.92432613	     -4.14260364	      0.41142451	      1.09574200	    -23.57288805	    -62.78139190	      3.25681972	    -10.97365293	      0.00000000	      0.00000000	      0.00000000	      0.00000000	    -14.68431879	     -2.36322778	      0.22522302
      1.27000000	      1.70095423	      3.99526331	      0.64041631	      0.32912898	      0.85297156	     -0.24158857	      5.88516088	      9.37730607	     -4.61723574	     31.46650792	     -5.26133580	     -4.20923576	      0.41134568	      1.05703071	    -23.56837158	    -60.56339868	      3.47138971	    -10.82310104	      0.00000000	      0.00000000	      0.00000000	      0.00000000	    -14.44494352	     -2.69361438	     -0.11065225
      1.28000000	      1.73273391	      3.77394296	      0.95583765	      0.33936954	      0.85285224	     -0.24186867	      4.57450371	      9.18323797	     -4.10950545	     31.90332964	     -5.06159138	     -4.61409936	      0.39661812	      1.00659493	    -22.72454440	    -57.67364093	      4.08482993	    -11.01680484	      0.00000000	      0.00000000	      0.00000000	      0.00000000	    -14.46430131	     -2.37952736	     -0.52747426
      1.29000000	      2.19764931	      3.86993927	      1.20514777	      0.34983901	      0.85316981	     -0.24219780	      2.71991320	      9.28411561	     -3.88560869	     31.74294458	     -5.29194632	     -5.06246155	      0.38001836	      0.95296754	    -21.77344822	    -54.60101795	      4.36109062	    -11.23465357	      0.00000000	      0.00000000	      0.00000000	      0.00000000	    -14.98218224	     -2.42079987	     -0.96533834
      1.30000000	      2.35113666	      4.04287575	      1.35173695	      0.36017027	      0.85276948	     -0.24231836	      1.29369583	      9.45065622	     -3.79778652	     31.92686243	     -5.52871775	     -5.39229101	      0.36554156	      0.89792698	    -20.94398877	    -51.44742652	      4.54002110	    -11.38037959	      0.00000000	      0.00000000	      0.00000000	      0.00000000	    -15.14168899	     -2.60265340	     -1.27565322
      1.31000000	      2.34288343	      4.13968710	      1.50439391	      0.37037877	      0.85194784	     -0.24238396	      0.19299077	      9.52347443	     -3.71013635	     32.17831882	     -5.66148602	     -5.76373091	      0.35581753	      0.83928674	    -20.38684298	    -48.08758827	      4.82019654	    -11.57799415	      0.00000000	      0.00000000	      0.00000000	      0.00000000	    -15.13673888	     -2.70200097	     -1.52894892
      1.32000000	      2.29087850	      4.20308954	      1.64629868	      0.38054743	      0.85092829	     -0.24235773	     -0.79161650	      9.54474802	     -3.64764383	     32.34917782	     -5.74740815	     -6.20728445	      0.34831709	      0.77680438	    -19.95709917	    -44.50761225	      5.13419066	    -11.84515952	      0.00000000	      0.00000000	      0.00000000	      0.00000000	    -15.09046328	     -2.77349621	     -1.74430312
      1.33000000	      2.24322894	      4.23988167	      1.75122867	      0.39070088	      0.84981878	     -0.24222223	     -1.76730469	      9.52817161	     -3.61179798	     32.37814648	     -5.77814075	     -6.70919861	      0.34100294	      0.71056097	    -19.53802908	    -40.71214453	      5.43055039	    -12.11244554	      0.00000000	      0.00000000	      0.00000000	      0.00000000	    -15.06395217	     -2.82294682	     -1.89615366
      1.34000000	      2.07545732	      4.23342978	      1.87887275	      0.40078101	      0.84841220	     -0.24202733	     -2.45981156	      9.45137189	     -3.57623725	     32.40674280	     -5.74995689	     -7.29406562	      0.33875494	      0.64122152	    -19.40922854	    -36.73928660	      5.80968280	    -12.57906875	      0.00000000	      0.00000000	      0.00000000	      0.00000000	    -14.91408946	     -2.83259744	     -2.03529591
      1.35000000	      1.60542399	      4.37728080	      1.96673546	      0.41067047	      0.84638674	     -0.24167806	     -2.75374347	      9.57671350	     -3.40302622	     32.74857124	     -5.79087643	     -7.64262753	      0.33816379	      0.57197302	    -19.37535808	    -32.77163994	      6.10163912	    -12.79165765	      0.00000000	      0.00000000	      0.00000000	      0.00000000	    -14.44517664	     -3.05707028	     -2.13703484
      1.36000000	      1.27634094	      4.35826669	      2.06519022	      0.42070166	      0.84452850	     -0.24134788	     -3.13771980	      9.49546637	     -3.27725307	     32.71649732	     -5.66862020	     -8.21125161	      0.34021072	      0.49888856	    -19.49263865	    -28.58420874	      6.47982173	    -13.31825398	      0.00000000	      0.00000000	      0.00000000	      0.00000000	    -14.12882709	     -3.05994967	     -2.15868604
      1.37000000	      1.44826027	      3.90268193	      2.13078996	      0.43114799	      0.84334619	     -0.24067413	     -3.85793527	      8.77881044	     -3.67019082	     31.75091987	     -5.03872717	     -9.19050453	      0.35033052	      0.41821448	    -20.07246040	    -23.96192436	      7.18037559	    -14.26510211	      0.00000000	      0.00000000	      0.00000000	      0.00000000	    -14.34958021	     -2.55694330	     -2.10960944
      1.38000000	      1.19105852	      3.72291185	      2.19903053	      0.44146187	      0.84133851	     -0.24001246	     -4.11294214	      8.44708490	     -3.71174894	     31.36686313	     -4.63881408	     -9.79117903	      0.36005888	      0.34466276	    -20.62985394	    -19.74772140	      7.70052374	    -14.95422841	      0.00000000	      0.00000000	      0.00000000	      0.00000000	    -14.09294089	     -2.39908776	     -2.05971252
      1.39000000	      0.64696207	      3.85617415	      2.27791601	      0.45181416	      0.83878333	     -0.23937879	     -4.19587239	      8.53693871	     -3.39057275	     31.49632620	     -4.57746083	    -10.17695181	      0.36504703	      0.28329843	    -20.91565408	    -16.23180445	      7.98075542	    -15.23025680	      0.00000000	      0.00000000	      0.00000000	      0.00000000	    -13.50462477	     -2.63008631	     -2.07839775
      1.40000000	      0.71822955	      3.38172463	      2.29020453	      0.46268237	      0.83700623	     -0.23848882	     -4.62706899	      7.78678346	     -3.68224056	     30.64874521	     -3.81907523	    -10.88500625	      0.38256311	      0.21970921	    -21.91925188	    -12.58841031	      8.67872567	    -16.22894773	      0.00000000	      0.00000000	      0.00000000	      0.00000000	    -13.57299146	     -2.10325900	     -1.87222700
      1.41000000	      0.49790022	      3.21647711	      2.30801330	      0.47358924	      0.83471152	     -0.23767047	     -4.88467563	      7.45634722	     -3.61572517	     30.51569657	     -3.44664501	    -11.44261342	      0.39512741	      0.17700668	    -22.63913301	    -10.14173560	      9.12792038	    -16.58781158	      0.00000000	      0.00000000	      0.00000000	      0.00000000	    -13.30230079	     -1.95182545	     -1.73518511
      1.42000000	      0.25557165	      3.14369974	      2.29241063	      0.48464298	      0.83241411	     -0.23686140	     -5.25093709	      7.29052055	     -3.30072487	     30.71041472	     -3.22776195	    -11.98246514	      0.40355945	      0.15296128	    -23.12225301	     -8.76403567	      9.37691857	    -16.67113082	      0.00000000	      0.00000000	      0.00000000	      0.00000000	    -12.99857811	     -1.89878467	     -1.58263731
      1.43000000	      0.13336834	      3.18488767	      2.07706855	      0.49587287	      0.83031419	     -0.23589093	     -5.86104988	      7.27390345	     -3.14222703	     31.11523629	     -3.10615973	    -12.38426949	      0.40814357	      0.14843652	    -23.38490403	     -8.50478624	      9.39657911	    -16.58434540	      0.00000000	      0.00000000	      0.00000000	      0.00000000	    -12.83483830	     -1.98293296	     -1.26042701
      1.44000000	      0.15320420	      2.82743493	      2.05978657	      0.50759014	      0.82847327	     -0.23507802	     -6.50823056	      6.73582539	     -2.97198657	     31.42123649	     -2.74971312	    -13.36192044	      0.41793060	      0.15635935	    -23.94565946	     -8.95873100	      9.61489574	    -16.32436322	      0.00000000	      0.00000000	      0.00000000	      0.00000000	    -12.76881387	     -1.54036109	     -1.09761656
      1.45000000	      0.13649134	      2.64259516	      1.98231217	      0.51936631	      0.82659217	     -0.23433069	     -7.09002717	      6.43310082	     -2.75603903	     32.01866470	     -2.61731507	    -14.02917275	      0.42862685	      0.18007970	    -24.55850924	    -10.31780654	      9.63425789	    -15.89455975	      0.00000000	      0.00000000	      0.00000000	      0.00000000	    -12.67006686	     -1.28254299	     -0.90227919
      1.46000000	      0.04748162	      2.57462034	      1.92718499	      0.53142050	      0.82469387	     -0.23374788	     -7.66282702	      6.31032554	     -2.35665939	     32.84342524	     -2.69130835	    -14.54544453	      0.43719542	      0.21612275	    -25.04945266	    -12.38292141	      9.41276579	    -15.30905168	      0.00000000	      0.00000000	      0.00000000	      0.00000000	    -12.45783749	     -1.13567977	     -0.77818168
      1.47000000	      0.24376962	      2.40320448	      1.83168173	      0.54396713	      0.82334405	     -0.23306448	     -8.60786088	      6.03015909	     -2.14281917	     33.25127529	     -2.63992973	    -14.93172860	      0.44411222	      0.25486248	    -25.44575607	    -14.60254425	      8.93202507	    -15.02656079	      0.00000000	      0.00000000	      0.00000000	      0.00000000	    -12.53263519	     -0.85760452	     -0.54872427
      1.48000000	      0.44969249	      2.30224892	      1.79020885	      0.55683836	      0.82220669	     -0.23260334	     -9.57002919	      5.85921333	     -1.80916816	     33.56592837	     -2.67849190	    -15.06372338	      0.45080863	      0.29579670	    -25.82943169	    -16.94790260	      8.18722439	    -14.71646508	      0.00000000	      0.00000000	      0.00000000	      0.00000000	    -12.58186096	     -0.60462618	     -0.53500677
      1.49000000	      0.75532882	      2.14847627	      1.76775960	      0.56989081	      0.82140660	     -0.23204684	    -10.54902139	      5.61820304	     -1.46754677	     33.60287583	     -2.59843655	    -14.95771267	      0.46018325	      0.33395767	    -26.36655821	    -19.13436488	      7.20496429	    -14.65646142	      0.00000000	      0.00000000	      0.00000000	      0.00000000	    -12.73950885	     -0.30191582	     -0.47219536
      1.50000000	      1.05782687	      2.01454734	      1.80812567	      0.58313830	      0.82087469	     -0.23154280	    -11.44253142	      5.38454812	     -1.09329372	     33.53254104	     -2.52583020	    -14.68467750	      0.47132898	      0.37106629	    -27.00516115	    -21.26053234	      5.86979873	    -14.53675283	      0.00000000	      0.00000000	      0.00000000	      0.00000000	    -12.87480786	     -0.01085727	     -0.51434865
      1.51000000	      1.36225853	      1.85812200	      1.86008367	      0.59647657	      0.82066865	     -0.23097314	    -12.19338386	      5.13101167	     -0.69224637	     33.31189440	     -2.35710334	    -14.24540361	      0.48613813	      0.40442393	    -27.85366296	    -23.17178412	      4.23515522	    -14.45749463	      0.00000000	      0.00000000	      0.00000000	      0.00000000	    -13.00913991	      0.30315632	     -0.53578269
      1.52000000	      1.64460824	      1.63933725	      1.92739252	      0.60985107	      0.82072795	     -0.23028765	    -12.68433945	      4.76785357	     -0.43057041	     33.00540588	     -2.07396346	    -13.75484662	      0.50703040	      0.43493702	    -29.05070179	    -24.92005536	      2.17313257	    -14.31706643	      0.00000000	      0.00000000	      0.00000000	      0.00000000	    -13.11617515	      0.67125978	     -0.57204402
      1.53000000	      2.00503946	      1.34244687	      2.00186937	      0.62317715	      0.82121112	     -0.22951176	    -12.98680703	      4.27049161	     -0.34794329	     32.47729845	     -1.64499494	    -13.20010709	      0.53494898	      0.46117132	    -30.65031870	    -26.42317044	     -0.08487415	    -14.21590660	      0.00000000	      0.00000000	      0.00000000	      0.00000000	    -13.33185977	      1.13172706	     -0.57269767
      1.54000000	      2.04875090	      0.83986154	      2.11925933	      0.63620085	      0.82134324	     -0.22850345	    -12.36947187	      3.43999731	     -0.60124367	     32.22162463	     -0.94619092	    -12.62617062	      0.57955264	      0.48409713	    -33.20592017	    -27.73672264	     -2.34447728	    -14.05952017	      0.00000000	      0.00000000	      0.00000000	      0.00000000	    -13.19627456	      1.77960285	     -0.58355414
      1.55000000	      2.49498044	      0.41652425	      2.15810906	      0.64941535	      0.82257550	     -0.22742930	    -12.32045142	      2.72550819	     -0.73784779	     31.38988530	     -0.28695094	    -12.15764277	      0.61720385	      0.50389094	    -35.36317583	    -28.87082422	     -5.30490380	    -13.66103889	      0.00000000	      0.00000000	      0.00000000	      0.00000000	    -13.53358560	      2.33916414	     -0.48300763
      1.56000000	      2.84650545	     -0.12138138	      2.19672635	      0.66237853	      0.82382257	     -0.22602407	    -11.77069694	      1.75765926	     -1.16515298	     30.56488401	      0.55508921	    -11.72114193	      0.66467810	      0.51985241	    -38.08325009	    -29.78534878	     -8.32842791	    -13.17288888	      0.00000000	      0.00000000	      0.00000000	      0.00000000	    -13.78308099	      2.96280972	     -0.35691699
      1.57000000	      2.74337720	     -0.86460416	      2.24485378	      0.67495012	      0.82439865	     -0.22449150	    -10.22541880	      0.47224982	     -1.74670479	     30.19387203	      1.65485195	    -11.24554596	      0.72592265	      0.53264258	    -41.59230394	    -30.51817195	    -10.87402185	    -12.75400531	      0.00000000	      0.00000000	      0.00000000	      0.00000000	    -13.51692714	      3.78409319	     -0.16961163
      1.58000000	      3.08994725	     -1.43590772	      2.22745163	      0.68759288	      0.82601361	     -0.22286757	     -9.30572343	     -0.63384567	     -2.23933134	     29.20215438	      2.58235681	    -10.94606649	      0.77865824	      0.54274882	    -44.61383069	    -31.09721679	    -13.94195511	    -12.00487227	      0.00000000	      0.00000000	      0.00000000	      0.00000000	    -13.79568201	      4.38957113	      0.07286748
      1.59000000	      3.29239432	     -2.07205902	      2.18812810	      0.69993496	      0.82746842	     -0.22116052	     -7.95728427	     -1.88782913	     -2.79843596	     28.27476591	      3.59841622	    -10.69041219	      0.83651896	      0.54883327	    -47.92900569	    -31.44583009	    -16.59961214	    -11.25980074	      0.00000000	      0.00000000	      0.00000000	      0.00000000	    -13.92856272	      5.04152938	      0.36012763
      1.60000000	      3.14677588	     -2.75999904	      2.12987723	      0.71179797	      0.82841801	     -0.21925763	     -5.93072878	     -3.22754823	     -3.24307153	     27.69319807	      4.70838011	    -10.34718060	      0.89998177	      0.55202966	    -51.56515726	    -31.62896991	    -18.42591490	    -10.74706615	      0.00000000	      0.00000000	      0.00000000	      0.00000000	    -13.69483994	      5.69436891	      0.69351238
      1.61000000	      3.35298862	     -3.30539767	      2.07143447	      0.72367319	      0.83011881	     -0.21746938	     -4.35096539	     -4.38959888	     -3.55078085	     26.58313782	      5.62780967	    -10.20018455	      0.95630187	      0.55203846	    -54.79206089	    -31.62947410	    -20.36555270	     -9.84024603	      0.00000000	      0.00000000	      0.00000000	      0.00000000	    -13.87630938	      6.18808938	      1.03410780
      1.62000000	      3.21830331	     -3.88936872	      1.96474322	      0.73510100	      0.83129525	     -0.21557479	     -2.16581839	     -5.55653249	     -3.70195338	     25.81902728	      6.61123873	     -9.96708545	      1.01538315	      0.54927959	    -58.17716898	    -31.47140228	    -21.30948717	     -9.36158504	      0.00000000	      0.00000000	      0.00000000	      0.00000000	    -13.69378428	      6.68882951	      1.42080067
      1.63000000	      3.41302181	     -4.31643290	      1.90478241	      0.74648027	      0.83314143	     -0.21382290	     -0.38895207	     -6.46550365	     -3.64323429	     24.56291816	      7.39464935	     -9.81711367	      1.06707468	      0.54380681	    -61.13887552	    -31.15783509	    -22.15754862	     -8.45962496	      0.00000000	      0.00000000	      0.00000000	      0.00000000	    -13.90499597	      7.00877917	      1.77537820
      1.64000000	      3.28316194	     -4.84455366	      1.79559713	      0.75754658	      0.83450612	     -0.21201231	      1.92997115	     -7.44977514	     -3.49295510	     23.63532504	      8.27241746	     -9.70914664	      1.11933219	      0.53568934	    -64.13301061	    -30.69273806	    -22.25535129	     -8.05647327	      0.00000000	      0.00000000	      0.00000000	      0.00000000	    -13.75950372	      7.42723198	      2.18999902
      1.65000000	      3.26869465	     -5.21818021	      1.70106616	      0.76843768	      0.83616535	     -0.21031689	      4.11130591	     -8.10425095	     -3.11524420	     22.52193674	      8.97276792	     -9.54945715	      1.16510975	      0.52611305	    -66.75587117	    -30.14405726	    -22.09208250	     -7.48580794	      0.00000000	      0.00000000	      0.00000000	      0.00000000	    -13.75581334	      7.66722012	      2.57923795
      1.66000000	      3.31344386	     -5.54502454	      1.59890607	      0.77923629	      0.83799033	     -0.20868988	      6.22368235	     -8.60884982	     -2.64339872	     21.27220817	      9.61075988	     -9.38772128	      1.20520684	      0.51439711	    -69.05326545	    -29.47278322	    -21.62610979	     -6.94706597	      0.00000000	      0.00000000	      0.00000000	      0.00000000	    -13.82848411	      7.84926448	      2.98103835
      1.67000000	      3.38759565	     -5.79074835	      1.44906430	      0.78998063	      0.83993543	     -0.20722403	      8.26842621	     -8.87954631	     -2.10942234	     19.92120644	     10.14541294	     -9.18562758	      1.23931366	      0.50078851	    -71.00744204	    -28.69306785	    -20.92403359	     -6.42883100	      0.00000000	      0.00000000	      0.00000000	      0.00000000	    -13.93976702	      7.95805294	      3.38820337
      1.68000000	      3.47013750	     -5.95204213	      1.30173526	      0.80057080	      0.84194607	     -0.20567605	     10.27489423	     -8.96440490	     -1.49644389	     18.54024254	     10.60290505	     -8.88912594	      1.26671214	      0.48649051	    -72.57725928	    -27.87385282	    -20.11118826	     -6.02042203	      0.00000000	      0.00000000	      0.00000000	      0.00000000	    -14.07090751	      7.92653334	      3.82262986
      1.69000000	      3.55260949	     -6.03848623	      1.08014918	      0.81117069	      0.84399819	     -0.20427338	     12.18712276	     -8.83653316	     -0.87552787	     17.11634127	     10.95192653	     -8.55974851	      1.28752919	      0.47114187	    -73.76998860	    -26.99444081	    -19.22033703	     -5.63655560	      0.00000000	      0.00000000	      0.00000000	      0.00000000	    -14.19194976	      7.83443934	      4.31250380
      1.70000000	      3.79164507	     -5.85479370	      0.68952611	      0.82169359	      0.84613938	     -0.20286347	     13.78546510	     -8.52120774	     -0.71098826	     15.78307216	     10.86675758	     -8.64240673	      1.30018373	      0.46587883	    -74.49504017	    -26.69289081	    -18.98419475	     -5.48922088	      0.00000000	      0.00000000	      0.00000000	      0.00000000	    -14.53212490	      7.39752301	      4.98834698
      1.71000000	      3.79310623	     -6.22702415	      0.55672404	      0.83245314	      0.84800364	     -0.20165125	     15.70464430	     -8.52074038	      0.20309565	     14.09020164	     11.61171467	     -7.91166623	      1.31086919	      0.43786904	    -75.10727208	    -25.08804813	    -17.07162109	     -5.08525368	      0.00000000	      0.00000000	      0.00000000	      0.00000000	    -14.49582123	      7.68195624	      5.31389006
      1.72000000	      3.85824789	     -6.08561800	      0.20023154	      0.84302559	      0.84991632	     -0.20046702	     17.32459774	     -7.99298318	      0.64273765	     12.65210378	     11.65291544	     -7.45471512	      1.31128988	      0.42234575	    -75.13137606	    -24.19862914	    -16.23944553	     -4.78023839	      0.00000000	      0.00000000	      0.00000000	      0.00000000	    -14.58686393	      7.33656057	      5.81745390
      1.73000000	      4.23825577	     -6.20857367	     -0.13838024	      0.85396242	      0.85208880	     -0.19928354	     18.45844199	     -7.86159218	      1.00063888	     10.68651245	     11.98733269	     -6.99601749	      1.30629578	      0.40126748	    -74.84523524	    -22.99093292	    -14.86706172	     -4.61822250	      0.00000000	      0.00000000	      0.00000000	      0.00000000	    -14.99608104	      7.29986576	      6.42688055
      1.74000000	      4.63475983	     -6.14543941	     -0.51380914	      0.86485611	      0.85427393	     -0.19813762	     19.40862621	     -7.50813033	      1.25007220	      8.71091536	     12.08253813	     -6.48643979	      1.29330237	      0.38073434	    -74.10076731	    -21.81447102	    -13.93118697	     -4.47460935	      0.00000000	      0.00000000	      0.00000000	      0.00000000	    -15.42861326	      7.03206504	      6.98552859
      1.75000000	      4.60528036	     -6.00733324	     -0.92883282	      0.87547540	      0.85555642	     -0.19709256	     20.81548682	     -7.01171490	      1.53983806	      7.42616168	     12.03816915	     -6.03974033	      1.27681740	      0.36682187	    -73.15624805	    -21.01734474	    -12.96924556	     -4.14861235	      0.00000000	      0.00000000	      0.00000000	      0.00000000	    -15.37519662	      6.70951634	      7.48876493
      1.76000000	      5.18327046	     -6.05329069	     -1.30939730	      0.88659372	      0.85762650	     -0.19602333	     21.29322204	     -6.90594749	      1.59547391	      5.14083544	     12.20260050	     -5.46660442	      1.25232776	      0.34308408	    -71.75309534	    -19.65726985	    -11.70528724	     -4.04922504	      0.00000000	      0.00000000	      0.00000000	      0.00000000	    -15.98897008	      6.57473716	      8.08078819
      1.77000000	      5.11160345	     -5.93376266	     -1.70546366	      0.89718223	      0.85848151	     -0.19509920	     22.52864576	     -6.49031907	      1.81418396	      3.92420452	     12.13178973	     -5.00957299	      1.22493086	      0.32938618	    -70.18336841	    -18.87243784	    -10.83421032	     -3.76005277	      0.00000000	      0.00000000	      0.00000000	      0.00000000	    -15.88173860	      6.29731715	      8.51540396
      1.78000000	      5.24845762	     -5.88083135	     -2.08088416	      0.90797203	      0.85944791	     -0.19413542	     23.35052007	     -6.24543597	      1.92442564	      2.35226975	     12.13558670	     -4.44269300	      1.19134237	      0.31215534	    -68.25888978	    -17.88518366	     -9.74791969	     -3.50953450	      0.00000000	      0.00000000	      0.00000000	      0.00000000	    -15.99337911	      6.07686478	      8.98134270
      1.79000000	      6.02644078	     -5.94795924	     -2.36032883	      0.91925070	      0.86118849	     -0.19325435	     23.22951475	     -6.26530677	      1.83234992	     -0.21929995	     12.21496696	     -3.96797844	      1.15042570	      0.28597547	    -65.91453710	    -16.38518771	     -8.87713768	     -3.58858099	      0.00000000	      0.00000000	      0.00000000	      0.00000000	    -16.80568486	      5.96992245	      9.45648201
      1.80000000	      5.90336696	     -5.91886810	     -2.68583952	      0.92980631	      0.86127698	     -0.19247258	     24.19354843	     -6.06580051	      1.98206078	     -1.33089749	     12.18598115	     -3.56994996	      1.10861325	      0.27343619	    -63.51886008	    -15.66673971	     -8.05651405	     -3.31047526	      0.00000000	      0.00000000	      0.00000000	      0.00000000	    -16.64419226	      5.82424891	      9.80503783
      1.81000000	      6.40144098	     -5.93168134	     -2.91704278	      0.94084109	      0.86212772	     -0.19171359	     24.21371334	     -6.03214819	      1.89635718	     -3.42934174	     12.17210502	     -3.13746186	      1.05944647	      0.25168921	    -60.70181122	    -14.42072945	     -7.26809047	     -3.26267028	      0.00000000	      0.00000000	      0.00000000	      0.00000000	    -17.15292274	      5.68244717	     10.12723743
      1.82000000	      6.23207881	     -5.94813783	     -3.16401034	      0.95134659	      0.86170349	     -0.19114132	     25.01526432	     -5.92181215	      2.03363998	     -4.43932398	     12.16390961	     -2.80121698	      1.00918372	      0.24020798	    -57.82196766	    -13.76290373	     -6.60839284	     -3.00974804	      0.00000000	      0.00000000	      0.00000000	      0.00000000	    -16.95030529	      5.63915251	     10.36557105
      1.83000000	      6.54823737	     -5.94085551	     -3.32818358	      0.96222520	      0.86183998	     -0.19046469	     25.04960281	     -5.87708482	      1.98753252	     -6.19593985	     12.11129620	     -2.49532456	      0.95260738	      0.22238609	    -54.58038240	    -12.74178412	     -5.99678411	     -2.87975637	      0.00000000	      0.00000000	      0.00000000	      0.00000000	    -17.27168013	      5.49337769	     10.59971004
      1.84000000	      6.59522097	     -5.96941235	     -3.44789381	      0.97281511	      0.86132529	     -0.18999332	     25.36277539	     -5.87723197	      1.95413343	     -7.48231881	     12.10624229	     -2.22758604	      0.89406671	      0.20939797	    -51.22624900	    -11.99761974	     -5.47725102	     -2.67790703	      0.00000000	      0.00000000	      0.00000000	      0.00000000	    -17.32554133	      5.44449779	     10.69307851
      1.85000000	      6.21240989	     -6.10628468	     -3.58776232	      0.98313296	      0.85993586	     -0.18948186	     26.15745242	     -6.00162398	      2.05248522	     -8.10576843	     12.25465145	     -1.94187957	      0.83585212	      0.20225479	    -47.89079899	    -11.58834609	     -4.98621699	     -2.38618037	      0.00000000	      0.00000000	      0.00000000	      0.00000000	    -16.92465893	      5.56072623	     10.81696605
      1.86000000	      6.42079913	     -6.03570743	     -3.62541365	      0.99384012	      0.85932670	     -0.18914604	     26.01819042	     -5.98783858	      1.71615068	     -9.51413616	     12.11424506	     -1.87112544	      0.77072962	      0.19083609	    -44.15955423	    -10.93410272	     -4.66008793	     -2.04724667	      0.00000000	      0.00000000	      0.00000000	      0.00000000	    -17.15655578	      5.39442468	     10.84615477
      1.87000000	      6.25858240	     -6.08830918	     -3.65660660	      1.00432237	      0.85794236	     -0.18881445	     26.31132227	     -6.12711959	      1.39935374	    -10.39555475	     12.15903543	     -1.68851947	      0.70743324	      0.18304909	    -40.53293870	    -10.48794047	     -4.33587557	     -1.70879683	      0.00000000	      0.00000000	      0.00000000	      0.00000000	    -16.99886535	      5.40672696	     10.84936176
      1.88000000	      5.91804898	     -6.16119583	     -3.68351931	      1.01462537	      0.85612456	     -0.18855773	     26.76318096	     -6.31368212	      0.95879895	    -10.90647072	     12.23916348	     -1.54807464	      0.64499742	      0.18073345	    -36.95562978	    -10.35526373	     -4.13844950	     -1.22452069	      0.00000000	      0.00000000	      0.00000000	      0.00000000	    -16.67324445	      5.47171447	     10.83444723
      1.89000000	      5.68593605	     -6.16674766	     -3.65563569	      1.02495816	      0.85435588	     -0.18837307	     26.96605028	     -6.44372129	      0.26284728	    -11.47835038	     12.24248698	     -1.53748734	      0.58177795	      0.18026236	    -33.33342091	    -10.32827236	     -4.11551395	     -0.68708420	      0.00000000	      0.00000000	      0.00000000	      0.00000000	    -16.47336787	      5.44322467	     10.78777551
      1.90000000	      5.17966142	     -6.33117545	     -3.65461422	      1.03519278	      0.85200932	     -0.18816369	     27.53717708	     -6.75409652	     -0.49664127	    -11.72995133	     12.46722129	     -1.22720849	      0.52530090	      0.18074746	    -30.09752460	    -10.35606683	     -3.89897805	     -0.21688387	      0.00000000	      0.00000000	      0.00000000	      0.00000000	    -15.98611225	      5.62327168	     10.77104250
      1.91000000	      4.89823096	     -6.21475252	     -3.58479152	      1.04546240	      0.85000166	     -0.18822101	     27.59961567	     -6.72127102	     -1.59536744	    -11.98486402	     12.32768208	     -1.44885577	      0.46536938	      0.18842439	    -26.66370110	    -10.79592215	     -4.35311057	      0.51425687	      0.00000000	      0.00000000	      0.00000000	      0.00000000	    -15.75038894	      5.47692112	     10.64526399
      1.92000000	      4.45493148	     -6.20962502	     -3.53736353	      1.05569885	      0.84761810	     -0.18825011	     27.90021232	     -6.77783986	     -2.74053155	    -12.05731785	     12.34647368	     -1.40453810	      0.41408884	      0.19674248	    -23.72554314	    -11.27251385	     -4.59185601	      1.14855009	      0.00000000	      0.00000000	      0.00000000	      0.00000000	    -15.34812234	      5.46780811	     10.55102536
      1.93000000	      3.96883112	     -6.14877190	     -3.51152160	      1.06598744	      0.84512308	     -0.18832473	     28.24383637	     -6.74916896	     -4.00744212	    -11.99818132	     12.29602210	     -1.37359202	      0.37027947	      0.20802472	    -21.21545070	    -11.91893833	     -4.87848804	      1.80478048	      0.00000000	      0.00000000	      0.00000000	      0.00000000	    -14.89420996	      5.38889177	     10.48422100
      1.94000000	      3.54847794	     -6.00680688	     -3.42909755	      1.07633484	      0.84270305	     -0.18864982	     28.44312908	     -6.53099084	     -5.20128573	    -11.82962620	     12.12323602	     -1.64015446	      0.33175445	      0.22516374	    -19.00812960	    -12.90093206	     -5.47439805	      2.53119006	      0.00000000	      0.00000000	      0.00000000	      0.00000000	    -14.51496713	      5.24111657	     10.35240818
      1.95000000	      3.16350933	     -5.87551445	     -3.32398607	      1.08695735	      0.84026456	     -0.18898211	     28.75172421	     -6.30789981	     -6.33968157	    -11.74079482	     11.96956114	     -1.82816001	      0.30711589	      0.24158423	    -17.59644421	    -13.84175686	     -5.87326896	      3.08630849	      0.00000000	      0.00000000	      0.00000000	      0.00000000	    -14.14527248	      5.08495943	     10.21561456
      1.96000000	      2.84309624	     -5.71518134	     -3.22935478	      1.09776429	      0.83793050	     -0.18940155	     29.02869224	     -6.02261947	     -7.31365473	    -11.64847654	     11.75143552	     -2.05317503	      0.29266591	      0.26099634	    -16.76852141	    -14.95398859	     -6.29807641	      3.57885504	      0.00000000	      0.00000000	      0.00000000	      0.00000000	    -13.83709001	      4.90116498	     10.09862773
      1.97000000	      2.58857568	     -5.52305296	     -3.16799738	      1.10887498	      0.83571151	     -0.18986687	     29.30786178	     -5.70326751	     -8.09489457	    -11.60986726	     11.47372218	     -2.24112914	      0.28973590	      0.28180164	    -16.60064447	    -16.14604444	     -6.64065787	      3.92625680	      0.00000000	      0.00000000	      0.00000000	      0.00000000	    -13.56995008	      4.67374396	      9.98766680
      1.98000000	      2.22843952	     -5.38691433	     -3.12734954	      1.12017434	      0.83334515	     -0.19027289	     29.91274374	     -5.48379647	     -8.65703268	    -11.36734248	     11.26367356	     -2.32149775	      0.30131996	      0.30629518	    -17.26436200	    -17.54942093	     -6.81221410	      4.21137395	      0.00000000	      0.00000000	      0.00000000	      0.00000000	    -13.17139825	      4.50259026	      9.97071556
      1.99000000	      2.30258033	     -5.11419541	     -3.12043781	      1.13215689	      0.83174087	     -0.19073123	     29.96357091	     -5.15946634	     -9.25705681	    -11.68352879	     10.81210781	     -2.55851870	      0.31894571	      0.32860052	    -18.27424329	    -18.82742321	     -7.10996687	      4.05121773	      0.00000000	      0.00000000	      0.00000000	      0.00000000	    -13.19002882	      4.13514557	      9.91842367
      2.00000000	      2.43088200	     -4.86133453	     -3.04195198	      1.14423060	      0.83041507	     -0.19138852	     29.82514917	     -4.68928512	     -9.07577469	    -12.11413094	     10.45162289	     -2.29847650	      0.33656493	      0.34945283	    -19.28375010	    -20.02217228	     -7.40903572	      3.66865754	      0.00000000	      0.00000000	      0.00000000	      0.00000000	    -13.28972498	      3.82046857	      9.88316384
