Coordinates
version=1
nRows=106
nColumns=26
inDegrees=no
endheader
time	/jointset/ground_pelvis/pelvis_tilt/value	/jointset/ground_pelvis/pelvis_list/value	/jointset/ground_pelvis/pelvis_rotation/value	/jointset/ground_pelvis/pelvis_tx/value	/jointset/ground_pelvis/pelvis_ty/value	/jointset/ground_pelvis/pelvis_tz/value	/jointset/hip_l/hip_flexion_l/value	/jointset/hip_l/hip_adduction_l/value	/jointset/hip_l/hip_rotation_l/value	/jointset/hip_r/hip_flexion_r/value	/jointset/hip_r/hip_adduction_r/value	/jointset/hip_r/hip_rotation_r/value	/jointset/patellofemoral_l/knee_angle_l_beta/value	/jointset/patellofemoral_r/knee_angle_r_beta/value	/jointset/knee_l/knee_angle_l/value	/jointset/knee_r/knee_angle_r/value	/jointset/ankle_l/ankle_angle_l/value	/jointset/ankle_r/ankle_angle_r/value	/jointset/subtalar_l/subtalar_angle_l/value	/jointset/subtalar_r/subtalar_angle_r/value	/jointset/mtp_l/mtp_angle_l/value	/jointset/mtp_r/mtp_angle_r/value	/jointset/lumbar/lumbar_ext/value	/jointset/lumbar/lumbar_bend/value	/jointset/lumbar/lumbar_rota/value
      0.95000000	      0.02621015	     -0.09019884	     -0.06533845	     -0.01886416	      0.83036816	     -0.20252798	      0.55056790	     -0.11081555	     -0.17872262	     -0.21948667	      0.16488837	     -0.00148660	      0.38700714	      0.33028047	     -0.38700714	     -0.33028047	     -0.14818571	      0.08376940	      0.00000000	      0.00000000	      0.00000000	      0.00000000	     -0.24966475	      0.07161436	      0.16036651
      0.96000000	      0.03247311	     -0.08230386	     -0.06084618	     -0.00651711	      0.82969374	     -0.20394723	      0.54641519	     -0.10123221	     -0.18241371	     -0.22828903	      0.15327692	     -0.00814883	      0.41563717	      0.35494515	     -0.41563717	     -0.35494515	     -0.16042147	      0.06893057	      0.00000000	      0.00000000	      0.00000000	      0.00000000	     -0.25530374	      0.06241968	      0.15740427
      0.97000000	      0.03534321	     -0.07498470	     -0.05845490	      0.00573011	      0.82905223	     -0.20531601	      0.54519210	     -0.09245311	     -0.18201215	     -0.22915285	      0.14243591	     -0.01171667	      0.44511830	      0.38724085	     -0.44511830	     -0.38724085	     -0.16776394	      0.05352025	      0.00000000	      0.00000000	      0.00000000	      0.00000000	     -0.25750104	      0.05416864	      0.15676625
      0.98000000	      0.04023518	     -0.06658664	     -0.05501233	      0.01806467	      0.82896766	     -0.20680718	      0.53838265	     -0.08065335	     -0.17774471	     -0.22954658	      0.13001371	     -0.01871130	      0.46915133	      0.42287082	     -0.46915133	     -0.42287082	     -0.17561471	      0.02929738	      0.00000000	      0.00000000	      0.00000000	      0.00000000	     -0.26200956	      0.04477110	      0.15483753
      0.99000000	      0.04425926	     -0.05695508	     -0.05213422	      0.03034858	      0.82912851	     -0.20845357	      0.53028343	     -0.06685955	     -0.17277940	     -0.22468253	      0.11551084	     -0.02749515	      0.48990219	      0.46505232	     -0.48990219	     -0.46505232	     -0.18017988	      0.00073374	      0.00000000	      0.00000000	      0.00000000	      0.00000000	     -0.26572528	      0.03452231	      0.15286522
      1.00000000	      0.04229448	     -0.04498521	     -0.05054392	      0.04224968	      0.82913113	     -0.21017241	      0.52582063	     -0.04931195	     -0.16449816	     -0.20572912	      0.09752426	     -0.03863415	      0.50432424	      0.51918008	     -0.50432424	     -0.51918008	     -0.18412189	     -0.02718959	      0.00000000	      0.00000000	      0.00000000	      0.00000000	     -0.26316560	      0.02213357	      0.15165670
      1.01000000	      0.04370638	     -0.03263059	     -0.04836289	      0.05429461	      0.82969483	     -0.21204704	      0.51602818	     -0.03107043	     -0.15849427	     -0.18927691	      0.07798941	     -0.05130630	      0.51671779	      0.57343055	     -0.51671779	     -0.57343055	     -0.18314959	     -0.06329658	      0.00000000	      0.00000000	      0.00000000	      0.00000000	     -0.26431384	      0.00967300	      0.14928760
      1.02000000	      0.04527542	     -0.01956404	     -0.04590714	      0.06625393	      0.83047507	     -0.21405857	      0.50461672	     -0.01187905	     -0.15463542	     -0.16977173	      0.05661479	     -0.06514980	      0.52645986	      0.63135079	     -0.52645986	     -0.63135078	     -0.17814800	     -0.10291766	      0.00000000	      0.00000000	      0.00000000	      0.00000000	     -0.26581216	     -0.00306144	      0.14629453
      1.03000000	      0.04538328	     -0.00643164	     -0.04389043	      0.07795139	      0.83134105	     -0.21610660	      0.49303688	      0.00783350	     -0.15042923	     -0.14516223	      0.03431111	     -0.07761952	      0.53227780	      0.69302407	     -0.53227780	     -0.69302407	     -0.17187039	     -0.13941699	      0.00000000	      0.00000000	      0.00000000	      0.00000000	     -0.26612844	     -0.01544312	      0.14255220
      1.04000000	      0.04704322	      0.00674858	     -0.04212703	      0.08967159	      0.83241522	     -0.21822653	      0.47945652	      0.02687789	     -0.15022292	     -0.12060366	      0.01039807	     -0.09097163	      0.53849419	      0.75463485	     -0.53849419	     -0.75463484	     -0.15964528	     -0.17886666	      0.00000000	      0.00000000	      0.00000000	      0.00000000	     -0.26806909	     -0.02748538	      0.13917222
      1.05000000	      0.04262241	      0.02125011	     -0.04172490	      0.10087446	      0.83317113	     -0.22023679	      0.46936315	      0.04798024	     -0.14731836	     -0.08419723	     -0.01510735	     -0.09996073	      0.53659240	      0.82172731	     -0.53659240	     -0.82172731	     -0.15107585	     -0.20680195	      0.00000000	      0.00000000	      0.00000000	      0.00000000	     -0.26366814	     -0.04096795	      0.13599010
      1.06000000	      0.03746799	      0.03366913	     -0.04062214	      0.11177267	      0.83390251	     -0.22229789	      0.46047431	      0.06693783	     -0.14473766	     -0.04524341	     -0.03747189	     -0.10524071	      0.53488053	      0.88789184	     -0.53488053	     -0.88789184	     -0.14343996	     -0.22717072	      0.00000000	      0.00000000	      0.00000000	      0.00000000	     -0.25898915	     -0.05137618	      0.13186611
      1.07000000	      0.03787865	      0.04381220	     -0.04017070	      0.12285736	      0.83515460	     -0.22424355	      0.44548013	      0.08216163	     -0.14627165	     -0.01356396	     -0.05777957	     -0.10939277	      0.53502614	      0.94711492	     -0.53502614	     -0.94711492	     -0.12677816	     -0.24907708	      0.00000000	      0.00000000	      0.00000000	      0.00000000	     -0.26021445	     -0.05929789	      0.12836148
      1.08000000	      0.03135536	      0.05377383	     -0.03987034	      0.13332290	      0.83591164	     -0.22602731	      0.43687347	      0.09763521	     -0.14457208	      0.02977632	     -0.07576271	     -0.10827154	      0.53020254	      1.00796993	     -0.53020254	     -1.00796993	     -0.11895950	     -0.25730130	      0.00000000	      0.00000000	      0.00000000	      0.00000000	     -0.25440094	     -0.06712329	      0.12498758
      1.09000000	      0.02965269	      0.06126993	     -0.04006463	      0.14388057	      0.83708920	     -0.22762391	      0.42321711	      0.10950741	     -0.14538029	      0.06679972	     -0.09038575	     -0.10596970	      0.52732461	      1.06144967	     -0.52732461	     -1.06144967	     -0.10248231	     -0.26535693	      0.00000000	      0.00000000	      0.00000000	      0.00000000	     -0.25375847	     -0.07242630	      0.12151473
      1.10000000	      0.02629881	      0.06687251	     -0.04033279	      0.15419442	      0.83820538	     -0.22918735	      0.41100205	      0.11952174	     -0.14447725	      0.10675891	     -0.10143388	     -0.10141758	      0.52316806	      1.11065010	     -0.52316806	     -1.11065010	     -0.09010741	     -0.26632660	      0.00000000	      0.00000000	      0.00000000	      0.00000000	     -0.25143217	     -0.07526718	      0.11881978
      1.11000000	      0.02351548	      0.07067731	     -0.04035796	      0.16433495	      0.83937646	     -0.23059369	      0.39831244	      0.12762211	     -0.14226639	      0.14630283	     -0.10869845	     -0.09538955	      0.51926074	      1.15442278	     -0.51926074	     -1.15442278	     -0.07772713	     -0.26410265	      0.00000000	      0.00000000	      0.00000000	      0.00000000	     -0.24999637	     -0.07619904	      0.11549494
      1.12000000	      0.01954879	      0.07328333	     -0.04078363	      0.17441834	      0.84045974	     -0.23178706	      0.38654969	      0.13399861	     -0.13966930	      0.18741747	     -0.11327251	     -0.08861434	      0.51465621	      1.19264505	     -0.51465621	     -1.19264505	     -0.06629806	     -0.25904171	      0.00000000	      0.00000000	      0.00000000	      0.00000000	     -0.24672573	     -0.07619111	      0.11163855
      1.13000000	      0.01652713	      0.07444935	     -0.03994270	      0.18438342	      0.84163935	     -0.23294746	      0.37398534	      0.13904063	     -0.13612184	      0.22661807	     -0.11438612	     -0.08172279	      0.51046159	      1.22420779	     -0.51046159	     -1.22420779	     -0.05547258	     -0.25288904	      0.00000000	      0.00000000	      0.00000000	      0.00000000	     -0.24476520	     -0.07455332	      0.10782840
      1.14000000	      0.01368496	      0.07474872	     -0.03895652	      0.19440110	      0.84279618	     -0.23391677	      0.36092663	      0.14277360	     -0.13225168	      0.26482917	     -0.11338431	     -0.07504755	      0.50604214	      1.24939024	     -0.50604214	     -1.24939024	     -0.04508613	     -0.24592123	      0.00000000	      0.00000000	      0.00000000	      0.00000000	     -0.24254573	     -0.07239481	      0.10254882
      1.15000000	      0.01242874	      0.07383526	     -0.03731957	      0.20448062	      0.84406595	     -0.23482075	      0.34588207	      0.14524068	     -0.12753143	      0.29969766	     -0.11034345	     -0.06950012	      0.50197603	      1.26748143	     -0.50197603	     -1.26748143	     -0.03569522	     -0.23921752	      0.00000000	      0.00000000	      0.00000000	      0.00000000	     -0.24189689	     -0.06887472	      0.09729854
      1.16000000	      0.01618279	      0.07078890	     -0.03410864	      0.21476569	      0.84566052	     -0.23562266	      0.32690887	      0.14393939	     -0.12760680	      0.32605321	     -0.10556891	     -0.06826668	      0.50170039	      1.27742952	     -0.50170039	     -1.27742952	     -0.03244011	     -0.23714705	      0.00000000	      0.00000000	      0.00000000	      0.00000000	     -0.24670206	     -0.06344060	      0.08893643
      1.17000000	      0.01122639	      0.07136188	     -0.03230943	      0.22481703	      0.84649684	     -0.23646065	      0.31301564	      0.14920270	     -0.11790702	      0.36387719	     -0.10244686	     -0.06123232	      0.49147077	      1.28514245	     -0.49147077	     -1.28514245	     -0.01599085	     -0.22492715	      0.00000000	      0.00000000	      0.00000000	      0.00000000	     -0.24086520	     -0.06180892	      0.08344024
      1.18000000	      0.01384375	      0.06948478	     -0.02873453	      0.23512723	      0.84775282	     -0.23716874	      0.29521385	      0.14863113	     -0.11878248	      0.38959085	     -0.09801629	     -0.05952757	      0.49101207	      1.28488517	     -0.49101207	     -1.28488517	     -0.01296454	     -0.22266062	      0.00000000	      0.00000000	      0.00000000	      0.00000000	     -0.24365575	     -0.05779822	      0.07448206
      1.19000000	      0.01225649	      0.06977946	     -0.02418672	      0.24542785	      0.84877814	     -0.23792969	      0.27532625	      0.15387835	     -0.10654489	      0.41867979	     -0.09609651	     -0.05778745	      0.47736768	      1.27917458	     -0.47736768	     -1.27917458	     -0.00000387	     -0.21274426	      0.00000000	      0.00000000	      0.00000000	      0.00000000	     -0.24122852	     -0.05629244	      0.06567409
      1.20000000	      0.01352901	      0.06853587	     -0.02068767	      0.25584049	      0.84967842	     -0.23846756	      0.25838234	      0.15336805	     -0.10801305	      0.44280862	     -0.09197394	     -0.05611003	      0.47585488	      1.26814557	     -0.47585488	     -1.26814557	      0.00448571	     -0.20983116	      0.00000000	      0.00000000	      0.00000000	      0.00000000	     -0.24170841	     -0.05354979	      0.05671475
      1.21000000	      0.01849993	      0.06701158	     -0.01504231	      0.26641617	      0.85105385	     -0.23913100	      0.22931225	      0.15599574	     -0.09553827	      0.45917521	     -0.08958647	     -0.05843575	      0.45978838	      1.24988359	     -0.45978838	     -1.24988359	      0.01700470	     -0.20262852	      0.00000000	      0.00000000	      0.00000000	      0.00000000	     -0.24642915	     -0.04997490	      0.04714325
      1.22000000	      0.01861296	      0.06753604	     -0.01160530	      0.27683228	      0.85150761	     -0.23955736	      0.21416766	      0.15661934	     -0.09846061	      0.48173978	     -0.08805585	     -0.05726050	      0.45904602	      1.22978140	     -0.45904602	     -1.22978140	      0.02105579	     -0.20005635	      0.00000000	      0.00000000	      0.00000000	      0.00000000	     -0.24521046	     -0.04961142	      0.03898378
      1.23000000	      0.02328196	      0.06435864	     -0.00510714	      0.28738605	      0.85254570	     -0.24010043	      0.18564525	      0.15636384	     -0.08604659	      0.49440010	     -0.08497874	     -0.06268420	      0.44367517	      1.20162026	     -0.44367517	     -1.20162026	      0.03547846	     -0.19559579	      0.00000000	      0.00000000	      0.00000000	      0.00000000	     -0.24950073	     -0.04437422	      0.02915245
      1.24000000	      0.02915164	      0.06481699	     -0.00026382	      0.29800530	      0.85341963	     -0.24061908	      0.15694335	      0.15836060	     -0.08137772	      0.50474804	     -0.08596226	     -0.06597137	      0.42984220	      1.17001126	     -0.42984220	     -1.17001126	      0.04145776	     -0.19347767	      0.00000000	      0.00000000	      0.00000000	      0.00000000	     -0.25498398	     -0.04345428	      0.01969207
      1.25000000	      0.02881730	      0.06456697	      0.00358239	      0.30840771	      0.85345984	     -0.24091189	      0.13871435	      0.15848220	     -0.07922178	      0.52156498	     -0.08479010	     -0.06761393	      0.42236122	      1.13564525	     -0.42236122	     -1.13564525	      0.04876693	     -0.19159817	      0.00000000	      0.00000000	      0.00000000	      0.00000000	     -0.25317927	     -0.04238190	      0.01237895
      1.26000000	      0.03214246	      0.06466370	      0.00875332	      0.31880167	      0.85373333	     -0.24135976	      0.11450091	      0.15936786	     -0.07443571	      0.53132952	     -0.08594570	     -0.07230207	      0.41142451	      1.09574200	     -0.41142451	     -1.09574200	      0.05684223	     -0.19152637	      0.00000000	      0.00000000	      0.00000000	      0.00000000	     -0.25628971	     -0.04124611	      0.00393088
      1.27000000	      0.02968725	      0.06973050	      0.01117737	      0.32912898	      0.85297156	     -0.24158857	      0.10271543	      0.16366487	     -0.08058597	      0.54919417	     -0.09182763	     -0.07346502	      0.41134568	      1.05703071	     -0.41134568	     -1.05703071	      0.06058718	     -0.18889875	      0.00000000	      0.00000000	      0.00000000	      0.00000000	     -0.25211182	     -0.04701244	     -0.00193125
      1.28000000	      0.03024191	      0.06586773	      0.01668251	      0.33936954	      0.85285224	     -0.24186867	      0.07984015	      0.16027774	     -0.07172440	      0.55681814	     -0.08834143	     -0.08053123	      0.39661812	      1.00659493	     -0.39661812	     -1.00659493	      0.07129373	     -0.19227952	      0.00000000	      0.00000000	      0.00000000	      0.00000000	     -0.25244968	     -0.04153059	     -0.00920616
      1.29000000	      0.03835622	      0.06754318	      0.02103380	      0.34983901	      0.85316981	     -0.24219780	      0.04747144	      0.16203839	     -0.06781667	      0.55401890	     -0.09236189	     -0.08835662	      0.38001836	      0.95296754	     -0.38001836	     -0.95296754	      0.07611539	     -0.19608170	      0.00000000	      0.00000000	      0.00000000	      0.00000000	     -0.26148841	     -0.04225093	     -0.01684833
      1.30000000	      0.04103508	      0.07056149	      0.02359226	      0.36017027	      0.85276948	     -0.24231836	      0.02257925	      0.16494507	     -0.06628388	      0.55722887	     -0.09649433	     -0.09411323	      0.36554156	      0.89792698	     -0.36554156	     -0.89792698	      0.07923832	     -0.19862509	      0.00000000	      0.00000000	      0.00000000	      0.00000000	     -0.26427233	     -0.04542487	     -0.02226435
      1.31000000	      0.04089103	      0.07225117	      0.02625663	      0.37037877	      0.85194784	     -0.24238396	      0.00336832	      0.16621599	     -0.06475410	      0.56161761	     -0.09881157	     -0.10059608	      0.35581753	      0.83928674	     -0.35581753	     -0.83928674	      0.08412830	     -0.20207412	      0.00000000	      0.00000000	      0.00000000	      0.00000000	     -0.26418593	     -0.04715881	     -0.02668519
      1.32000000	      0.03998337	      0.07335775	      0.02873333	      0.38054743	      0.85092829	     -0.24235773	     -0.01381631	      0.16658728	     -0.06366339	      0.56459966	     -0.10031120	     -0.10833755	      0.34831709	      0.77680438	     -0.34831709	     -0.77680438	      0.08960853	     -0.20673703	      0.00000000	      0.00000000	      0.00000000	      0.00000000	     -0.26337827	     -0.04840664	     -0.03044383
      1.33000000	      0.03915173	      0.07399990	      0.03056471	      0.39070088	      0.84981878	     -0.24222223	     -0.03084529	      0.16629797	     -0.06303777	      0.56510526	     -0.10084758	     -0.11709761	      0.34100294	      0.71056097	     -0.34100294	     -0.71056097	      0.09478098	     -0.21140206	      0.00000000	      0.00000000	      0.00000000	      0.00000000	     -0.26291556	     -0.04926972	     -0.03309412
      1.34000000	      0.03622356	      0.07388729	      0.03279252	      0.40078101	      0.84841220	     -0.24202733	     -0.04293181	      0.16495756	     -0.06241711	      0.56560436	     -0.10035568	     -0.12730546	      0.33875494	      0.64122152	     -0.33875494	     -0.64122152	      0.10139809	     -0.21954617	      0.00000000	      0.00000000	      0.00000000	      0.00000000	     -0.26029997	     -0.04943815	     -0.03552261
      1.35000000	      0.02801993	      0.07639796	      0.03432601	      0.41067047	      0.84638674	     -0.24167806	     -0.04806189	      0.16714518	     -0.05939401	      0.57157039	     -0.10106986	     -0.13338901	      0.33816379	      0.57197302	     -0.33816379	     -0.57197302	      0.10649369	     -0.22325654	      0.00000000	      0.00000000	      0.00000000	      0.00000000	     -0.25211589	     -0.05335594	     -0.03729829
      1.36000000	      0.02227635	      0.07606610	      0.03604437	      0.42070166	      0.84452850	     -0.24134788	     -0.05476354	      0.16572715	     -0.05719886	      0.57101060	     -0.09893609	     -0.14331338	      0.34021072	      0.49888856	     -0.34021072	     -0.49888856	      0.11309422	     -0.23244738	      0.00000000	      0.00000000	      0.00000000	      0.00000000	     -0.24659455	     -0.05340620	     -0.03767618
      1.37000000	      0.02527691	      0.06811465	      0.03718930	      0.43114799	      0.84334619	     -0.24067413	     -0.06733367	      0.15321915	     -0.06405691	      0.55415809	     -0.08794238	     -0.16040456	      0.35033052	      0.41821448	     -0.35033052	     -0.41821448	      0.12532120	     -0.24897300	      0.00000000	      0.00000000	      0.00000000	      0.00000000	     -0.25044742	     -0.04462708	     -0.03681963
      1.38000000	      0.02078789	      0.06497707	      0.03838032	      0.44146187	      0.84133851	     -0.24001246	     -0.07178438	      0.14742944	     -0.06478224	      0.54745504	     -0.08096258	     -0.17088831	      0.36005888	      0.34466276	     -0.36005888	     -0.34466276	      0.13439949	     -0.26100052	      0.00000000	      0.00000000	      0.00000000	      0.00000000	     -0.24596822	     -0.04187198	     -0.03594877
      1.39000000	      0.01129162	      0.06730294	      0.03975713	      0.45181416	      0.83878333	     -0.23937879	     -0.07323179	      0.14899769	     -0.05917666	      0.54971459	     -0.07989176	     -0.17762132	      0.36504703	      0.28329843	     -0.36504703	     -0.28329843	      0.13929046	     -0.26581813	      0.00000000	      0.00000000	      0.00000000	      0.00000000	     -0.23570017	     -0.04590367	     -0.03627488
      1.40000000	      0.01253547	      0.05902223	      0.03997161	      0.46268237	      0.83700623	     -0.23848882	     -0.08075759	      0.13590501	     -0.06426722	      0.53492152	     -0.06665544	     -0.18997920	      0.38256311	      0.21970921	     -0.38256311	     -0.21970921	      0.15147234	     -0.28324857	      0.00000000	      0.00000000	      0.00000000	      0.00000000	     -0.23689339	     -0.03670879	     -0.03267653
      1.41000000	      0.00869000	      0.05613812	      0.04028243	      0.47358924	      0.83471152	     -0.23767047	     -0.08525367	      0.13013781	     -0.06310631	      0.53259938	     -0.06015530	     -0.19971128	      0.39512741	      0.17700668	     -0.39512741	     -0.17700668	      0.15931226	     -0.28951193	      0.00000000	      0.00000000	      0.00000000	      0.00000000	     -0.23216895	     -0.03406578	     -0.03028469
      1.42000000	      0.00446057	      0.05486791	      0.04001011	      0.48464298	      0.83241411	     -0.23686140	     -0.09164614	      0.12724359	     -0.05760852	      0.53599785	     -0.05633507	     -0.20913347	      0.40355945	      0.15296128	     -0.40355945	     -0.15296128	      0.16365810	     -0.29096612	      0.00000000	      0.00000000	      0.00000000	      0.00000000	     -0.22686799	     -0.03314004	     -0.02762223
      1.43000000	      0.00232772	      0.05558678	      0.03625168	      0.49587287	      0.83031419	     -0.23589093	     -0.10229462	      0.12695356	     -0.05484221	      0.54306332	     -0.05421271	     -0.21614628	      0.40814357	      0.14843652	     -0.40814357	     -0.14843652	      0.16400124	     -0.28945143	      0.00000000	      0.00000000	      0.00000000	      0.00000000	     -0.22401019	     -0.03460871	     -0.02199860
      1.44000000	      0.00267392	      0.04934805	      0.03595006	      0.50759014	      0.82847327	     -0.23507802	     -0.11359005	      0.11756233	     -0.05187095	      0.54840403	     -0.04799155	     -0.23320951	      0.41793060	      0.15635935	     -0.41793060	     -0.15635935	      0.16781159	     -0.28491389	      0.00000000	      0.00000000	      0.00000000	      0.00000000	     -0.22285784	     -0.02688437	     -0.01915702
      1.45000000	      0.00238222	      0.04612199	      0.03459787	      0.51936631	      0.82659217	     -0.23433069	     -0.12374432	      0.11227879	     -0.04810196	      0.55883112	     -0.04568077	     -0.24485526	      0.42862685	      0.18007970	     -0.42862685	     -0.18007970	      0.16814952	     -0.27741240	      0.00000000	      0.00000000	      0.00000000	      0.00000000	     -0.22113438	     -0.02238460	     -0.01574774
      1.46000000	      0.00082871	      0.04493560	      0.03363572	      0.53142050	      0.82469387	     -0.23374788	     -0.13374156	      0.11013596	     -0.04113147	      0.57322591	     -0.04697219	     -0.25386590	      0.43719542	      0.21612275	     -0.43719542	     -0.21612275	      0.16428375	     -0.26719336	      0.00000000	      0.00000000	      0.00000000	      0.00000000	     -0.21743028	     -0.01982135	     -0.01358183
      1.47000000	      0.00425458	      0.04194383	      0.03196888	      0.54396713	      0.82334405	     -0.23306448	     -0.15023551	      0.10524613	     -0.03739925	      0.58034423	     -0.04607547	     -0.26060783	      0.44411222	      0.25486248	     -0.44411222	     -0.25486248	      0.15589325	     -0.26226296	      0.00000000	      0.00000000	      0.00000000	      0.00000000	     -0.21873575	     -0.01496802	     -0.00957705
      1.48000000	      0.00784861	      0.04018182	      0.03124504	      0.55683836	      0.82220669	     -0.23260334	     -0.16702852	      0.10226256	     -0.03157594	      0.58583597	     -0.04674850	     -0.26291157	      0.45080863	      0.29579670	     -0.45080863	     -0.29579670	      0.14289402	     -0.25685077	      0.00000000	      0.00000000	      0.00000000	      0.00000000	     -0.21959490	     -0.01055272	     -0.00933763
      1.49000000	      0.01318297	      0.03749798	      0.03085323	      0.56989081	      0.82140660	     -0.23204684	     -0.18411516	      0.09805614	     -0.02561352	      0.58648082	     -0.04535127	     -0.26106133	      0.46018325	      0.33395767	     -0.46018325	     -0.33395767	      0.12575035	     -0.25580351	      0.00000000	      0.00000000	      0.00000000	      0.00000000	     -0.22234637	     -0.00526943	     -0.00824136
      1.50000000	      0.01846256	      0.03516048	      0.03155775	      0.58313830	      0.82087469	     -0.23154280	     -0.19970985	      0.09397809	     -0.01908158	      0.58525325	     -0.04408405	     -0.25629597	      0.47132898	      0.37106629	     -0.47132898	     -0.37106629	      0.10244731	     -0.25371420	      0.00000000	      0.00000000	      0.00000000	      0.00000000	     -0.22470779	     -0.00018950	     -0.00897708
      1.51000000	      0.02377590	      0.03243035	      0.03246458	      0.59647657	      0.82066865	     -0.23097314	     -0.21281470	      0.08955305	     -0.01208198	      0.58140224	     -0.04113921	     -0.24862920	      0.48613813	      0.40442393	     -0.48613813	     -0.40442393	      0.07391740	     -0.25233088	      0.00000000	      0.00000000	      0.00000000	      0.00000000	     -0.22705232	      0.00529108	     -0.00935117
      1.52000000	      0.02870383	      0.02861183	      0.03363935	      0.60985107	      0.82072795	     -0.23028765	     -0.22138349	      0.08321474	     -0.00751487	      0.57605300	     -0.03619749	     -0.24006736	      0.50703040	      0.43493702	     -0.50703040	     -0.43493702	      0.03792832	     -0.24987995	      0.00000000	      0.00000000	      0.00000000	      0.00000000	     -0.22892044	      0.01171569	     -0.00998405
      1.53000000	      0.03499454	      0.02343012	      0.03493921	      0.62317715	      0.82121112	     -0.22951176	     -0.22666254	      0.07453414	     -0.00607276	      0.56683579	     -0.02871058	     -0.23038533	      0.53494898	      0.46117132	     -0.53494898	     -0.46117132	     -0.00148133	     -0.24811438	      0.00000000	      0.00000000	      0.00000000	      0.00000000	     -0.23268485	      0.01975236	     -0.00999546
      1.54000000	      0.03575745	      0.01465835	      0.03698805	      0.63620085	      0.82134324	     -0.22850345	     -0.21588801	      0.06003928	     -0.01049368	      0.56237344	     -0.01651415	     -0.22036825	      0.57955264	      0.48409713	     -0.57955264	     -0.48409713	     -0.04091885	     -0.24538492	      0.00000000	      0.00000000	      0.00000000	      0.00000000	     -0.23031844	      0.03105993	     -0.01018494
      1.55000000	      0.04354562	      0.00726972	      0.03766611	      0.64941535	      0.82257550	     -0.22742930	     -0.21503244	      0.04756909	     -0.01287787	      0.54785685	     -0.00500824	     -0.21219090	      0.61720385	      0.50389094	     -0.61720385	     -0.50389094	     -0.09258804	     -0.23843011	      0.00000000	      0.00000000	      0.00000000	      0.00000000	     -0.23620563	      0.04082612	     -0.00843007
      1.56000000	      0.04968089	     -0.00211850	      0.03834011	      0.66237853	      0.82382257	     -0.22602407	     -0.20543742	      0.03067694	     -0.02033576	      0.53345786	      0.00968813	     -0.20457252	      0.66467810	      0.51985241	     -0.66467810	     -0.51985241	     -0.14535849	     -0.22991028	      0.00000000	      0.00000000	      0.00000000	      0.00000000	     -0.24056014	      0.05171078	     -0.00622938
      1.57000000	      0.04788096	     -0.01509019	      0.03918009	      0.67495012	      0.82439865	     -0.22449150	     -0.17846723	      0.00824231	     -0.03048575	      0.52698248	      0.02888262	     -0.19627180	      0.72592265	      0.53264258	     -0.72592265	     -0.53264258	     -0.18978748	     -0.22259939	      0.00000000	      0.00000000	      0.00000000	      0.00000000	     -0.23591488	      0.06604489	     -0.00296028
      1.58000000	      0.05392975	     -0.02506132	      0.03887636	      0.68759288	      0.82601361	     -0.22286757	     -0.16241551	     -0.01106269	     -0.03908370	      0.50967374	      0.04507063	     -0.19104490	      0.77865824	      0.54274882	     -0.77865824	     -0.54274882	     -0.24333302	     -0.20952455	      0.00000000	      0.00000000	      0.00000000	      0.00000000	     -0.24078007	      0.07661247	      0.00127178
      1.59000000	      0.05746312	     -0.03616425	      0.03819004	      0.69993496	      0.82746842	     -0.22116052	     -0.13888081	     -0.03294883	     -0.04884192	      0.49348776	      0.06280421	     -0.18658289	      0.83651896	      0.54883327	     -0.83651896	     -0.54883327	     -0.28971789	     -0.19652060	      0.00000000	      0.00000000	      0.00000000	      0.00000000	     -0.24309928	      0.08799129	      0.00628541
      1.60000000	      0.05492160	     -0.04817107	      0.03717337	      0.71179797	      0.82841801	     -0.21925763	     -0.10351074	     -0.05633134	     -0.05660228	      0.48333749	      0.08217674	     -0.18059237	      0.89998177	      0.55202966	     -0.89998177	     -0.55202966	     -0.32159288	     -0.18757169	      0.00000000	      0.00000000	      0.00000000	      0.00000000	     -0.23902005	      0.09938549	      0.01210407
      1.61000000	      0.05852069	     -0.05769007	      0.03615335	      0.72367319	      0.83011881	     -0.21746938	     -0.07593867	     -0.07661295	     -0.06197282	      0.46396328	      0.09822381	     -0.17802680	      0.95630187	      0.55203846	     -0.95630187	     -0.55203846	     -0.35544595	     -0.17174469	      0.00000000	      0.00000000	      0.00000000	      0.00000000	     -0.24218729	      0.10800253	      0.01804859
      1.62000000	      0.05616999	     -0.06788229	      0.03429124	      0.73510100	      0.83129525	     -0.21557479	     -0.03780066	     -0.09697979	     -0.06461128	      0.45062704	      0.11538788	     -0.17395846	      1.01538315	      0.54927959	     -1.01538315	     -0.54927959	     -0.37192071	     -0.16339048	      0.00000000	      0.00000000	      0.00000000	      0.00000000	     -0.23900162	      0.11674210	      0.02479765
      1.63000000	      0.05956847	     -0.07533597	      0.03324472	      0.74648027	      0.83314143	     -0.21382290	     -0.00678849	     -0.11284433	     -0.06358643	      0.42870380	      0.12906098	     -0.17134096	      1.06707468	      0.54380681	     -1.06707468	     -0.54380681	     -0.38672218	     -0.14764831	      0.00000000	      0.00000000	      0.00000000	      0.00000000	     -0.24268796	      0.12232627	      0.03098620
      1.64000000	      0.05730199	     -0.08455341	      0.03133908	      0.75754658	      0.83450612	     -0.21201231	      0.03368435	     -0.13002310	     -0.06096357	      0.41251424	      0.14438092	     -0.16945658	      1.11933219	      0.53568934	     -1.11933219	     -0.53568934	     -0.38842916	     -0.14061198	      0.00000000	      0.00000000	      0.00000000	      0.00000000	     -0.24014864	      0.12962965	      0.03822269
      1.65000000	      0.05704948	     -0.09107443	      0.02968921	      0.76843768	      0.83616535	     -0.21031689	      0.07175582	     -0.14144586	     -0.05437127	      0.39308195	      0.15660434	     -0.16666947	      1.16510975	      0.52611305	     -1.16510975	     -0.52611305	     -0.38557958	     -0.13065200	      0.00000000	      0.00000000	      0.00000000	      0.00000000	     -0.24008423	      0.13381824	      0.04501619
      1.66000000	      0.05783050	     -0.09677894	      0.02790618	      0.77923629	      0.83799033	     -0.20868988	      0.10862375	     -0.15025277	     -0.04613601	      0.37127007	      0.16773940	     -0.16384665	      1.20520684	      0.51439711	     -1.20520684	     -0.51439711	     -0.37744682	     -0.12124917	      0.00000000	      0.00000000	      0.00000000	      0.00000000	     -0.24135258	      0.13699551	      0.05202893
      1.67000000	      0.05912470	     -0.10106762	      0.02529094	      0.78998063	      0.83993543	     -0.20722403	      0.14431126	     -0.15497732	     -0.03681637	      0.34769064	      0.17707086	     -0.16031945	      1.23931366	      0.50078851	     -1.23931366	     -0.50078851	     -0.36519328	     -0.11220427	      0.00000000	      0.00000000	      0.00000000	      0.00000000	     -0.24329483	      0.13889423	      0.05913530
      1.68000000	      0.06056532	     -0.10388273	      0.02271957	      0.80057080	      0.84194607	     -0.20567605	      0.17933073	     -0.15645838	     -0.02611787	      0.32358828	      0.18505560	     -0.15514452	      1.26671214	      0.48649051	     -1.26671214	     -0.48649051	     -0.35100645	     -0.10507619	      0.00000000	      0.00000000	      0.00000000	      0.00000000	     -0.24558366	      0.13834411	      0.06671748
      1.69000000	      0.06200473	     -0.10539147	      0.01885216	      0.81117069	      0.84399819	     -0.20427338	      0.21270542	     -0.15422660	     -0.01528084	      0.29873651	      0.19114718	     -0.14939579	      1.28752919	      0.47114187	     -1.28752919	     -0.47114187	     -0.33545816	     -0.09837645	      0.00000000	      0.00000000	      0.00000000	      0.00000000	     -0.24769625	      0.13673676	      0.07526739
      1.70000000	      0.06617669	     -0.10218543	      0.01203450	      0.82169359	      0.84613938	     -0.20286347	      0.24060175	     -0.14872313	     -0.01240909	      0.27546658	      0.18966070	     -0.15083845	      1.30018373	      0.46587883	     -1.30018373	     -0.46587883	     -0.33133670	     -0.09580498	      0.00000000	      0.00000000	      0.00000000	      0.00000000	     -0.25363343	      0.12911113	      0.08706308
      1.71000000	      0.06620219	     -0.10868207	      0.00971667	      0.83245314	      0.84800364	     -0.20165125	      0.27409775	     -0.14871497	      0.00354469	      0.24592041	      0.20266265	     -0.13808463	      1.31086919	      0.43786904	     -1.31086919	     -0.43786904	     -0.29795600	     -0.08875442	      0.00000000	      0.00000000	      0.00000000	      0.00000000	     -0.25299981	      0.13407543	      0.09274488
      1.72000000	      0.06733913	     -0.10621407	      0.00349470	      0.84302559	      0.84991632	     -0.20046702	      0.30237127	     -0.13950387	      0.01121789	      0.22082087	      0.20338174	     -0.13010932	      1.31128988	      0.42234575	     -1.31128988	     -0.42234575	     -0.28343179	     -0.08343090	      0.00000000	      0.00000000	      0.00000000	      0.00000000	     -0.25458880	      0.12804714	      0.10153372
      1.73000000	      0.07397152	     -0.10836005	     -0.00241519	      0.85396242	      0.85208880	     -0.19928354	      0.32216059	     -0.13721067	      0.01746444	      0.18651483	      0.20921842	     -0.12210354	      1.30629578	      0.40126748	     -1.30629578	     -0.40126748	     -0.25947918	     -0.08060319	      0.00000000	      0.00000000	      0.00000000	      0.00000000	     -0.26173099	      0.12740669	      0.11217023
      1.74000000	      0.08089182	     -0.10725815	     -0.00896766	      0.86485611	      0.85427393	     -0.19813762	      0.33874443	     -0.13104159	      0.02181788	      0.15203415	      0.21088007	     -0.11320973	      1.29330237	      0.38073434	     -1.29330237	     -0.38073434	     -0.24314508	     -0.07809667	      0.00000000	      0.00000000	      0.00000000	      0.00000000	     -0.26928010	      0.12273269	      0.12192047
      1.75000000	      0.08037731	     -0.10484774	     -0.01621119	      0.87547540	      0.85555642	     -0.19709256	      0.36329878	     -0.12237751	      0.02687524	      0.12961097	      0.21010569	     -0.10541335	      1.27681740	      0.36682187	     -1.27681740	     -0.36682187	     -0.22635604	     -0.07240694	      0.00000000	      0.00000000	      0.00000000	      0.00000000	     -0.26834780	      0.11710315	      0.13070360
      1.76000000	      0.09046514	     -0.10564985	     -0.02285329	      0.88659372	      0.85762650	     -0.19602333	      0.37163683	     -0.12053152	      0.02784627	      0.08972450	      0.21297556	     -0.09541025	      1.25232776	      0.34308408	     -1.25232776	     -0.34308408	     -0.20429580	     -0.07067231	      0.00000000	      0.00000000	      0.00000000	      0.00000000	     -0.27906017	      0.11475081	      0.14103636
      1.77000000	      0.08921431	     -0.10356370	     -0.02976596	      0.89718223	      0.85848151	     -0.19509920	      0.39319904	     -0.11327744	      0.03166348	      0.06849029	      0.21173967	     -0.08743354	      1.22493086	      0.32938618	     -1.22493086	     -0.32938618	     -0.18909264	     -0.06562530	      0.00000000	      0.00000000	      0.00000000	      0.00000000	     -0.27718863	      0.10990892	      0.14862184
      1.78000000	      0.09160287	     -0.10263987	     -0.03631828	      0.90797203	      0.85944791	     -0.19413542	      0.40754346	     -0.10900342	      0.03358756	      0.04105485	      0.21180594	     -0.07753962	      1.19134237	      0.31215534	     -1.19134237	     -0.31215534	     -0.17013329	     -0.06125293	      0.00000000	      0.00000000	      0.00000000	      0.00000000	     -0.27913712	      0.10606130	      0.15675400
      1.79000000	      0.10518123	     -0.10381147	     -0.04119551	      0.91925070	      0.86118849	     -0.19325435	      0.40543152	     -0.10935023	      0.03198054	     -0.00382751	      0.21319139	     -0.06925429	      1.15042570	      0.28597547	     -1.15042570	     -0.28597547	     -0.15493528	     -0.06263255	      0.00000000	      0.00000000	      0.00000000	      0.00000000	     -0.29331453	      0.10419480	      0.16504675
      1.80000000	      0.10303319	     -0.10330374	     -0.04687674	      0.92980631	      0.86127698	     -0.19247258	      0.42225708	     -0.10586819	      0.03459349	     -0.02322854	      0.21268549	     -0.06230738	      1.10861325	      0.27343619	     -1.10861325	     -0.27343619	     -0.14061270	     -0.05777869	      0.00000000	      0.00000000	      0.00000000	      0.00000000	     -0.29049596	      0.10165232	      0.17113019
      1.81000000	      0.11172622	     -0.10352737	     -0.05091200	      0.94084109	      0.86212772	     -0.19171359	      0.42260902	     -0.10528085	      0.03309768	     -0.05985330	      0.21244331	     -0.05475904	      1.05944647	      0.25168921	     -1.05944647	     -0.25168921	     -0.12685211	     -0.05694434	      0.00000000	      0.00000000	      0.00000000	      0.00000000	     -0.29937498	      0.09917741	      0.17675364
      1.82000000	      0.10877029	     -0.10381459	     -0.05522240	      0.95134659	      0.86170349	     -0.19114132	      0.43659873	     -0.10335512	      0.03549371	     -0.07748082	      0.21230027	     -0.04889046	      1.00918372	      0.24020798	     -1.00918372	     -0.24020798	     -0.11533821	     -0.05253001	      0.00000000	      0.00000000	      0.00000000	      0.00000000	     -0.29583864	      0.09842178	      0.18091334
      1.83000000	      0.11428830	     -0.10368749	     -0.05808776	      0.96222520	      0.86183998	     -0.19046469	      0.43719805	     -0.10257448	      0.03468899	     -0.10813955	      0.21138200	     -0.04355163	      0.95260738	      0.22238609	     -0.95260738	     -0.22238609	     -0.10466363	     -0.05026123	      0.00000000	      0.00000000	      0.00000000	      0.00000000	     -0.30144769	      0.09587753	      0.18499984
      1.84000000	      0.11510832	     -0.10418590	     -0.06017710	      0.97281511	      0.86132529	     -0.18999332	      0.44266394	     -0.10257705	      0.03410606	     -0.13059110	      0.21129379	     -0.03887871	      0.89406671	      0.20939797	     -0.89406671	     -0.20939797	     -0.09559606	     -0.04673829	      0.00000000	      0.00000000	      0.00000000	      0.00000000	     -0.30238774	      0.09502441	      0.18662943
      1.85000000	      0.10842701	     -0.10657477	     -0.06261827	      0.98313296	      0.85993586	     -0.18948186	      0.45653367	     -0.10474810	      0.03582262	     -0.14147235	      0.21388402	     -0.03389219	      0.83585212	      0.20225479	     -0.83585212	     -0.20225479	     -0.08702590	     -0.04164670	      0.00000000	      0.00000000	      0.00000000	      0.00000000	     -0.29539102	      0.09705298	      0.18879167
      1.86000000	      0.11206409	     -0.10534297	     -0.06327540	      0.99384012	      0.85932670	     -0.18914604	      0.45410309	     -0.10450750	      0.02995248	     -0.16605300	      0.21143346	     -0.03265730	      0.77072962	      0.19083609	     -0.77072962	     -0.19083609	     -0.08133388	     -0.03573119	      0.00000000	      0.00000000	      0.00000000	      0.00000000	     -0.29943839	      0.09415047	      0.18930111
      1.87000000	      0.10923287	     -0.10626104	     -0.06381982	      1.00432237	      0.85794236	     -0.18881445	      0.45921920	     -0.10693841	      0.02442333	     -0.18143666	      0.21221520	     -0.02947022	      0.70743324	      0.18304909	     -0.70743324	     -0.18304909	     -0.07567530	     -0.02982413	      0.00000000	      0.00000000	      0.00000000	      0.00000000	     -0.29668617	      0.09436519	      0.18935708
      1.88000000	      0.10328944	     -0.10753315	     -0.06428954	      1.01462537	      0.85612456	     -0.18855773	      0.46710563	     -0.11019454	      0.01673420	     -0.19035382	      0.21361370	     -0.02701900	      0.64499742	      0.18073345	     -0.64499742	     -0.18073345	     -0.07222957	     -0.02137192	      0.00000000	      0.00000000	      0.00000000	      0.00000000	     -0.29100301	      0.09549943	      0.18909678
      1.89000000	      0.09923831	     -0.10763005	     -0.06380288	      1.02495816	      0.85435588	     -0.18837307	      0.47064636	     -0.11246415	      0.00458755	     -0.20033501	      0.21367171	     -0.02683422	      0.58177795	      0.18026236	     -0.58177795	     -0.18026236	     -0.07182927	     -0.01199188	      0.00000000	      0.00000000	      0.00000000	      0.00000000	     -0.28751451	      0.09500219	      0.18828220
      1.90000000	      0.09040215	     -0.11049986	     -0.06378505	      1.03519278	      0.85200932	     -0.18816369	      0.48061441	     -0.11788122	     -0.00866803	     -0.20472627	      0.21759406	     -0.02141883	      0.52530090	      0.18074746	     -0.52530090	     -0.18074746	     -0.06805000	     -0.00378534	      0.00000000	      0.00000000	      0.00000000	      0.00000000	     -0.27901029	      0.09814461	      0.18799016
      1.91000000	      0.08549026	     -0.10846789	     -0.06256642	      1.04546240	      0.85000166	     -0.18822101	      0.48170417	     -0.11730831	     -0.02784441	     -0.20917534	      0.21515864	     -0.02528730	      0.46536938	      0.18842439	     -0.46536937	     -0.18842439	     -0.07597611	      0.00897548	      0.00000000	      0.00000000	      0.00000000	      0.00000000	     -0.27489615	      0.09559031	      0.18579491
      1.92000000	      0.07775322	     -0.10837840	     -0.06173864	      1.05569885	      0.84761810	     -0.18825011	      0.48695057	     -0.11829562	     -0.04783130	     -0.21043990	      0.21548662	     -0.02451381	      0.41408884	      0.19674248	     -0.41408884	     -0.19674248	     -0.08014301	      0.02004598	      0.00000000	      0.00000000	      0.00000000	      0.00000000	     -0.26787527	      0.09543125	      0.18415013
      1.93000000	      0.06926917	     -0.10731631	     -0.06128761	      1.06598744	      0.84512308	     -0.18832473	      0.49294794	     -0.11779522	     -0.06994306	     -0.20940777	      0.21460607	     -0.02397370	      0.37027947	      0.20802472	     -0.37027947	     -0.20802472	     -0.08514568	      0.03149936	      0.00000000	      0.00000000	      0.00000000	      0.00000000	     -0.25995300	      0.09405390	      0.18298418
      1.94000000	      0.06193262	     -0.10483856	     -0.05984904	      1.07633484	      0.84270305	     -0.18864982	      0.49642625	     -0.11398729	     -0.09077956	     -0.20646593	      0.21159038	     -0.02862610	      0.33175445	      0.22516374	     -0.33175445	     -0.22516374	     -0.09554627	      0.04417760	      0.00000000	      0.00000000	      0.00000000	      0.00000000	     -0.25333397	      0.09147474	      0.18068361
      1.95000000	      0.05521365	     -0.10254707	     -0.05801450	      1.08695735	      0.84026456	     -0.18898211	      0.50181225	     -0.11009362	     -0.11064832	     -0.20491553	      0.20890825	     -0.03190741	      0.30711589	      0.24158423	     -0.30711589	     -0.24158423	     -0.10250788	      0.05386624	      0.00000000	      0.00000000	      0.00000000	      0.00000000	     -0.24688158	      0.08874928	      0.17829611
      1.96000000	      0.04962139	     -0.09974873	     -0.05636287	      1.09776429	      0.83793050	     -0.18940155	      0.50664626	     -0.10511454	     -0.12764736	     -0.20330427	      0.20510124	     -0.03583466	      0.29266591	      0.26099634	     -0.29266591	     -0.26099634	     -0.10992217	      0.06246280	      0.00000000	      0.00000000	      0.00000000	      0.00000000	     -0.24150278	      0.08554147	      0.17625430
      1.97000000	      0.04517917	     -0.09639546	     -0.05529198	      1.10887498	      0.83571151	     -0.18986687	      0.51151868	     -0.09954080	     -0.14128256	     -0.20263041	      0.20025423	     -0.03911508	      0.28973590	      0.28180164	     -0.28973590	     -0.28180164	     -0.11590134	      0.06852611	      0.00000000	      0.00000000	      0.00000000	      0.00000000	     -0.23684031	      0.08157222	      0.17431767
      1.98000000	      0.03889361	     -0.09401939	     -0.05458255	      1.12017434	      0.83334515	     -0.19027289	      0.52207587	     -0.09571030	     -0.15109372	     -0.19839755	      0.19658819	     -0.04051778	      0.30131996	      0.30629518	     -0.30131996	     -0.30629518	     -0.11889557	      0.07350234	      0.00000000	      0.00000000	      0.00000000	      0.00000000	     -0.22988427	      0.07858502	      0.17402182
      1.99000000	      0.04018761	     -0.08925955	     -0.05446191	      1.13215689	      0.83174087	     -0.19073123	      0.52296297	     -0.09004968	     -0.16156612	     -0.20391605	      0.18870688	     -0.04465458	      0.31894571	      0.32860052	     -0.31894571	     -0.32860052	     -0.12409233	      0.07070709	      0.00000000	      0.00000000	      0.00000000	      0.00000000	     -0.23020943	      0.07217191	      0.17310915
      2.00000000	      0.04242689	     -0.08484629	     -0.05309208	      1.14423060	      0.83041507	     -0.19138852	      0.52054705	     -0.08184346	     -0.15840215	     -0.21143147	      0.18241523	     -0.04011598	      0.33656493	      0.34945283	     -0.33656493	     -0.34945283	     -0.12931207	      0.06403015	      0.00000000	      0.00000000	      0.00000000	      0.00000000	     -0.23194946	      0.06667976	      0.17249375
