
inDegrees=no
DataType=double
version=3
OpenSimVersion=4.5-2023-11-26-efcdfd3eb
endheader
time	/jointset/hip_l/hip_flexion_l/value	/jointset/knee_l/knee_angle_l/value	/jointset/ankle_l/ankle_angle_l/value	/jointset/hip_r/hip_flexion_r/value	/jointset/knee_r/knee_angle_r/value	/jointset/ankle_r/ankle_angle_r/value	/jointset/lumbar/lumbar_ext/value
0	0.3605655464333962	-0.3000481068490309	0.004428083197407335	0.03711675491211096	-0.9556926011429929	-0.1231019915173363	-0.01913604206362889
0.01	0.3544556556815092	-0.2998534630628598	0.0121850917499812	0.06194548065632536	-0.991085745714037	-0.1194555663856646	-0.02045523058722123
0.02	0.3465869800562201	-0.2991227915282829	0.02163422032417772	0.09307364348182398	-1.033084262157777	-0.1133624369038883	-0.02213166136510169
0.03	0.3371218392259696	-0.2976195036719604	0.03222564943012567	0.1290435371988167	-1.078496817960945	-0.1046732579915027	-0.02408940725847318
0.04	0.326228744708732	-0.2951208926477345	0.04335220538701683	0.1679883399786177	-1.123763166220267	-0.09368497211005167	-0.02622107213518906
0.05	0.3140248755924712	-0.291443699683094	0.05448149732580912	0.2080639209572664	-1.165685582835858	-0.08101787941168516	-0.02840618124543686
0.06	0.300580273013856	-0.2864553326452665	0.06521060353773576	0.2477357167803886	-1.20183226883734	-0.06739515712922495	-0.0305247279731895
0.07000000000000001	0.285968240481891	-0.2800785598626399	0.07527164330664843	0.2859428072934808	-1.230681627135896	-0.05343930668390944	-0.03247120536619859
0.08	0.2703099018919043	-0.2722897291357829	0.08450992442391633	0.3221349001915486	-1.251581715896674	-0.03956395860491999	-0.03416418727413497
0.09	0.2537940087861553	-0.26311895082977	0.09286034924564385	0.35620332185736	-1.264579007280697	-0.0259714944097512	-0.03554924326162554
0.1	0.2366402053755482	-0.2526386629262517	0.1003208122100941	0.3883186144692209	-1.270167384512119	-0.01273005045071437	-0.03660373021762082
0.11	0.2190254254250052	-0.2409569398312145	0.1069390754469421	0.4187203626566976	-1.269017697869532	0.0001337631255488695	-0.03733127669910605
0.12	0.2009997363630199	-0.2282052751234812	0.1127994862613376	0.4475204857646006	-1.261747933883888	0.01255613562855919	-0.03775852680054962
0.13	0.1824426800845364	-0.2145269302249411	0.1180144217289035	0.4745876899511891	-1.248784198329601	0.02440519782651313	-0.03792869447182728
0.14	0.1630998747711819	-0.2000793146007749	0.1227169816474949	0.4995554576714409	-1.230331820926714	0.03548676300573876	-0.03789599584706815
0.15	0.1426929535100158	-0.1850385297780639	0.127051667473384	0.5219478487490451	-1.206440735945668	0.04557737218512971	-0.03771630321370426
0.16	0.1210655221660232	-0.1696119694266982	0.1311664094827462	0.5413559015091066	-1.177107481277045	0.0544495726822418	-0.03744490213148996
0.17	0.09829343089600089	-0.1540461756845917	0.1352068076858031	0.557578214394188	-1.142351231680693	0.0618913560683587	-0.03712988762523641
0.18	0.07470189328093961	-0.1386244173455665	0.1393130442244338	0.570649708104083	-1.102233506177794	0.06769580304915966	-0.03681036238988655
0.19	0.05078475509429172	-0.1236497205297816	0.1436197002798497	0.5807629291856045	-1.056821616164899	0.07164267020249515	-0.03651469741342811
0.2	0.02707892625657402	-0.1094229808285238	0.1482556978159461	0.588139885405124	-1.006132139819794	0.07347242831894771	-0.03626031975624431
0.21	0.004055647140966533	-0.09621912801245179	0.1533412535888045	0.5929311785222855	-0.9501040907535161	0.07288081540516501	-0.03605450317706241
0.22	-0.01794005178818253	-0.08427112209792029	0.1589843587806279	0.5951822820127022	-0.8886243511987644	0.06954570964373437	-0.03589671088247522
0.23	-0.03869694986728788	-0.07375941721591737	0.1652708836918145	0.5948668971606096	-0.8216108957939643	0.06317871149454619	-0.03577964414662022
0.24	-0.05812064453756435	-0.06481226537887637	0.172259950498564	0.5919600568307881	-0.7491518085921701	0.05360837996242664	-0.03569099833302342
0.25	-0.07620511455823484	-0.05750353185634414	0.1799739131092762	0.5865270750489719	-0.6716851130136727	0.04087970998623045	-0.0356146363499546
0.26	-0.09300406839834566	-0.05185866232029857	0.1883937132774002	0.5787999797251343	-0.5901845939110595	0.0253424765662205	-0.03553072180848188
0.27	-0.1086090022860979	-0.04786056260549269	0.19745608428229	0.5692263816594902	-0.5063152928873618	0.007712478106463945	-0.03541705476420594
0.28	-0.1231303541829457	-0.04545938998764999	0.2070533179026086	0.5584824241632972	-0.4225039156173732	-0.01093701066779127	-0.0352507569988873
0.29	-0.1366722620098896	-0.04458608120956416	0.2170322657309195	0.5474549065900379	-0.3418744832178113	-0.02927718264410949	-0.03500800154314817
0.3	-0.1493199136322985	-0.04516525216762915	0.2271991328636492	0.5371765362314179	-0.2680147230854468	-0.04591320512096711	-0.03466812809259442
0.31	-0.1611282866819258	-0.04712925024777852	0.2373211923110383	0.5287297216229864	-0.2045768776944575	-0.05961386231601497	-0.03421297721754307
0.32	-0.1721236798745359	-0.05042904831881961	0.2471334096103535	0.5231164105458582	-0.1547587710132697	-0.06951726791553016	-0.03362813663918866
0.33	-0.1823200082268246	-0.05504321625635568	0.2563475974421346	0.5211102512967015	-0.1207889362420616	-0.07524969719479049	-0.03290212147533023
0.34	-0.1917296055035903	-0.06098391721642783	0.2646602386658966	0.523121237525334	-0.1035448350257441	-0.07695258897481441	-0.03202538179674632
0.35	-0.2003813836474171	-0.06830046129109454	0.2717615077783225	0.5290828900730445	-0.1024133411023535	-0.07523347687927624	-0.03098910420470445
0.36	-0.208321182318568	-0.07708349166477022	0.277338466706571	0.5384007580950138	-0.1154077612658259	-0.07107122241159139	-0.02978628957896477
0.37	-0.215609355405247	-0.08746913748104991	0.2810683236817679	0.5499788509341332	-0.1395141045643563	-0.06567076448458783	-0.02841500296654775
0.38	-0.2222997819852577	-0.09964494353732406	0.282597810385314	0.5623510318312871	-0.1711750452494929	-0.06026679867508594	-0.02688048746584949
0.39	-0.2284152320859203	-0.1138529162752752	0.2815083111833626	0.5738992972661977	-0.2068109868881682	-0.05589350949695834	-0.02520243382417977
0.4	-0.2339124626290346	-0.1303946503659764	0.2772778631470149	0.5831236883339052	-0.2432834607147509	-0.05316443933108884	-0.02341518017484378
0.41	-0.2386486283116315	-0.1496301053202655	0.2692513452928683	0.5888859699845096	-0.2782073063674526	-0.05214712011705698	-0.0215652881444313
0.42	-0.2423663679038685	-0.1719658709351919	0.256651963465217	0.5905586348861611	-0.3100796021746006	-0.05237827417729745	-0.01970878814556405
0.43	-0.2446921564181051	-0.197836233883142	0.2386442340958329	0.5880514018779061	-0.3382231229157446	-0.05302795648641148	-0.01790228899616305
0.44	-0.2451612888888794	-0.2276662846083627	0.2144584703401692	0.5817217337570603	-0.3625873850434707	-0.05314640889827116	-0.0161943621772032
0.45	-0.2432652513507975	-0.2618293150718992	0.1835607083996653	0.5722133165590958	-0.3834854098544043	-0.05190339510423349	-0.01461738486157769
0.46	-0.2385098276845679	-0.3005888949978852	0.145838363139238	0.5602819554013773	-0.4013456999679389	-0.04874096621117006	-0.01318685019698751
0.47	-0.2304705932362162	-0.344047090035098	0.1017735665847324	0.5466494002288298	-0.4165374028006733	-0.04341873447999837	-0.01189956343042187
0.48	-0.2188374228968025	-0.3920974736084752	0.05255405529281029	0.5319085039896186	-0.4292905821812766	-0.03597830764156173	-0.01074161162577971
0.49	-0.2034411726475932	-0.4443888746387765	6.464663031544764e-05	0.5164795467932718	-0.4396875963664596	-0.02666832091194344	-0.009696721412384425
0.5	-0.1842595052249453	-0.5003207835897023	-0.05325293118068513	0.5006131986773931	-0.4477030454573256	-0.01586486777281965	-0.008755511389177285
0.51	-0.1614089505713065	-0.559060097093249	-0.1046935313053009	0.4844250741228056	-0.4532611292313482	-0.004002127745954624	-0.007921302705291133
0.52	-0.1351286022959172	-0.6195920176160415	-0.1516432720120405	0.4679440018483093	-0.4563012940632418	0.00848119123273691	-0.007213239431804169
0.53	-0.1057620414689111	-0.6807885299888633	-0.1919202212586127	0.4511588964458669	-0.4568383537865699	0.02117963745145261	-0.00666230214248323
0.54	-0.07373751271595147	-0.7414902270311484	-0.2239926869111938	0.4340562090834326	-0.4550039684277233	0.03374551338363929	-0.006306277556185717
0.55	-0.03955216579471799	-0.800571590287202	-0.2470839413931053	0.4166443620079536	-0.4510533686876725	0.04590541537477862	-0.006179296266905328
0.5600000000000001	-0.003755688597473319	-0.8569935874577298	-0.2611394897705414	0.3989635689518903	-0.4453335311669412	0.05746881089363224	-0.006303810491136841
0.5700000000000001	0.03307037083838518	-0.9098348313845914	-0.2667245214058443	0.3810810747327671	-0.4382292493535322	0.06832660188166936	-0.006684483881679798
0.58	0.07033790436068127	-0.9583085577027505	-0.2648510874475144	0.363074676943928	-0.4301085055310672	0.07843841648124006	-0.007303585611339156
0.59	0.1074844492262983	-1.001771346692844	-0.2567878013255679	0.3450091236893755	-0.4212794274376684	0.08781018022576978	-0.008123761204786001
0.6	0.1440039112013641	-1.039723855650481	-0.2438628147651408	0.3269115459227148	-0.4119543355912423	0.09646680199382916	-0.009093313607805119
0.61	0.1794762182358108	-1.071799300714532	-0.227328296176518	0.3087622029623656	-0.4022296364232498	0.1044347469487509	-0.01015495676893269
0.62	0.2135777463229232	-1.097741352630075	-0.2082757587772253	0.2904909870926317	-0.3920815279314484	0.1117312424138363	-0.01125312684888637
0.63	0.2460861880907071	-1.117381699616219	-0.1876156707649336	0.2719980797069056	-0.3813963264268052	0.1183692712993997	-0.01234062243823643
0.64	0.276864324163996	-1.130616678127531	-0.1661030216639234	0.25317650495315	-0.3700216990949678	0.1243675839239908	-0.01338181543502463
0.65	0.3058405820884942	-1.137394556259837	-0.1443673994006463	0.233942423191298	-0.3578268847264132	0.1297619498700008	-0.01435232127051994
0.66	0.3329847516305859	-1.137710274007066	-0.1229372666815365	0.2142606806949604	-0.34475219522321	0.13461571908186	-0.01523647410766944
0.67	0.3582845489597433	-1.131599118253662	-0.1022468352775747	0.1941589576947174	-0.3308327510222338	0.1390216361445303	-0.01602557706103832
0.68	0.3817275903768975	-1.11913019802991	-0.0826308895049189	0.1737341599647341	-0.3162021429416655	0.1430984197859804	-0.01671499560615148
0.6900000000000001	0.4032859792696298	-1.100389333701941	-0.06433811867511219	0.1531415331518054	-0.3010789499279734	0.1469805263517457	-0.01730416174068266
0.7000000000000001	0.4229047879404574	-1.075460081948955	-0.04755101590185221	0.1325779264723802	-0.2857436361334565	0.1508034275175272	-0.01779551080061308
0.71	0.4404980628651979	-1.044404161529214	-0.03241991662867395	0.1122571584724781	-0.2705084072616561	0.1546907605369318	-0.0181961875478047
0.72	0.4559435316603033	-1.007249269318055	-0.01908479493799628	0.09237901616812566	-0.2556826394074554	0.1587414784892127	-0.01851761236602585
0.73	0.4690906258556429	-0.9639916768899524	-0.007688482088774761	0.0731068678474423	-0.2415443832334155	0.163028302316886	-0.01877587657392549
0.74	0.4797713665654602	-0.9146190005458371	0.001628248238058877	0.05455241647340009	-0.2283244016479918	0.167603629714399	-0.01898944336799843
0.75	0.4878260972824049	-0.8591586042659096	0.008747610331177616	0.03677303652273341	-0.2162013261813012	0.1725109700760607	-0.01917838424436654
0.76	0.4931331448341739	-0.79775077006059	0.01360339459890842	0.0197730244232946	-0.2053061344247052	0.1777971118132727	-0.01936085655211821
0.77	0.4956497987747852	-0.73074603650836	0.0162152419843278	0.003514186439907343	-0.1957298066189438	0.1835199620349871	-0.01955147438773523
0.78	0.4954549219620186	-0.6588074641416218	0.01671245311954829	-0.01207154954138135	-0.1875316813220552	0.1897503441814434	-0.0197586766429218
0.79	0.4927883320520359	-0.58299758765629	0.01534013973369537	-0.02706608066550359	-0.1807441658755543	0.1965672209789624	-0.01998456263763096
0.8	0.4880730388944825	-0.5048171316161376	0.01244073544898009	-0.04155143411455409	-0.1753774468706107	0.2040489226531061	-0.02022472151130726
0.8100000000000001	0.4819136466358336	-0.4261759487074017	0.008418348433240797	-0.05559551841573528	-0.1714227025861135	0.2122590821091705	-0.02046892089969992
0.8200000000000001	0.4750685902650302	-0.3492995427845204	0.003694763325976927	-0.06923772338604511	-0.1688581450353944	0.2212320541252177	-0.02070391365698039
0.8300000000000001	0.4683812928993003	-0.2765850417894308	-0.001335768912009852	-0.0824844988687486	-0.1676556445794396	0.2309578019128893	-0.02091495044801775
0.84	0.4626878872523881	-0.2104283253073091	-0.006349614781291603	-0.09530489809974121	-0.1677887693444299	0.2413679155216842	-0.02108881117471329
0.85	0.4587092910313778	-0.1530199099137729	-0.01113285703764217	-0.1076322296996625	-0.1692434878003721	0.2523295032132071	-0.02121687801422708
0.86	0.4569474102332086	-0.1061071039224013	-0.01561110805223253	-0.1193759045795576	-0.1720262914024231	0.2636406141530461	-0.02129714527336315
0.87	0.4576246853879294	-0.07075355722781539	-0.01986785792523664	-0.1304310108372344	-0.1761731827595696	0.2750313036752081	-0.02133565916003382
0.88	0.4606720740442798	-0.04717390813030779	-0.02414795935175209	-0.1406925367019596	-0.1817572656437341	0.2861639495324982	-0.02134684651720675
0.89	0.4657659688403016	-0.03472833633917623	-0.02884776664368563	-0.1500666307124431	-0.1888965680254776	0.296632003539759	-0.02135244539727972
0.9	0.4723934449500456	-0.03210044548878373	-0.03448043765358188	-0.1584703520454858	-0.1977628138608399	0.305955331041963	-0.021378421620881
0.91	0.4799155101594608	-0.03758824261597427	-0.04159749015665565	-0.1658328772608485	-0.2085865496764376	0.3135711062322353	-0.02145224735913044
0.92	0.4876354815273825	-0.04939938285642171	-0.05064915858291466	-0.172077390805839	-0.2216609395740181	0.3188281529345381	-0.02159999246238639
0.93	0.4948515162380339	-0.06586074773885137	-0.061797471317555	-0.1771143605335604	-0.2373334428520527	0.3209877102624834	-0.02184360512310139
0.9400000000000001	0.5009127377209998	-0.08551944556938131	-0.07473840355500891	-0.1808259748552902	-0.255989668591628	0.3192441054072949	-0.02219933270451952
0.9500000000000001	0.5052613468859629	-0.1071483250072167	-0.08862435018289903	-0.1830620481303048	-0.278027027006411	0.312773189880134	-0.02267610303807636
0.96	0.5074650128194625	-0.1297000064075213	-0.1021633202102655	-0.1836381564531162	-0.3038245358537906	0.3008169947452505	-0.02327381833582562
0.97	0.5072332179360848	-0.1522514714259873	-0.1138904585242669	-0.1823374352872079	-0.3337152567175947	0.2828129605118788	-0.02398321787119547
0.98	0.5044212194305837	-0.1739702991296401	-0.122515688280977	-0.1789127432834205	-0.3679659384705084	0.2585543925899151	-0.02478637107990913
0.99	0.4990271198006828	-0.1941206248197771	-0.1271975337997147	-0.1730891589934737	-0.4067659651555499	0.2283616026794688	-0.02565980053248185
1	0.491183078415477	-0.2120998583654974	-0.1276482072351834	-0.1645685082438197	-0.4502192666342597	0.1932179130787811	-0.02657918615861525
1.01	0.4811355375443397	-0.2274834585995288	-0.1240693598161724	-0.1530466580379714	-0.4983289721209185	0.1548052431742916	-0.02752506607640574
1.02	0.4692212539071113	-0.2400482359777658	-0.1169939316886987	-0.1382383255665323	-0.550968814490343	0.1153852242651011	-0.02848716214852129
1.03	0.4558236228322224	-0.2497615001978278	-0.1071137704920729	-0.1199223436233499	-0.6078329629808511	0.07750278141126797	-0.0294662504367483
1.04	0.4413280370189211	-0.2567388657405377	-0.09514982722289295	-0.09798849062880841	-0.6683737385142682	0.04357381367922505	-0.03047257578890518
1.05	0.4260763131931191	-0.2611873434463788	-0.08177309364018279	-0.07248101666889528	-0.7317375313821964	0.01547035790802724	-0.03152171561677428
1.06	0.4103344678582016	-0.2633514115034203	-0.06757278165155482	-0.04362154251938631	-0.7967288485712994	-0.00575888976125515	-0.03262798025002559
1.07	0.3942783362251411	-0.2634724688197213	-0.05304876659361693	-0.01180102022830514	-0.8618409401158375	-0.01996140978090408	-0.0337982959880879
1.08	0.3779922073424387	-0.2617628359131881	-0.03861835748680612	0.02245386848689305	-0.9253735108178496	-0.02774637476299132	-0.03502727201034841
1.09	0.3614867671439682	-0.2583928052907746	-0.02462591562423186	0.05853860270351707	-0.9856278633760286	-0.03021394955754486	-0.03629482433711764
1.1	0.3447186726829887	-0.2534884276958255	-0.0113483202936945	0.09582230868765157	-1.041109698102731	-0.02864294042753411	-0.03756755734444492
1.11	0.3276142209763321	-0.2471374209967454	0.001001253122592444	0.133686575467045	-1.090669261776343	-0.02423061721408543	-0.03880216137510283
1.12	0.310089888634311	-0.239406297641759	0.01227854165651316	0.1715431440464123	-1.133540163214166	-0.01793648564903534	-0.03995108652006584
1.13	0.2920692096441263	-0.2303614535657934	0.02241202356826518	0.2088429621551418	-1.169291902425989	-0.01043928562570418	-0.04096798129279897
1.14	0.2734937442646077	-0.2200899242022236	0.03140842099893203	0.2450891671576087	-1.197746447092941	-0.002181206825035294	-0.04181317291543844
1.15	0.2543265744251439	-0.2087100870615037	0.03934922459727554	0.2798573177550816	-1.218900201947549	0.006539298429932497	-0.0424571169446412
1.16	0.2345560155064522	-0.1963713621255439	0.04638041512232947	0.3128239563884136	-1.232878069244939	0.01547087285519114	-0.04288284821202559
1.17	0.2141949671950627	-0.1832444746649752	0.05269214851770931	0.3437869324861109	-1.239911477683838	0.02434043515834837	-0.04308662996968708
1.18	0.1932789993362848	-0.1695071740378035	0.05849518901655958	0.3726647200293033	-1.240325466075291	0.03283222389968865	-0.04307695936597873
1.19	0.171872410625687	-0.1553361609823557	0.06399672639049925	0.3994809878621791	-1.234517378053937	0.04060917443137044	-0.04287283222961336
1.2	0.1500767340798286	-0.1409049404436502	0.06937917469063114	0.4243355046570752	-1.222922640458005	0.04735917259601483	-0.04250115064878997
1.21	0.1280342074680551	-0.1263878079926545	0.07478482578176035	0.447362826628068	-1.20596775853607	0.05284456871703511	-0.04199457579756487
1.22	0.105929612558126	-0.1119640359826229	0.08030752280279856	0.468698808280265	-1.18402903695016	0.0569370816536735	-0.04138853604081452
1.23	0.08397750026536065	-0.097820703157755	0.08599545232471935	0.4884490772404017	-1.157403018687657	0.05962258000739577	-0.04072010757433984
1.24	0.0624026705140863	-0.08415089701946003	0.0918644268664951	0.5066674959415247	-1.126288109249771	0.06097004381162419	-0.04002578402745336
1.25	0.04141615801474568	-0.07114885355736721	0.09791557827158907	0.5233445102932236	-1.09078417717738	0.06107899622853286	-0.03934016568838006
1.26	0.02119392905577116	-0.05900405252184646	0.104153691907585	0.5384011908586909	-1.050893286420328	0.06002244532269276	-0.03869387058727748
1.27	0.001863748140273492	-0.04789312391100811	0.1105960949663253	0.5516943261503078	-1.006530415560815	0.05781086064613929	-0.0381130393147204
1.28	-0.01650103974088803	-0.03797225796159609	0.117272989359047	0.563028739749685	-0.9575443636279523	0.05438622273781154	-0.037616592798016
1.29	-0.03387537577629429	-0.02936873712895937	0.1242178726588363	0.57218535336765	-0.9037560996174584	0.04964203012124156	-0.03721649445612363
1.3	-0.05027787231506558	-0.02217449456616533	0.1314540641699883	0.5789538438571136	-0.8450144225584444	0.04346305946739138	-0.03691500797596985
1.31	-0.06575815361904526	-0.01644163252322785	0.1389801074762818	0.583176751818625	-0.7812833131971668	0.03577644003093372	-0.03670503852996312
1.32	-0.08038796691247575	-0.01218187723132169	0.1467609320751118	0.5847944224437664	-0.7127497254421495	0.02660272184474883	-0.03656945866334287
1.33	-0.0942531908181337	-0.00936998795703723	0.1547261140004026	0.583884886352477	-0.639944693614754	0.01609783091006623	-0.03648258551634664
1.34	-0.1074443520071358	-0.007953627863319272	0.1627805284669678	0.5806963501583524	-0.563865504964188	0.004581223282465297	-0.03641280237340815
1.35	-0.1200535708860635	-0.007862570640579179	0.1708194133754265	0.575657782533977	-0.4860652151696445	-0.007460882724411165	-0.03632573781170858
1.36	-0.1321669258147753	-0.009023929939030149	0.1787504569044938	0.5693713242018178	-0.4086911643075682	-0.0193958167832093	-0.03618648777621106
1.37	-0.143859817541634	-0.01137307208737272	0.1865131720079112	0.5625798639479522	-0.3344339440272662	-0.03049770104931439	-0.03596269069848194
1.38	-0.1551901698203489	-0.01486465936879154	0.1940906642575137	0.5561090815788458	-0.2663540257639438	-0.04002573825437212	-0.035626171166426
1.39	-0.1662001937541976	-0.01947664164169861	0.2015069187478686	0.5507865544032406	-0.2075702541149498	-0.04731905457090631	-0.03515431727791281
1.4	-0.1769126760152573	-0.02521342768605475	0.2088016831582456	0.5473512430446066	-0.1608376026489437	-0.05189091985900215	-0.03452894463612415
1.41	-0.187331877661272	-0.03210645216539861	0.2159835628279168	0.5463581169846025	-0.1281026590304486	-0.05351053375950145	-0.03373542458041602
1.42	-0.1974488937473468	-0.04021868843653757	0.2229650729150731	0.5480833793177829	-0.11017177850327	-0.05225867743840688	-0.03275964859879479
1.43	-0.2072405214824843	-0.0496514468924085	0.2295024176666747	0.5524576879872654	-0.1065930975318272	-0.04855305522912975	-0.03158695682169742
1.44	-0.2166628353534551	-0.06055766580039303	0.2351535622760388	0.559034730483866	-0.1157703756153754	-0.04312567856917037	-0.03020213386080223
1.45	-0.2256420325085503	-0.07315506274079434	0.2392717081381691	0.5670211511188501	-0.135269250490987	-0.03693677931788125	-0.02859422122434247
1.46	-0.2340552912872469	-0.08773735941471293	0.241028628798808	0.5753792158839548	-0.1622207652953468	-0.03101538003392837	-0.02676096354776997
1.47	-0.241714525937558	-0.1046782930304386	0.2394620409323258	0.582989931068156	-0.1937388606775142	-0.0262503336176663	-0.02471694163805292
1.48	-0.2483499582410585	-0.1244272553771654	0.2335401859981551	0.5888390983493242	-0.2272709716340541	-0.023184142627901	-0.02249869073639584
1.49	-0.2536143119916022	-0.1474896728178984	0.2222373308576953	0.5921684491860868	-0.2608353734188112	-0.0218785799183547	-0.02016317128120741
1.5	-0.2570932825473568	-0.1743981526035181	0.2046283432825233	0.5925571375471839	-0.2931052458871944	-0.02190974514489243	-0.01778274011094831
1.51	-0.2583363129861513	-0.205666809660086	0.1800009774838541	0.5899092230543453	-0.3233446744062307	-0.02250162645537873	-0.01543350745674057
1.52	-0.2568911319758629	-0.2417365635955784	0.1479927938820848	0.5843799014200955	-0.3512369258985257	-0.02274744246577685	-0.01318215845616085
1.53	-0.252341620596167	-0.282911564051239	0.1087441660337978	0.5762745040634122	-0.3766753407624218	-0.02183466064690901	-0.01107527242085302
1.54	-0.2443380725064223	-0.32929594062569	0.0630457698218808	0.5659650080095519	-0.3995922081272035	-0.019193574665553	-0.009135495582758453
1.55	-0.2326266718099875	-0.3807369943199289	0.01243138317624579	0.553830747266283	-0.4198667869269495	-0.01454376406189651	-0.007363663300609711
1.56	-0.2170666537984952	-0.4367885790723402	-0.04085322401695177	0.5402295508155712	-0.4373197798412701	-0.007860961300654822	-0.005747547919933044
1.57	-0.1976460508917967	-0.4967036116181295	-0.09405627502265757	0.5254682148149936	-0.4517515163674368	0.0006857570237072047	-0.004272867979308577
1.58	-0.1744860702090044	-0.5594617017856329	-0.1442826110094409	0.5097796327018776	-0.4629880920862672	0.01079457732255326	-0.00293226727644794
1.59	-0.1478336200726821	-0.6238325690197747	-0.1889221343719424	0.493299492533763	-0.4709035061886871	0.02207254751128034	-0.001730973695399204
1.6	-0.1180518391422191	-0.6884628947231174	-0.2259976976721304	0.476054891974741	-0.4754230570061197	0.03406763728164659	-0.0006836481460227145
1.61	-0.08559795888726821	-0.7519702985528282	-0.254362876639753	0.4579804171305367	-0.4765265378037941	0.04629699160118275	0.0001883198513888196
1.62	-0.05100122431783393	-0.8130289257602111	-0.2737224931574887	0.4389547943030107	-0.4742610865330045	0.05828668430915238	0.0008641265939602088
1.63	-0.01484101861263059	-0.8704349609535231	-0.2845276700692399	0.418854819002233	-0.4687577640088967	0.06961443168342601	0.001331849461891879
1.64	0.02227623564218476	-0.9231527673638598	-0.2877811541044489	0.3976133462792201	-0.4602494636687979	0.079958440640538	0.001592963304172766
1.65	0.05974189794660973	-0.9703467781992084	-0.2848005109229185	0.3752627335412165	-0.4490744402606619	0.08912871128146801	0.001666714271053709
1.66	0.09696507111140458	-1.011390551392155	-0.2769811703568233	0.3519483228047132	-0.4356795389258903	0.0970842226030504	0.001587872349256917
1.67	0.1334019917374347	-1.045868367496539	-0.2655925780740197	0.3279129943611254	-0.4206022188619749	0.1039172531370564	0.001404790687361302
1.68	0.1685766988424435	-1.073551793869858	-0.2516477339741468	0.3034516267221523	-0.4044313715649592	0.10981726182791	0.001172607513016002
1.69	0.2021101413795284	-1.094372387272098	-0.2358510275207737	0.2788656730784338	-0.3877463011509629	0.1150214198154395	0.0009474159167551362
1.7	0.233731384319666	-1.108380880922024	-0.2186301290954534	0.2544124780150558	-0.3710393928160279	0.1197641601769776	0.0007773587120471093
1.71	0.2632889437311012	-1.115713628667448	-0.2002150858820985	0.2302813922855229	-0.3546601864532272	0.1242355826800854	0.0006985935121762517
1.72	0.2907431551583486	-1.116559515208684	-0.1807391724485104	0.2065863825397336	-0.3387930060995079	0.1285613802058363	0.000732557268490331
1.73	0.3161404907624301	-1.111130261852394	-0.1603397912621806	0.1833769669292067	-0.3234791973307934	0.1327975956504197	0.0008848532823258472
1.74	0.3395827665207709	-1.099636524640803	-0.1392345392289253	0.1606634152688957	-0.3086630667907874	0.1369395684819279	0.001147367689866534
1.75	0.3611834996748354	-1.082258466421654	-0.1177747871650668	0.1384444542349044	-0.2942519697630689	0.1409404270651755	0.001502472783387292
1.76	0.3810283774326971	-1.059121122608128	-0.09645780550277173	0.1167295380491027	-0.2801701060251114	0.1447351486576726	0.001924324392025461
1.77	0.3991436319310933	-1.030274027996498	-0.07589579672000053	0.09554856901710505	-0.266388363897249	0.1482577950553045	0.002385317966829665
1.78	0.4154831904831655	-0.9956842925473041	-0.05674366957950649	0.07495665792871931	-0.2529414310526801	0.1514637416650555	0.002857539080290047
1.79	0.4299279099196462	-0.9552499171907944	-0.03960985652183183	0.05502137833541703	-0.2399229508932344	0.1543455316358734	0.003315514622587432
1.8	0.4423033531891354	-0.9088368783451115	-0.02497599647190118	0.03580813997028407	-0.2274666806846613	0.1569469240334196	0.003738624600848096
1.81	0.4524175063770384	-0.8563448414161865	-0.01316154808603716	0.01736864664946811	-0.2157285485087849	0.1593775745155782	0.004110943623842556
1.82	0.460098229408395	-0.7977905843188867	-0.004317556030459566	-0.0002754569088065448	-0.2048630343535865	0.1618151991508413	0.004420744940247405
1.83	0.4652485166404993	-0.7334237784054074	0.001558642335773021	-0.01713189683004657	-0.1950146979319871	0.1645051582993895	0.00466097143324826
1.84	0.4678980623195054	-0.6638466309772425	0.004605632818331555	-0.03323471492537289	-0.186313368347128	0.1677411486951879	0.00482826112204322
1.85	0.4682411107574213	-0.5901155514597992	0.005094388937239696	-0.04863099014171739	-0.1788817673909915	0.1718375565049206	0.004924555721544251
1.86	0.4666658176831258	-0.5137960790998807	0.003423117773896942	-0.0633644461746332	-0.1728401367867945	0.1770856316833012	0.004954188590157887
1.87	0.4637491902362982	-0.4369182417279134	0.0001063077617322871	-0.07745953001068941	-0.1683164081354019	0.1837132742406132	0.004926490154375111
1.88	0.4602195696855617	-0.3618415334906804	-0.004250760621369017	-0.09091138970327502	-0.1654429072534768	0.1918419909015917	0.004854644622037768
1.89	0.456880531600334	-0.2910595054063364	-0.009003852201124474	-0.103680531405662	-0.164357985359649	0.2014639752752911	0.004754760476700285
1.9	0.454505824145824	-0.22698954208586	-0.01354229897872902	-0.1156989446415125	-0.1651949836007472	0.2124322874485665	0.004644565424665801
1.91	0.4537120024038986	-0.1717716932022116	-0.01736941022768691	-0.1268825234546503	-0.1680742768580432	0.2244704913002676	0.004541632167939637
1.92	0.4548458099484862	-0.1270610384714697	-0.02017387802102737	-0.1371500497542066	-0.1730958002514421	0.2371990031512741	0.00446710422901215
1.93	0.4579161017902113	-0.09379962119497957	-0.02188085608884887	-0.1464418187974931	-0.180333073671787	0.2501604583738785	0.00444212877141425
1.94	0.4625989709614931	-0.07204212772125022	-0.02266887921361952	-0.1547345695368636	-0.1898325692800996	0.2628394021390958	0.004491738469095383
1.95	0.4683136486076123	-0.06092580620920446	-0.02296807079792771	-0.1620466944285965	-0.2016163247344005	0.2746631882335319	0.004645337845411654
1.96	0.4743280317449064	-0.05885399587798811	-0.02342627182466504	-0.1684323888008748	-0.2156937776118025	0.2849914262835636	0.004935251538242552
1.97	0.4798654094414537	-0.06382809419803759	-0.02484974807206921	-0.1739626258967493	-0.232080124575276	0.2930960579814336	0.005395273085256309
1.98	0.4841918810798555	-0.07380972599338466	-0.02808139626693409	-0.1786934153228956	-0.2508204562710273	0.2981516365472719	0.006053878024319409
1.99	0.4866877290744505	-0.08699399625306616	-0.03381460160798083	-0.1826361420929739	-0.2720113455780855	0.2992378067978607	0.006928406030841788
2	0.4869164613225747	-0.1019629755948858	-0.04235840937555093	-0.1857194834240403	-0.2958177087469537	0.2953679341283529	0.008016027496165239
2.01	0.4846687200730342	-0.1177344818864441	-0.05342976507706639	-0.1877730469406005	-0.3224734878346386	0.285544032209755	0.009291954216206006
2.02	0.4799809240537358	-0.1337411120127427	-0.06607133304086017	-0.1885208792194515	-0.3522680352935772	0.2688500235613501	0.01070668988568875
2.03	0.473101546194384	-0.1497512957946209	-0.07877201069728611	-0.1875926843557748	-0.3855219957190151	0.2446000942681724	0.01219020689180929
2.04	0.4644139818234093	-0.1657437112986013	-0.08978889227094185	-0.1845556820276757	-0.4225482239600094	0.2125300088158156	0.01366270506891963
2.05	0.4543321860427508	-0.1817473786581872	-0.09754901079229648	-0.1789490454980296	-0.4636132025731361	0.1730275234589952	0.01504399413988396
2.06	0.4432113912523116	-0.1976995471401937	-0.1009769651684192	-0.1703291420634997	-0.5088910024251455	0.1273286195819954	0.01626462905838656
2.07	0.431306029204735	-0.2133707188376832	-0.09963965882703593	-0.1583129259355485	-0.5584093203913745	0.0775808120312073	0.0172709075971649
2.08	0.4187789522006793	-0.2283836236927324	-0.09369234573731983	-0.1426143236788312	-0.6119903571795465	0.02666412019144276	0.01802695406350318
2.09	0.405735521550771	-0.2422934805137844	-0.08371390557409165	-0.1230828500470014	-0.6691775471102813	-0.02224145850341861	0.01851059243983997
2.1	0.3922579290641525	-0.2546833714321873	-0.07051532914592938	-0.09973369338065095	-0.729166249349725	-0.06622785201155118	0.01870907076186193
2.11	0.3784170481153336	-0.2652153745951236	-0.05499284506105035	-0.0727618137163305	-0.7907702919483561	-0.1031380038797208	0.01861446612532607
2.12	0.3642535252004516	-0.2736406342434824	-0.03802817602210935	-0.04254220494146923	-0.8524756678264648	-0.1317716877418723	0.01822601703260819
2.13	0.3497648303164708	-0.2797807185842282	-0.02043412295498775	-0.009604485532802513	-0.9125684330855033	-0.1518274129566626	0.01755396000914829
2.14	0.3348893778631833	-0.2835066141073035	-0.002922589910807135	0.02540886209817453	-0.9693409022554855	-0.1636739524336621	0.01661927056942264
2.15	0.3195167465238917	-0.2847423874321275	0.01392491304388665	0.06179430881376053	-1.021283595630554	-0.1681088646627006	0.01546373641570757
2.16	0.3035147769295007	-0.2834749224903316	0.02966749386899582	0.09884098513849958	-1.067213537054497	-0.1661630759465047	0.01414280435383906
2.17	0.2867561699799046	-0.2797685013327275	0.04401889863759374	0.1358772085559601	-1.106317663446512	-0.1589717254102069	0.01272524427718462
2.18	0.2691502283952293	-0.2737715619005734	0.05684415813757575	0.1723042754859569	-1.138113077121941	-0.1476760108704199	0.01128308741114977
2.19	0.2506625973974129	-0.2657094575563606	0.06814177434082866	0.2076200385825774	-1.162383396242214	-0.13332257960268	0.009884410811099661
2.2	0.2313272322903538	-0.2558773830621675	0.07802295502880929	0.2414279531595086	-1.179111643155384	-0.1167863882159975	0.008583989250813969
2.21	0.2112527567570136	-0.2446247118634989	0.08667789567643056	0.2734485537498604	-1.188443892247239	-0.09871520071126377	0.007419683830407099
2.22	0.190610811529648	-0.2323373027127936	0.09434693408850449	0.303516707721291	-1.190665501228583	-0.07953923411782432	0.006406024382279494
2.23	0.1696251021398236	-0.219418508001901	0.1012929076198651	0.3315828303432546	-1.186194186916395	-0.0595508952009914	0.005537466121817825
2.24	0.1485414383561547	-0.2062560007617525	0.1077725949338665	0.3576954244371042	-1.175550863619893	-0.03902440632925914	0.004790981027971314
2.25	0.1276063789613123	-0.1932015679275907	0.1140209118057888	0.3819694719829039	-1.159299056225739	-0.01835092552951672	0.004129007866322509
2.26	0.1070411494180978	-0.1805445785966097	0.1202332177463462	0.4045464867030779	-1.137970331687512	0.001912275148538804	0.003505265630478554
2.27	0.0870271026743672	-0.168506424679179	0.1265642673820075	0.4255501724302603	-1.111988199197563	0.0210720436628188	0.002872528984171775
2.28	0.06769259477228397	-0.157235627340341	0.133122800909032	0.4450530337251286	-1.08162476724027	0.03841189592329773	0.002186834703395526
2.29	0.04910918568257634	-0.1468104335818737	0.1399699878087075	0.4630558029569825	-1.046985630152855	0.0533187237431777	0.001412350007697654
2.3	0.03128838525458052	-0.1372497934594085	0.147126733895591	0.4794870741190942	-1.008045887379125	0.06537401759893656	0.0005258804934778325
2.31	0.01418749760647656	-0.128521757362243	0.154569153943656	0.494212524023983	-0.9646936195742699	0.07437524825086299	-0.0004821709719754192
2.32	-0.002286204941866408	-0.1205543034276473	0.1622347635358265	0.5070584479895484	-0.9167966007901676	0.08030802214550294	-0.001609780230189046
2.33	-0.01826308074484153	-0.1132509669675116	0.1700315338116833	0.517836627105749	-0.8642676790801449	0.08329676300122277	-0.002839469376249264
2.34	-0.03389514974738812	-0.1065054046305579	0.1778481779271749	0.5263790491973144	-0.80713355263413	0.08355442383668794	-0.004143829502115831
2.35	-0.04933770571005115	-0.1002223751183021	0.18557460746074	0.5325666709635181	-0.7455992182770317	0.08135191471378675	-0.005485525638034223
2.36	-0.06472735215199488	-0.09433347680262118	0.1931182109854712	0.5363684998671743	-0.6801080257513208	0.07699125474489101	-0.00681921590599989
2.37	-0.08015709581310111	-0.08882021735869595	0.2004218803407431	0.5378724202242556	-0.6113898809327609	0.07079265576156911	-0.008095690862718186
2.38	-0.09566066313186217	-0.08372220298536293	0.2074677557024953	0.5373096609964083	-0.5405043890400674	0.06309607443815887	-0.009265696072036205
2.39	-0.1111957639424055	-0.07914708364731014	0.2142804047317838	0.5350645163289306	-0.4688715142769567	0.0542625771618262	-0.01028376846131386
2.4	-0.1266528840672799	-0.07525806118508903	0.2209136898616555	0.5316546714482204	-0.3982977786793705	0.04469746376096752	-0.01110981549272648
2.41	-0.1418612316568272	-0.07226183851118176	0.2274399658499764	0.5276952832765723	-0.3309630461785659	0.03486370606574171	-0.01171689866766956
2.42	-0.1566182566653903	-0.07038016539822946	0.2339323531134261	0.5238374614109972	-0.2693247153809	0.02528734288987206	-0.0120886499484121
2.43	-0.1707125041024166	-0.0698306221072916	0.2404499904729611	0.5207081472616132	-0.2158895199519233	0.01653281042045484	-0.01221899295842007
2.44	-0.1839573695992758	-0.07080394922906673	0.2470189103282369	0.5188428692341217	-0.1728601271397269	0.009154083614929365	-0.0121115697785436
2.45	-0.1962155339122607	-0.07344457331842116	0.2536042918480008	0.5186399696485713	-0.1417787735315757	0.003627645944871776	-0.01177132494185345
2.46	-0.2074176216949746	-0.07785135590844572	0.2600874079819056	0.5203139328412543	-0.1232838604526535	0.0002733275502689448	-0.01120071875146606
2.47	-0.2175625676829815	-0.08408233726614731	0.2662376456243074	0.5238649252597387	-0.1170559167630703	-0.0008284738499596795	-0.01039874003840502
2.48	-0.2267083788537748	-0.09217597510214233	0.271698973426976	0.5290570241209571	-0.1219344034387967	0.0001043810904945696	-0.009353505486603162
2.49	-0.2349413582714299	-0.1021734069328941	0.2759812532360394	0.5354341963777473	-0.1361297095168132	0.002538254413690994	-0.008050345863821733
2.5	-0.242343181757628	-0.1141583808523073	0.2784826106451395	0.5423625098221293	-0.1574667897229599	0.005678291687577423	-0.006476610634734203
2.51	-0.2489508173172508	-0.1282770627923351	0.2784957600030218	0.5491160200304612	-0.1836304332859549	0.008587523140744829	-0.004629703217277748
2.52	-0.2547311252394838	-0.1447640273107432	0.275238697345098	0.5549733765319815	-0.2124157924945649	0.01037405274315945	-0.002525397639424581
2.53	-0.259564995644573	-0.1639430815065714	0.2678790017383936	0.559305307650618	-0.2419347360701939	0.01038454310114083	-0.0002087287126744146
2.54	-0.2632515429625424	-0.1862185431675644	0.2555609329456388	0.5616271180679764	-0.2707741241594188	0.008365385337210497	0.002248331618258714
2.55	-0.2655192912097721	-0.2120499240950584	0.2374554489194919	0.5616105398901906	-0.2980454097092914	0.004524053744299163	0.004750115029103508
2.56	-0.2660489440163185	-0.2419093195265404	0.2128341251675459	0.5590658228895926	-0.3233405132170275	-0.0005239289607600902	0.007186250998929199
2.57	-0.2644949562307436	-0.2762283113614147	0.1811823557434132	0.5539128724963983	-0.3465925394049957	-0.005915881026920719	0.009450929328824225
2.58	-0.2605051414436413	-0.3153372480881486	0.142365384695936	0.5461711297865652	-0.3678990931271474	-0.01074871165485776	0.01145568833781402
2.59	-0.2537425099085759	-0.3593919912095391	0.09680538963691911	0.5359753507112514	-0.3873709285953162	-0.0142421215371476	0.01314357070838182
2.6	-0.2439110679151417	-0.4083112976675821	0.04565142886937993	0.5236061325808102	-0.4050549840237149	-0.01581917895566528	0.01449066936825765
2.61	-0.2307791204485019	-0.4617212929347438	-0.009178674162525964	0.5095114856696203	-0.4209644420597393	-0.01509669664144041	0.01550546898222695
2.62	-0.2142039886532554	-0.5189411065888321	-0.06511312768064967	0.4942679843536839	-0.4351467069707927	-0.01185539552792129	0.01621855637152819
2.63	-0.1941528324242102	-0.5789957886442824	-0.1192256107479147	0.4784819971236984	-0.4477175263957529	-0.006027763961325771	0.01666744465682865
2.64	-0.1707120713387394	-0.6406809244981064	-0.168637086020161	0.46265815971672	-0.4587932138952289	0.002279943132338494	0.01688790550111408
2.65	-0.1440884665659741	-0.7026466243727704	-0.2109114060842927	0.4470931815676975	-0.4683776643423151	0.01277595252881541	0.016907282078639
2.66	-0.1146025378654837	-0.7634945955379281	-0.244340053232483	0.4318370635260967	-0.4762878852806093	0.02498670113112653	0.01674041319010222
2.67	-0.08267378304322598	-0.821868689787484	-0.2680845478402773	0.4167216602585931	-0.4822009351384259	0.03831488195821318	0.016398144975162
2.68	-0.04879608948454549	-0.8765337995868864	-0.28216737697413	0.4014431383743222	-0.4857759625857482	0.05211144624201752	0.01589040499095998
2.69	-0.01351492355525815	-0.9264313849818563	-0.2873401679174454	0.3856566850911459	-0.4867748810211234	0.06576404170176786	0.01523594043515412
2.7	0.022599566285061	-0.9707170907487839	-0.2848730820626232	0.3690711503228913	-0.4851279156239911	0.07877474875978185	0.01446810427950574
2.71	0.05898317167442456	-1.008786778794385	-0.2762942578879078	0.3515093672780409	-0.4809303742718627	0.09080477171350938	0.01363368389511887
2.72	0.09509797048304205	-1.040267007354803	-0.2631588649566076	0.3329295576169941	-0.474405862627764	0.1016928478365677	0.01279459985793246
2.73	0.1304598562007913	-1.065000982820859	-0.2468422595241806	0.3134109170926671	-0.4658646056691754	0.1114314536988775	0.01202030345604604
2.74	0.1646546615050838	-1.083007347320185	-0.2284204418948027	0.2931138345817099	-0.455662734612868	0.1201223969554852	0.01137729881530592
2.75	0.1973494246806323	-1.094430777078998	-0.2086393302002916	0.2722301741959059	-0.4441597096269752	0.1279207651279961	0.01092210112687603
2.76	0.2282991182623928	-1.099494578154702	-0.1879569881481409	0.2509533147199087	-0.431691521772524	0.1349921818690779	0.01069262090499256
2.77	0.2573352806666609	-1.098450086375173	-0.1666490029769032	0.2294466910208648	-0.4185354061189916	0.1414739081657888	0.01070082364920947
2.78	0.2843521011743764	-1.091536187290191	-0.1449271792170241	0.2078421795070036	-0.4049059135816977	0.1474683342396641	0.01093448066475569
2.79	0.3092831172715851	-1.078944095866023	-0.1230376262427405	0.1862453745155469	-0.3909597711907934	0.1530448104699651	0.01135911129759582
2.8	0.3320744498804832	-1.060790059084253	-0.1013249570991085	0.1647530985968758	-0.3768272408130972	0.1582607945572102	0.01192253735601301
2.81	0.3526652790596762	-1.037101041450917	-0.08022310059624303	0.1434563319917302	-0.3626183775806565	0.1631728287402933	0.01256395034188289
2.82	0.3709753770813252	-1.007818786317168	-0.0602080842954281	0.1224448648407377	-0.3484462992607726	0.1678524355392396	0.01322002423761311
2.83	0.3869090365937556	-0.9728123327364038	-0.04174961075035882	0.1018055494849485	-0.3344266203342685	0.1723797428133471	0.01383560039972002
2.84	0.4003664556351168	-0.9319200934094823	-0.02523986164046839	0.08161165614385354	-0.3206776184430573	0.1768484272539592	0.01436621652156689
2.85	0.4112675063461109	-0.8850031844855564	-0.01096752154732679	0.06192194080900257	-0.3073189360991108	0.1813564432549203	0.0147851879370906
2.86	0.4195771348688898	-0.8320207930209205	0.0009039968982739746	0.0427852683252094	-0.2944773730598305	0.186009318574425	0.01507679991526507
2.87	0.4253288970331884	-0.773121523404401	0.01033072540087792	0.02424026285065856	-0.2822853882999341	0.1909127307734789	0.01524080278473811
2.88	0.4286470958828862	-0.7087415348435258	0.0173599289580873	0.006323449223581574	-0.2708901214696485	0.1961745545209871	0.01528750381116618
2.89	0.429759797875835	-0.6396851019874986	0.02211830602835386	-0.01093303985299407	-0.260447317558473	0.2019022483669341	0.01523265101508895
2.9	0.4290108836877911	-0.5671731510380663	0.02479367812815003	-0.0275047844402291	-0.2511165997842442	0.2081978613153405	0.01509456923346024
2.91	0.4268627113735059	-0.492820190116576	0.02563454211401813	-0.04337440117022696	-0.2430501678032599	0.2151491778136381	0.01488965875322736
2.92	0.423887727409292	-0.4185391012550041	0.02494559066239304	-0.05853117081960007	-0.2363874713880997	0.2228249240627077	0.01463114071278633
2.93	0.4207526874635643	-0.346414407217583	0.02309134810866855	-0.07295331996584242	-0.2312546611506491	0.2312626506339193	0.01432459214596679
2.94	0.4181658592282295	-0.2785644196248754	0.02049072969231415	-0.0866075049998684	-0.2277498912218344	0.2404602103536443	0.01396983620222762
2.95	0.4168051170692535	-0.2170193327548758	0.01756885706649592	-0.09943982187673911	-0.2259463319526055	0.2503757749480113	0.0135567466276427
2.96	0.41721308005874	-0.1636015643862824	0.01472092669222483	-0.1113778825490748	-0.2258966972877891	0.2609330448517899	0.0130710495029476
2.97	0.4197084287106306	-0.1197609727060479	0.01224436893047878	-0.1223471434734886	-0.2276290169978584	0.2720242785541292	0.01249293236604834
2.98	0.4243278480689412	-0.0863705502418786	0.01029698855941258	-0.1322898723109745	-0.2311524789885741	0.2835157354340371	0.01180483915969642
2.99	0.4308306549501558	-0.06355774589669172	0.008863120782270599	-0.1411895824299093	-0.2364538839677836	0.2952392035791613	0.01099486056039213
3	0.4387538587987642	-0.05067910250042124	0.007736028356759732	-0.1490815274252228	-0.2435161044807261	0.3069878718861003	0.01006936942940027
3.01	0.447489925991092	-0.04646765445397559	0.006496055351732335	-0.1560597917848006	-0.2523100621372495	0.3184872350254944	0.009052908460641574
3.02	0.456363312427127	-0.0493086855765477	0.004513489005060764	-0.1622609290935365	-0.262815350465501	0.3293713413740528	0.007992855393938297
3.03	0.4647000053244838	-0.0575365217643475	0.001010207806702092	-0.1678349751893428	-0.2750389935528557	0.3391568271939263	0.006964225027354704
3.04	0.4718819182836686	-0.06962416886616161	-0.004830495160496714	-0.1729149050343985	-0.2890274469155787	0.3472043007969005	0.00605504471774227
3.05	0.4774108071542412	-0.08431423201806595	-0.01365047533385128	-0.1775739056244104	-0.3048962251659521	0.3527056925292181	0.00535543906131091
3.06	0.4809531775886965	-0.1006516850084013	-0.02569430303276059	-0.1817904885783328	-0.3228447990696229	0.3546738351538139	0.004933784198899756
3.07	0.4823654186252519	-0.1179847607722627	-0.0406023459198879	-0.1854253872159115	-0.3431656835828226	0.3519656999308259	0.004815381201161864
3.08	0.4816831500434872	-0.1359128200131615	-0.05734001376541328	-0.1881974050155478	-0.3662500304906567	0.3433540689404321	0.004966866173214234
3.09	0.479081940738266	-0.154221494908103	-0.07430172003764157	-0.1896789381747156	-0.3925762433934443	0.327655533262742	0.005291670917365723
3.1	0.4748161225936907	-0.1727717767705635	-0.0896173430848487	-0.1893143181319702	-0.4226631726505599	0.3039137850398219	0.005646780042038521
3.11	0.4691669254208737	-0.1913972429995484	-0.1015590572813049	-0.186439052905823	-0.4570352945491812	0.2716530006086585	0.005867883790055845
3.12	0.4624062579671122	-0.2098314110384815	-0.1088977139153977	-0.1803481371767027	-0.4961385887033556	0.2311408609483187	0.005808008438610298
3.13	0.454792513437171	-0.2276995741219887	-0.1110855756523034	-0.170357954137543	-0.5402781867949787	0.1835912182389035	0.005358714437362517
3.14	0.4465780929233625	-0.2445865953703971	-0.1082179087576413	-0.1558992863948529	-0.5895435044576502	0.1312248741910518	0.004471988944988113
3.15	0.4379999178941628	-0.2601070987292154	-0.1008598276923478	-0.1366016133395968	-0.6437444252790518	0.07706028055139449	0.003156447183583767
3.16	0.4292470727869674	-0.2739730466817947	-0.08982068375645466	-0.1123723568343809	-0.7023612666619684	0.02452262866642341	0.001465273962542011
3.17	0.4204075750758037	-0.2859988335449133	-0.07598765913285145	-0.08343857632926949	-0.7645084609649213	-0.02312123793071549	-0.0005235889785984685
3.18	0.4114067230920948	-0.2960634186470272	-0.06020922446126979	-0.05036350958886844	-0.8289151477157246	-0.06325203997068585	-0.002728663149550553
3.19	0.4019953448263501	-0.3040588607402039	-0.04326309352022926	-0.0139914619025169	-0.8939664526083816	-0.09422279749219317	-0.005068835594491197
3.2	0.3917701378209909	-0.3098478405807364	-0.02584732452392626	0.02463646423886209	-0.9577998939345453	-0.1154419079844278	-0.007460869200546254
3.21	0.3802534308449977	-0.3132709679773834	-0.008564347397477334	0.06441252073806628	-1.018484679903908	-0.1272519122202228	-0.009816335836329113
3.22	0.3669954492797699	-0.3141691190550126	0.008070812672917912	0.1042984097456956	-1.07423642600709	-0.1306838363708454	-0.0120385689960537
3.23	0.351665827992083	-0.3124208536679164	0.02364935733904042	0.1434343442679802	-1.123591924962175	-0.1271705609712992	-0.01403065718391961
3.24	0.3341204899669639	-0.3079754718868426	0.03787424114991356	0.1812104687376704	-1.165525793170453	-0.1182732310525887	-0.01571488707066425
3.25	0.3144236173866833	-0.300866163356876	0.05055868600725762	0.217268088645446	-1.199456862303044	-0.1055129610055831	-0.01705986664493833
3.26	0.2928451216277209	-0.2912364391712585	0.06161792432581322	0.251449145380611	-1.225217619527381	-0.09023689422294201	-0.01809052038977201
3.27	0.2698359757311679	-0.2793609045278908	0.07105859736354873	0.2836992272331435	-1.242997016122804	-0.073586777798253	-0.01889934529936969
3.28	0.2460012665414472	-0.2656677125062736	0.07895622654331394	0.3139491419489721	-1.253309707969972	-0.05651495397613912	-0.01963319182130863
3.29	0.2220986300991726	-0.2507705719348588	0.08543332559763087	0.3420111699607596	-1.256995922392806	-0.0398275699409458	-0.02046035717231963
3.3	0.1990320930811285	-0.2354753720042612	0.09063497854926002	0.367502515151321	-1.25524316292137	-0.02425599214584684	-0.02152293764131523
3.31	0.1778557180020112	-0.2207681813975963	0.09470087651975442	0.3898290262814594	-1.249591269297949	-0.01048470916704684	-0.02288800119527879
3.32	0.1597223706529594	-0.2077459228783541	0.09774989636227252	0.4082470156167702	-1.24189087216404	0.0008464204088074786	-0.02449286159945797
3.33	0.1457443202632445	-0.1974729287761847	0.09987416680577423	0.4220242470155363	-1.234141206549964	0.009232778984843907	-0.02612661314027531
3.34	0.1366884823254039	-0.1907137260610228	0.1011534245577722	0.4307290886440829	-1.228169600437679	0.01445058047147356	-0.02746004957569958
3.35	0.1324924806132807	-0.1875524539785578	0.1017196292502799	0.4346872118142132	-1.225074075144625	0.01678528225298355	-0.02819421650920717
3.36	0.1315302888338135	-0.1868244123155574	0.1018466870014118	0.4355829327573477	-1.224312943705081	0.01730586366706679	-0.028382537368384
