
inDegrees=no
DataType=double
version=3
OpenSimVersion=4.5-2023-11-26-efcdfd3eb
endheader
time	/jointset/ground_pelvis/pelvis_tilt/value	/jointset/ground_pelvis/pelvis_tx/value	/jointset/ground_pelvis/pelvis_ty/value	/jointset/hip_r/hip_flexion_r/value	/jointset/hip_l/hip_flexion_l/value	/jointset/back/lumbar_ext/value	/jointset/knee_r/knee_angle_r/value	/jointset/knee_l/knee_angle_l/value	/jointset/acromial_r/shoulder_flexion_r/value	/jointset/acromial_l/shoulder_flexion_l/value	/jointset/ankle_r/ankle_angle_r/value	/jointset/ankle_l/ankle_angle_l/value	/jointset/elbow_r/elbow_flexion_r/value	/jointset/elbow_l/elbow_flexion_l/value	/jointset/ground_pelvis/pelvis_tilt/speed	/jointset/ground_pelvis/pelvis_tx/speed	/jointset/ground_pelvis/pelvis_ty/speed	/jointset/hip_r/hip_flexion_r/speed	/jointset/hip_l/hip_flexion_l/speed	/jointset/back/lumbar_ext/speed	/jointset/knee_r/knee_angle_r/speed	/jointset/knee_l/knee_angle_l/speed	/jointset/acromial_r/shoulder_flexion_r/speed	/jointset/acromial_l/shoulder_flexion_l/speed	/jointset/ankle_r/ankle_angle_r/speed	/jointset/ankle_l/ankle_angle_l/speed	/jointset/elbow_r/elbow_flexion_r/speed	/jointset/elbow_l/elbow_flexion_l/speed	/jointset/mtp_r/mtp_angle_r/value	/jointset/mtp_r/mtp_angle_r/speed	/jointset/mtp_l/mtp_angle_l/value	/jointset/mtp_l/mtp_angle_l/speed
0.22	0.2253864190254989	0.1754879669059525	1.029260758521774	-0.2067117342497403	-0.08228850254650466	-0.3732650269807205	-0.9686016706584057	-0.05550518219113504	0.1069114125855446	-0.08321916129039947	-0.1945159294614761	-0.0571944195631961	0.4015961639708475	0.3516964766305739	0.0724665401430875	1.201427806043833	0.1155881789015319	0.5642358944534398	-0.7889518369062152	0.2821626999674932	0.07443222424341417	-0.2527061378274881	-0.3394711168297054	0.4076637699040123	0.02104776414423452	0.01510666696036602	-0.1281158160855445	0.1439894755651628	0	0	0	0
0.2255	0.2259153771705252	0.1820685835075818	1.029904806768717	-0.2030541159453559	-0.08729533019557051	-0.3718369090335343	-0.9694431838954931	-0.05616138384652846	0.1048356090806555	-0.08073414798460776	-0.1941688317764819	-0.05704422952027653	0.4007260391443989	0.3527271619257367	0.1218406696727992	1.192488514573301	0.118984506449112	0.7664937462963841	-1.036021893761419	0.2387547351840575	-0.3770854849700149	-0.008770502185675797	-0.4254770755909193	0.5011238164638251	0.1054714087270892	0.04423132080132654	-0.1914185009768205	0.2322601452445147	0	0	0	0
0.231	0.2267482131197694	0.1886159536865302	1.030573694643799	-0.1982727502097695	-0.09373214381896094	-0.3706211048957735	-0.9727127439127191	-0.05585309413374858	0.1021199486569739	-0.07765018908241798	-0.1933524238038703	-0.05665591734068116	0.3994561822782113	0.3542673428765186	0.1829675598587031	1.189338197796254	0.1246207709520584	0.9728713239814655	-1.308946736660617	0.2049576783582818	-0.8084938776252011	0.09801799605371306	-0.5721463600270007	0.6254621685942254	0.1917060505505432	0.1016965348424757	-0.2734729214450931	0.3292606230630299	0	0	0	0
0.2365	0.2279180502069807	0.1951555830138995	1.031275950233474	-0.1923601204081548	-0.1017043570226881	-0.3695611553769679	-0.9782352055336024	-0.05509213651708905	0.09851574504143948	-0.07384667827610376	-0.1920640880864346	-0.0559652209875318	0.3977178462893813	0.3563439115894092	0.2387321450048451	1.188514386225929	0.1304520530490709	1.175171676327721	-1.587633499608897	0.1826339343046716	-1.185031401981034	0.1992065555596584	-0.7330880515840903	0.7538035961202497	0.2763825319371818	0.1484807377462108	-0.3556133860665132	0.4236364259546769	0	0	0	0
0.242	0.2293336151194768	0.2016874730497822	1.032005445932651	-0.1853679079732224	-0.1111696420987146	-0.3685884219543517	-0.9855870209266453	-0.0534361824214834	0.09411521602396443	-0.06940046933849289	-0.1903165844149393	-0.05503346463959474	0.3955778296041724	0.3589029362496526	0.2723231326895637	1.186523909982926	0.1345262653162954	1.365446827006045	-1.851881962951265	0.1732427342894735	-1.473713431137702	0.4234712611250289	-0.8617192334599763	0.8591705799748324	0.3586762156631036	0.1893547147652768	-0.4195386292192245	0.5046991493731857	0	0	0	0
0.2475	0.2309073167670761	0.208199520671548	1.032754708750667	-0.17739258923823	-0.1219364818188187	-0.367679702910466	-0.9943168045832805	-0.05061802499328417	0.08910694003116293	-0.0644314469435176	-0.1881252198882686	-0.05386226774989882	0.3931390985005888	0.3618771044501458	0.3028976171862926	1.180223991901291	0.1381290882335465	1.526731805354353	-2.040671329567292	0.1501248208523986	-1.691851704925804	0.5466833597524516	-0.9519541389078663	0.9452984714828382	0.4373884683069801	0.2355771041418892	-0.4638774288168001	0.5755514910094077	0	0	0	0
0.253	0.2326981105667632	0.2146559733943594	1.033527023520204	-0.1686611680983301	-0.1333677540612426	-0.3670148819939572	-1.004099471550987	-0.048023594347351	0.08372641737113755	-0.05902911616604842	-0.1855140578465741	-0.05245265404483884	0.3905125256631257	0.3652200868929921	0.351265733448777	1.166307583090365	0.1429087931422487	1.640393156063264	-2.093493789249352	0.08455250615249041	-1.856580089709153	0.3421160675737409	-0.9970816579050313	1.016737264518066	0.5113298574899685	0.2760517385340179	-0.4878447142663092	0.6388134193197842	0	0	0	0
0.2585	0.2347652012884526	0.2210226073644815	1.0343257971535	-0.1593975752824774	-0.1448747772140765	-0.3667709265972942	-1.01463368216898	-0.04690182789103722	0.07819697187617196	-0.05328113867807182	-0.1825110171504213	-0.05079242265030313	0.3878011783464936	0.3688876315879992	0.3958132085508624	1.148948431653237	0.1471267289516945	1.727915670237981	-2.096253972423241	0.00790298907214344	-1.964245594845034	0.1115089628058087	-1.010621396151647	1.069685552626241	0.5799010224188639	0.3237269470572346	-0.4963344064642036	0.6931789711237438	0	0	0	0
0.264	0.237001561336061	0.227295686424236	1.035140713748524	-0.1496570698998095	-0.1564856805249613	-0.3668867602533446	-1.025598413152408	-0.0462941862475672	0.07264263039870826	-0.04730383405047875	-0.1791437697055806	-0.04893501766384829	0.3850722661305119	0.3728267930902035	0.4128182156011356	1.132287615683936	0.1487789610435618	1.813815907632392	-2.131268392176959	-0.0462798766523912	-2.013132949867459	0.1551615901760056	-1.006134742449798	1.100128951651327	0.643768675194673	0.347751226504615	-0.4942319503934951	0.7375831673914561	0	0	0	0
0.2695	0.2392780237219203	0.2334763453904409	1.03595943883364	-0.1394605074221699	-0.1683027089338616	-0.3672645277404299	-1.036683391342646	-0.0450220191033361	0.06716200560537813	-0.04120453334119732	-0.1754375938705823	-0.0468950394924857	0.3823831021342095	0.3769906539741619	0.414953035950053	1.114840638479882	0.1489190544415736	1.890924569964491	-2.158615630217203	-0.09256974576784051	-2.009943604269421	0.2953987049357431	-0.9838300574417195	1.117183014790283	0.7028660375709777	0.3915910859752113	-0.4821222134832756	0.7761347248234728	0	0	0	0
0.275	0.2415656789551377	0.2395547083784969	1.036778601177252	-0.128891004287193	-0.1801510630680848	-0.3679213033550722	-1.047621722133926	-0.04317730582396918	0.06185338614136317	-0.03502159209405363	-0.1714239647918708	-0.04465466296629326	0.3797856819647608	0.381359728341792	0.4168883419131648	1.095089078175203	0.1489379641330296	1.949430692118664	-2.14265956502159	-0.1477373775822338	-1.959806622973911	0.3633601847708498	-0.943587349971555	1.130543692692145	0.7555698547267583	0.4206233555336467	-0.4608705588103402	0.8122062523629406	0	0	0	0
0.2805	0.2438583028064726	0.2455212040382328	1.03759701553639	-0.1180420211157946	-0.1918310540695545	-0.36889090856255	-1.058161736077534	-0.04107494154832519	0.05680238128550938	-0.02877570844836525	-0.167137311855265	-0.04226720180508103	0.3773252485707488	0.3859209746042712	0.415643810434176	1.074719941829242	0.1485287340505024	1.99439954707429	-2.104015800920439	-0.2034126725628414	-1.866347579674022	0.4037703163389913	-0.8925228911171688	1.140011450393136	0.8021896237404794	0.4475447649701604	-0.4332233223263909	0.8460855335590454	0	0	0	0
0.286	0.2461251191403948	0.2513785443197237	1.038410893495277	-0.1069664093238469	-0.2032887018976932	-0.3701430724749482	-1.068079185965038	-0.03870685393460799	0.05204244111051347	-0.02248889414854454	-0.1626111364140093	-0.03973166587092854	0.3750269263027146	0.3906628938061665	0.4075037901267451	1.055396213358802	0.1472883640421983	2.031841099591118	-2.061807501992156	-0.2504859975532698	-1.733419693481972	0.4599868531611065	-0.837745647841416	1.145427566922082	0.8426689473266631	0.4744687275119194	-0.4019210584547689	0.8779055030597044	0	0	0	0
0.2915	0.2483318125821415	0.2571325644724229	1.039215837462946	-0.09570598501896357	-0.2145007744902887	-0.3716327893521438	-1.077164549154877	-0.03602252645815715	0.04759103677383665	-0.01617912914250357	-0.1578788081682399	-0.03705394950547715	0.3729088812294318	0.3955760292987163	0.3944792358702202	1.037162041052209	0.1453187490381497	2.061447711712689	-2.014064978595319	-0.2902626475220283	-1.565040984814382	0.5119940660549018	-0.7808526226610686	1.149166198689539	0.8770696063923735	0.4989726648603737	-0.3680336549543314	0.9086422837238232	0	0	0	0
0.297	0.2504594302539471	0.262789386959022	1.040008302107907	-0.08430600479019867	-0.2254297235783222	-0.3733253291847363	-1.085236251499901	-0.03312043900243128	0.04345409863242165	-0.009846594565395604	-0.1529755596358617	-0.03424597670317477	0.3709812345438477	0.4006574426115486	0.3787489646936444	1.020051607504201	0.1427504285122899	2.082588708275326	-1.958853500333276	-0.3242397995157698	-1.364815749913055	0.5391723001702121	-0.7233943041098455	1.153707410946446	0.9048217788207265	0.5218347045486427	-0.332685281109821	0.939097437707939	0	0	0	0
0.3025	0.252492677815865	0.2683557909387393	1.040784806709976	-0.07281190947295889	-0.2360422829504002	-0.3751864135051063	-1.092126392130532	-0.03011879698606753	0.039630987797135	-0.003487062501189143	-0.1479369797301804	-0.03133178973209601	0.3692502031432721	0.4059056993855295	0.3600817202686844	1.004390746552637	0.1394798128961866	2.095862719716096	-1.900340978605842	-0.3511126820063432	-1.136657544073035	0.5511445405732179	-0.6674117204297783	1.158953336759293	0.9263582600834893	0.5382150140552133	-0.2968767594145861	0.9693243580720883	0	0	0	0
0.308	0.2544144764638167	0.2738409351468571	1.041541094296983	-0.06126493043437541	-0.2463343761230046	-0.3771721087020691	-1.097695128196028	-0.02707093187340326	0.03610614677890488	0.002903032106893742	-0.1427969579697222	-0.02832181252824009	0.3677145333468211	0.4113196232079984	0.3382220868877252	0.9905025996498417	0.135398786671404	2.101819152400304	-1.842320336888344	-0.3695528455494954	-0.8843049989550026	0.5559806988249432	-0.6149325524529317	1.164821063265146	0.941709726012381	0.556667516467615	-0.2616446977918132	0.9993400007945215	0	0	0	0
0.3135	0.256207725305866	0.2792544491849174	1.04227265471396	-0.04970549855630744	-0.2563065593802886	-0.3792366781100581	-1.101816307755024	-0.02402008991919834	0.03285913960027372	0.009326926392840299	-0.1375889435804878	-0.02522302981900826	0.3663701262037992	0.4168980989688038	0.3134683265543851	0.9783222730108819	0.1304856831567544	2.100278176041158	-1.783630422904106	-0.3799610958303771	-0.611464423973555	0.5512435997097117	-0.5665882077789851	1.171214254988235	0.9511070522893276	0.5701569987063935	-0.2275055821398927	1.029165924811237	0	0	0	0
0.319	0.2578582272355807	0.2846054975970036	1.042974924311908	-0.03817652739733837	-0.2659510361035308	-0.3813380564794261	-1.104389982275968	-0.02103115280953488	0.02986497684530959	0.01578720026876532	-0.1323458533901579	-0.02205014671248296	0.3652089474361209	0.4226401105193638	0.2863141187660194	0.9677878265683545	0.1247475797519258	2.090742527273435	-1.723154324509496	-0.3829379224146298	-0.3215758942086405	0.5334698462644152	-0.5229891256649191	1.178050005075496	0.9544645627744278	0.583613115483421	-0.1950161976668927	1.058807560705272	0	0	0	0
0.3245	0.2593534178517606	0.289902929023659	1.043643399289586	-0.02672209894966598	-0.2752597448905355	-0.3834368155140343	-1.105327895161636	-0.01816789042906962	0.02709731208934118	0.02228567983768991	-0.1270995799209501	-0.01881156301275786	0.3642213449544425	0.4285442022535145	0.2571594689151744	0.9587890927713806	0.1182109830480269	2.073077458546083	-1.661881252060626	-0.3793241585360325	-0.01758184096297088	0.5068300632705086	-0.4842652421230605	1.18499718779726	0.9524231839988703	0.5939315577962894	-0.1645008229114652	1.088026010275576	0	0	0	0
0.33	0.2606844283934212	0.2951547980236043	1.044273889405524	-0.01538836930000626	-0.2842322860704503	-0.385500468975347	-1.104562466070772	-0.01546577263053613	0.02452892016016176	0.02882177018043719	-0.1218785270284954	-0.01551824296954734	0.3633951610844467	0.4346071989765817	0.2266122734862958	0.9512196714010694	0.1109349027552696	2.046852055268824	-1.600911558295033	-0.3701722593980772	0.2978211881672306	0.4748718164710473	-0.4505262795598335	1.191726650101929	0.9452934439551072	0.6035172403872107	-0.1363185206913428	1.116591193038537	0	0	0	0
0.3355	0.2618433587613517	0.3003686544492197	1.044862323219332	-0.004221345901333151	-0.2928678414936104	-0.3874992706895651	-1.102036500504429	-0.01295510166444632	0.0221326656192584	0.03539335794878282	-0.1167097642003804	-0.01217442308582654	0.3627174290605536	0.4408253396013749	0.1946259462172998	0.9449112210126477	0.1029304195043261	2.012544095384202	-1.538980426021552	-0.3559592067630665	0.6216713992973016	0.4369999605995418	-0.4216104077125987	1.19774238921914	0.9335122058167954	0.6120189862341334	-0.1105522305902671	1.144410424725471	0	0	0	0
0.341	0.2628232127468292	0.3055508355688332	1.045404907309694	0.006734879811710862	-0.3011576608915293	-0.3894082595206406	-1.097713524481765	-0.01067086738052392	0.01988272027893985	0.04199474482099702	-0.1116180819294798	-0.008790415163020291	0.3621744363794286	0.447194168944793	0.1614935889579498	0.9397013783094966	0.09426227604765401	1.970198351403697	-1.475189367298194	-0.3375130291643523	0.9512795359198469	0.3925312047738035	-0.3973229338926281	1.202562687872321	0.9172641504225907	0.6181310727819168	-0.08732239604841058	1.171387090720331	0	0	0	0
0.3465	0.2636174309760743	0.3107071501882012	1.045898044820276	0.01743759166975832	-0.3090929767913715	-0.3912048037974175	-1.091565415213521	-0.008640881932558972	0.01775432122068736	0.04861873236219533	-0.1066267664969763	-0.005373431561250915	0.3617521566233551	0.4537085025672501	0.1271308501223935	0.9354646591861653	0.08496794560902741	1.920562270223473	-1.410409762116513	-0.3152441030245653	1.284756360592603	0.3461421104689169	-0.377283350922193	1.205844625726838	0.897192116043263	0.6240623513054651	-0.06667319710555063	1.197227363807138	0	0	0	0
0.352	0.2642196480110787	0.3158425147548607	1.046338537107287	0.02784858418987788	-0.3166724950990036	-0.3928700960008811	-1.083577246726588	-0.006857839489555761	0.0157255305188427	0.05525556598878961	-0.1017552114518933	-0.001929536040776567	0.3614361987108677	0.4603610944566452	0.09167497287040872	0.9320831773245742	0.07511855838530984	1.864118592157193	-1.345808424676294	-0.2897850025049606	1.620391979079139	0.3027337484240804	-0.3611017133806937	1.207233991652676	0.8737149186333647	0.62791722503827	-0.04865990747169591	1.221662824152307	0	0	0	0
0.3575	0.2646246043158186	0.3209613400939614	1.046723483407808	0.03793186521769101	-0.323897283341904	-0.3943882730680686	-1.073741521177851	-0.005306676237953688	0.01377623398399665	0.06189455146043919	-0.09702122999251414	0.001535557470637309	0.361212278405786	0.4671442979378141	0.0555646417171725	0.9293998557883326	0.06480030073680616	1.801633902400281	-1.28149261519781	-0.2620785741403691	1.95580821369778	0.2616957579785408	-0.3481809663068008	1.20656736526249	0.8473141032973993	0.6316520254038112	-0.03316025579717112	1.244747429336766	0	0	0	0
0.363	0.2648306696114714	0.326066925176372	1.047050662663653	0.04765671044516076	-0.3307700723331927	-0.3957507513907739	-1.062068056450315	-0.003975114587771265	0.01189061655228964	0.06852368004614554	-0.09243936291190012	0.005013523947872763	0.3610670953214681	0.4740510150430539	0.0193509695660057	0.9272685385282413	0.05411236032141734	1.733778301123244	-1.217808696817462	-0.2331672772387301	2.288660771369538	0.2228786206351163	-0.3379456758755864	1.203649669491499	0.8184005990824007	0.6325983035188435	-0.02002819083031553	1.266576869269018	0	0	0	0
0.3685	0.2648376014261124	0.3311622299728785	1.047318172079756	0.05699458621566815	-0.3372949773844346	-0.3969514493324995	-1.048572644083292	-0.002851444031814449	0.0100546378219476	0.07513040747635671	-0.08802243876543918	0.008495426142488821	0.3609875656457807	0.4810734401717404	-0.01679371553392638	0.9256498945742627	0.04312367556287022	1.661122639413941	-1.155121677773671	-0.203338661669497	2.618003137506925	0.186103846089318	-0.3300061524443896	1.198380624448441	0.7875132317713014	0.6334621895698278	-0.009288187104701898	1.286673065136537	0	0	0	0
0.374	0.2646463412763873	0.3362499575947909	1.04752458182516	0.06592146674259361	-0.343479024704238	-0.3979862502302264	-1.033278368408191	-0.001923847370647249	0.008256993685249785	0.081701290427573	-0.08377936180886883	0.01198066467865203	0.3609605638087805	0.488200467523271	-0.05271883565802558	0.9245132023122578	0.03189429824880804	1.584325485275266	-1.093860430839784	-0.172841079420975	2.94279288339763	0.1515790225298016	-0.3240058236413213	1.190615313493353	0.7551834391221829	0.633811518626899	-0.0009271585804673998	1.304614041212315	0	0	0	0
0.3795000000000001	0.2642598142150796	0.3413323061960125	1.047668802429826	0.0744155023423719	-0.3493254261752063	-0.3988543841308378	-1.016214686756757	-0.001198034171068114	0.006488676671905197	0.08822305129559339	-0.07971798788389921	0.01546261319358114	0.3609737553550407	0.4954214091239137	-0.08751765241757263	0.9236130771577711	0.02054621167477317	1.503961393745456	-1.031452634723814	-0.1432266522636975	3.260546574344227	0.1093988781894285	-0.3190504864174865	1.180592063634675	0.7215101431076858	0.6319552427542373	0.005476210296764512	1.321044739109639	0	0	0	0
0.385	0.263687153976193	0.3464096961128106	1.047750553344076	0.08246005534390846	-0.3548178415235262	-0.3995659528512129	-0.9974303486609817	-0.0007529556009685383	0.004747086977388889	0.09468404080388124	-0.07584461653003416	0.01892781266442474	0.3610180755058831	0.5027304398344471	-0.1204036275049086	0.9227100443401495	0.009178047188279923	1.420877267732821	-0.9651382044222065	-0.1159082866077728	3.568486135885232	0.04949370271905307	-0.3142867986128561	1.168516637226977	0.6868188678114333	0.6277209571412595	0.01039233399482806	1.336646444808844	0	0	0	0
0.3905	0.262934268305936	0.3514830832709323	1.047769252547822	0.09004564531905164	-0.3599570342291214	-0.4001269126163202	-0.9769794913570564	-0.000610077152677137	0.003029758346485587	0.1010715131267991	-0.07216429588288864	0.02236876247588258	0.3610844628868595	0.5101209309637401	-0.1539340740846434	0.9223357679549644	-0.002475772260232113	1.338138450535599	-0.9070661561827011	-0.08719906515349414	3.86644605123488	0.01351705070965077	-0.3104968071205133	1.153575481915692	0.6514934141428551	0.6233815711327301	0.01335094027531697	1.350313911936206	0	0	0	0
0.396	0.2619877071248048	0.3565573448630747	1.047722248058435	0.09718639130018003	-0.3648330463858095	-0.4005154843768458	-0.9549186172547777	-0.000482663548612242	0.001328316959609376	0.1073664951238516	-0.06867803646154765	0.02578333851206731	0.3611605623419775	0.517578492272769	-0.1908310860046278	0.9230280203476454	-0.0147142048602613	1.259115815363811	-0.8694361866378522	-0.05322173948712081	4.153946789831959	0.04387012300032352	-0.3085096189666414	1.134883791457729	0.6162511493370605	0.6181304934055817	0.01392399731904245	1.361035601076456	0	0	0	0
0.4015	0.2608400585586376	0.3616365019423028	1.04760757699194	0.1038938877051616	-0.369519252067201	-0.4007176292831718	-0.931309734405161	-0.0001539058522179022	-0.0003624778596329299	0.1135524243702972	-0.06538546489474713	0.02916086038700733	0.3612350729320918	0.5250894075961388	-0.2249843860595161	0.9237824903632614	-0.02684564067080483	1.178949578051265	-0.8309936672840471	-0.02217924885131225	4.428469910374379	0.05972004391024864	-0.3057736005889082	1.114674376161451	0.5811003141075062	0.6099360048971492	0.01310920834592839	1.370144231273251	0	0	0	0
0.407	0.2595295029501133	0.3667172395579781	1.047428471976197	0.1101435703663835	-0.3739338823935088	-0.4007802873606291	-0.9062343959368562	-1.282015160570942e-06	-0.002029128785010443	0.1196293361196562	-0.06228535317567691	0.03249127854750592	0.3613040865356399	0.5326493956791425	-0.2500700104981159	0.9236027608738852	-0.03814473185936727	1.092638090360293	-0.7706815120619426	-0.002499256262173056	4.687203378445839	-0.02017855312222504	-0.2997300211976257	1.095241065244404	0.5462657501624055	0.6010018699723367	0.01192509311308542	1.378880240943356	0	0	0	0
0.4125	0.2580909980079283	0.3717972327157537	1.04718787704344	0.1159166519621134	-0.3780139645827885	-0.4007448582339613	-0.8797794244059404	-0.0003427605805742565	-0.00365955023618393	0.1255955991059471	-0.05937675328047125	0.03576546808075066	0.3613634191722937	0.5402531582871188	-0.2743463422937643	0.9240199177826633	-0.04952345256550077	1.008566627957678	-0.7196088054147057	0.0174542153623228	4.930019598541701	-0.0820908622410554	-0.2937205576398219	1.073339511338487	0.5115570371630511	0.5894878559812397	0.009204005992425593	1.385509237504509	0	0	0	0
0.418	0.2564971330729112	0.3768853354877073	1.04688174370033	0.1212587287924959	-0.3819224439881952	-0.4005655029482134	-0.8520346137296976	-0.0006633308071535255	-0.005266325481566467	0.1314254051416278	-0.05665657468712591	0.03897427381580996	0.3614004201451019	0.5478832311227133	-0.3065645533461493	0.9265517114840969	-0.06197688107851543	0.9359090847793883	-0.7082804997445434	0.04983752885780997	5.156235794928389	-0.01257552081880087	-0.2911314009100073	1.045620355931626	0.4777489131222914	0.5772259433594451	0.003804488078287305	1.388447596440832	0	0	0	0
0.4235	0.2547248033588129	0.381989832737625	1.046506547965418	0.1262134707686911	-0.3858072930336475	-0.4002016649353464	-0.8230963025267951	-0.0005054817515121084	-0.006860521750682524	0.1370942908972995	-0.05412037948278672	0.04210821077703368	0.3614031588679871	0.5555229151795477	-0.3353953892931668	0.9293768418750928	-0.0741848729675826	0.8641466892512323	-0.6983178000690364	0.0793687903666381	5.363014053863499	0.04363638921727486	-0.287727274634441	1.01622423849151	0.4446318524998398	0.5622956369231727	-0.002747738605694199	1.389611983085619	0	0	0	0
0.429	0.2528355432780471	0.3871057058356134	1.046068713742828	0.1307459879838156	-0.3895371249050951	-0.3997265287941796	-0.7930829556120982	-0.0004730571959459558	-0.008421985857070031	0.1426086192810023	-0.051764216705141	0.04515851536017876	0.3613708643730967	0.5631688820841086	-0.3490846866797919	0.9306883835097943	-0.08475451296161333	0.7823728080264527	-0.6519106182883063	0.09030957551225453	5.547157871944519	-0.05818442993707879	-0.2792287962814441	0.9894176752156791	0.4122825761428476	0.5468141695126629	-0.008934863840107429	1.39073226834143	0	0	0	0
0.4345	0.2508924473439545	0.392227985309301	1.04557509859776	0.1348199614096295	-0.3929818706640545	-0.3992151146061984	-0.7621177677451522	-0.001164825286553231	-0.009930522812906462	0.1479752214656156	-0.04958483287193699	0.04811135395749071	0.3613029647554371	0.5708170609596561	-0.3588416868618523	0.9323067477892812	-0.09489116928902133	0.7010937608145956	-0.6070901159009675	0.09771588880577682	5.709271173051316	-0.170933714997905	-0.2699100360133476	0.9611311849185391	0.3804226445656292	0.5269870959753093	-0.01616278662645507	1.389764909723819	0	0	0	0
0.4400000000000001	0.2488734783499791	0.3973649086108348	1.045023268956163	0.1384802579067722	-0.39628514122025	-0.3986290306617427	-0.7303210046813636	-0.002106555292778635	-0.01139737558511385	0.1531706910381294	-0.04757734551994185	0.05095583294702707	0.3611885980357121	0.5784490495475987	-0.3766748902735179	0.9360134118174692	-0.1059234207904045	0.631944833964203	-0.6004650900105412	0.1174622142302497	5.849548852614515	-0.1490796719800346	-0.2640709113254298	0.9271876344521987	0.3497747647941715	0.5074106757760832	-0.02583199186390937	1.384844891030548	0	0	0	0
0.4455	0.2467529832427182	0.4025242786810737	1.044410595788591	0.1417762947802103	-0.3995908284462685	-0.3979280476017888	-0.6978167116433324	-0.002794663011323995	-0.01283219440346907	0.1581733515482895	-0.04573564894337255	0.05369659580654575	0.3610177210598618	0.5860474227243414	-0.392227052125172	0.9398037435565922	-0.1165772086810388	0.565346954883978	-0.5961563301409394	0.1343412282170844	5.96580289474156	-0.1214333041383683	-0.2565221239030318	0.8927681945973074	0.3200667631719711	0.4878374677673079	-0.03610263202054973	1.37827879266334	0	0	0	0
0.451	0.2445830398392604	0.4076992582181165	1.043744105406772	0.1446851365940738	-0.4027829475693928	-0.3971853715242492	-0.6647454757704155	-0.00366553350142166	-0.01420636706213939	0.1630000132576037	-0.04405514062369981	0.05630672323336994	0.3607936961241579	0.5936109840805569	-0.3946560888905624	0.941689581564392	-0.1254933168802335	0.4911466304825802	-0.5591675980490035	0.132623311534213	6.055709883481985	-0.2155388616354182	-0.2420177623491076	0.8631880705082601	0.2911608531954274	0.4599068820689962	-0.04515852271977913	1.372186047202471	0	0	0	0
0.4565	0.2424034199223711	0.4128853032874221	1.043029592551907	0.1471958752968128	-0.4057954562513637	-0.3964569739343482	-0.6312489308837377	-0.004970834426712067	-0.01549558242302518	0.1676637679410531	-0.04253233867643596	0.05877463772520729	0.3605184950497535	0.6011362331866782	-0.4016498714980206	0.9449052519106956	-0.1347315951313688	0.426141733182465	-0.5517817738502354	0.1375934575611395	6.121244567866248	-0.2023913414307958	-0.2281819104609938	0.8310264751001992	0.2627661584741162	0.4359994101967991	-0.05556127861599751	1.363298398958987	0	0	0	0
0.462	0.2401240053560648	0.4181015788801379	1.04225763524766	0.1494199128484404	-0.4090229554447532	-0.3956130493906317	-0.5974514661057672	-0.005267866789727144	-0.01673170303457831	0.1721226457516017	-0.04116272354117492	0.06108602799310909	0.3601754085423061	0.6085965989523966	-0.4309450523149151	0.9526824991681221	-0.1463822075648968	0.3868916664420434	-0.6373459658375874	0.1746331129216728	6.165135298497545	0.1511042519192469	-0.2227105807735984	0.7886873894534762	0.2354565579216782	0.4029889824560661	-0.06984413473538753	1.348592105237738	0	0	0	0
0.4675	0.2376734131420279	0.4233658498642173	1.041420886879538	0.1514509504709632	-0.4127927295082407	-0.3945422958181982	-0.5634840258206606	-0.003394994153636337	-0.01794559962262287	0.1763357903158767	-0.03994177076023167	0.06320520169247017	0.3597486956220926	0.6159669487903828	-0.4541464882171711	0.9610391811531933	-0.1571431570316268	0.3467350789137962	-0.7160785560775372	0.2077828188097164	6.180816381761206	0.4577179635908324	-0.2172879842629507	0.7445181862160855	0.2085824699253361	0.3690800081680148	-0.08499647805027276	1.331659572273572	0	0	0	0
0.4730000000000001	0.2351947558959705	0.4286668644200398	1.040537274982236	0.1531797424253152	-0.4167083930487229	-0.3934038774244135	-0.5295267785639726	-0.001027415363980277	-0.01910626872469464	0.1803250288752444	-0.03886769818945205	0.06516197218237792	0.359244052223965	0.6232462233480857	-0.4411505185042194	0.9660437979837635	-0.1634234909034429	0.2769841507435419	-0.6903966847448044	0.1992385025039151	6.161428742709028	0.3309973986702471	-0.2033551313289536	0.7072670240326914	0.1820455724076273	0.3439332699275879	-0.09818249034047846	1.315473821498316	0	0	0	0
0.4785	0.232849027017614	0.433992139919368	1.039627288390658	0.1544777733740731	-0.420338916875454	-0.3923772939989991	-0.4957636415329401	-1.369397584509349e-08	-0.02017975122238765	0.1841157937601156	-0.03793878536992837	0.06693992843288768	0.3586679762886956	0.6304330892265264	-0.4134301673840026	0.9709132143885147	-0.1675949736882069	0.1971570740443027	-0.6369455963835314	0.1768898403325018	6.111896305723314	0.0678597587341276	-0.187959989635276	0.6699846122883601	0.1557622481518824	0.3026281968455559	-0.1117216743174926	1.297177945100428	0	0	0	0
0.484	0.230629552023402	0.4393523349170957	1.038692473527469	0.1553718999174369	-0.4237934643944291	-0.3914270111112135	-0.4623418917923922	-3.135966474525228e-06	-0.02118436495051711	0.1876815680704628	-0.03715407871172153	0.06849123348014445	0.3580104717363128	0.6375068866630127	-0.3952400151789858	0.9787417974017859	-0.1724519533074031	0.1301098215092899	-0.6264053001062866	0.1714928524570464	6.037287909805514	-0.04373858042179696	-0.1783119423967515	0.6254522696603182	0.1296069682924085	0.2615146505628586	-0.1277928965634839	1.274358024423928	0	0	0	0
0.4895	0.2284926941726314	0.4447611857688566	1.037730234874132	0.1559241908560468	-0.4272737709797146	-0.3904755690461533	-0.4294006887854989	-0.0003099169581790485	-0.02214487912141997	0.1909895062093946	-0.03651135791476364	0.06984403815391745	0.3572598631946966	0.6444454474657743	-0.3814352007561219	0.9881606812907274	-0.1773003706173265	0.07080734410360021	-0.6408739238311262	0.1740815942790629	5.937212465301431	-0.06070254296065761	-0.1706679217699832	0.5775237537370252	0.1041251431315188	0.2282839294229453	-0.1451811714355165	1.248466779517735	0	0	0	0
0.495	0.2264377688428806	0.4502226262698675	1.036743848500854	0.1561517057698786	-0.430861922678741	-0.3895165629202874	-0.3970778625754733	-0.0005925923294306684	-0.02305843391220954	0.1940353130632139	-0.03600853209944319	0.07097892238854872	0.3564131982689982	0.6512368508700205	-0.3654463711717904	0.997865306219919	-0.1812329423770275	0.01200944886270145	-0.6656217051029885	0.1742434200227542	5.812423620035388	-0.03497290025710485	-0.1612358041737351	0.5301318023467461	0.07873606587879256	0.1822708545113207	-0.1627224907751792	1.220846243145702	0	0	0	0
0.5005000000000001	0.2244737305098296	0.4557387299125303	1.0357381007311	0.1560613231097441	-0.4346022514627179	-0.3885575090339626	-0.3655105073508914	-0.0006563831939454383	-0.02391822926890668	0.196819204962129	-0.03564482132191693	0.07185529857577334	0.3554691505814411	0.6578705797027868	-0.3488238942027626	1.008134396081529	-0.184370507188055	-0.04426982449620125	-0.6942292395081044	0.1750415277291675	5.662483513875162	0.01191704477215967	-0.1516700233043665	0.481786244595508	0.05345594270868979	0.136198152884753	-0.1806812710947442	1.190938178406177	0	0	0	0
0.506	0.2225998864197343	0.4613136867814291	1.034717126055585	0.1556714042089897	-0.4384954895681449	-0.3875851872352945	-0.3348359863481579	-0.0004599557892122295	-0.02472958684402814	0.1993304926744692	-0.03542124774529034	0.07247475640273932	0.3544244536566152	0.6643318841384932	-0.3326484646424488	1.019266479396664	-0.1867699990173809	-0.09691282045366897	-0.721225094721231	0.1790681154203197	5.487756630272315	0.05965192492397826	-0.143622065418941	0.4310030072286387	0.02777708373345684	0.08884599623544327	-0.1993222134183941	1.15814646239654	0	0	0	0
0.5115000000000001	0.2208265892535036	0.4669517493132613	1.0336864524904	0.1549872056274824	-0.4425199622856319	-0.3865954533751494	-0.3051875498432354	-8.868525349990626e-05	-0.02549939800883203	0.2015572086294588	-0.0353384486783844	0.07281769053755489	0.3532757939573958	0.670606047523308	-0.3099785278498951	1.030991430713537	-0.1876372678630854	-0.1539304086029952	-0.7394019115638438	0.1789448487597148	5.289982035153791	0.05854165419269404	-0.1362988837112843	0.3785732762428508	0.002325312996741714	0.03629345605233442	-0.2184024563096958	1.123084013423784	0	0	0	0
0.517	0.2192144143608922	0.4726551794031614	1.032657330434146	0.1539556885207624	-0.446597916794535	-0.3856375867335375	-0.2766848046614689	-9.503656584907806e-07	-0.02622876034606919	0.2034932740113689	-0.03539573920591779	0.07287878185521822	0.3520216940670769	0.6766826899809191	-0.2740585469627321	1.043036500512247	-0.1862058139518615	-0.2232104659855783	-0.7406730188725572	0.1674800359536929	5.071141603670118	-0.043451947029079	-0.1289134008492208	0.3253118897452165	-0.02316458697175492	-0.01364230091082767	-0.2376641010909583	1.08632067068603	0	0	0	0
0.5225000000000001	0.2178229216218369	0.4784263072480444	1.031641063095111	0.1525245449704114	-0.4506538388865629	-0.3847598468912776	-0.2494420296543159	-0.0006514087784864501	-0.02691918753329622	0.2051327750623792	-0.03559157636903287	0.07264879665051475	0.3506609022778125	0.6825515524831869	-0.232309389092183	1.055706498228209	-0.1832310851879539	-0.2963194460781022	-0.7341661810266321	0.1525414353632828	4.832145552483732	-0.1924186315387729	-0.1224956040829756	0.2704692644355829	-0.04799500692698974	-0.07026124443054409	-0.2572269017485463	1.047395033120508	0	0	0	0
0.528	0.2166549347404953	0.484269612490285	1.030643051962676	0.1507059197826068	-0.4546732876166075	-0.3839503541290947	-0.223566144895068	-0.002110298025519529	-0.02758000229632795	0.2064640244121079	-0.03592309116254052	0.07210290998654097	0.349191564273666	0.6881994580780451	-0.1927836896123206	1.069282826824139	-0.1795671933707278	-0.3641128796050507	-0.7274099781513872	0.1426629159256425	4.574090604431835	-0.3374267958309404	-0.1181452465963854	0.2132203620064477	-0.07250190711450834	-0.1285155588273149	-0.2771354519571544	1.005972704355202	0	0	0	0
0.5335000000000001	0.2157027036609988	0.4901894905324318	1.029667648635151	0.1485219220079138	-0.4586533889816737	-0.383188061369175	-0.1991541209159565	-0.004370193980610306	-0.02822100475436215	0.2074755119234838	-0.03639028377178705	0.07123736122698343	0.3476122293899854	0.6936136181226902	-0.1530645788047597	1.083446740028471	-0.1749140149250239	-0.4304538459291613	-0.7195408207783464	0.134177806926732	4.301283258190643	-0.4863108575939126	-0.1150193633755654	0.1544953963009601	-0.09790180781849976	-0.1870767020215987	-0.2971313273900449	0.9625816546879337	0	0	0	0
0.539	0.214975817739041	0.4961880396973898	1.028721317817348	0.1459666845952818	-0.4625842899731318	-0.3824783213412033	-0.1762710124825694	-0.007481247826362857	-0.02884601617101385	0.2081623970672961	-0.03700568147582098	0.07003574643319552	0.3459235246342789	0.698785314050506	-0.1108399959618571	1.097890507846403	-0.1689953716533352	-0.4991091115828905	-0.7095189332029924	0.1235528315809089	4.018121315077507	-0.6469387560715849	-0.1123303224572927	0.09518313743784684	-0.1263946688553776	-0.2507213894565363	-0.316906314512002	0.9178039345990608	0	0	0	0
0.5445	0.2144862122999766	0.5022668139776115	1.02781073204538	0.1430299356304515	-0.4664574439039991	-0.3818313849491976	-0.1549734901175965	-0.01149273841622306	-0.02945814207104149	0.2085210350276702	-0.03777362258249978	0.06848555490247796	0.3441269214090192	0.7037071697641495	-0.0671385445501496	1.112621776845985	-0.1619721859398343	-0.5686971113502196	-0.6991021603395844	0.1116407321728657	3.72475522065454	-0.8108832676890605	-0.1104658929888437	0.03505449903386483	-0.1514751719332806	-0.313786295279552	-0.3363155619886805	0.871782245944579	0	0	0	0
0.55	0.214237951559615	0.5084274172534247	1.026941323726361	0.1397121437774863	-0.4702766300423661	-0.3812508896540332	-0.1353171526222087	-0.01639104367286882	-0.03006339576368804	0.2085460587163611	-0.03865671218904712	0.06657527877589374	0.3422250257119344	0.7083729438873027	-0.02307828734267207	1.12764650624323	-0.1540217523987222	-0.6376701618137363	-0.6898942813846306	0.09939243272949749	3.421326817046535	-0.9694168167208748	-0.1098313379550739	-0.02613114317422211	-0.1682668506257569	-0.3816612424989528	-0.3551944860848182	0.8246833562389889	0	0	0	0
0.5555	0.2142310471351323	0.5146710431533345	1.026117916935746	0.1360183314969499	-0.474043279369201	-0.380738111730672	-0.1173475370302788	-0.02215562130907872	-0.03066790842286317	0.2082326339158112	-0.03963437296748887	0.06429764586555863	0.3402207713168487	0.7127766825866784	0.02025177417263219	1.142737642489527	-0.1452999681483801	-0.7050912873050056	-0.6790553609558215	0.08714518495999907	3.113113069319038	-1.127324721823044	-0.1100931816947678	-0.08784934879572387	-0.1899876937425905	-0.4473737411827208	-0.3735223353151506	0.7765046476610203	0	0	0	0
0.5610000000000001	0.2144572471285741	0.5209972533572307	1.025344112313169	0.1319610127989709	-0.4777380877712854	-0.3802914905183337	-0.1010725324773972	-0.02879746199206583	-0.03127553984177826	0.2075796296701382	-0.04077673369450042	0.06164531444372586	0.3381174125684109	0.7169126082569713	0.06168695553895416	1.15767716223832	-0.135984600385146	-0.769854313611003	-0.6637703087480769	0.07533544690295857	2.805104621028991	-1.288421561003495	-0.1109654324059728	-0.1496145777644585	-0.2281577410147709	-0.5179152466799128	-0.3912324327583144	0.7272968002089342	0	0	0	0
0.5665	0.2149092913683935	0.5274052665346559	1.024623120802948	0.1275518492799432	-0.4813442804109753	-0.379912298824927	-0.08649025751034795	-0.03632625042466461	-0.03188999914123618	0.2065867446176698	-0.04211498212100014	0.05861061748995124	0.3359193985898122	0.7207764071084093	0.1029614215688907	1.172491617804392	-0.1261021549855652	-0.8335704889176554	-0.6482582726683023	0.06194190953002482	2.49776588590738	-1.448191168448968	-0.1126296993528992	-0.2114400484531346	-0.2518531832831097	-0.5859653715513782	-0.4077627720588948	0.6777826409742523	0	0	0	0
0.5720000000000001	0.2155927779547408	0.5338944650238482	1.023958000340133	0.1227907186691726	-0.4848764726074576	-0.3796168453663676	-0.07359463202431303	-0.0447151511385865	-0.03251617578617606	0.2052537284586338	-0.04347424517189245	0.05519579637121495	0.3336351307371688	0.7243688957549518	0.1458478088218563	1.187199093790001	-0.1156678558743343	-0.8978423469720166	-0.6368610566726571	0.04488517968575675	2.191777537023768	-1.601189663302808	-0.1152262853085003	-0.2732986165163148	-0.2357994226120786	-0.6561422157568837	-0.4225974778654216	0.6286385438833344	0	0	0	0
0.5775	0.2165078743122339	0.5404640147759767	1.02335091886634	0.1176823069166494	-0.488341316287228	-0.3794163908849131	-0.06236367012082505	-0.05394353350651146	-0.03315898243689042	0.2035803346133423	-0.0447667800269059	0.05140048470159641	0.3312720655369956	0.7276900517294368	0.185567762032643	1.201669050295459	-0.1051632578509204	-0.9583516813134576	-0.6208618126661908	0.02905396670047711	1.894798602350565	-1.756261725569133	-0.118652952802023	-0.3352380193073436	-0.2482735158492244	-0.7245034970120875	-0.4367406196331857	0.5787560593192626	0	0	0	0
0.5830000000000001	0.2176192091865272	0.5471121751535242	1.022800388147965	0.1122643628736771	-0.4916815293904315	-0.3792857390482316	-0.05272335747929099	-0.06405246592573853	-0.03382280328335661	0.2015657826333587	-0.04635991674925445	0.04722040174209748	0.3288305256494121	0.7307319291447524	0.2172072694764916	1.2157847757605	-0.0951039448132142	-1.010399543498956	-0.591540847011962	0.01950239976831224	1.613359623585981	-1.921389681958125	-0.1228678110364403	-0.397356120040747	-0.3451091925521144	-0.7960590484406576	-0.4511337278327515	0.5270827041854287	0	0	0	0
0.5885	0.2189027706809634	0.5538374502666092	1.022305174093903	0.1065632616576583	-0.4948583444467915	-0.3792118497236989	-0.04461091336928066	-0.07506559927230534	-0.034513256094995	0.1992088091234441	-0.04841907212092973	0.04265669663128226	0.326313801872379	0.7334894582311795	0.2519880598907689	1.229783235631994	-0.0848072550405973	-1.065157482945662	-0.567843115489675	0.004404944645143188	1.335604276196417	-2.079001552255786	-0.1285250644928822	-0.4597686020012564	-0.3704442587467566	-0.8630446121777603	-0.4632830866520929	0.4761786967272115	0	0	0	0
0.5940000000000001	0.2204179804906204	0.5606399384184531	1.021869341360377	0.1005209081344591	-0.4979737670228959	-0.3792698611667181	-0.03804288398356528	-0.08687325319063806	-0.03524008937704734	0.196507850108541	-0.05006927007305523	0.03773159118460036	0.3237427218450382	0.7359756538730826	0.3014430204658268	1.243862244400005	-0.07351073734553742	-1.134491291564576	-0.5692163087371714	-0.02846151570514461	1.051754269296911	-2.210306253509364	-0.1360970730051514	-0.5224417582184271	-0.1963974036249211	-0.9274773523921787	-0.4708996370355835	0.4284159970858532	0	0	0	0
0.5995	0.2221973824325029	0.5675170596475081	1.021495031351449	0.09410004943694154	-0.5010700600524678	-0.3795139096141545	-0.03299204796614536	-0.09940006281101228	-0.03600609141247288	0.1934673906049645	-0.05092198919441139	0.03246877508401707	0.3211343022805105	0.7381988953467952	0.3392347392655337	1.25639266928593	-0.06307346937155746	-1.194643897211506	-0.5435123250970498	-0.05522426870729263	0.7935980546742569	-2.352769205667145	-0.1414220059311521	-0.5821899774646466	-0.1922581070615305	-0.9886742562790627	-0.4782265368126922	0.3789903348195585	0	0	0	0
0.605	0.2240794102120559	0.5744545769149226	1.021170346959111	0.08744277297866619	-0.5038072454528519	-0.3798216779612893	-0.02921777388814558	-0.1128403060224206	-0.03678443316888716	0.1901146492782218	-0.05304844338285837	0.0268297710724805	0.3184755202858784	0.740133051312207	0.3387615068914181	1.265824440167013	-0.05546505858585989	-1.220461386385595	-0.4386317163052511	-0.05163238832269979	0.5875499276895804	-2.542463922976284	-0.1405842442737889	-0.6359987848243654	-0.6595737916579538	-1.064272956375187	-0.489213247982641	0.3232939940673761	0	0	0	0
0.6105	0.2258558957449426	0.5814451140681927	1.020871845652218	0.08074779310661273	-0.5058126736895546	-0.3800044640801636	-0.02661628611199491	-0.1273838839145918	-0.03758024339571689	0.1864463925887241	-0.055654405507843	0.02082683751824024	0.3157809326815461	0.7417841444564818	0.3099813592289214	1.276211057968257	-0.05262034627240117	-1.215917594562044	-0.2953375587213695	-0.01743142739297377	0.360991271559838	-2.742469839515075	-0.1489350443515332	-0.6980078930259064	-0.2990955936226941	-1.118333255304442	-0.4904040812847864	0.2769259290407807	0	0	0	0
0.616	0.2275194345593509	0.5884931404189812	1.020596588924244	0.07404743013627355	-0.507107907677269	-0.3800419811599872	-0.02521886781384643	-0.1429674340758064	-0.03842418992431365	0.1824355157565746	-0.05646000965085662	0.01453117115261672	0.3130836351871334	0.7431772831087459	0.2976899728992576	1.286729602901	-0.04701248443358126	-1.222418876671311	-0.1803792621276401	0.00119271678661174	0.1497064811433299	-2.920635657173888	-0.1580883540072536	-0.7605879276068679	-0.004898161850312982	-1.170721251423645	-0.4901986625573024	0.2294923606089029	0	0	0	0
0.6215000000000001	0.2292098195685804	0.5955957254365991	1.020371261550432	0.06722786462333179	-0.5079003270933755	-0.3800759138075424	-0.02483240608715043	-0.1594685379022135	-0.03929757135413599	0.1780991920747055	-0.05809812548936438	0.007913279424373931	0.310367111714315	0.7442777848458995	0.3205878557061523	1.296530376671538	-0.03457519901029299	-1.260542342159541	-0.1161670886005206	-0.01549835133101545	-0.01227888392294525	-3.073435655717449	-0.1610171181267583	-0.8177850054185855	-0.4956799805638734	-1.233095733347825	-0.4966670727858504	0.1714023474685606	0	0	0	0
0.627	0.23108541704986	0.6027604942671948	1.020220106712496	0.06014715301714622	-0.5084780778454586	-0.3802340944143964	-0.02538807887435863	-0.1767055954248751	-0.04021201269789278	0.1734230731611666	-0.06086638564958424	0.0009966981662756116	0.307630868188988	0.745070543771138	0.3650399627356327	1.309341898529355	-0.02004065320600034	-1.317381092396327	-0.1023179297555482	-0.04398835932211128	-0.1928878875491093	-3.188255183084666	-0.1730192318015975	-0.8841498300322491	-0.415859733381988	-1.279335625916564	-0.4973695907422052	0.1175858835489525	0	0	0	0
0.6325000000000001	0.2332269258916167	0.6099994474260352	1.020153080272694	0.05273733574901666	-0.509035432791043	-0.3805535065728256	-0.02691893942545853	-0.1945282594971844	-0.04120505908698772	0.1683669789527907	-0.0625418083857414	-0.006141752954605485	0.304899821259805	0.7455704104093398	0.4099600618946572	1.322739498224734	-0.004394627447186373	-1.372803653405621	-0.09359127583405036	-0.06847275958859776	-0.3581675121596953	-3.296224318662191	-0.1876377776772316	-0.9543365889584334	-0.227485063806164	-1.31678602693655	-0.4957394330840675	0.0636103890266175	0	0	0	0
0.638	0.2355539426346075	0.6173077114766007	1.020171083482602	0.0450935496983812	-0.5094331633587813	-0.3809467184441724	-0.02926608870051254	-0.2130026811601378	-0.04227106980022963	0.1629263969072298	-0.06374382317589308	-0.01349148182788634	0.3021777228797065	0.7457639504959549	0.4324973813661936	1.334545859156736	0.0108792194159519	-1.402460649671195	-0.04427270144790681	-0.07082461856495671	-0.4897201508051508	-3.425257943318899	-0.1995517133095751	-1.023963589008584	-0.2437113893799969	-1.356163899516476	-0.4941155728932819	0.006194410244660703	0	0	0	0
0.6435000000000001	0.2379775306023425	0.6246775410752008	1.020274626358288	0.03732031033077178	-0.5095091285653403	-0.3813257655701527	-0.03226833322758654	-0.2322012412962845	-0.04339584709211105	0.1571039431088704	-0.06532881713416644	-0.02104591873083664	0.2994671707551534	0.7456351966612005	0.4511182099276629	1.34533643961851	0.02713000545360846	-1.426564126334368	0.0122454267213294	-0.06921971153551716	-0.6011252372930589	-3.550969838942109	-0.2092714627316232	-1.093433390058136	-0.3151472280154977	-1.389379762443588	-0.4909541741773841	-0.05287190317411281	0	0	0	0
0.649	0.2405416625771041	0.6321057992045316	1.020473443513413	0.02937502924307957	-0.5093469028606031	-0.3817324343982473	-0.0358687874715205	-0.2520076144487852	-0.04457100165920496	0.1508970780402941	-0.06701791164232063	-0.02875789188452535	0.2967836682441902	0.7451839224778328	0.4836042930122188	1.355792597604233	0.04552441193916464	-1.46502127515585	0.0423421753870851	-0.08086887387924914	-0.7072509569360451	-3.646280858356708	-0.2178707224777496	-1.163749505451081	-0.2815661347912115	-1.413449808875894	-0.484279349769691	-0.1110857165238518	0	0	0	0
0.6545000000000001	0.2433011388675831	0.6395896264348434	1.020777144170971	0.02120049494134788	-0.5090543051562778	-0.3822190976089821	-0.0400306625322489	-0.2722868671916244	-0.04578802720392314	0.1443022001253518	-0.0683825960783893	-0.03657998107060215	0.2941447140564311	0.7444124876151789	0.5180187193657372	1.365391436482113	0.06481047930036977	-1.505757838243769	0.06637769684157403	-0.0942763268330641	-0.8033474791043809	-3.727987706310727	-0.2242117738903616	-1.234464548749962	-0.2229497500189853	-1.429954065145249	-0.4749580874366726	-0.1695625704134515	0	0	0	0
0.66	0.2462198164643689	0.6471228204595371	1.02118523995912	0.01283125998192903	-0.5085912204181315	-0.3827494183583073	-0.0446746922951998	-0.2930154224581885	-0.04703213645317541	0.1373171250676023	-0.06956129588116694	-0.04447647247104846	0.2915633342241534	0.7433173424975905	0.5414956771237842	1.373744159197574	0.08348627760872759	-1.535821514314818	0.1043374604129242	-0.09674434245758104	-0.8825799395624093	-3.809663594256711	-0.2277193423083224	-1.305639375562772	-0.2139353590490194	-1.440505159555709	-0.4633432205036896	-0.2287985364999831	0	0	0	0
0.6655000000000001	0.2492519614577087	0.6546987470567568	1.021694741650915	0.004306672796215326	-0.5079071114779626	-0.3832784663453709	-0.04971358021288714	-0.3141695557242722	-0.04828603471977706	0.129941105729266	-0.07070268603632753	-0.0524226713991769	0.2890528595891193	0.7418954990907313	0.5618657471631369	1.380985170262331	0.101738301678595	-1.56601522580065	0.141845763713409	-0.09651712345911231	-0.9458738335256288	-3.878263820199922	-0.2275223552136401	-1.37638264671347	-0.199745187083008	-1.446082918045353	-0.4490069066873392	-0.2880557122137892	0	0	0	0
0.671	0.2524087353769601	0.6623119735676026	1.022303824882566	-0.004416762900293533	-0.5070593373125702	-0.3838207908931868	-0.05503674429720083	-0.3356269929750759	-0.04952694796686046	0.1221787510620609	-0.07174341832589	-0.06035105771064533	0.2866303053916278	0.7401507065548244	0.586815286546156	1.387307764152498	0.1196977466474549	-1.608130063694877	0.1638520877668846	-0.1015721827311615	-0.9859530910628987	-3.919955952336676	-0.2229975170289627	-1.446124949696857	-0.1773324988315252	-1.43402784440662	-0.4313721523064049	-0.3462345834263926	0	0	0	0
0.6765	0.2557011412349118	0.6699563476946074	1.023008711001084	-0.01338470631239332	-0.5061037925347494	-0.3843936350277894	-0.06053403697205464	-0.3572561387836288	-0.05072903659308862	0.1140377593613313	-0.07261103993875294	-0.06821334386274702	0.2843144693130065	0.7380900351977429	0.6087266685794714	1.392112218935083	0.1362012403628809	-1.651623891984725	0.1861555540727842	-0.1056051460431304	-1.011024507242671	-3.944044263836443	-0.2129993178706329	-1.513645493266694	-0.140472096376312	-1.423225103772202	-0.4101171968323136	-0.4027473048935788	0	0	0	0
0.6820000000000001	0.2590860668059091	0.6776213312818328	1.023797382909598	-0.022570145576202	-0.5049837212688166	-0.3849700215777679	-0.06613559675881622	-0.3789988990209693	-0.05185755114242036	0.1055351425664466	-0.0733139754818639	-0.07598717167369988	0.2821259777004316	0.7357243708578013	0.6204588185626951	1.394802113323598	0.1501653066458406	-1.68721946431629	0.2236799016257404	-0.1028603337769255	-1.023868404483902	-3.961270290077618	-0.1962433072484475	-1.57762498393505	-0.1174466552853522	-1.401861174897952	-0.3850650737440757	-0.4571411226482589	0	0	0	0
0.6875	0.2625053067105291	0.6852957096722683	1.024654770128387	-0.03192743109436245	-0.5036189013077711	-0.385509409987117	-0.07177738947352887	-0.4008006516916047	-0.05287628052938238	0.09669104010949212	-0.07389549314166258	-0.08366096568496117	0.2800857768807543	0.7330668679884971	0.6211178144531042	1.395586629453914	0.1610565028228761	-1.71411999841081	0.2743639287598874	-0.09193279952444716	-1.025876139795273	-3.963835230521193	-0.1731314295758617	-1.637603776144924	-0.09352843510358534	-1.381144692394322	-0.3562992396808925	-0.508716305498028	0	0	0	0
0.6930000000000001	0.2658987461095871	0.6929695468146363	1.025562895469651	-0.04141105757607727	-0.5019465157623979	-0.3859664532014557	-0.07740025342478461	-0.4225702366007482	-0.05375020142497418	0.08753039449579071	-0.07433744362308695	-0.09109765178520729	0.2782124818949761	0.7301340712649306	0.6110768165401803	1.394605295844507	0.1686155330006774	-1.733161632881518	0.3355219322903897	-0.07291662650047125	-1.016985217772303	-3.949572922262409	-0.1435856740229127	-1.692731586388464	-0.06669495405833091	-1.315640116346977	-0.3243720432353491	-0.5572479787436477	0	0	0	0
0.6985	0.269224659083461	0.7006332832806452	1.026504973916253	-0.05099483692129976	-0.4999389047751867	-0.3863150740372953	-0.08295258714884753	-0.4441794893354357	-0.05444454378931603	0.07808347946109202	-0.07463414981951649	-0.09821174819668325	0.2765241586707961	0.726945554499943	0.5999757397764739	1.391914730439969	0.1737494667894808	-1.753892771549028	0.3909393569588164	-0.05621315744771907	-1.002048164454507	-3.901297121529514	-0.1078193970453833	-1.740954079470104	-0.04153956509823302	-1.273344439936126	-0.2890277474728815	-0.6012958160746027	0	0	0	0
0.7040000000000001	0.2725164054711162	0.7082773832745698	1.02747184081562	-0.06072635913096267	-0.4976855526029548	-0.3866107422134525	-0.08842281554202751	-0.4654070644805343	-0.05492430111685722	0.06839701743597008	-0.07479813376417152	-0.105126885097715	0.2750390718717038	0.7235299026050596	0.5986526033697727	1.387464760541125	0.1776295158247229	-1.786886310859851	0.424882363206933	-0.05366111388868421	-0.9871287338148824	-3.810781071502833	-0.06555475154994143	-1.779839582905997	-0.01843231704941684	-1.243291203458174	-0.25046788865799	-0.639842571433021	0	0	0	0
0.7095	0.2757949521363182	0.7158917508279683	1.02845390680705	-0.07063421577937247	-0.4952597247218268	-0.3868982477680848	-0.09380153211613355	-0.4860450884643687	-0.05515762796550333	0.05852472594787202	-0.07484625203062235	-0.1118588072070119	0.2737733731637062	0.719919408652141	0.5894376359562636	1.381016806117009	0.178833039127677	-1.811151622814762	0.4619333479040749	-0.04751018440992039	-0.9672654898472332	-3.69295519229357	-0.01882289091572125	-1.807995522075315	0.0005288192022727857	-1.187137710235391	-0.2096027165819867	-0.6718882605861053	0	0	0	0
0.7150000000000001	0.2789550254384136	0.7234643951615022	1.029431828384781	-0.08059601765870666	-0.4925526244783012	-0.387096216304717	-0.09904620609420622	-0.5060185745621866	-0.055126199589468	0.0485320464907394	-0.07479678216346181	-0.1179924295237462	0.2727354601636527	0.7161520683980761	0.5555713804219008	1.372292680590332	0.1761224562978382	-1.806502758468723	0.5271632222605656	-0.02110219825229175	-0.9383859716209314	-3.569130931133219	0.03071987560694732	-1.823617026191287	0.01705427699107937	-1.025727642526338	-0.1676367221328261	-0.696877590031714	0	0	0	0
0.7205	0.2819019843921656	0.7309828582971368	1.030389222290972	-0.09048970190077249	-0.4894816153329531	-0.387138560143034	-0.1041187747366916	-0.5252139083132066	-0.05481729465602556	0.03849772218839906	-0.0746579970527082	-0.1232917986635962	0.2719302263113171	0.712270599416806	0.5191596662604974	1.361307229275727	0.1722757129444452	-1.792796733923214	0.5818884183657862	0.001068986548457618	-0.9067515756909669	-3.396836415470064	0.08157113125167217	-1.821392883317362	0.03221544977089631	-0.935805696873799	-0.1251936660554136	-0.7126340126462317	0	0	0	0
0.7260000000000001	0.2846999874657771	0.7384345211495233	1.031329665464073	-0.10033433917991	-0.4862363204107799	-0.3871354474281582	-0.1090267118772965	-0.5432280809409139	-0.05422933580402454	0.02853891297901461	-0.07445558566461469	-0.1286656823633593	0.2713581309763152	0.7083343425545907	0.5014056058253198	1.348001668500137	0.1699585533561863	-1.788667499222074	0.5905398683788255	-0.004572542545820416	-0.8785199709371433	-3.139617795383236	0.1321940278100673	-1.796156992389145	0.0401911051146767	-1.052823846131068	-0.08285907946600214	-0.7168004558299103	0	0	0	0
0.7314999999999999	0.2874057171778064	0.7458042698710855	1.032256408642154	-0.1101206747636062	-0.4829830068376962	-0.3871977814469647	-0.1137750652206969	-0.5598193609163877	-0.05336886728910032	0.01879340564805939	-0.07420512750431572	-0.1336828743742712	0.2710154691845463	0.7044121636710734	0.4782863201307392	1.331139211208729	0.1664984074508881	-1.761853841883034	0.5967239273876663	-0.01612137571058241	-0.8453876008593234	-2.886827570127341	0.1797142815504416	-1.74177958627951	0.04903054959380481	-0.7801421669816692	-0.04232231575319725	-0.7065891884117337	0	0	0	0
0.737	0.2899148293246147	0.7530686072633682	1.033155201802586	-0.1196251238579942	-0.4796257097484188	-0.3872910795865694	-0.1182955454029083	-0.5749089633310349	-0.05226336136370104	0.009444064488406189	-0.07393664405848541	-0.1373411043007499	0.2708862373226943	0.7005932909294731	0.4299083093813267	1.309670276034917	0.1597949105747544	-1.686163321291802	0.6283520560856709	-0.01583222283612173	-0.7956570032320716	-2.593553227809908	0.221298540710086	-1.652096566461139	0.04674575439880684	-0.5586558154280812	-0.005248195859852893	-0.6792345860418927	0	0	0	0
0.7424999999999999	0.2920968228822283	0.760202150484504	1.034010656341035	-0.1285794784705177	-0.4760456798984811	-0.3873611074114099	-0.1224955222308191	-0.5881680986700325	-0.05095035951003152	0.0006965118091706424	-0.07366314687497146	-0.1408106233610267	0.2709491634269401	0.6969752389105753	0.3596317363356853	1.283516962142289	0.1510187630075689	-1.560292510582548	0.6776207913513531	-0.008402236844901829	-0.728652678521885	-2.231791062479338	0.2542711283221183	-1.520866281360296	0.049668974792742	-0.6614878680229351	0.02716422166020373	-0.6329791281940472	0	0	0	0
0.748	0.2938277446967398	0.7671781805823396	1.034813540451277	-0.1366819371749261	-0.4721262991214972	-0.3873699719489924	-0.1262782240542995	-0.5995009108554991	-0.04948712000748155	-0.007197845215650718	-0.07342371204871398	-0.144160975125856	0.2711744156277774	0.6936683777383343	0.26588222098058	1.252392776653023	0.1406783912266342	-1.376382991068097	0.7517523931934204	0.006408972530423981	-0.6439206379846695	-1.893072081071363	0.2759304130302525	-1.341843601219617	0.03435944266918432	-0.5153222534471502	0.05377947562800296	-0.5660742781667009	0	0	0	0
0.7534999999999999	0.2950288207724645	0.7739740544604119	1.035560420610697	-0.143675289918212	-0.4678499899439024	-0.387316460448292	-0.1295579495831525	-0.6088836870122614	-0.04793841540648531	-0.01398102934157937	-0.07323812724425349	-0.146395003717294	0.2715279716421105	0.6907908808436091	0.175907317090511	1.218843694516557	0.1315753827296038	-1.168047354410192	0.786134580930976	0.007314830098219921	-0.5473589202455016	-1.496190931736107	0.2849096333869252	-1.117668422032763	0.03137428669329517	-0.3142621114270168	0.07340123369763688	-0.4760708547543399	0	0	0	0
0.759	0.2958181058006192	0.7805855668925978	1.036268140537143	-0.1495457809005558	-0.4636672987262672	-0.3873525929917986	-0.13228434520212	-0.6157097996184294	-0.04637869193362138	-0.01941409361007274	-0.07309786308994239	-0.147807171999417	0.2719665929437015	0.688477989452806	0.1161400218642828	1.185352250876176	0.1264383065091963	-0.9680696234528071	0.7177094986626772	-0.02618886172667585	-0.4427097616626546	-0.9633762444916704	0.2799372755275925	-0.850890925788607	0.01787920625122727	-0.2164639591508103	0.08471230735816554	-0.3607631858314136	0	0	0	0
0.7645	0.2963122125703803	0.7870221903288044	1.036954304375566	-0.1543580682455838	-0.4599975165533499	-0.3875813835876378	-0.1344323055447535	-0.6194253783666983	-0.0448722278411048	-0.023386066624193	-0.07307206241108549	-0.1487938880477885	0.2724480547262672	0.6868150421490516	0.05933625585440608	1.156934882244733	0.1229039090253498	-0.7864606121288735	0.6262280055982384	-0.04678648198107647	-0.3406812450326364	-0.3995200384596389	0.2677005517369637	-0.6087582597323183	-0.007437284756223088	-0.1330588932142021	0.08970932772744729	-0.249659636184283	0	0	0	0
0.77	0.2964246165908789	0.7933305153167937	1.037618192553613	-0.15824753084526	-0.4566746068094858	-0.3877548106910191	-0.1360572986005928	-0.6202340641608742	-0.04343582613467094	-0.02627868345137739	-0.07316801480124338	-0.1491687070073024	0.2729461864043823	0.6856688716276235	-0.02266097786749651	1.138698269706217	0.1183380663725524	-0.6324969887794419	0.5915740699160447	-0.006056682651099187	-0.2525398391920177	0.09367573881488886	0.2544600442247912	-0.4583977669028345	-0.02639463702687618	0.006044073161043692	0.09077408755799138	-0.1728443558946368	0	0	0	0
