PathFileType	4	(X/Y/Z)	..\data\2014053\static\2014053_ST.trc
DataRate	CameraRate	NumFrames	NumMarkers	Units	OrigDataRate	OrigDataStartFrame	OrigNumFrames
100.000000	100.000000	2	52	mm	100.000000	0	2
Frame#	Time	L_IAS			L_IPS			R_IPS			R_IAS			L_FTC			L_FLE			L_FME			L_FAX			L_TTC			L_FAL			L_TAM			L_FCC			L_FM1			L_FM2			L_FM5			R_FTC			R_FLE			R_FME			R_FAX			R_TTC			R_FAL			R_TAM			R_FCC			R_FM1			R_FM2			R_FM5			CV7			TV10			SXS			SJN			L_SIA			L_SRS			L_SAA			L_SAE			L_HLE			L_HME			L_UOA			L_RSP			L_UHE			L_HM2			L_HM5			R_SIA			R_SRS			R_SAA			R_SAE			R_HLE			R_HME			R_UOA			R_RSP			R_UHE			R_HM2			R_HM5			
		X1	Y1	Z1	X2	Y2	Z2	X3	Y3	Z3	X4	Y4	Z4	X5	Y5	Z5	X6	Y6	Z6	X7	Y7	Z7	X8	Y8	Z8	X9	Y9	Z9	X10	Y10	Z10	X11	Y11	Z11	X12	Y12	Z12	X13	Y13	Z13	X14	Y14	Z14	X15	Y15	Z15	X16	Y16	Z16	X17	Y17	Z17	X18	Y18	Z18	X19	Y19	Z19	X20	Y20	Z20	X21	Y21	Z21	X22	Y22	Z22	X23	Y23	Z23	X24	Y24	Z24	X25	Y25	Z25	X26	Y26	Z26	X27	Y27	Z27	X28	Y28	Z28	X29	Y29	Z29	X30	Y30	Z30	X31	Y31	Z31	X32	Y32	Z32	X33	Y33	Z33	X34	Y34	Z34	X35	Y35	Z35	X36	Y36	Z36	X37	Y37	Z37	X38	Y38	Z38	X39	Y39	Z39	X40	Y40	Z40	X41	Y41	Z41	X42	Y42	Z42	X43	Y43	Z43	X44	Y44	Z44	X45	Y45	Z45	X46	Y46	Z46	X47	Y47	Z47	X48	Y48	Z48	X49	Y49	Z49	X50	Y50	Z50	X51	Y51	Z51	X52	Y52	Z52	

1	0	851.432067871094	954.7791748046877	-337.1204528808594	642.2879028320314	985.7606201171877	-278.2630310058594	640.1418457031251	990.0031738281252	-176.3003540039063	845.6105957031252	963.9046630859377	-109.4471206665039	774.229187011719	889.2333984375002	-418.9420776367189	745.1628417968751	488.4568176269532	-411.683074951172	729.6530761718751	472.4778442382814	-278.9621582031251	714.3863525390626	428.6066894531251	-423.7723388671876	776.589294433594	410.8100585937501	-360.2137756347657	696.3570556640626	70.74836730957033	-411.5653686523439	721.8299560546876	74.31966400146486	-326.5003967285157	655.4783935546876	16.20004844665528	-359.0731201171876	844.9298095703127	18.74674797058106	-321.2325134277344	859.8826293945315	35.60303115844727	-377.1377563476563	813.338562011719	18.90143966674805	-437.3542480468751	762.0992431640626	896.1267089843752	-27.1444206237793	751.4700317382814	499.7668762207032	-43.15096282958985	738.4346923828126	474.3052978515626	-178.5576782226563	719.1006469726564	438.1246643066407	-36.96129989624024	783.9754638671877	410.809295654297	-92.26393127441408	692.8683471679689	66.06753540039064	-47.82084274291993	720.4879760742189	68.9336624145508	-132.60498046875	651.8320922851564	17.16169738769532	-109.7748107910157	843.660095214844	19.05935096740723	-121.363395690918	857.4392700195315	34.73891830444337	-66.64412689208986	809.3083496093752	21.10399055480957	-8.894687652587892	686.2540283203126	1459.1708984375	-239.2537841796876	647.6019897460939	1229.984741210938	-237.5692138671876	863.2757568359377	1183.864379882813	-244.3836517333985	800.6589965820315	1394.8388671875	-244.7958984375001	630.3736572265626	1274.8525390625	-320.0998229980469	644.7143554687501	1396.69091796875	-322.0101623535157	694.4669799804689	1402.437866210938	-422.0559692382814	740.4512939453126	1407.045166015625	-427.4278564453126	704.6676635742189	1084.735717773438	-446.128143310547	741.6876831054689	1077.8955078125	-372.3937072753907	710.5786132812501	1052.438110351563	-398.2324523925782	811.4678344726565	869.3491210937502	-529.6702270507814	758.2286376953126	857.534362792969	-485.5668334960939	799.973815917969	795.836364746094	-575.3825073242189	766.3067626953126	780.8524169921877	-488.546600341797	626.4900512695314	1277.373168945313	-145.8010559082032	648.1950683593751	1398.687866210938	-155.4124755859375	700.6672973632814	1412.180908203125	-71.65470123291017	745.7578735351564	1412.439697265625	-51.75741195678712	712.3020629882814	1093.431640625	-28.51655960083009	757.1733398437501	1087.614379882813	-91.05767822265626	726.1348876953126	1062.595458984375	-72.5886688232422	785.8638305664065	879.500671386719	86.25868225097658	748.8619384765626	866.861022949219	30.09099578857423	778.293395996094	799.643737792969	129.9991149902344	763.2301635742189	789.1545410156252	34.16443634033204	
2	1	851.432067871094	954.7791748046877	-337.1204528808594	642.2879028320314	985.7606201171877	-278.2630310058594	640.1418457031251	990.0031738281252	-176.3003540039063	845.6105957031252	963.9046630859377	-109.4471206665039	774.229187011719	889.2333984375002	-418.9420776367189	745.1628417968751	488.4568176269532	-411.683074951172	729.6530761718751	472.4778442382814	-278.9621582031251	714.3863525390626	428.6066894531251	-423.7723388671876	776.589294433594	410.8100585937501	-360.2137756347657	696.3570556640626	70.74836730957033	-411.5653686523439	721.8299560546876	74.31966400146486	-326.5003967285157	655.4783935546876	16.20004844665528	-359.0731201171876	844.9298095703127	18.74674797058106	-321.2325134277344	859.8826293945315	35.60303115844727	-377.1377563476563	813.338562011719	18.90143966674805	-437.3542480468751	762.0992431640626	896.1267089843752	-27.1444206237793	751.4700317382814	499.7668762207032	-43.15096282958985	738.4346923828126	474.3052978515626	-178.5576782226563	719.1006469726564	438.1246643066407	-36.96129989624024	783.9754638671877	410.809295654297	-92.26393127441408	692.8683471679689	66.06753540039064	-47.82084274291993	720.4879760742189	68.9336624145508	-132.60498046875	651.8320922851564	17.16169738769532	-109.7748107910157	843.660095214844	19.05935096740723	-121.363395690918	857.4392700195315	34.73891830444337	-66.64412689208986	809.3083496093752	21.10399055480957	-8.894687652587892	686.2540283203126	1459.1708984375	-239.2537841796876	647.6019897460939	1229.984741210938	-237.5692138671876	863.2757568359377	1183.864379882813	-244.3836517333985	800.6589965820315	1394.8388671875	-244.7958984375001	630.3736572265626	1274.8525390625	-320.0998229980469	644.7143554687501	1396.69091796875	-322.0101623535157	694.4669799804689	1402.437866210938	-422.0559692382814	740.4512939453126	1407.045166015625	-427.4278564453126	704.6676635742189	1084.735717773438	-446.128143310547	741.6876831054689	1077.8955078125	-372.3937072753907	710.5786132812501	1052.438110351563	-398.2324523925782	811.4678344726565	869.3491210937502	-529.6702270507814	758.2286376953126	857.534362792969	-485.5668334960939	799.973815917969	795.836364746094	-575.3825073242189	766.3067626953126	780.8524169921877	-488.546600341797	626.4900512695314	1277.373168945313	-145.8010559082032	648.1950683593751	1398.687866210938	-155.4124755859375	700.6672973632814	1412.180908203125	-71.65470123291017	745.7578735351564	1412.439697265625	-51.75741195678712	712.3020629882814	1093.431640625	-28.51655960083009	757.1733398437501	1087.614379882813	-91.05767822265626	726.1348876953126	1062.595458984375	-72.5886688232422	785.8638305664065	879.500671386719	86.25868225097658	748.8619384765626	866.861022949219	30.09099578857423	778.293395996094	799.643737792969	129.9991149902344	763.2301635742189	789.1545410156252	34.16443634033204	
